"STATION","DATE","SOURCE","LATITUDE","LONGITUDE","ELEVATION","NAME","REPORT_TYPE","CALL_SIGN","QUALITY_CONTROL","WND","CIG","VIS","TMP","DEW","SLP","GA1","GA2","GE1","GF1","MA1","MW1","MW2","OC1","REM","EQD"
"80222599999","2023-01-01T11:00:00","4","6.95","-71.85","213.0","LOS COLONIZADORES, CO","FM-15","99999","V020","250,1,N,0015,1","22000,1,9,N","009999,1,9,9","+0200,1","+0180,1","99999,9",,,,"00,99,1,99,9,99,9,99999,9,99,9,99,9","10130,1,99999,9",,,,"MET058METAR SKSA 011100Z 25003KT 9999 NSC 20/18 Q1013 RMK A2992=",
"80222599999","2023-01-01T14:00:00","4","6.95","-71.85","213.0","LOS COLONIZADORES, CO","FM-15","99999","V020","999,9,V,0010,1","22000,1,9,N","009999,1,9,9","+0270,1","+0180,1","99999,9",,,,"00,99,1,99,9,99,9,99999,9,99,9,99,9","10150,1,99999,9",,,,"MET058METAR SKSA 011400Z VRB02KT 9999 NSC 27/18 Q1015 RMK A2999=",
"80222599999","2023-01-01T15:00:00","4","6.95","-71.85","213.0","LOS COLONIZADORES, CO","FM-15","99999","V020","090,1,N,0015,1","22000,1,9,N","009999,1,9,9","+0280,1","+0180,1","99999,9",,,,"00,99,1,99,9,99,9,99999,9,99,9,99,9","10150,1,99999,9",,,,"MET058METAR SKSA 011500Z 09003KT 9999 NSC 28/18 Q1015 RMK A2999=",
"80222599999","2023-01-01T22:00:00","4","6.95","-71.85","213.0","LOS COLONIZADORES, CO","FM-15","99999","V020","030,1,N,0015,1","99999,9,9,N","009999,1,9,9","+0300,1","+0210,1","99999,9","04,1,+01219,1,99,9",,"9,AGL   ,+99999,+99999","99,99,9,04,1,99,9,01219,1,99,9,99,9","10120,1,99999,9",,,,"MET061METAR SKSA 012200Z 03003KT 9999 SCT040 30/21 Q1012 RMK A2989=",
"80222599999","2023-01-02T11:00:00","4","6.95","-71.85","213.0","LOS COLONIZADORES, CO","FM-15","99999","V020","290,1,N,0026,1","01524,1,C,N","003000,1,9,9","+0210,1","+0210,1","99999,9","07,1,+01524,1,99,9",,"9,AGL   ,+99999,+99999","99,99,9,07,1,99,9,01524,1,99,9,99,9","10130,1,99999,9",,,,"MET061METAR SKSA 021100Z 29005KT 3000 BKN050 21/21 Q1013 RMK A2993=",
"80222599999","2023-01-02T12:00:00","4","6.95","-71.85","213.0","LOS COLONIZADORES, CO","FM-15","99999","V020","010,1,N,0031,1","01219,1,C,N","009999,1,9,9","+0220,1","+0210,1","99999,9","07,1,+01219,1,99,9",,"9,AGL   ,+99999,+99999","99,99,9,07,1,99,9,01219,1,99,9,99,9","10130,1,99999,9",,,,"MET061METAR SKSA 021200Z 01006KT 9999 BKN040 22/21 Q1013 RMK A2993=",
"80222599999","2023-01-02T14:00:00","4","6.95","-71.85","213.0","LOS COLONIZADORES, CO","FM-15","99999","V020","999,9,C,0000,1","00610,1,C,N","003000,1,9,9","+0210,1","+0210,1","99999,9","07,1,+00610,1,99,9",,"9,AGL   ,+99999,+99999","99,99,9,07,1,99,9,00610,1,99,9,99,9","10160,1,99999,9","63,1",,,"MET064METAR SKSA 021400Z 00000KT 3000 RA BKN020 21/21 Q1016 RMK A3002=",
"80222599999","2023-01-03T11:00:00","4","6.95","-71.85","213.0","LOS COLONIZADORES, CO","FM-15","99999","V020","360,1,N,0015,1","99999,9,9,N","009999,1,9,9","+0220,1","+0210,1","99999,9","04,1,+02743,1,99,9",,"9,AGL   ,+99999,+99999","99,99,9,04,1,99,9,02743,1,99,9,99,9","10130,1,99999,9",,,,"MET061METAR SKSA 031100Z 36003KT 9999 SCT090 22/21 Q1013 RMK A2993=",
"80222599999","2023-01-03T12:00:00","4","6.95","-71.85","213.0","LOS COLONIZADORES, CO","FM-15","99999","V020","070,1,N,0015,1","99999,9,9,N","009999,1,9,9","+0220,1","+0210,1","99999,9","04,1,+02743,1,99,9",,"9,AGL   ,+99999,+99999","99,99,9,04,1,99,9,02743,1,99,9,99,9","10130,1,99999,9",,,,"MET061METAR SKSA 031200Z 07003KT 9999 SCT090 22/21 Q1013 RMK A2993=",
"80222599999","2023-01-03T13:00:00","4","6.95","-71.85","213.0","LOS COLONIZADORES, CO","FM-15","99999","V020","070,1,N,0015,1","99999,9,9,N","009999,1,9,9","+0220,1","+0210,1","99999,9","04,1,+02743,1,99,9",,"9,AGL   ,+99999,+99999","99,99,9,04,1,99,9,02743,1,99,9,99,9","10130,1,99999,9",,,,"MET061METAR SKSA 031300Z 07003KT 9999 SCT090 22/21 Q1013 RMK A2993=",
"80222599999","2023-01-03T14:00:00","4","6.95","-71.85","213.0","LOS COLONIZADORES, CO","FM-15","99999","V020","999,9,C,0000,1","99999,9,9,N","009999,1,9,9","+0240,1","+0210,1","99999,9","04,1,+02743,1,99,9",,"9,AGL   ,+99999,+99999","99,99,9,04,1,99,9,02743,1,99,9,99,9","10130,1,99999,9",,,,"MET061METAR SKSA 031400Z 00000KT 9999 SCT090 24/21 Q1013 RMK A2993=",
"80222599999","2023-01-03T21:00:00","4","6.95","-71.85","213.0","LOS COLONIZADORES, CO","FM-15","99999","V020","310,1,N,0015,1","22000,1,9,N","009999,1,9,9","+0270,1","+0220,1","99999,9",,,,"00,99,1,99,9,99,9,99999,9,99,9,99,9","10110,1,99999,9",,,,"MET058METAR SKSA 032100Z 31003KT 9999 NSC 27/22 Q1011 RMK A2987=",
"80222599999","2023-01-04T16:00:00","4","6.95","-71.85","213.0","LOS COLONIZADORES, CO","FM-15","99999","V020","260,1,N,0021,1","00610,1,C,N","008000,1,9,9","+0220,1","+0210,1","99999,9","08,1,+00610,1,99,9",,"9,AGL   ,+99999,+99999","99,99,9,08,1,99,9,00610,1,99,9,99,9","10170,1,99999,9","61,1",,,"MET065METAR SKSA 041600Z 26004KT 8000 -RA OVC020 22/21 Q1017 RMK A3003=",
"80222599999","2023-01-04T20:00:00","4","6.95","-71.85","213.0","LOS COLONIZADORES, CO","FM-15","99999","V020","270,1,N,0021,1","99999,9,9,N","009999,1,9,9","+0260,1","+0210,1","99999,9","04,1,+01829,1,99,9",,"9,AGL   ,+99999,+99999","99,99,9,04,1,99,9,01829,1,99,9,99,9","10120,1,99999,9",,,,"MET061METAR SKSA 042000Z 27004KT 9999 SCT060 26/21 Q1012 RMK A2989=",
"80222599999","2023-01-05T16:00:00","4","6.95","-71.85","213.0","LOS COLONIZADORES, CO","FM-15","99999","V020","340,1,N,0046,1","99999,9,9,N","009999,1,9,9","+0280,1","+0200,1","99999,9","04,1,+02438,1,99,9",,"9,AGL   ,+99999,+99999","99,99,9,04,1,99,9,02438,1,99,9,99,9","10160,1,99999,9",,,,"MET061METAR SKSA 051600Z 34009KT 9999 SCT080 28/20 Q1016 RMK A3000=",
"80222599999","2023-01-05T19:00:00","4","6.95","-71.85","213.0","LOS COLONIZADORES, CO","FM-15","99999","V020","310,1,N,0036,1","99999,9,9,N","009999,1,9,9","+0300,1","+0190,1","99999,9","02,1,+02438,1,99,9",,"9,AGL   ,+99999,+99999","99,99,9,02,1,99,9,02438,1,99,9,99,9","10120,1,99999,9",,,,"MET061METAR SKSA 051900Z 31007KT 9999 FEW080 30/19 Q1012 RMK A2990=",
"80222599999","2023-01-05T21:00:00","4","6.95","-71.85","213.0","LOS COLONIZADORES, CO","FM-15","99999","V020","340,1,N,0021,1","99999,9,9,N","009999,1,9,9","+0280,1","+0200,1","99999,9","02,1,+02438,1,99,9",,"9,AGL   ,+99999,+99999","99,99,9,02,1,99,9,02438,1,99,9,99,9","10110,1,99999,9",,,,"MET061METAR SKSA 052100Z 34004KT 9999 FEW080 28/20 Q1011 RMK A2987=",
"80222599999","2023-01-05T23:00:00","4","6.95","-71.85","213.0","LOS COLONIZADORES, CO","FM-15","99999","V020","290,1,N,0015,1","99999,9,9,N","009999,1,9,9","+0270,1","+0200,1","99999,9","02,1,+02743,1,99,9",,"9,AGL   ,+99999,+99999","99,99,9,02,1,99,9,02743,1,99,9,99,9","10110,1,99999,9",,,,"MET061METAR SKSA 052300Z 29003KT 9999 FEW090 27/20 Q1011 RMK A2987=",
"80222599999","2023-01-06T11:00:00","4","6.95","-71.85","213.0","LOS COLONIZADORES, CO","FM-15","99999","V020","330,1,N,0015,1","99999,9,9,N","009999,1,9,9","+0210,1","+0180,1","99999,9","04,1,+02438,1,99,9",,"9,AGL   ,+99999,+99999","99,99,9,04,1,99,9,02438,1,99,9,99,9","10130,1,99999,9",,,,"MET061METAR SKSA 061100Z 33003KT 9999 SCT080 21/18 Q1013 RMK A2992=",
"80222599999","2023-01-06T12:00:00","4","6.95","-71.85","213.0","LOS COLONIZADORES, CO","FM-15","99999","V020","310,1,N,0021,1","99999,9,9,N","009999,1,9,9","+0230,1","+0180,1","99999,9","04,1,+02438,1,99,9",,"9,AGL   ,+99999,+99999","99,99,9,04,1,99,9,02438,1,99,9,99,9","10140,1,99999,9",,,,"MET061METAR SKSA 061200Z 31004KT 9999 SCT080 23/18 Q1014 RMK A2995=",
"80222599999","2023-01-06T13:00:00","4","6.95","-71.85","213.0","LOS COLONIZADORES, CO","FM-15","99999","V020","340,1,N,0026,1","99999,9,9,N","009999,1,9,9","+0250,1","+0190,1","99999,9","04,1,+02743,1,99,9",,"9,AGL   ,+99999,+99999","99,99,9,04,1,99,9,02743,1,99,9,99,9","10150,1,99999,9","16,5",,,"MET076METAR SKSA 061300Z 34005KT 9999 VCRA SCT090 25/19 Q1015 RMK VCRA/W/SW A2998=","D01      0ADE735"
"80222599999","2023-01-07T11:00:00","4","6.95","-71.85","213.0","LOS COLONIZADORES, CO","FM-15","99999","V020","300,1,N,0010,1","99999,9,9,N","009999,1,9,9","+0220,1","+0210,1","99999,9","04,1,+03048,1,99,9",,"9,AGL   ,+99999,+99999","99,99,9,04,1,99,9,03048,1,99,9,99,9","10130,1,99999,9",,,,"MET061METAR SKSA 071100Z 30002KT 9999 SCT100 22/21 Q1013 RMK A2991=",
"80222599999","2023-01-07T17:00:00","4","6.95","-71.85","213.0","LOS COLONIZADORES, CO","FM-15","99999","V020","240,1,N,0015,1","01219,1,C,N","009999,1,9,9","+0230,1","+0210,1","99999,9","08,1,+01219,1,99,9",,"9,AGL   ,+99999,+99999","99,99,9,08,1,99,9,01219,1,99,9,99,9","10150,1,99999,9","16,5",,,"MET074METAR SKSA 071700Z 24003KT 9999 VCRA OVC040 23/21 Q1015 RMK VCRA/SW A2998=","D01      0ADE735"
"80222599999","2023-01-08T15:00:00","4","6.95","-71.85","213.0","LOS COLONIZADORES, CO","FM-15","99999","V020","999,9,V,0010,1","02438,1,C,N","009999,1,9,9","+0240,1","+0210,1","99999,9","08,1,+02438,1,99,9",,"9,AGL   ,+99999,+99999","99,99,9,08,1,99,9,02438,1,99,9,99,9","10170,1,99999,9",,,,"MET061METAR SKSA 081500Z VRB02KT 9999 OVC080 24/21 Q1017 RMK A3004=",
"80222599999","2023-01-08T22:00:00","4","6.95","-71.85","213.0","LOS COLONIZADORES, CO","FM-15","99999","V020","010,1,N,0041,1","99999,9,9,N","009999,1,9,9","+0250,1","+0210,1","99999,9","04,1,+02743,1,99,9",,"9,AGL   ,+99999,+99999","99,99,9,04,1,99,9,02743,1,99,9,99,9","10120,1,99999,9",,,,"MET061METAR SKSA 082200Z 01008KT 9999 SCT090 25/21 Q1012 RMK A2989=",
"80222599999","2023-01-09T12:00:00","4","6.95","-71.85","213.0","LOS COLONIZADORES, CO","FM-15","99999","V020","300,1,N,0026,1","02438,1,C,N","009999,1,9,9","+0240,1","+0190,1","99999,9","07,1,+02438,1,99,9",,"9,AGL   ,+99999,+99999","99,99,9,07,1,99,9,02438,1,99,9,99,9","10140,1,99999,9",,,,"MET061METAR SKSA 091200Z 30005KT 9999 BKN080 24/19 Q1014 RMK A2995=",
"80222599999","2023-01-09T14:00:00","4","6.95","-71.85","213.0","LOS COLONIZADORES, CO","FM-15","99999","V020","310,1,N,0015,1","01829,1,C,N","009999,1,9,9","+0260,1","+0200,1","99999,9","07,1,+01829,1,99,9",,"9,AGL   ,+99999,+99999","99,99,9,07,1,99,9,01829,1,99,9,99,9","10150,1,99999,9",,,,"MET061METAR SKSA 091400Z 31003KT 9999 BKN060 26/20 Q1015 RMK A2999=",
"80222599999","2023-01-09T16:00:00","4","6.95","-71.85","213.0","LOS COLONIZADORES, CO","FM-15","99999","V020","360,1,N,0021,1","01829,1,C,N","009999,1,9,9","+0290,1","+0190,1","99999,9","08,1,+01829,1,99,9",,"9,AGL   ,+99999,+99999","99,99,9,08,1,99,9,01829,1,99,9,99,9","10150,1,99999,9",,,,"MET061METAR SKSA 091600Z 36004KT 9999 OVC060 29/19 Q1015 RMK A2998=",
"80222599999","2023-01-09T18:00:00","4","6.95","-71.85","213.0","LOS COLONIZADORES, CO","FM-15","99999","V020","360,1,N,0036,1","99999,9,9,N","009999,1,9,9","+0310,1","+0210,1","99999,9","04,1,+02134,1,99,9",,"9,AGL   ,+99999,+99999","99,99,9,04,1,99,9,02134,1,99,9,99,9","10120,1,99999,9",,,,"MET061METAR SKSA 091800Z 36007KT 9999 SCT070 31/21 Q1012 RMK A2990=",
"80222599999","2023-01-11T23:00:00","4","6.95","-71.85","213.0","LOS COLONIZADORES, CO","FM-15","99999","V020","999,9,N,9999,9","99999,9,9,N","011265,5,9,9","+0270,5","+0220,5","99999,9",,,,,"10100,5,99999,9",,,,"MET060METAR SKSA 112300Z 0000KT 9999 FEW100 27/22 Q1010 RMK A2983=","D01      0ADE693D02      0ADE539"
"80222599999","2023-01-12T11:00:00","4","6.95","-71.85","213.0","LOS COLONIZADORES, CO","FM-15","99999","V020","320,1,N,0015,1","02134,1,C,N","009999,1,9,9","+0230,1","+0210,1","99999,9","07,1,+02134,1,99,9",,"9,AGL   ,+99999,+99999","99,99,9,07,1,99,9,02134,1,99,9,99,9","10130,1,99999,9",,,,"MET061METAR SKSA 121100Z 32003KT 9999 BKN070 23/21 Q1013 RMK A2992=",
"80222599999","2023-01-12T15:00:00","4","6.95","-71.85","213.0","LOS COLONIZADORES, CO","FM-15","99999","V020","090,1,N,0015,1","01524,1,C,N","009999,1,9,9","+0280,1","+0220,1","99999,9","08,1,+01524,1,99,9",,"9,AGL   ,+99999,+99999","99,99,9,08,1,99,9,01524,1,99,9,99,9","10160,1,99999,9",,,,"MET061METAR SKSA 121500Z 09003KT 9999 OVC050 28/22 Q1016 RMK A3000=",
"80222599999","2023-01-13T11:00:00","4","6.95","-71.85","213.0","LOS COLONIZADORES, CO","FM-15","99999","V020","999,9,V,0010,1","02743,1,C,N","009999,1,9,9","+0230,1","+0200,1","99999,9","08,1,+02743,1,99,9",,"9,AGL   ,+99999,+99999","99,99,9,08,1,99,9,02743,1,99,9,99,9","10120,1,99999,9",,,,"MET061METAR SKSA 131100Z VRB02KT 9999 OVC090 23/20 Q1012 RMK A2989=",
"80222599999","2023-01-13T20:00:00","4","6.95","-71.85","213.0","LOS COLONIZADORES, CO","FM-15","99999","V020","050,1,N,0026,1","99999,9,9,N","009999,1,9,9","+0310,1","+0210,1","99999,9","04,1,+01524,1,99,9",,"9,AGL   ,+99999,+99999","99,99,9,04,1,99,9,01524,1,99,9,99,9","10090,1,99999,9",,,,"MET061METAR SKSA 132000Z 05005KT 9999 SCT050 31/21 Q1009 RMK A2980=",
"80222599999","2023-01-14T11:00:00","4","6.95","-71.85","213.0","LOS COLONIZADORES, CO","FM-15","99999","V020","999,9,V,0010,1","99999,9,9,N","009999,1,9,9","+0210,1","+0200,1","99999,9","04,1,+02743,1,99,9",,"9,AGL   ,+99999,+99999","99,99,9,04,1,99,9,02743,1,99,9,99,9","10120,1,99999,9",,,,"MET061METAR SKSA 141100Z VRB02KT 9999 SCT090 21/20 Q1012 RMK A2989=",
"80222599999","2023-01-15T12:00:00","4","6.95","-71.85","213.0","LOS COLONIZADORES, CO","FM-15","99999","V020","330,1,N,0015,1","01829,1,C,N","009999,1,9,9","+0240,1","+0220,1","99999,9","07,1,+01829,1,99,9",,"9,AGL   ,+99999,+99999","99,99,9,07,1,99,9,01829,1,99,9,99,9","10140,1,99999,9",,,,"MET061METAR SKSA 151200Z 33003KT 9999 BKN060 24/22 Q1014 RMK A2994=",
"80222599999","2023-01-16T11:00:00","4","6.95","-71.85","213.0","LOS COLONIZADORES, CO","FM-15","99999","V020","999,9,V,0010,1","01829,1,C,N","009999,1,9,9","+0230,1","+0210,1","99999,9","07,1,+01829,1,99,9",,"9,AGL   ,+99999,+99999","99,99,9,07,1,99,9,01829,1,99,9,99,9","10120,1,99999,9",,,,"MET061METAR SKSA 161100Z VRB02KT 9999 BKN060 23/21 Q1012 RMK A2989=",
"80222599999","2023-01-16T12:00:00","4","6.95","-71.85","213.0","LOS COLONIZADORES, CO","FM-15","99999","V020","999,9,V,0010,1","02134,1,C,N","009999,1,9,9","+0230,1","+0220,1","99999,9","07,1,+02134,1,99,9",,"9,AGL   ,+99999,+99999","99,99,9,07,1,99,9,02134,1,99,9,99,9","10130,1,99999,9",,,,"MET061METAR SKSA 161200Z VRB02KT 9999 BKN070 23/22 Q1013 RMK A2991=",
"80222599999","2023-01-17T11:00:00","4","6.95","-71.85","213.0","LOS COLONIZADORES, CO","FM-15","99999","V020","999,9,V,0010,1","99999,9,9,N","009999,1,9,9","+0220,1","+0210,1","99999,9","04,1,+02134,1,99,9",,"9,AGL   ,+99999,+99999","99,99,9,04,1,99,9,02134,1,99,9,99,9","10110,1,99999,9",,,,"MET061METAR SKSA 171100Z VRB02KT 9999 SCT070 22/21 Q1011 RMK A2985=",
"80222599999","2023-01-18T11:00:00","4","6.95","-71.85","213.0","LOS COLONIZADORES, CO","FM-15","99999","V020","999,9,V,0010,1","01829,1,C,N","009999,1,9,9","+0220,1","+0210,1","99999,9","07,1,+01829,1,99,9",,"9,AGL   ,+99999,+99999","99,99,9,07,1,99,9,01829,1,99,9,99,9","10120,1,99999,9",,,,"MET061METAR SKSA 181100Z VRB02KT 9999 BKN060 22/21 Q1012 RMK A2989=",
"80222599999","2023-01-18T14:00:00","4","6.95","-71.85","213.0","LOS COLONIZADORES, CO","FM-15","99999","V020","290,1,N,0015,1","01524,1,C,N","009999,1,9,9","+0250,1","+0210,1","99999,9","08,1,+01524,1,99,9",,"9,AGL   ,+99999,+99999","99,99,9,08,1,99,9,01524,1,99,9,99,9","10150,1,99999,9",,,,"MET061METAR SKSA 181400Z 29003KT 9999 OVC050 25/21 Q1015 RMK A2997=",
"80222599999","2023-01-18T15:00:00","4","6.95","-71.85","213.0","LOS COLONIZADORES, CO","FM-15","99999","V020","330,1,N,0015,1","01524,1,C,N","008000,1,9,9","+0250,1","+0210,1","99999,9","08,1,+01524,1,99,9",,"9,AGL   ,+99999,+99999","99,99,9,08,1,99,9,01524,1,99,9,99,9","10150,1,99999,9","63,5",,,"MET074METAR SKSA 181500Z 33003KT 8000 VCRA OVC050 25/21 Q1015 RMK VCRA SW A2998=","D01      0ADE735"
"80222599999","2023-01-19T11:00:00","4","6.95","-71.85","213.0","LOS COLONIZADORES, CO","FM-15","99999","V020","310,1,N,0015,1","99999,9,9,N","009999,1,9,9","+0220,1","+0190,1","99999,9","02,1,+02438,1,99,9",,"9,AGL   ,+99999,+99999","99,99,9,02,1,99,9,02438,1,99,9,99,9","10130,1,99999,9",,,,"MET061METAR SKSA 191100Z 31003KT 9999 FEW080 22/19 Q1013 RMK A2992=",
"80222599999","2023-01-19T13:00:00","4","6.95","-71.85","213.0","LOS COLONIZADORES, CO","FM-15","99999","V020","050,1,N,0021,1","02743,1,C,N","009999,1,9,9","+0230,1","+0200,1","99999,9","08,1,+02743,1,99,9",,"9,AGL   ,+99999,+99999","99,99,9,08,1,99,9,02743,1,99,9,99,9","10160,1,99999,9",,,,"MET061METAR SKSA 191300Z 05004KT 9999 OVC090 23/20 Q1016 RMK A3000=",
"80222599999","2023-01-20T11:00:00","4","6.95","-71.85","213.0","LOS COLONIZADORES, CO","FM-15","99999","V020","310,1,N,0015,1","99999,9,9,N","009999,1,9,9","+0210,1","+0160,1","99999,9","04,1,+01524,1,99,9",,"9,AGL   ,+99999,+99999","99,99,9,04,1,99,9,01524,1,99,9,99,9","10130,1,99999,9",,,,"MET061METAR SKSA 201100Z 31003KT 9999 SCT050 21/16 Q1013 RMK A2993=",
"80222599999","2023-01-20T13:00:00","4","6.95","-71.85","213.0","LOS COLONIZADORES, CO","FM-15","99999","V020","340,1,N,0015,1","02134,1,C,N","009999,1,9,9","+0220,1","+0180,1","99999,9","07,1,+02134,1,99,9",,"9,AGL   ,+99999,+99999","99,99,9,07,1,99,9,02134,1,99,9,99,9","10160,1,99999,9",,,,"MET061METAR SKSA 201300Z 34003KT 9999 BKN070 22/18 Q1016 RMK A3000=",
"80222599999","2023-01-20T19:00:00","4","6.95","-71.85","213.0","LOS COLONIZADORES, CO","FM-15","99999","V020","999,9,V,0010,1","99999,9,9,N","009999,1,9,9","+0290,1","+0190,1","99999,9","04,1,+02134,1,99,9",,"9,AGL   ,+99999,+99999","99,99,9,04,1,99,9,02134,1,99,9,99,9","10130,1,99999,9",,,,"MET061METAR SKSA 201900Z VRB02KT 9999 SCT070 29/19 Q1013 RMK A2992=",
"80222599999","2023-01-21T11:00:00","4","6.95","-71.85","213.0","LOS COLONIZADORES, CO","FM-15","99999","V020","310,1,N,0015,1","99999,9,9,N","009999,1,9,9","+0190,1","+0160,1","99999,9","04,1,+02438,1,99,9",,"9,AGL   ,+99999,+99999","99,99,9,04,1,99,9,02438,1,99,9,99,9","10140,1,99999,9",,,,"MET061METAR SKSA 211100Z 31003KT 9999 SCT080 19/16 Q1014 RMK A2994=",
"80222599999","2023-01-21T23:00:00","4","6.95","-71.85","213.0","LOS COLONIZADORES, CO","FM-15","99999","V020","999,9,C,0000,1","22000,1,9,N","009999,1,9,9","+0250,1","+0110,1","99999,9",,,,"00,99,1,99,9,99,9,99999,9,99,9,99,9","10100,1,99999,9",,,,"MET058METAR SKSA 212300Z 00000KT 9999 NSC 25/11 Q1010 RMK A2983=",
"80222599999","2023-01-22T14:00:00","4","6.95","-71.85","213.0","LOS COLONIZADORES, CO","FM-15","99999","V020","270,1,N,0015,1","99999,9,9,N","009999,1,9,9","+0260,1","+0180,1","99999,9","04,1,+02134,1,99,9",,"9,AGL   ,+99999,+99999","99,99,9,04,1,99,9,02134,1,99,9,99,9","10170,1,99999,9",,,,"MET061METAR SKSA 221400Z 27003KT 9999 SCT070 26/18 Q1017 RMK A3001=",
"80222599999","2023-01-22T16:00:00","4","6.95","-71.85","213.0","LOS COLONIZADORES, CO","FM-15","99999","V020","330,1,N,0015,1","99999,9,9,N","009999,1,9,9","+0270,1","+0190,1","99999,9","04,1,+01524,1,99,9",,"9,AGL   ,+99999,+99999","99,99,9,04,1,99,9,01524,1,99,9,99,9","10150,1,99999,9",,,,"MET061METAR SKSA 221600Z 33003KT 9999 SCT050 27/19 Q1015 RMK A2998=",
"80222599999","2023-01-22T18:00:00","4","6.95","-71.85","213.0","LOS COLONIZADORES, CO","FM-15","99999","V020","330,1,N,0026,1","99999,9,9,N","009999,1,9,9","+0300,1","+0190,1","99999,9","04,1,+01524,1,99,9",,"9,AGL   ,+99999,+99999","99,99,9,04,1,99,9,01524,1,99,9,99,9","10130,1,99999,9",,,,"MET061METAR SKSA 221800Z 33005KT 9999 SCT050 30/19 Q1013 RMK A2992=",
"80222599999","2023-01-23T11:00:00","4","6.95","-71.85","213.0","LOS COLONIZADORES, CO","FM-15","99999","V020","330,1,N,0015,1","02134,1,C,N","009999,1,9,9","+0240,1","+0170,1","99999,9","08,1,+02134,1,99,9",,"9,AGL   ,+99999,+99999","99,99,9,08,1,99,9,02134,1,99,9,99,9","10130,1,99999,9",,,,"MET061METAR SKSA 231100Z 33003KT 9999 OVC070 24/17 Q1013 RMK A2991=",
"80222599999","2023-01-23T16:00:00","4","6.95","-71.85","213.0","LOS COLONIZADORES, CO","FM-15","99999","V020","360,1,N,0015,1","01524,1,C,N","009999,1,9,9","+0260,1","+0200,1","99999,9","08,1,+01524,1,99,9",,"9,AGL   ,+99999,+99999","99,99,9,08,1,99,9,01524,1,99,9,99,9","10160,1,99999,9",,,,"MET061METAR SKSA 231600Z 36003KT 9999 OVC050 26/20 Q1016 RMK A3002=",
"80222599999","2023-01-23T17:00:00","4","6.95","-71.85","213.0","LOS COLONIZADORES, CO","FM-15","99999","V020","300,1,N,0041,1","99999,9,9,N","009999,1,9,9","+0270,1","+0200,1","99999,9","04,1,+02743,1,99,9",,"9,AGL   ,+99999,+99999","99,99,9,04,1,99,9,02743,1,99,9,99,9","10160,1,99999,9",,,,"MET061METAR SKSA 231700Z 30008KT 9999 SCT090 27/20 Q1016 RMK A3002=",
"80222599999","2023-01-23T23:00:00","4","6.95","-71.85","213.0","LOS COLONIZADORES, CO","FM-15","99999","V020","310,1,N,0015,1","22000,1,9,N","009999,1,9,9","+0250,1","+0200,1","99999,9",,,,"00,99,1,99,9,99,9,99999,9,99,9,99,9","10120,1,99999,9",,,,"MET058METAR SKSA 232300Z 31003KT 9999 NSC 25/20 Q1012 RMK A2991=",
"80222599999","2023-01-24T11:00:00","4","6.95","-71.85","213.0","LOS COLONIZADORES, CO","FM-15","99999","V020","300,1,N,0031,1","22000,1,9,N","009999,1,9,9","+0240,1","+0170,1","99999,9",,,,"00,99,1,99,9,99,9,99999,9,99,9,99,9","10130,1,99999,9",,,,"MET058METAR SKSA 241100Z 30006KT 9999 NSC 24/17 Q1013 RMK A2991=",
"80222599999","2023-01-24T15:00:00","4","6.95","-71.85","213.0","LOS COLONIZADORES, CO","FM-15","99999","V020","300,1,N,0031,1","22000,1,9,N","009999,1,9,9","+0300,1","+0190,1","99999,9",,,,"00,99,1,99,9,99,9,99999,9,99,9,99,9","10160,1,99999,9",,,,"MET058METAR SKSA 241500Z 30006KT 9999 NSC 30/19 Q1016 RMK A3000=",
"80222599999","2023-01-24T18:00:00","4","6.95","-71.85","213.0","LOS COLONIZADORES, CO","FM-15","99999","V020","020,1,N,0031,1","22000,1,9,N","009999,1,9,9","+0310,1","+0190,1","99999,9",,,,"00,99,1,99,9,99,9,99999,9,99,9,99,9","10130,1,99999,9",,,,"MET058METAR SKSA 241800Z 02006KT 9999 NSC 31/19 Q1013 RMK A2991=",
"80222599999","2023-01-24T19:00:00","4","6.95","-71.85","213.0","LOS COLONIZADORES, CO","FM-15","99999","V020","340,1,N,0015,1","99999,9,9,N","009999,1,9,9","+0310,1","+0190,1","99999,9","02,1,+02438,1,99,9",,"9,AGL   ,+99999,+99999","99,99,9,02,1,99,9,02438,1,99,9,99,9","10120,1,99999,9",,,,"MET061METAR SKSA 241900Z 34003KT 9999 FEW080 31/19 Q1012 RMK A2990=",
"80222599999","2023-01-25T11:00:00","4","6.95","-71.85","213.0","LOS COLONIZADORES, CO","FM-15","99999","V020","340,1,N,0015,1","22000,1,9,N","009999,1,9,9","+0230,1","+0180,1","99999,9",,,,"00,99,1,99,9,99,9,99999,9,99,9,99,9","10130,1,99999,9",,,,"MET058METAR SKSA 251100Z 34003KT 9999 NSC 23/18 Q1013 RMK A2991=",
"80222599999","2023-01-25T12:00:00","4","6.95","-71.85","213.0","LOS COLONIZADORES, CO","FM-15","99999","V020","060,1,N,0021,1","22000,1,9,N","009999,1,9,9","+0230,1","+0180,1","99999,9",,,,"00,99,1,99,9,99,9,99999,9,99,9,99,9","10140,1,99999,9",,,,"MET058METAR SKSA 251200Z 06004KT 9999 NSC 23/18 Q1014 RMK A2994=",
"80222599999","2023-01-25T14:00:00","4","6.95","-71.85","213.0","LOS COLONIZADORES, CO","FM-15","99999","V020","350,1,N,0036,1","22000,1,9,N","009999,1,9,9","+0270,1","+0190,1","99999,9",,,,"00,99,1,99,9,99,9,99999,9,99,9,99,9","10160,1,99999,9",,,,"MET058METAR SKSA 251400Z 35007KT 9999 NSC 27/19 Q1016 RMK A3002=",
"80222599999","2023-01-25T19:00:00","4","6.95","-71.85","213.0","LOS COLONIZADORES, CO","FM-15","99999","V020","050,1,N,0015,1","99999,9,9,N","009999,1,9,9","+0310,1","+0200,1","99999,9","02,1,+00914,1,99,9",,"9,AGL   ,+99999,+99999","99,99,9,02,1,99,9,00914,1,99,9,99,9","10110,1,99999,9",,,,"MET061METAR SKSA 251900Z 05003KT 9999 FEW030 31/20 Q1011 RMK A2986=",
"80222599999","2023-01-26T11:00:00","4","6.95","-71.85","213.0","LOS COLONIZADORES, CO","FM-15","99999","V020","300,1,N,0015,1","22000,1,9,N","009999,1,9,9","+0200,1","+0110,1","99999,9",,,,"00,99,1,99,9,99,9,99999,9,99,9,99,9","10120,1,99999,9",,,,"MET058METAR SKSA 261100Z 30003KT 9999 NSC 20/11 Q1012 RMK A2988=",
"80222599999","2023-01-26T13:00:00","4","6.95","-71.85","213.0","LOS COLONIZADORES, CO","FM-15","99999","V020","330,1,N,0026,1","22000,1,9,N","009999,1,9,9","+0250,1","+0110,1","99999,9",,,,"00,99,1,99,9,99,9,99999,9,99,9,99,9","10140,1,99999,9",,,,"MET058METAR SKSA 261300Z 33005KT 9999 NSC 25/11 Q1014 RMK A2994=",
"80222599999","2023-01-27T11:00:00","4","6.95","-71.85","213.0","LOS COLONIZADORES, CO","FM-15","99999","V020","999,9,C,0000,1","22000,1,9,N","009999,1,9,9","+0220,1","+0110,1","99999,9",,,,"00,99,1,99,9,99,9,99999,9,99,9,99,9","10120,1,99999,9",,,,"MET058METAR SKSA 271100Z 00000KT 9999 NSC 22/11 Q1012 RMK A2988=",
"80222599999","2023-01-27T18:00:00","4","6.95","-71.85","213.0","LOS COLONIZADORES, CO","FM-15","99999","V020","310,1,N,0021,1","22000,1,9,N","009999,1,9,9","+0300,1","+0180,1","99999,9",,,,"00,99,1,99,9,99,9,99999,9,99,9,99,9","10110,1,99999,9",,,,"MET058METAR SKSA 271800Z 31004KT 9999 NSC 30/18 Q1011 RMK A2986=",
"80222599999","2023-01-28T11:00:00","4","6.95","-71.85","213.0","LOS COLONIZADORES, CO","FM-15","99999","V020","330,1,N,0026,1","22000,1,9,N","009999,1,9,9","+0230,1","+0110,1","99999,9",,,,"00,99,1,99,9,99,9,99999,9,99,9,99,9","10120,1,99999,9",,,,"MET058METAR SKSA 281100Z 33005KT 9999 NSC 23/11 Q1012 RMK A2988=",
"80222599999","2023-01-28T12:00:00","4","6.95","-71.85","213.0","LOS COLONIZADORES, CO","FM-15","99999","V020","330,1,N,0026,1","99999,9,9,N","009999,1,9,9","+0240,5","+0110,5","99999,9","04,1,+01219,1,99,9",,"9,AGL   ,+99999,+99999","99,99,9,04,1,99,9,01219,1,99,9,99,9","10140,5,99999,9",,,,"MET062METAR SKSA 281200Z 33005KT 9999 SCT0400 24/11 Q1014 RMK A2994=","D01      0ADE693D02      0ADE539"
"80222599999","2023-01-28T13:00:00","4","6.95","-71.85","213.0","LOS COLONIZADORES, CO","FM-15","99999","V020","330,1,N,0026,1","99999,9,9,N","009999,1,9,9","+0250,1","+0110,1","99999,9","04,1,+01219,1,99,9",,"9,AGL   ,+99999,+99999","99,99,9,04,1,99,9,01219,1,99,9,99,9","10150,1,99999,9",,,,"MET061METAR SKSA 281300Z 33005KT 9999 SCT040 25/11 Q1015 RMK A2998=",
"80222599999","2023-01-28T14:00:00","4","6.95","-71.85","213.0","LOS COLONIZADORES, CO","FM-15","99999","V020","330,1,N,0026,1","99999,9,9,N","009999,1,9,9","+0260,1","+0110,1","99999,9","04,1,+01524,1,99,9",,"9,AGL   ,+99999,+99999","99,99,9,04,1,99,9,01524,1,99,9,99,9","10150,1,99999,9",,,,"MET061METAR SKSA 281400Z 33005KT 9999 SCT050 26/11 Q1015 RMK A2998=",
"80222599999","2023-01-28T16:00:00","4","6.95","-71.85","213.0","LOS COLONIZADORES, CO","FM-15","99999","V020","160,1,N,0015,1","99999,9,9,N","009999,1,9,9","+0280,1","+0180,1","99999,9","04,1,+01829,1,99,9",,"9,AGL   ,+99999,+99999","99,99,9,04,1,99,9,01829,1,99,9,99,9","10140,1,99999,9",,,,"MET061METAR SKSA 281600Z 16003KT 9999 SCT060 28/18 Q1014 RMK A2995=",
"80222599999","2023-01-28T20:00:00","4","6.95","-71.85","213.0","LOS COLONIZADORES, CO","FM-15","99999","V020","050,1,N,0041,1","99999,9,9,N","009999,1,9,9","+0310,1","+0180,1","99999,9","02,1,+00914,1,99,9",,"9,AGL   ,+99999,+99999","99,99,9,02,1,99,9,00914,1,99,9,99,9","10100,1,99999,9",,,,"MET061METAR SKSA 282000Z 05008KT 9999 FEW030 31/18 Q1010 RMK A2984=",
"80222599999","2023-01-28T22:00:00","4","6.95","-71.85","213.0","LOS COLONIZADORES, CO","FM-15","99999","V020","090,1,N,0015,1","22000,1,9,N","009999,1,9,9","+0290,1","+0180,1","99999,9",,,,"00,99,1,99,9,99,9,99999,9,99,9,99,9","10100,1,99999,9",,,,"MET058METAR SKSA 282200Z 09003KT 9999 NSC 29/18 Q1010 RMK A2984=",
"80222599999","2023-01-28T23:00:00","4","6.95","-71.85","213.0","LOS COLONIZADORES, CO","FM-15","99999","V020","090,1,N,0015,1","22000,1,9,N","009999,1,9,9","+0290,1","+0180,1","99999,9",,,,"00,99,1,99,9,99,9,99999,9,99,9,99,9","10100,1,99999,9",,,,"MET058METAR SKSA 282300Z 09003KT 9999 NSC 29/18 Q1010 RMK A2984=",
"80222599999","2023-01-29T11:00:00","4","6.95","-71.85","213.0","LOS COLONIZADORES, CO","FM-15","99999","V020","300,1,N,0031,1","22000,1,9,N","009999,1,9,9","+0210,1","+9999,9","99999,9",,,,"00,99,1,99,9,99,9,99999,9,99,9,99,9","10120,5,99999,9",,,,"MET060METAR SKSA 291100Z 30006KT 9999 NSC 21/1815 Q1012 RMK A2990=","D01      0ADE693"
"80222599999","2023-01-29T13:00:00","4","6.95","-71.85","213.0","LOS COLONIZADORES, CO","FM-15","99999","V020","020,1,N,0021,1","22000,1,9,N","009999,1,9,9","+0250,1","+0150,1","99999,9",,,,"00,99,1,99,9,99,9,99999,9,99,9,99,9","10140,1,99999,9",,,,"MET058METAR SKSA 291300Z 02004KT 9999 NSC 25/15 Q1014 RMK A2996=",
"80222599999","2023-01-30T12:00:00","4","6.95","-71.85","213.0","LOS COLONIZADORES, CO","FM-15","99999","V020","330,1,N,0026,1","22000,1,9,N","009999,1,9,9","+0210,1","+0150,1","99999,9",,,,"00,99,1,99,9,99,9,99999,9,99,9,99,9","10130,1,99999,9",,,,"MET058METAR SKSA 301200Z 33005KT 9999 NSC 21/15 Q1013 RMK A2992=",
"80222599999","2023-01-30T19:00:00","4","6.95","-71.85","213.0","LOS COLONIZADORES, CO","FM-15","99999","V020","080,1,N,0026,1","22000,1,9,N","009999,1,9,9","+0320,1","+0160,1","99999,9",,,,"00,99,1,99,9,99,9,99999,9,99,9,99,9","10100,1,99999,9",,,,"MET058METAR SKSA 301900Z 08005KT 9999 NSC 32/16 Q1010 RMK A2982=",
"80222599999","2023-01-30T22:00:00","4","6.95","-71.85","213.0","LOS COLONIZADORES, CO","FM-15","99999","V020","060,1,N,0015,1","22000,1,9,N","009999,1,9,9","+0300,1","+0160,1","99999,9",,,,"00,99,1,99,9,99,9,99999,9,99,9,99,9","10100,1,99999,9",,,,"MET058METAR SKSA 302200Z 06003KT 9999 NSC 30/16 Q1010 RMK A2982=",
"80222599999","2023-01-31T11:00:00","4","6.95","-71.85","213.0","LOS COLONIZADORES, CO","FM-15","99999","V020","070,1,N,0026,1","01829,1,C,N","009999,1,9,9","+0220,1","+0180,1","99999,9","07,1,+01829,1,99,9",,"9,AGL   ,+99999,+99999","99,99,9,07,1,99,9,01829,1,99,9,99,9","10120,1,99999,9",,,,"MET061METAR SKSA 311100Z 07005KT 9999 BKN060 22/18 Q1012 RMK A2990=",
"80222599999","2023-01-31T13:00:00","4","6.95","-71.85","213.0","LOS COLONIZADORES, CO","FM-15","99999","V020","290,1,N,0021,1","01524,1,C,N","009999,1,9,9","+0260,1","+0170,1","99999,9","07,1,+01524,1,99,9",,"9,AGL   ,+99999,+99999","99,99,9,07,1,99,9,01524,1,99,9,99,9","10150,1,99999,9",,,,"MET061METAR SKSA 311300Z 29004KT 9999 BKN050 26/17 Q1015 RMK A2998=",
"80222599999","2023-01-31T17:00:00","4","6.95","-71.85","213.0","LOS COLONIZADORES, CO","FM-15","99999","V020","330,1,N,0015,1","22000,1,9,N","009999,1,9,9","+0290,1","+0160,1","99999,9",,,,"00,99,1,99,9,99,9,99999,9,99,9,99,9","10130,1,99999,9",,,,"MET058METAR SKSA 311700Z 33003KT 9999 NSC 29/16 Q1013 RMK A2993=",
"80222599999","2023-01-31T20:00:00","4","6.95","-71.85","213.0","LOS COLONIZADORES, CO","FM-15","99999","V020","060,1,N,0015,1","22000,1,9,N","009999,1,9,9","+0310,1","+0170,1","99999,9",,,,"00,99,1,99,9,99,9,99999,9,99,9,99,9","10100,1,99999,9",,,,"MET058METAR SKSA 312000Z 06003KT 9999 NSC 31/17 Q1010 RMK A2982=",
"80222599999","2023-02-01T11:00:00","4","6.95","-71.85","213.0","LOS COLONIZADORES, CO","FM-15","99999","V020","340,1,N,0021,1","22000,1,9,N","009999,1,9,9","+0220,1","+0180,1","99999,9",,,,"00,99,1,99,9,99,9,99999,9,99,9,99,9","10130,1,99999,9",,,,"MET058METAR SKSA 011100Z 34004KT 9999 NSC 22/18 Q1013 RMK A2992=",
"80222599999","2023-02-01T14:00:00","4","6.95","-71.85","213.0","LOS COLONIZADORES, CO","FM-15","99999","V020","040,1,N,0015,1","22000,1,9,N","009999,1,9,9","+0270,1","+0170,1","99999,9",,,,"00,99,1,99,9,99,9,99999,9,99,9,99,9","10140,1,99999,9",,,,"MET058METAR SKSA 011400Z 04003KT 9999 NSC 27/17 Q1014 RMK A2995=",
"80222599999","2023-02-02T20:00:00","4","6.95","-71.85","213.0","LOS COLONIZADORES, CO","FM-15","99999","V020","090,1,N,0015,1","99999,9,9,N","009999,1,9,9","+0310,1","+0170,1","99999,9","02,1,+00914,1,99,9",,"9,AGL   ,+99999,+99999","99,99,9,02,1,99,9,00914,1,99,9,99,9","10120,1,99999,9",,,,"MET061METAR SKSA 022000Z 09003KT 9999 FEW030 31/17 Q1012 RMK A2989=",
"80222599999","2023-02-03T11:00:00","4","6.95","-71.85","213.0","LOS COLONIZADORES, CO","FM-15","99999","V020","290,1,N,0021,1","22000,1,9,N","009999,1,9,9","+0200,1","+0140,1","99999,9",,,,"00,99,1,99,9,99,9,99999,9,99,9,99,9","10130,1,99999,9",,,,"MET058METAR SKSA 031100Z 29004KT 9999 NSC 20/14 Q1013 RMK A2993=",
"80222599999","2023-02-03T16:00:00","4","6.95","-71.85","213.0","LOS COLONIZADORES, CO","FM-15","99999","V020","020,1,N,0021,1","22000,1,9,N","009999,1,9,9","+0300,1","+0170,1","99999,9",,,,"00,99,1,99,9,99,9,99999,9,99,9,99,9","10150,1,99999,9",,,,"MET058METAR SKSA 031600Z 02004KT 9999 NSC 30/17 Q1015 RMK A2997=",
"80222599999","2023-02-04T11:00:00","4","6.95","-71.85","213.0","LOS COLONIZADORES, CO","FM-15","99999","V020","300,1,N,0015,1","22000,1,9,N","009999,1,9,9","+0210,1","+0160,1","99999,9",,,,"00,99,1,99,9,99,9,99999,9,99,9,99,9","10150,1,99999,9",,,,"MET058METAR SKSA 041100Z 30003KT 9999 NSC 21/16 Q1015 RMK A2998=",
"80222599999","2023-02-05T11:00:00","4","6.95","-71.85","213.0","LOS COLONIZADORES, CO","FM-15","99999","V020","310,1,N,0026,1","02134,1,C,N","009999,1,9,9","+0230,1","+0200,1","99999,9","08,1,+02134,1,99,9",,"9,AGL   ,+99999,+99999","99,99,9,08,1,99,9,02134,1,99,9,99,9","10160,1,99999,9",,,,"MET061METAR SKSA 051100Z 31005KT 9999 OVC070 23/20 Q1016 RMK A3000=",
"80222599999","2023-02-05T12:00:00","4","6.95","-71.85","213.0","LOS COLONIZADORES, CO","FM-15","99999","V020","280,1,N,0021,1","01524,1,C,N","009999,1,9,9","+0240,1","+0190,1","99999,9","08,1,+01524,1,99,9",,"9,AGL   ,+99999,+99999","99,99,9,08,1,99,9,01524,1,99,9,99,9","10160,1,99999,9",,,,"MET061METAR SKSA 051200Z 28004KT 9999 OVC050 24/19 Q1016 RMK A3002=",
"80222599999","2023-02-05T13:00:00","4","6.95","-71.85","213.0","LOS COLONIZADORES, CO","FM-15","99999","V020","280,1,N,0015,1","01219,1,C,N","009999,1,9,9","+0250,1","+0190,1","99999,9","08,1,+01219,1,99,9",,"9,AGL   ,+99999,+99999","99,99,9,08,1,99,9,01219,1,99,9,99,9","10170,1,99999,9",,,,"MET061METAR SKSA 051300Z 28003KT 9999 OVC040 25/19 Q1017 RMK A3005=",
"80222599999","2023-02-05T15:00:00","4","6.95","-71.85","213.0","LOS COLONIZADORES, CO","FM-15","99999","V020","330,1,N,0036,1","01219,1,C,N","009999,1,9,9","+0240,1","+0210,1","99999,9","08,1,+01219,1,99,9",,"9,AGL   ,+99999,+99999","99,99,9,08,1,99,9,01219,1,99,9,99,9","10180,1,99999,9",,,,"MET061METAR SKSA 051500Z 33007KT 9999 OVC040 24/21 Q1018 RMK A3007=",
"80222599999","2023-02-05T17:00:00","4","6.95","-71.85","213.0","LOS COLONIZADORES, CO","FM-15","99999","V020","340,1,N,0041,1","02438,1,C,N","009999,1,9,9","+0270,1","+0190,1","99999,9","08,1,+02438,1,99,9",,"9,AGL   ,+99999,+99999","99,99,9,08,1,99,9,02438,1,99,9,99,9","10160,1,99999,9",,,,"MET061METAR SKSA 051700Z 34008KT 9999 OVC080 27/19 Q1016 RMK A3002=",
"80222599999","2023-02-05T18:00:00","4","6.95","-71.85","213.0","LOS COLONIZADORES, CO","FM-15","99999","V020","260,1,N,0031,1","01219,1,C,N","009999,1,9,9","+0280,1","+0190,1","99999,9","08,1,+01219,1,99,9",,"9,AGL   ,+99999,+99999","99,99,9,08,1,99,9,01219,1,99,9,99,9","10150,1,99999,9",,,,"MET061METAR SKSA 051800Z 26006KT 9999 OVC040 28/19 Q1015 RMK A2998=",
"80222599999","2023-02-05T21:00:00","4","6.95","-71.85","213.0","LOS COLONIZADORES, CO","FM-15","99999","V020","320,1,N,0021,1","02743,1,C,N","009999,1,9,9","+0290,1","+0190,1","99999,9","07,1,+02743,1,99,9",,"9,AGL   ,+99999,+99999","99,99,9,07,1,99,9,02743,1,99,9,99,9","10120,1,99999,9",,,,"MET061METAR SKSA 052100Z 32004KT 9999 BKN090 29/19 Q1012 RMK A2990=",
"80222599999","2023-02-05T23:00:00","4","6.95","-71.85","213.0","LOS COLONIZADORES, CO","FM-15","99999","V020","300,1,N,0021,1","99999,9,9,N","009999,1,9,9","+0270,1","+0190,1","99999,9","04,1,+02743,1,99,9",,"9,AGL   ,+99999,+99999","99,99,9,04,1,99,9,02743,1,99,9,99,9","10120,1,99999,9",,,,"MET061METAR SKSA 052300Z 30004KT 9999 SCT090 27/19 Q1012 RMK A2990=",
"80222599999","2023-02-06T11:00:00","4","6.95","-71.85","213.0","LOS COLONIZADORES, CO","FM-15","99999","V020","330,1,N,0021,1","01524,1,C,N","009000,1,9,9","+0240,1","+0190,1","99999,9","08,1,+01524,1,99,9",,"9,AGL   ,+99999,+99999","99,99,9,08,1,99,9,01524,1,99,9,99,9","10140,1,99999,9","16,1",,,"MET074METAR SKSA 061100Z 33004KT 9000 VCSH OVC050 24/19 Q1014 RMK VCSH SW A2996=",
"80222599999","2023-02-06T12:00:00","4","6.95","-71.85","213.0","LOS COLONIZADORES, CO","FM-15","99999","V020","320,1,N,0036,1","01524,1,C,N","009999,1,9,9","+0240,1","+0190,1","99999,9","08,1,+01524,1,99,9",,"9,AGL   ,+99999,+99999","99,99,9,08,1,99,9,01524,1,99,9,99,9","10160,1,99999,9","16,1",,,"MET074METAR SKSA 061200Z 32007KT 9999 VCSH OVC050 24/19 Q1016 RMK VCSH SW A3000=",
"80222599999","2023-02-06T19:00:00","4","6.95","-71.85","213.0","LOS COLONIZADORES, CO","FM-15","99999","V020","050,1,N,0036,1","99999,9,9,N","009999,1,9,9","+0310,1","+0190,1","99999,9","04,1,+01524,1,99,9",,"9,AGL   ,+99999,+99999","99,99,9,04,1,99,9,01524,1,99,9,99,9","10120,1,99999,9",,,,"MET061METAR SKSA 061900Z 05007KT 9999 SCT050 31/19 Q1012 RMK A2990=",
"80222599999","2023-02-06T21:00:00","4","6.95","-71.85","213.0","LOS COLONIZADORES, CO","FM-15","99999","V020","280,1,N,0036,1","99999,9,9,N","009999,1,9,9","+0300,1","+0180,1","99999,9","02,1,+03048,1,99,9",,"9,AGL   ,+99999,+99999","99,99,9,02,1,99,9,03048,1,99,9,99,9","10110,1,99999,9",,,,"MET061METAR SKSA 062100Z 28007KT 9999 FEW100 30/18 Q1011 RMK A2986=",
"80222599999","2023-02-07T11:00:00","4","6.95","-71.85","213.0","LOS COLONIZADORES, CO","FM-15","99999","V020","310,1,N,0026,1","99999,9,9,N","009999,1,9,9","+0220,1","+0170,1","99999,9","04,1,+02743,1,99,9",,"9,AGL   ,+99999,+99999","99,99,9,04,1,99,9,02743,1,99,9,99,9","10130,1,99999,9",,,,"MET061METAR SKSA 071100Z 31005KT 9999 SCT090 22/17 Q1013 RMK A2991=",
"80222599999","2023-02-07T12:00:00","4","6.95","-71.85","213.0","LOS COLONIZADORES, CO","FM-15","99999","V020","320,1,N,0026,1","99999,9,9,N","009999,1,9,9","+0220,1","+0180,1","99999,9","04,1,+02743,1,99,9",,"9,AGL   ,+99999,+99999","99,99,9,04,1,99,9,02743,1,99,9,99,9","10140,1,99999,9",,,,"MET061METAR SKSA 071200Z 32005KT 9999 SCT090 22/18 Q1014 RMK A2995=",
"80222599999","2023-02-07T15:00:00","4","6.95","-71.85","213.0","LOS COLONIZADORES, CO","FM-15","99999","V020","999,9,V,0010,1","99999,9,9,N","009999,1,9,9","+0270,1","+0170,1","99999,9","04,1,+03048,1,99,9",,"9,AGL   ,+99999,+99999","99,99,9,04,1,99,9,03048,1,99,9,99,9","10160,1,99999,9",,,,"MET061METAR SKSA 071500Z VRB02KT 9999 SCT100 27/17 Q1016 RMK A3001=",
"80222599999","2023-02-07T21:00:00","4","6.95","-71.85","213.0","LOS COLONIZADORES, CO","FM-15","99999","V020","999,9,V,0010,1","99999,9,9,N","009999,1,9,9","+0310,1","+0180,1","99999,9","02,1,+02743,1,99,9",,"9,AGL   ,+99999,+99999","99,99,9,02,1,99,9,02743,1,99,9,99,9","10100,1,99999,9",,,,"MET061METAR SKSA 072100Z VRB02KT 9999 FEW090 31/18 Q1010 RMK A2984=",
"80222599999","2023-02-08T11:00:00","4","6.95","-71.85","213.0","LOS COLONIZADORES, CO","FM-15","99999","V020","300,1,N,0015,1","99999,9,9,N","009999,1,9,9","+0180,1","+0170,1","99999,9","02,1,+03048,1,99,9",,"9,AGL   ,+99999,+99999","99,99,9,02,1,99,9,03048,1,99,9,99,9","10120,1,99999,9",,,,"MET061METAR SKSA 081100Z 30003KT 9999 FEW100 18/17 Q1012 RMK A2989=",
"80222599999","2023-02-08T22:00:00","4","6.95","-71.85","213.0","LOS COLONIZADORES, CO","FM-15","99999","V020","999,9,V,0010,1","99999,9,9,N","009999,1,9,9","+0310,1","+0190,1","99999,9","02,1,+03048,1,99,9",,"9,AGL   ,+99999,+99999","99,99,9,02,1,99,9,03048,1,99,9,99,9","10090,1,99999,9",,,,"MET061METAR SKSA 082200Z VRB02KT 9999 FEW100 31/19 Q1009 RMK A2979=",
"80222599999","2023-02-09T11:00:00","4","6.95","-71.85","213.0","LOS COLONIZADORES, CO","FM-15","99999","V020","210,1,N,0015,1","01219,1,C,N","009999,1,9,9","+0230,1","+0210,1","99999,9","08,1,+01219,1,99,9",,"9,AGL   ,+99999,+99999","99,99,9,08,1,99,9,01219,1,99,9,99,9","10120,1,99999,9",,,,"MET061METAR SKSA 091100Z 21003KT 9999 OVC040 23/21 Q1012 RMK A2989=",
"80222599999","2023-02-10T11:00:00","4","6.95","-71.85","213.0","LOS COLONIZADORES, CO","FM-15","99999","V020","020,1,N,0015,1","01524,1,C,N","009999,1,9,9","+0240,1","+0190,1","99999,9","08,1,+01524,1,99,9",,"9,AGL   ,+99999,+99999","99,99,9,08,1,99,9,01524,1,99,9,99,9","10130,1,99999,9","16,5",,,"MET073METAR SKSA 101100Z 02003KT 9999 VCRA OVC050 24/19 Q1013 RMK VCRA W A2992=","D01      0ADE735"
"80222599999","2023-02-10T15:00:00","4","6.95","-71.85","213.0","LOS COLONIZADORES, CO","FM-15","99999","V020","280,1,N,0021,1","00914,1,C,N","009000,1,9,9","+0220,1","+0210,1","99999,9","08,1,+00914,1,99,9",,"9,AGL   ,+99999,+99999","99,99,9,08,1,99,9,00914,1,99,9,99,9","10160,1,99999,9",,,,"MET061METAR SKSA 101500Z 28004KT 9000 OVC030 22/21 Q1016 RMK A2999=",
"80222599999","2023-02-10T17:00:00","4","6.95","-71.85","213.0","LOS COLONIZADORES, CO","FM-15","99999","V020","250,1,N,0031,1","01219,1,C,N","009000,1,9,9","+0240,1","+0210,1","99999,9","08,1,+01219,1,99,9",,"9,AGL   ,+99999,+99999","99,99,9,08,1,99,9,01219,1,99,9,99,9","10140,1,99999,9",,,,"MET061METAR SKSA 101700Z 25006KT 9000 OVC040 24/21 Q1014 RMK A2995=",
"80222599999","2023-02-10T19:00:00","4","6.95","-71.85","213.0","LOS COLONIZADORES, CO","FM-15","99999","V020","280,1,N,0026,1","01676,1,C,N","009000,1,9,9","+0260,1","+0200,1","99999,9","08,1,+01676,1,99,9",,"9,AGL   ,+99999,+99999","99,99,9,08,1,99,9,01676,1,99,9,99,9","10120,1,99999,9",,,,"MET061METAR SKSA 101900Z 28005KT 9000 OVC055 26/20 Q1012 RMK A2989=",
"80222599999","2023-02-10T20:00:00","4","6.95","-71.85","213.0","LOS COLONIZADORES, CO","FM-15","99999","V020","270,1,N,0026,1","99999,9,9,N","009999,1,9,9","+0270,1","+0210,1","99999,9","04,1,+01829,1,99,9",,"9,AGL   ,+99999,+99999","99,99,9,04,1,99,9,01829,1,99,9,99,9","10110,1,99999,9",,,,"MET061METAR SKSA 102000Z 27005KT 9999 SCT060 27/21 Q1011 RMK A2986=",
"80222599999","2023-02-10T21:00:00","4","6.95","-71.85","213.0","LOS COLONIZADORES, CO","FM-15","99999","V020","260,1,N,0015,1","99999,9,9,N","009999,1,9,9","+0270,1","+0200,1","99999,9","04,1,+02134,1,99,9",,"9,AGL   ,+99999,+99999","99,99,9,04,1,99,9,02134,1,99,9,99,9","10100,1,99999,9",,,,"MET061METAR SKSA 102100Z 26003KT 9999 SCT070 27/20 Q1010 RMK A2984=",
"80222599999","2023-02-10T23:00:00","4","6.95","-71.85","213.0","LOS COLONIZADORES, CO","FM-15","99999","V020","290,1,N,0031,1","99999,9,9,N","009999,1,9,9","+0240,1","+0200,1","99999,9","04,1,+02134,1,99,9",,"9,AGL   ,+99999,+99999","99,99,9,04,1,99,9,02134,1,99,9,99,9","10100,1,99999,9",,,,"MET061METAR SKSA 102300Z 29006KT 9999 SCT070 24/20 Q1010 RMK A2984=",
"80222599999","2023-02-11T14:00:00","4","6.95","-71.85","213.0","LOS COLONIZADORES, CO","FM-15","99999","V020","260,1,N,0015,1","01524,1,C,N","009000,1,9,9","+0260,1","+0190,1","99999,9","08,1,+01524,1,99,9",,"9,AGL   ,+99999,+99999","99,99,9,08,1,99,9,01524,1,99,9,99,9","10130,1,99999,9",,,,"MET061METAR SKSA 111400Z 26003KT 9000 OVC050 26/19 Q1013 RMK A2993=",
"80222599999","2023-02-11T15:00:00","4","6.95","-71.85","213.0","LOS COLONIZADORES, CO","FM-15","99999","V020","340,1,N,0026,1","01219,1,C,N","009000,1,9,9","+0250,1","+0200,1","99999,9","08,1,+01219,1,99,9",,"9,AGL   ,+99999,+99999","99,99,9,08,1,99,9,01219,1,99,9,99,9","10140,1,99999,9",,,,"MET061METAR SKSA 111500Z 34005KT 9000 OVC040 25/20 Q1014 RMK A2996=",
"80222599999","2023-02-11T19:00:00","4","6.95","-71.85","213.0","LOS COLONIZADORES, CO","FM-15","99999","V020","030,1,N,0026,1","01219,1,C,N","009999,1,9,9","+0290,1","+0200,1","99999,9","07,1,+01219,1,99,9",,"9,AGL   ,+99999,+99999","99,99,9,07,1,99,9,01219,1,99,9,99,9","10100,1,99999,9",,,,"MET061METAR SKSA 111900Z 03005KT 9999 BKN040 29/20 Q1010 RMK A2984=",
"80222599999","2023-02-13T11:00:00","4","6.95","-71.85","213.0","LOS COLONIZADORES, CO","FM-15","99999","V020","999,9,V,0010,1","01829,1,C,N","009999,1,9,9","+0240,1","+0200,1","99999,9","08,1,+01829,1,99,9",,"9,AGL   ,+99999,+99999","99,99,9,08,1,99,9,01829,1,99,9,99,9","10100,1,99999,9",,,,"MET061METAR SKSA 131100Z VRB02KT 9999 OVC060 24/20 Q1010 RMK A2984=",
"80222599999","2023-02-14T11:00:00","4","6.95","-71.85","213.0","LOS COLONIZADORES, CO","FM-15","99999","V020","310,1,N,0031,1","02743,1,C,N","009999,1,9,9","+0240,1","+0200,1","99999,9","07,1,+02743,1,99,9",,"9,AGL   ,+99999,+99999","99,99,9,07,1,99,9,02743,1,99,9,99,9","10110,1,99999,9",,,,"MET061METAR SKSA 141100Z 31006KT 9999 BKN090 24/20 Q1011 RMK A2986=",
"80222599999","2023-02-15T11:00:00","4","6.95","-71.85","213.0","LOS COLONIZADORES, CO","FM-15","99999","V020","290,1,N,0015,1","02438,1,C,N","009000,1,9,9","+9999,9","+9999,9","99999,9","08,1,+02438,1,99,9",,"9,AGL   ,+99999,+99999","99,99,9,08,1,99,9,02438,1,99,9,99,9",,,,,"MET061METAR SKSA 151100Z 29003KT 9000 OVC080 ///// Q//// RMK A////=",
"80222599999","2023-02-15T14:00:00","4","6.95","-71.85","213.0","LOS COLONIZADORES, CO","FM-15","99999","V020","350,1,N,0021,1","01829,1,C,N","009999,1,9,9","+0270,1","+0210,1","99999,9","08,1,+01829,1,99,9",,"9,AGL   ,+99999,+99999","99,99,9,08,1,99,9,01829,1,99,9,99,9","10140,1,99999,9",,,,"MET061METAR SKSA 151400Z 35004KT 9999 OVC060 27/21 Q1014 RMK A2994=",
"80222599999","2023-02-15T15:00:00","4","6.95","-71.85","213.0","LOS COLONIZADORES, CO","FM-15","99999","V020","290,1,N,0031,1","02743,1,C,N","009999,1,9,9","+0290,1","+0210,1","99999,9","08,1,+02743,1,99,9",,"9,AGL   ,+99999,+99999","99,99,9,08,1,99,9,02743,1,99,9,99,9","10140,1,99999,9",,,,"MET061METAR SKSA 151500Z 29006KT 9999 OVC090 29/21 Q1014 RMK A2994=",
"80222599999","2023-02-15T16:00:00","4","6.95","-71.85","213.0","LOS COLONIZADORES, CO","FM-15","99999","V020","360,1,N,0046,1","01829,1,C,N","009999,1,9,9","+0300,1","+0210,1","99999,9","07,1,+01829,1,99,9",,"9,AGL   ,+99999,+99999","99,99,9,07,1,99,9,01829,1,99,9,99,9","10130,1,99999,9",,,,"MET061METAR SKSA 151600Z 36009KT 9999 BKN060 30/21 Q1013 RMK A2993=",
"80222599999","2023-02-15T17:00:00","4","6.95","-71.85","213.0","LOS COLONIZADORES, CO","FM-15","99999","V020","340,1,N,0046,1","01829,1,C,N","009999,1,9,9","+0300,1","+0210,1","99999,9","07,1,+01829,1,99,9",,"9,AGL   ,+99999,+99999","99,99,9,07,1,99,9,01829,1,99,9,99,9","10130,1,99999,9",,,,"MET061METAR SKSA 151700Z 34009KT 9999 BKN060 30/21 Q1013 RMK A2992=",
"80222599999","2023-02-15T18:00:00","4","6.95","-71.85","213.0","LOS COLONIZADORES, CO","FM-15","99999","V020","020,1,N,0031,1","99999,9,9,N","009999,1,9,9","+0320,1","+0210,1","99999,9","04,1,+02743,1,99,9",,"9,AGL   ,+99999,+99999","99,99,9,04,1,99,9,02743,1,99,9,99,9","10120,1,99999,9",,,,"MET061METAR SKSA 151800Z 02006KT 9999 SCT090 32/21 Q1012 RMK A2989=",
"80222599999","2023-02-15T19:00:00","4","6.95","-71.85","213.0","LOS COLONIZADORES, CO","FM-15","99999","V020","260,1,N,0021,1","99999,9,9,N","009999,1,9,9","+0300,1","+0210,1","99999,9","04,1,+01372,1,99,9",,"9,AGL   ,+99999,+99999","99,99,9,04,1,99,9,01372,1,99,9,99,9","10100,1,99999,9",,,,"MET061METAR SKSA 151900Z 26004KT 9999 SCT045 30/21 Q1010 RMK A2985=",
"80222599999","2023-02-15T21:00:00","4","6.95","-71.85","213.0","LOS COLONIZADORES, CO","FM-15","99999","V020","999,9,V,0010,1","99999,9,9,N","009999,1,9,9","+0320,1","+0200,1","99999,9","04,1,+02743,1,99,9",,"9,AGL   ,+99999,+99999","99,99,9,04,1,99,9,02743,1,99,9,99,9","10100,1,99999,9",,,,"MET061METAR SKSA 152100Z VRB02KT 9999 SCT090 32/20 Q1010 RMK A2977=",
"80222599999","2023-02-15T22:00:00","4","6.95","-71.85","213.0","LOS COLONIZADORES, CO","FM-15","99999","V020","310,1,N,0021,1","99999,9,9,N","009999,1,9,9","+0310,1","+0200,1","99999,9","02,1,+02743,1,99,9",,"9,AGL   ,+99999,+99999","99,99,9,02,1,99,9,02743,1,99,9,99,9","10080,1,99999,9",,,,"MET061METAR SKSA 152200Z 31004KT 9999 FEW090 31/20 Q1008 RMK A2977=",
"80222599999","2023-02-15T23:00:00","4","6.95","-71.85","213.0","LOS COLONIZADORES, CO","FM-15","99999","V020","999,9,V,0010,1","99999,9,9,N","009999,1,9,9","+0280,1","+0220,1","99999,9","02,1,+02743,1,99,9",,"9,AGL   ,+99999,+99999","99,99,9,02,1,99,9,02743,1,99,9,99,9","10080,1,99999,9",,,,"MET061METAR SKSA 152300Z VRB02KT 9999 FEW090 28/22 Q1008 RMK A2978=",
"80222599999","2023-02-16T11:00:00","4","6.95","-71.85","213.0","LOS COLONIZADORES, CO","FM-15","99999","V020","300,1,N,0036,1","01219,1,C,N","002000,1,9,9","+0220,1","+0220,1","99999,9","08,1,+01219,1,99,9",,"9,AGL   ,+99999,+99999","99,99,9,08,1,99,9,01219,1,99,9,99,9","10120,1,99999,9","63,1",,,"MET064METAR SKSA 161100Z 30007KT 2000 RA OVC040 22/22 Q1012 RMK A2989=",
"80222599999","2023-02-16T12:00:00","4","6.95","-71.85","213.0","LOS COLONIZADORES, CO","FM-15","99999","V020","030,1,N,0015,1","00610,1,C,N","002000,1,9,9","+0220,1","+0220,1","99999,9","08,1,+00610,1,99,9",,"9,AGL   ,+99999,+99999","99,99,9,08,1,99,9,00610,1,99,9,99,9","10130,1,99999,9","63,1",,,"MET064METAR SKSA 161200Z 03003KT 2000 RA OVC020 22/22 Q1013 RMK A2992=",
"80222599999","2023-02-16T13:00:00","4","6.95","-71.85","213.0","LOS COLONIZADORES, CO","FM-15","99999","V020","999,9,V,0010,1","00610,1,C,N","002000,1,9,9","+0220,1","+0220,1","99999,9","08,1,+00610,1,99,9",,"9,AGL   ,+99999,+99999","99,99,9,08,1,99,9,00610,1,99,9,99,9","10140,1,99999,9","65,1",,,"MET065METAR SKSA 161300Z VRB02KT 2000 +RA OVC020 22/22 Q1014 RMK A2995=",
"80222599999","2023-02-16T14:00:00","4","6.95","-71.85","213.0","LOS COLONIZADORES, CO","FM-15","99999","V020","250,1,N,0021,1","01219,1,C,N","003000,1,9,9","+0220,1","+0220,1","99999,9","08,1,+01219,1,99,9",,"9,AGL   ,+99999,+99999","99,99,9,08,1,99,9,01219,1,99,9,99,9","10150,1,99999,9","61,1",,,"MET065METAR SKSA 161400Z 25004KT 3000 -RA OVC040 22/22 Q1015 RMK A2998=",
"80222599999","2023-02-16T15:00:00","4","6.95","-71.85","213.0","LOS COLONIZADORES, CO","FM-15","99999","V020","270,1,N,0026,1","01524,1,C,N","006000,1,9,9","+0220,1","+0220,1","99999,9","08,1,+01524,1,99,9",,"9,AGL   ,+99999,+99999","99,99,9,08,1,99,9,01524,1,99,9,99,9","10150,1,99999,9","61,1",,,"MET065METAR SKSA 161500Z 27005KT 6000 -RA OVC050 22/22 Q1015 RMK A2998=",
"80222599999","2023-02-16T16:00:00","4","6.95","-71.85","213.0","LOS COLONIZADORES, CO","FM-15","99999","V020","280,1,N,0015,1","01829,1,C,N","008000,1,9,9","+0250,1","+0220,1","99999,9","08,1,+01829,1,99,9",,"9,AGL   ,+99999,+99999","99,99,9,08,1,99,9,01829,1,99,9,99,9","10140,1,99999,9",,,,"MET061METAR SKSA 161600Z 28003KT 8000 OVC060 25/22 Q1014 RMK A2996=",
"80222599999","2023-02-16T17:00:00","4","6.95","-71.85","213.0","LOS COLONIZADORES, CO","FM-15","99999","V020","999,9,V,0010,1","01829,1,C,N","009999,1,9,9","+0260,1","+0210,1","99999,9","08,1,+01829,1,99,9",,"9,AGL   ,+99999,+99999","99,99,9,08,1,99,9,01829,1,99,9,99,9","10140,1,99999,9",,,,"MET061METAR SKSA 161700Z VRB02KT 9999 OVC060 26/21 Q1014 RMK A2994=",
"80222599999","2023-02-16T18:00:00","4","6.95","-71.85","213.0","LOS COLONIZADORES, CO","FM-15","99999","V020","240,1,N,0021,1","01829,1,C,N","009999,1,9,9","+0260,1","+0210,1","99999,9","08,1,+01829,1,99,9",,"9,AGL   ,+99999,+99999","99,99,9,08,1,99,9,01829,1,99,9,99,9","10130,1,99999,9",,,,"MET061METAR SKSA 161800Z 24004KT 9999 OVC060 26/21 Q1013 RMK A2991=",
"80222599999","2023-02-16T19:00:00","4","6.95","-71.85","213.0","LOS COLONIZADORES, CO","FM-15","99999","V020","300,1,N,0026,1","01829,1,C,N","009999,1,9,9","+0270,1","+0210,1","99999,9","08,1,+01829,1,99,9",,"9,AGL   ,+99999,+99999","99,99,9,08,1,99,9,01829,1,99,9,99,9","10120,1,99999,9",,,,"MET061METAR SKSA 161900Z 30005KT 9999 OVC060 27/21 Q1012 RMK A2988=",
"80222599999","2023-02-16T20:00:00","4","6.95","-71.85","213.0","LOS COLONIZADORES, CO","FM-15","99999","V020","280,1,N,0026,1","01829,1,C,N","009999,1,9,9","+0270,1","+0190,1","99999,9","08,1,+01829,1,99,9",,"9,AGL   ,+99999,+99999","99,99,9,08,1,99,9,01829,1,99,9,99,9","10100,1,99999,9",,,,"MET061METAR SKSA 162000Z 28005KT 9999 OVC060 27/19 Q1010 RMK A2984=",
"80222599999","2023-02-16T21:00:00","4","6.95","-71.85","213.0","LOS COLONIZADORES, CO","FM-15","99999","V020","280,1,N,0015,1","02134,1,C,N","009999,1,9,9","+0270,1","+0210,1","99999,9","08,1,+02134,1,99,9",,"9,AGL   ,+99999,+99999","99,99,9,08,1,99,9,02134,1,99,9,99,9","10100,1,99999,9",,,,"MET061METAR SKSA 162100Z 28003KT 9999 OVC070 27/21 Q1010 RMK A2983=",
"80222599999","2023-02-16T22:00:00","4","6.95","-71.85","213.0","LOS COLONIZADORES, CO","FM-15","99999","V020","300,1,N,0026,1","02134,1,C,N","009999,1,9,9","+0260,1","+0210,1","99999,9","08,1,+02134,1,99,9",,"9,AGL   ,+99999,+99999","99,99,9,08,1,99,9,02134,1,99,9,99,9","10090,1,99999,9",,,,"MET061METAR SKSA 162200Z 30005KT 9999 OVC070 26/21 Q1009 RMK A2981=",
"80222599999","2023-02-16T23:00:00","4","6.95","-71.85","213.0","LOS COLONIZADORES, CO","FM-15","99999","V020","999,9,N,9999,9","99999,9,9,N","011265,5,9,9","+0250,5","+0220,5","99999,9",,,,,"10090,5,99999,9",,,,"MET059METAR SKSA 162300Z 310KT 9999 OVC075 25/22 Q1009 RMK A2981=","D01      0ADE693D02      0ADE539"
"80222599999","2023-02-17T11:00:00","4","6.95","-71.85","213.0","LOS COLONIZADORES, CO","FM-15","99999","V020","340,1,N,0021,1","01219,1,C,N","009999,1,9,9","+0220,1","+0190,1","99999,9","08,1,+01219,1,99,9",,"9,AGL   ,+99999,+99999","99,99,9,08,1,99,9,01219,1,99,9,99,9","10110,1,99999,9",,,,"MET061METAR SKSA 171100Z 34004KT 9999 OVC040 22/19 Q1011 RMK A2987=",
"80222599999","2023-02-17T12:00:00","4","6.95","-71.85","213.0","LOS COLONIZADORES, CO","FM-15","99999","V020","320,1,N,0036,1","01219,1,C,N","009999,1,9,9","+0220,1","+0200,1","99999,9","08,1,+01219,1,99,9",,"9,AGL   ,+99999,+99999","99,99,9,08,1,99,9,01219,1,99,9,99,9","10130,1,99999,9","16,1",,,"MET074METAR SKSA 171200Z 32007KT 9999 VCSH OVC040 22/20 Q1013 RMK VCSH SW A2991=",
"80222599999","2023-02-17T15:00:00","4","6.95","-71.85","213.0","LOS COLONIZADORES, CO","FM-15","99999","V020","300,1,N,0021,1","01524,1,C,N","009999,1,9,9","+0230,1","+0190,1","99999,9","08,1,+01524,1,99,9",,"9,AGL   ,+99999,+99999","99,99,9,08,1,99,9,01524,1,99,9,99,9","10150,1,99999,9",,,,"MET061METAR SKSA 171500Z 30004KT 9999 OVC050 23/19 Q1015 RMK A2997=",
"80222599999","2023-02-17T17:00:00","4","6.95","-71.85","213.0","LOS COLONIZADORES, CO","FM-15","99999","V020","240,1,N,0046,1","01829,1,C,N","009999,1,9,9","+0250,1","+0180,1","99999,9","08,1,+01829,1,99,9",,"9,AGL   ,+99999,+99999","99,99,9,08,1,99,9,01829,1,99,9,99,9","10130,1,99999,9",,,,"MET061METAR SKSA 171700Z 24009KT 9999 OVC060 25/18 Q1013 RMK A2991=",
"80222599999","2023-02-17T18:00:00","4","6.95","-71.85","213.0","LOS COLONIZADORES, CO","FM-15","99999","V020","250,1,N,0041,1","01829,1,C,N","009999,1,9,9","+0260,1","+0180,1","99999,9","08,1,+01829,1,99,9",,"9,AGL   ,+99999,+99999","99,99,9,08,1,99,9,01829,1,99,9,99,9","10110,1,99999,9",,,,"MET061METAR SKSA 171800Z 25008KT 9999 OVC060 26/18 Q1011 RMK A2986=",
"80222599999","2023-02-17T20:00:00","4","6.95","-71.85","213.0","LOS COLONIZADORES, CO","FM-15","99999","V020","999,9,V,0010,1","99999,9,9,N","009999,1,9,9","+0280,1","+0160,1","99999,9","02,1,+02743,1,99,9",,"9,AGL   ,+99999,+99999","99,99,9,02,1,99,9,02743,1,99,9,99,9","10090,1,99999,9",,,,"MET061METAR SKSA 172000Z VRB02KT 9999 FEW090 28/16 Q1009 RMK A2980=",
"80222599999","2023-02-17T21:00:00","4","6.95","-71.85","213.0","LOS COLONIZADORES, CO","FM-15","99999","V020","330,1,N,0021,1","99999,9,9,N","009999,1,9,9","+0280,1","+0170,1","99999,9","04,1,+01829,1,99,9",,"9,AGL   ,+99999,+99999","99,99,9,04,1,99,9,01829,1,99,9,99,9","10090,1,99999,9",,,,"MET061METAR SKSA 172100Z 33004KT 9999 SCT060 28/17 Q1009 RMK A2980=",
"80222599999","2023-02-17T22:00:00","4","6.95","-71.85","213.0","LOS COLONIZADORES, CO","FM-15","99999","V020","280,1,N,0015,1","99999,9,9,N","009999,1,9,9","+0280,1","+0160,1","99999,9","04,1,+01829,1,99,9",,"9,AGL   ,+99999,+99999","99,99,9,04,1,99,9,01829,1,99,9,99,9","10090,1,99999,9",,,,"MET061METAR SKSA 172200Z 28003KT 9999 SCT060 28/16 Q1009 RMK A2980=",
"80222599999","2023-02-17T23:00:00","4","6.95","-71.85","213.0","LOS COLONIZADORES, CO","FM-15","99999","V020","310,1,N,0015,1","99999,9,9,N","009999,1,9,9","+0270,1","+0170,1","99999,9","04,1,+01829,1,99,9",,"9,AGL   ,+99999,+99999","99,99,9,04,1,99,9,01829,1,99,9,99,9","10090,1,99999,9",,,,"MET061METAR SKSA 172300Z 31003KT 9999 SCT060 27/17 Q1009 RMK A2981=",
"80222599999","2023-02-18T11:00:00","4","6.95","-71.85","213.0","LOS COLONIZADORES, CO","FM-15","99999","V020","320,1,N,0026,1","02743,1,C,N","009999,1,9,9","+9999,9","+9999,9","99999,9","07,1,+02743,1,99,9",,"9,AGL   ,+99999,+99999","99,99,9,07,1,99,9,02743,1,99,9,99,9",,,,,"MET061METAR SKSA 181100Z 32005KT 9999 BKN090 ///// Q//// RMK A////=",
"80222599999","2023-02-18T12:00:00","4","6.95","-71.85","213.0","LOS COLONIZADORES, CO","FM-15","99999","V020","290,1,N,0015,1","02134,1,C,N","009999,1,9,9","+0240,1","+0180,1","99999,9","07,1,+02134,1,99,9",,"9,AGL   ,+99999,+99999","99,99,9,07,1,99,9,02134,1,99,9,99,9","10140,1,99999,9",,,,"MET061METAR SKSA 181200Z 29003KT 9999 BKN070 24/18 Q1014 RMK A2995=",
"80222599999","2023-02-18T13:00:00","4","6.95","-71.85","213.0","LOS COLONIZADORES, CO","FM-15","99999","V020","270,1,N,0015,1","02134,1,C,N","009999,1,9,9","+0250,1","+0180,1","99999,9","08,1,+02134,1,99,9",,"9,AGL   ,+99999,+99999","99,99,9,08,1,99,9,02134,1,99,9,99,9","10150,1,99999,9",,,,"MET061METAR SKSA 181300Z 27003KT 9999 OVC070 25/18 Q1015 RMK A2998=",
"80222599999","2023-02-18T14:00:00","4","6.95","-71.85","213.0","LOS COLONIZADORES, CO","FM-15","99999","V020","350,1,N,0026,1","02134,1,C,N","009999,1,9,9","+0260,1","+0170,1","99999,9","08,1,+02134,1,99,9",,"9,AGL   ,+99999,+99999","99,99,9,08,1,99,9,02134,1,99,9,99,9","10160,1,99999,9",,,,"MET061METAR SKSA 181400Z 35005KT 9999 OVC070 26/17 Q1016 RMK A3000=",
"80222599999","2023-02-18T15:00:00","4","6.95","-71.85","213.0","LOS COLONIZADORES, CO","FM-15","99999","V020","300,1,N,0026,1","02134,1,C,N","009999,1,9,9","+0270,1","+0170,1","99999,9","08,1,+02134,1,99,9",,"9,AGL   ,+99999,+99999","99,99,9,08,1,99,9,02134,1,99,9,99,9","10160,1,99999,9",,,,"MET061METAR SKSA 181500Z 30005KT 9999 OVC070 27/17 Q1016 RMK A3000=",
"80222599999","2023-02-18T16:00:00","4","6.95","-71.85","213.0","LOS COLONIZADORES, CO","FM-15","99999","V020","080,1,N,0021,1","02134,1,C,N","009999,1,9,9","+0290,1","+0170,1","99999,9","08,1,+02134,1,99,9",,"9,AGL   ,+99999,+99999","99,99,9,08,1,99,9,02134,1,99,9,99,9","10140,1,99999,9",,,,"MET061METAR SKSA 181600Z 08004KT 9999 OVC070 29/17 Q1014 RMK A2996=",
"80222599999","2023-02-18T17:00:00","4","6.95","-71.85","213.0","LOS COLONIZADORES, CO","FM-15","99999","V020","050,1,N,0015,1","02134,1,C,N","009999,1,9,9","+0300,1","+0180,1","99999,9","08,1,+02134,1,99,9",,"9,AGL   ,+99999,+99999","99,99,9,08,1,99,9,02134,1,99,9,99,9","10130,1,99999,9",,,,"MET061METAR SKSA 181700Z 05003KT 9999 OVC070 30/18 Q1013 RMK A2992=",
"80222599999","2023-02-18T18:00:00","4","6.95","-71.85","213.0","LOS COLONIZADORES, CO","FM-15","99999","V020","350,1,N,0015,1","99999,9,9,N","009999,1,9,9","+0300,1","+0180,1","99999,9","04,1,+01524,1,99,9",,"9,AGL   ,+99999,+99999","99,99,9,04,1,99,9,01524,1,99,9,99,9","10120,1,99999,9",,,,"MET061METAR SKSA 181800Z 35003KT 9999 SCT050 30/18 Q1012 RMK A2989=",
"80222599999","2023-02-18T19:00:00","4","6.95","-71.85","213.0","LOS COLONIZADORES, CO","FM-15","99999","V020","340,1,N,0026,1","99999,9,9,N","009999,1,9,9","+0300,1","+0180,1","99999,9","04,1,+00914,1,99,9",,"9,AGL   ,+99999,+99999","99,99,9,04,1,99,9,00914,1,99,9,99,9","10120,1,99999,9",,,,"MET061METAR SKSA 181900Z 34005KT 9999 SCT030 30/18 Q1012 RMK A2986=",
"80222599999","2023-02-18T23:00:00","4","6.95","-71.85","213.0","LOS COLONIZADORES, CO","FM-15","99999","V020","350,1,N,0015,1","22000,1,9,N","009999,1,9,9","+0270,1","+0180,1","99999,9",,,,"00,99,1,99,9,99,9,99999,9,99,9,99,9","10100,1,99999,9",,,,"MET058METAR SKSA 182300Z 35003KT 9999 NSC 27/18 Q1010 RMK A2983=",
"80222599999","2023-02-19T11:00:00","4","6.95","-71.85","213.0","LOS COLONIZADORES, CO","FM-15","99999","V020","330,1,N,0015,1","02438,1,C,N","009999,1,9,9","+0220,1","+0170,1","99999,9","07,1,+02438,1,99,9",,"9,AGL   ,+99999,+99999","99,99,9,07,1,99,9,02438,1,99,9,99,9","10120,1,99999,9",,,,"MET061METAR SKSA 191100Z 33003KT 9999 BKN080 22/17 Q1012 RMK A2989=",
"80222599999","2023-02-19T14:00:00","4","6.95","-71.85","213.0","LOS COLONIZADORES, CO","FM-15","99999","V020","040,1,N,0010,1","22000,1,9,N","009999,1,9,9","+0270,1","+0190,1","99999,9",,,,"00,99,1,99,9,99,9,99999,9,99,9,99,9","10150,1,99999,9",,,,"MET058METAR SKSA 191400Z 04002KT 9999 NSC 27/19 Q1015 RMK A2998=",
"80222599999","2023-02-19T15:00:00","4","6.95","-71.85","213.0","LOS COLONIZADORES, CO","FM-15","99999","V020","999,9,C,0000,1","22000,1,9,N","009999,1,9,9","+0290,1","+0170,1","99999,9",,,,"00,99,1,99,9,99,9,99999,9,99,9,99,9","10150,1,99999,9",,,,"MET058METAR SKSA 191500Z 00000KT 9999 NSC 29/17 Q1015 RMK A2998=",
"80222599999","2023-02-19T16:00:00","4","6.95","-71.85","213.0","LOS COLONIZADORES, CO","FM-15","99999","V020","360,1,N,0015,1","22000,1,9,N","009999,1,9,9","+0300,1","+0170,1","99999,9",,,,"00,99,1,99,9,99,9,99999,9,99,9,99,9","10140,1,99999,9",,,,"MET058METAR SKSA 191600Z 36003KT 9999 NSC 30/17 Q1014 RMK A2995=",
"80222599999","2023-02-19T17:00:00","4","6.95","-71.85","213.0","LOS COLONIZADORES, CO","FM-15","99999","V020","050,1,N,0026,1","22000,1,9,N","009999,1,9,9","+0300,1","+0170,1","99999,9",,,,"00,99,1,99,9,99,9,99999,9,99,9,99,9","10130,1,99999,9",,,,"MET058METAR SKSA 191700Z 05005KT 9999 NSC 30/17 Q1013 RMK A2992=",
"80222599999","2023-02-19T18:00:00","4","6.95","-71.85","213.0","LOS COLONIZADORES, CO","FM-15","99999","V020","050,1,N,0021,1","22000,1,9,N","009999,1,9,9","+0310,1","+0160,1","99999,9",,,,"00,99,1,99,9,99,9,99999,9,99,9,99,9","10120,1,99999,9",,,,"MET058METAR SKSA 191800Z 05004KT 9999 NSC 31/16 Q1012 RMK A2989=",
"80222599999","2023-02-19T19:00:00","4","6.95","-71.85","213.0","LOS COLONIZADORES, CO","FM-15","99999","V020","999,9,C,0000,1","22000,1,9,N","009999,1,9,9","+0310,1","+0160,1","99999,9",,,,"00,99,1,99,9,99,9,99999,9,99,9,99,9","10100,1,99999,9",,,,"MET058METAR SKSA 191900Z 00000KT 9999 NSC 31/16 Q1010 RMK A2983=",
"80222599999","2023-02-19T20:00:00","4","6.95","-71.85","213.0","LOS COLONIZADORES, CO","FM-15","99999","V020","110,1,N,0021,1","22000,1,9,N","009999,1,9,9","+0320,1","+0160,1","99999,9",,,,"00,99,1,99,9,99,9,99999,9,99,9,99,9","10100,1,99999,9",,,,"MET058METAR SKSA 192000Z 11004KT 9999 NSC 32/16 Q1010 RMK A2983=",
"80222599999","2023-02-19T22:00:00","4","6.95","-71.85","213.0","LOS COLONIZADORES, CO","FM-15","99999","V020","060,1,N,0015,1","22000,1,9,N","009999,1,9,9","+0300,1","+0160,1","99999,9",,,,"00,99,1,99,9,99,9,99999,9,99,9,99,9","10100,1,99999,9",,,,"MET058METAR SKSA 192200Z 06003KT 9999 NSC 30/16 Q1010 RMK A2983=",
"80222599999","2023-02-19T23:00:00","4","6.95","-71.85","213.0","LOS COLONIZADORES, CO","FM-15","99999","V020","999,9,C,0000,1","22000,1,9,N","009999,1,9,9","+0280,1","+0160,1","99999,9",,,,"00,99,1,99,9,99,9,99999,9,99,9,99,9","10100,1,99999,9",,,,"MET058METAR SKSA 192300Z 00000KT 9999 NSC 28/16 Q1010 RMK A2983=",
"80222599999","2023-02-20T11:00:00","4","6.95","-71.85","213.0","LOS COLONIZADORES, CO","FM-15","99999","V020","999,9,C,0000,1","22000,1,9,N","009999,1,9,9","+0220,1","+0170,1","99999,9",,,,"00,99,1,99,9,99,9,99999,9,99,9,99,9","10120,1,99999,9",,,,"MET058METAR SKSA 201100Z 00000KT 9999 NSC 22/17 Q1012 RMK A2989=",
"80222599999","2023-02-20T14:00:00","4","6.95","-71.85","213.0","LOS COLONIZADORES, CO","FM-15","99999","V020","999,9,V,0010,1","99999,9,9,N","009999,1,9,9","+0260,1","+0190,1","99999,9","04,1,+02438,1,99,9",,"9,AGL   ,+99999,+99999","99,99,9,04,1,99,9,02438,1,99,9,99,9","10150,1,99999,9",,,,"MET061METAR SKSA 201400Z VRB02KT 9999 SCT080 26/19 Q1015 RMK A2997=",
"80222599999","2023-02-20T15:00:00","4","6.95","-71.85","213.0","LOS COLONIZADORES, CO","FM-15","99999","V020","070,1,N,0015,1","22000,1,9,N","009999,1,9,9","+0290,1","+0180,1","99999,9",,,,"00,99,1,99,9,99,9,99999,9,99,9,99,9","10150,1,99999,9",,,,"MET058METAR SKSA 201500Z 07003KT 9999 NSC 29/18 Q1015 RMK A2997=",
"80222599999","2023-02-20T18:00:00","4","6.95","-71.85","213.0","LOS COLONIZADORES, CO","FM-15","99999","V020","999,9,C,0000,1","22000,1,9,N","009999,1,9,9","+0310,1","+0170,1","99999,9",,,,"00,99,1,99,9,99,9,99999,9,99,9,99,9","10120,1,99999,9",,,,"MET058METAR SKSA 201800Z 00000KT 9999 NSC 31/17 Q1012 RMK A2988=",
"80222599999","2023-02-20T19:00:00","4","6.95","-71.85","213.0","LOS COLONIZADORES, CO","FM-15","99999","V020","350,1,N,0021,1","22000,1,9,N","009999,1,9,9","+0310,1","+0170,1","99999,9",,,,"00,99,1,99,9,99,9,99999,9,99,9,99,9","10110,1,99999,9",,,,"MET058METAR SKSA 201900Z 35004KT 9999 NSC 31/17 Q1011 RMK A2986=",
"80222599999","2023-02-20T20:00:00","4","6.95","-71.85","213.0","LOS COLONIZADORES, CO","FM-15","99999","V020","060,1,N,0015,1","22000,1,9,N","009999,1,9,9","+0320,1","+0170,1","99999,9",,,,"00,99,1,99,9,99,9,99999,9,99,9,99,9","10100,1,99999,9",,,,"MET058METAR SKSA 202000Z 06003KT 9999 NSC 32/17 Q1010 RMK A2983=",
"80222599999","2023-02-20T21:00:00","4","6.95","-71.85","213.0","LOS COLONIZADORES, CO","FM-15","99999","V020","330,1,N,0015,1","22000,1,9,N","009999,1,9,9","+0310,1","+0170,1","99999,9",,,,"00,99,1,99,9,99,9,99999,9,99,9,99,9","10100,1,99999,9",,,,"MET058METAR SKSA 202100Z 33003KT 9999 NSC 31/17 Q1010 RMK A2983=",
"80222599999","2023-02-20T23:00:00","4","6.95","-71.85","213.0","LOS COLONIZADORES, CO","FM-15","99999","V020","250,1,N,0015,1","22000,1,9,N","009999,1,9,9","+0280,1","+0180,1","99999,9",,,,"00,99,1,99,9,99,9,99999,9,99,9,99,9","10100,1,99999,9",,,,"MET058METAR SKSA 202300Z 25003KT 9999 NSC 28/18 Q1010 RMK A2983=",
"80222599999","2023-02-21T11:00:00","4","6.95","-71.85","213.0","LOS COLONIZADORES, CO","FM-15","99999","V020","999,9,C,0000,1","22000,1,9,N","009999,1,9,9","+0220,1","+0170,1","99999,9",,,,"00,99,1,99,9,99,9,99999,9,99,9,99,9","10130,1,99999,9",,,,"MET058METAR SKSA 211100Z 00000KT 9999 NSC 22/17 Q1013 RMK A2989=",
"80222599999","2023-02-21T13:00:00","4","6.95","-71.85","213.0","LOS COLONIZADORES, CO","FM-15","99999","V020","999,9,C,0000,1","02134,1,C,N","009999,1,9,9","+0250,1","+0190,1","99999,9","08,1,+02134,1,99,9",,"9,AGL   ,+99999,+99999","99,99,9,08,1,99,9,02134,1,99,9,99,9","10150,1,99999,9",,,,"MET061METAR SKSA 211300Z 00000KT 9999 OVC070 25/19 Q1015 RMK A2997=",
"80222599999","2023-02-21T14:00:00","4","6.95","-71.85","213.0","LOS COLONIZADORES, CO","FM-15","99999","V020","999,9,V,0010,1","02134,1,C,N","009999,1,9,9","+0280,1","+0190,1","99999,9","08,1,+02134,1,99,9",,"9,AGL   ,+99999,+99999","99,99,9,08,1,99,9,02134,1,99,9,99,9","10150,1,99999,9",,,,"MET061METAR SKSA 211400Z VRB02KT 9999 OVC070 28/19 Q1015 RMK A2997=",
"80222599999","2023-02-21T15:00:00","4","6.95","-71.85","213.0","LOS COLONIZADORES, CO","FM-15","99999","V020","090,1,N,0015,1","01524,1,C,N","009999,1,9,9","+0270,1","+0190,1","99999,9","08,1,+01524,1,99,9",,"9,AGL   ,+99999,+99999","99,99,9,08,1,99,9,01524,1,99,9,99,9","10150,1,99999,9",,,,"MET061METAR SKSA 211500Z 09003KT 9999 OVC050 27/19 Q1015 RMK A2997=",
"80222599999","2023-02-21T17:00:00","4","6.95","-71.85","213.0","LOS COLONIZADORES, CO","FM-15","99999","V020","080,1,N,0015,1","99999,9,9,N","009999,1,9,9","+0290,1","+0190,1","99999,9","02,1,+01219,1,99,9",,"9,AGL   ,+99999,+99999","99,99,9,02,1,99,9,01219,1,99,9,99,9","10130,1,99999,9",,,,"MET061METAR SKSA 211700Z 08003KT 9999 FEW040 29/19 Q1013 RMK A2992=",
"80222599999","2023-02-21T18:00:00","4","6.95","-71.85","213.0","LOS COLONIZADORES, CO","FM-15","99999","V020","100,1,N,0021,1","22000,1,9,N","009999,1,9,9","+0290,1","+0190,1","99999,9",,,,"00,99,1,99,9,99,9,99999,9,99,9,99,9","10120,1,99999,9",,,,"MET058METAR SKSA 211800Z 10004KT 9999 NSC 29/19 Q1012 RMK A2989=",
"80222599999","2023-02-21T19:00:00","4","6.95","-71.85","213.0","LOS COLONIZADORES, CO","FM-15","99999","V020","130,1,N,0015,1","22000,1,9,N","009999,1,9,9","+0300,1","+0170,1","99999,9",,,,"00,99,1,99,9,99,9,99999,9,99,9,99,9","10110,1,99999,9",,,,"MET058METAR SKSA 211900Z 13003KT 9999 NSC 30/17 Q1011 RMK A2986=",
"80222599999","2023-02-21T20:00:00","4","6.95","-71.85","213.0","LOS COLONIZADORES, CO","FM-15","99999","V020","070,1,N,0015,1","22000,1,9,N","009999,1,9,9","+0280,1","+0170,1","99999,9",,,,"00,99,1,99,9,99,9,99999,9,99,9,99,9","10100,1,99999,9",,,,"MET058METAR SKSA 212000Z 07003KT 9999 NSC 28/17 Q1010 RMK A2984=",
"80222599999","2023-02-21T21:00:00","4","6.95","-71.85","213.0","LOS COLONIZADORES, CO","FM-15","99999","V020","999,9,C,0000,1","03048,1,C,N","009999,1,9,9","+0280,1","+0170,1","99999,9","08,1,+03048,1,99,9",,"9,AGL   ,+99999,+99999","99,99,9,08,1,99,9,03048,1,99,9,99,9","10100,1,99999,9",,,,"MET061METAR SKSA 212100Z 00000KT 9999 OVC100 28/17 Q1010 RMK A2984=",
"80222599999","2023-02-21T23:00:00","4","6.95","-71.85","213.0","LOS COLONIZADORES, CO","FM-15","99999","V020","250,1,N,0015,1","99999,9,9,N","009999,1,9,9","+0260,1","+0170,1","99999,9","02,1,+02438,1,99,9",,"9,AGL   ,+99999,+99999","99,99,9,02,1,99,9,02438,1,99,9,99,9","10100,1,99999,9",,,,"MET061METAR SKSA 212300Z 25003KT 9999 FEW080 26/17 Q1010 RMK A2984=",
"80222599999","2023-02-22T11:00:00","4","6.95","-71.85","213.0","LOS COLONIZADORES, CO","FM-15","99999","V020","070,1,N,0015,1","02134,1,C,N","009999,1,9,9","+0240,1","+0190,1","99999,9","07,1,+02134,1,99,9",,"9,AGL   ,+99999,+99999","99,99,9,07,1,99,9,02134,1,99,9,99,9","10150,1,99999,9",,,,"MET061METAR SKSA 221100Z 07003KT 9999 BKN070 24/19 Q1015 RMK A2997=",
"80222599999","2023-02-22T13:00:00","4","6.95","-71.85","213.0","LOS COLONIZADORES, CO","FM-15","99999","V020","070,1,N,0021,1","02134,1,C,N","009999,1,9,9","+0250,1","+0190,1","99999,9","07,1,+02134,1,99,9",,"9,AGL   ,+99999,+99999","99,99,9,07,1,99,9,02134,1,99,9,99,9","10150,1,99999,9",,,,"MET061METAR SKSA 221300Z 07004KT 9999 BKN070 25/19 Q1015 RMK A2997=",
"80222599999","2023-02-22T14:00:00","4","6.95","-71.85","213.0","LOS COLONIZADORES, CO","FM-15","99999","V020","320,1,N,0015,1","02134,1,C,N","009999,1,9,9","+0250,1","+0190,1","99999,9","07,1,+02134,1,99,9",,"9,AGL   ,+99999,+99999","99,99,9,07,1,99,9,02134,1,99,9,99,9","10180,1,99999,9",,,,"MET061METAR SKSA 221400Z 32003KT 9999 BKN070 25/19 Q1018 RMK A3007=",
"80222599999","2023-02-22T15:00:00","4","6.95","-71.85","213.0","LOS COLONIZADORES, CO","FM-15","99999","V020","260,1,N,0015,1","01829,1,C,N","009999,1,9,9","+0260,1","+0170,1","99999,9","07,1,+01829,1,99,9",,"9,AGL   ,+99999,+99999","99,99,9,07,1,99,9,01829,1,99,9,99,9","10180,1,99999,9",,,,"MET061METAR SKSA 221500Z 26003KT 9999 BKN060 26/17 Q1018 RMK A3007=",
"80222599999","2023-02-22T16:00:00","4","6.95","-71.85","213.0","LOS COLONIZADORES, CO","FM-15","99999","V020","250,1,N,0031,1","01829,1,C,N","009999,1,9,9","+0280,1","+0170,1","99999,9","07,1,+01829,1,99,9",,"9,AGL   ,+99999,+99999","99,99,9,07,1,99,9,01829,1,99,9,99,9","10180,1,99999,9",,,,"MET061METAR SKSA 221600Z 25006KT 9999 BKN060 28/17 Q1018 RMK A3007=",
"80222599999","2023-02-22T17:00:00","4","6.95","-71.85","213.0","LOS COLONIZADORES, CO","FM-15","99999","V020","360,1,N,0021,1","22000,1,9,N","009999,1,9,9","+0300,1","+0170,1","99999,9",,,,"00,99,1,99,9,99,9,99999,9,99,9,99,9","10160,1,99999,9",,,,"MET058METAR SKSA 221700Z 36004KT 9999 NSC 30/17 Q1016 RMK A3000=",
"80222599999","2023-02-22T18:00:00","4","6.95","-71.85","213.0","LOS COLONIZADORES, CO","FM-15","99999","V020","080,1,N,0015,1","22000,1,9,N","009999,1,9,9","+0310,1","+0170,1","99999,9",,,,"00,99,1,99,9,99,9,99999,9,99,9,99,9","10140,1,99999,9",,,,"MET058METAR SKSA 221800Z 08003KT 9999 NSC 31/17 Q1014 RMK A2995=",
"80222599999","2023-02-22T19:00:00","4","6.95","-71.85","213.0","LOS COLONIZADORES, CO","FM-15","99999","V020","300,1,N,0015,1","22000,1,9,N","009999,1,9,9","+0300,1","+0170,1","99999,9",,,,"00,99,1,99,9,99,9,99999,9,99,9,99,9","10130,1,99999,9",,,,"MET058METAR SKSA 221900Z 30003KT 9999 NSC 30/17 Q1013 RMK A2993=",
"80222599999","2023-02-22T21:00:00","4","6.95","-71.85","213.0","LOS COLONIZADORES, CO","FM-15","99999","V020","240,1,N,0036,1","22000,1,9,N","009999,1,9,9","+0310,1","+0170,1","99999,9",,,,"00,99,1,99,9,99,9,99999,9,99,9,99,9","10110,1,99999,9",,,,"MET058METAR SKSA 222100Z 24007KT 9999 NSC 31/17 Q1011 RMK A2986=",
"80222599999","2023-02-22T22:00:00","4","6.95","-71.85","213.0","LOS COLONIZADORES, CO","FM-15","99999","V020","360,1,N,0015,1","22000,1,9,N","009999,1,9,9","+0300,1","+0170,1","99999,9",,,,"00,99,1,99,9,99,9,99999,9,99,9,99,9","10110,1,99999,9",,,,"MET058METAR SKSA 222200Z 36003KT 9999 NSC 30/17 Q1011 RMK A2986=",
"80222599999","2023-02-23T11:00:00","4","6.95","-71.85","213.0","LOS COLONIZADORES, CO","FM-15","99999","V020","999,9,C,0000,1","22000,1,9,N","009999,1,9,9","+0230,1","+0190,1","99999,9",,,,"00,99,1,99,9,99,9,99999,9,99,9,99,9","10150,1,99999,9",,,,"MET058METAR SKSA 231100Z 00000KT 9999 NSC 23/19 Q1015 RMK A2997=",
"80222599999","2023-02-23T13:00:00","4","6.95","-71.85","213.0","LOS COLONIZADORES, CO","FM-15","99999","V020","340,1,N,0015,1","22000,1,9,N","009999,1,9,9","+0270,1","+0190,1","99999,9",,,,"00,99,1,99,9,99,9,99999,9,99,9,99,9","10170,1,99999,9",,,,"MET058METAR SKSA 231300Z 34003KT 9999 NSC 27/19 Q1017 RMK A3004=",
"80222599999","2023-02-23T14:00:00","4","6.95","-71.85","213.0","LOS COLONIZADORES, CO","FM-15","99999","V020","300,1,N,0026,1","22000,1,9,N","009999,1,9,9","+0270,1","+0190,1","99999,9",,,,"00,99,1,99,9,99,9,99999,9,99,9,99,9","10180,1,99999,9",,,,"MET058METAR SKSA 231400Z 30005KT 9999 NSC 27/19 Q1018 RMK A3007=",
"80222599999","2023-02-23T18:00:00","4","6.95","-71.85","213.0","LOS COLONIZADORES, CO","FM-15","99999","V020","350,1,N,0015,1","99999,9,9,N","009999,1,9,9","+0310,1","+0170,1","99999,9","02,1,+01829,1,99,9",,"9,AGL   ,+99999,+99999","99,99,9,02,1,99,9,01829,1,99,9,99,9","10150,1,99999,9",,,,"MET061METAR SKSA 231800Z 35003KT 9999 FEW060 31/17 Q1015 RMK A2998=",
"80222599999","2023-02-23T19:00:00","4","6.95","-71.85","213.0","LOS COLONIZADORES, CO","FM-15","99999","V020","040,1,N,0015,1","99999,9,9,N","009999,1,9,9","+0330,1","+0180,1","99999,9","02,1,+01524,1,99,9",,"9,AGL   ,+99999,+99999","99,99,9,02,1,99,9,01524,1,99,9,99,9","10140,1,99999,9",,,,"MET061METAR SKSA 231900Z 04003KT 9999 FEW050 33/18 Q1014 RMK A2994=",
"80222599999","2023-02-23T20:00:00","4","6.95","-71.85","213.0","LOS COLONIZADORES, CO","FM-15","99999","V020","999,9,C,0000,1","22000,1,9,N","009999,1,9,9","+0320,1","+0180,1","99999,9",,,,"00,99,1,99,9,99,9,99999,9,99,9,99,9","10130,1,99999,9",,,,"MET058METAR SKSA 232000Z 00000KT 9999 NSC 32/18 Q1013 RMK A2994=",
"80222599999","2023-02-23T21:00:00","4","6.95","-71.85","213.0","LOS COLONIZADORES, CO","FM-15","99999","V020","999,9,C,0000,1","22000,1,9,N","009999,1,9,9","+0320,1","+0180,1","99999,9",,,,"00,99,1,99,9,99,9,99999,9,99,9,99,9","10120,1,99999,9",,,,"MET058METAR SKSA 232100Z 00000KT 9999 NSC 32/18 Q1012 RMK A2990=",
"80222599999","2023-02-23T22:00:00","4","6.95","-71.85","213.0","LOS COLONIZADORES, CO","FM-15","99999","V020","999,9,C,0000,1","22000,1,9,N","009999,1,9,9","+0310,1","+0180,1","99999,9",,,,"00,99,1,99,9,99,9,99999,9,99,9,99,9","10120,1,99999,9",,,,"MET058METAR SKSA 232200Z 00000KT 9999 NSC 31/18 Q1012 RMK A2990=",
"80222599999","2023-02-23T23:00:00","4","6.95","-71.85","213.0","LOS COLONIZADORES, CO","FM-15","99999","V020","999,9,C,0000,1","22000,1,9,N","009999,1,9,9","+0260,1","+0180,1","99999,9",,,,"00,99,1,99,9,99,9,99999,9,99,9,99,9","10120,1,99999,9",,,,"MET058METAR SKSA 232300Z 00000KT 9999 NSC 26/18 Q1012 RMK A2990=",
"80222599999","2023-02-24T11:00:00","4","6.95","-71.85","213.0","LOS COLONIZADORES, CO","FM-15","99999","V020","040,1,N,0015,1","22000,1,9,N","009999,1,9,9","+0220,1","+0190,1","99999,9",,,,"00,99,1,99,9,99,9,99999,9,99,9,99,9","10140,1,99999,9",,,,"MET058METAR SKSA 241100Z 04003KT 9999 NSC 22/19 Q1014 RMK A2996=",
"80222599999","2023-02-24T14:00:00","4","6.95","-71.85","213.0","LOS COLONIZADORES, CO","FM-15","99999","V020","300,1,N,0021,1","22000,1,9,N","009999,1,9,9","+0260,1","+0170,1","99999,9",,,,"00,99,1,99,9,99,9,99999,9,99,9,99,9","10170,1,99999,9",,,,"MET058METAR SKSA 241400Z 30004KT 9999 NSC 26/17 Q1017 RMK A3005=",
"80222599999","2023-02-24T15:00:00","4","6.95","-71.85","213.0","LOS COLONIZADORES, CO","FM-15","99999","V020","300,1,N,0026,1","22000,1,9,N","009999,1,9,9","+0280,1","+0170,1","99999,9",,,,"00,99,1,99,9,99,9,99999,9,99,9,99,9","10170,1,99999,9",,,,"MET058METAR SKSA 241500Z 30005KT 9999 NSC 28/17 Q1017 RMK A3005=",
"80222599999","2023-02-24T16:00:00","4","6.95","-71.85","213.0","LOS COLONIZADORES, CO","FM-15","99999","V020","220,1,N,0015,1","22000,1,9,N","009999,1,9,9","+0300,1","+0170,1","99999,9",,,,"00,99,1,99,9,99,9,99999,9,99,9,99,9","10160,1,99999,9",,,,"MET058METAR SKSA 241600Z 22003KT 9999 NSC 30/17 Q1016 RMK A3002=",
"80222599999","2023-02-24T17:00:00","4","6.95","-71.85","213.0","LOS COLONIZADORES, CO","FM-15","99999","V020","340,1,N,0015,1","22000,1,9,N","009999,1,9,9","+0300,1","+0170,1","99999,9",,,,"00,99,1,99,9,99,9,99999,9,99,9,99,9","10150,1,99999,9",,,,"MET058METAR SKSA 241700Z 34003KT 9999 NSC 30/17 Q1015 RMK A2998=",
"80222599999","2023-02-24T19:00:00","4","6.95","-71.85","213.0","LOS COLONIZADORES, CO","FM-15","99999","V020","360,1,N,0015,1","22000,1,9,N","009999,1,9,9","+0320,1","+0170,1","99999,9",,,,"00,99,1,99,9,99,9,99999,9,99,9,99,9","10120,1,99999,9",,,,"MET058METAR SKSA 241900Z 36003KT 9999 NSC 32/17 Q1012 RMK A2989=",
"80222599999","2023-02-24T21:00:00","4","6.95","-71.85","213.0","LOS COLONIZADORES, CO","FM-15","99999","V020","100,1,N,0010,1","22000,1,9,N","009999,1,9,9","+0320,1","+0170,1","99999,9",,,,"00,99,1,99,9,99,9,99999,9,99,9,99,9","10100,1,99999,9",,,,"MET058METAR SKSA 242100Z 10002KT 9999 NSC 32/17 Q1010 RMK A2984=",
"80222599999","2023-02-25T13:00:00","4","6.95","-71.85","213.0","LOS COLONIZADORES, CO","FM-15","99999","V020","280,1,N,0036,1","22000,1,9,N","009999,1,9,9","+0250,1","+0140,1","99999,9",,,,"00,99,1,99,9,99,9,99999,9,99,9,99,9","10160,1,99999,9",,,,"MET058METAR SKSA 251300Z 28007KT 9999 NSC 25/14 Q1016 RMK A3002=",
"80222599999","2023-02-25T14:00:00","4","6.95","-71.85","213.0","LOS COLONIZADORES, CO","FM-15","99999","V020","290,1,N,0015,1","99999,9,9,N","009999,1,9,9","+0270,1","+0160,1","99999,9","04,1,+01829,1,99,9",,"9,AGL   ,+99999,+99999","99,99,9,04,1,99,9,01829,1,99,9,99,9","10160,1,99999,9",,,,"MET061METAR SKSA 251400Z 29003KT 9999 SCT060 27/16 Q1016 RMK A3002=",
"80222599999","2023-02-25T15:00:00","4","6.95","-71.85","213.0","LOS COLONIZADORES, CO","FM-15","99999","V020","340,1,N,0015,1","99999,9,9,N","009999,1,9,9","+0290,1","+0170,1","99999,9","04,1,+01829,1,99,9",,"9,AGL   ,+99999,+99999","99,99,9,04,1,99,9,01829,1,99,9,99,9","10160,1,99999,9",,,,"MET061METAR SKSA 251500Z 34003KT 9999 SCT060 29/17 Q1016 RMK A3000=",
"80222599999","2023-02-25T16:00:00","4","6.95","-71.85","213.0","LOS COLONIZADORES, CO","FM-15","99999","V020","300,1,N,0021,1","99999,9,9,N","009999,1,9,9","+0290,1","+0170,1","99999,9","04,1,+01829,1,99,9",,"9,AGL   ,+99999,+99999","99,99,9,04,1,99,9,01829,1,99,9,99,9","10150,1,99999,9",,,,"MET061METAR SKSA 251600Z 30004KT 9999 SCT060 29/17 Q1015 RMK A2998=",
"80222599999","2023-02-25T17:00:00","4","6.95","-71.85","213.0","LOS COLONIZADORES, CO","FM-15","99999","V020","360,1,N,0026,1","99999,9,9,N","009999,1,9,9","+0300,1","+0190,1","99999,9","02,1,+01829,1,99,9",,"9,AGL   ,+99999,+99999","99,99,9,02,1,99,9,01829,1,99,9,99,9","10130,1,99999,9",,,,"MET061METAR SKSA 251700Z 36005KT 9999 FEW060 30/19 Q1013 RMK A2993=",
"80222599999","2023-02-25T18:00:00","4","6.95","-71.85","213.0","LOS COLONIZADORES, CO","FM-15","99999","V020","330,1,N,0015,1","99999,9,9,N","009999,1,9,9","+0310,1","+0190,1","99999,9","02,1,+01829,1,99,9",,"9,AGL   ,+99999,+99999","99,99,9,02,1,99,9,01829,1,99,9,99,9","10130,1,99999,9",,,,"MET061METAR SKSA 251800Z 33003KT 9999 FEW060 31/19 Q1013 RMK A2993=",
"80222599999","2023-02-25T19:00:00","4","6.95","-71.85","213.0","LOS COLONIZADORES, CO","FM-15","99999","V020","060,1,N,0031,1","99999,9,9,N","009999,1,9,9","+0310,1","+0190,1","99999,9","02,1,+01829,1,99,9",,"9,AGL   ,+99999,+99999","99,99,9,02,1,99,9,01829,1,99,9,99,9","10110,1,99999,9",,,,"MET061METAR SKSA 251900Z 06006KT 9999 FEW060 31/19 Q1011 RMK A2985=",
"80222599999","2023-02-25T20:00:00","4","6.95","-71.85","213.0","LOS COLONIZADORES, CO","FM-15","99999","V020","080,1,N,0015,1","99999,9,9,N","009999,1,9,9","+0310,1","+0190,1","99999,9","02,1,+01524,1,99,9",,"9,AGL   ,+99999,+99999","99,99,9,02,1,99,9,01524,1,99,9,99,9","10100,1,99999,9",,,,"MET061METAR SKSA 252000Z 08003KT 9999 FEW050 31/19 Q1010 RMK A2983=",
"80222599999","2023-02-26T11:00:00","4","6.95","-71.85","213.0","LOS COLONIZADORES, CO","FM-15","99999","V020","999,9,C,0000,1","01829,1,C,N","009999,1,9,9","+0220,1","+0200,1","99999,9","08,1,+01829,1,99,9",,"9,AGL   ,+99999,+99999","99,99,9,08,1,99,9,01829,1,99,9,99,9","10140,1,99999,9",,,,"MET061METAR SKSA 261100Z 00000KT 9999 OVC060 22/20 Q1014 RMK A2994=",
"80222599999","2023-02-26T12:00:00","4","6.95","-71.85","213.0","LOS COLONIZADORES, CO","FM-15","99999","V020","999,9,C,0000,1","01829,1,C,N","009999,1,9,9","+0220,1","+0200,1","99999,9","08,1,+01829,1,99,9",,"9,AGL   ,+99999,+99999","99,99,9,08,1,99,9,01829,1,99,9,99,9","10150,1,99999,9",,,,"MET061METAR SKSA 261200Z 00000KT 9999 OVC060 22/20 Q1015 RMK A2997=",
"80222599999","2023-02-26T14:00:00","4","6.95","-71.85","213.0","LOS COLONIZADORES, CO","FM-15","99999","V020","300,1,N,0015,1","01829,1,C,N","009999,1,9,9","+0240,1","+0210,1","99999,9","08,1,+01829,1,99,9",,"9,AGL   ,+99999,+99999","99,99,9,08,1,99,9,01829,1,99,9,99,9","10160,1,99999,9",,,,"MET061METAR SKSA 261400Z 30003KT 9999 OVC060 24/21 Q1016 RMK A3002=",
"80222599999","2023-02-26T15:00:00","4","6.95","-71.85","213.0","LOS COLONIZADORES, CO","FM-15","99999","V020","310,1,N,0026,1","01829,1,C,N","009999,1,9,9","+0250,1","+0210,1","99999,9","08,1,+01829,1,99,9",,"9,AGL   ,+99999,+99999","99,99,9,08,1,99,9,01829,1,99,9,99,9","10160,1,99999,9",,,,"MET061METAR SKSA 261500Z 31005KT 9999 OVC060 25/21 Q1016 RMK A3002=",
"80222599999","2023-02-26T17:00:00","4","6.95","-71.85","213.0","LOS COLONIZADORES, CO","FM-15","99999","V020","320,1,N,0031,1","01829,1,C,N","009999,1,9,9","+0270,1","+0210,1","99999,9","08,1,+01829,1,99,9",,"9,AGL   ,+99999,+99999","99,99,9,08,1,99,9,01829,1,99,9,99,9","10140,1,99999,9",,,,"MET061METAR SKSA 261700Z 32006KT 9999 OVC060 27/21 Q1014 RMK A2996=",
"80222599999","2023-02-26T18:00:00","4","6.95","-71.85","213.0","LOS COLONIZADORES, CO","FM-15","99999","V020","330,1,N,0021,1","99999,9,9,N","009999,1,9,9","+0300,1","+0170,1","99999,9","02,1,+02134,1,99,9",,"9,AGL   ,+99999,+99999","99,99,9,02,1,99,9,02134,1,99,9,99,9","10130,1,99999,9",,,,"MET061METAR SKSA 261800Z 33004KT 9999 FEW070 30/17 Q1013 RMK A2992=",
"80222599999","2023-02-26T19:00:00","4","6.95","-71.85","213.0","LOS COLONIZADORES, CO","FM-15","99999","V020","330,1,N,0015,1","22000,1,9,N","009999,1,9,9","+0300,1","+0170,1","99999,9",,,,"00,99,1,99,9,99,9,99999,9,99,9,99,9","10120,1,99999,9",,,,"MET058METAR SKSA 261900Z 33003KT 9999 NSC 30/17 Q1012 RMK A2988=",
"80222599999","2023-02-26T20:00:00","4","6.95","-71.85","213.0","LOS COLONIZADORES, CO","FM-15","99999","V020","340,1,N,0031,1","22000,1,9,N","009999,1,9,9","+0300,1","+0170,1","99999,9",,,,"00,99,1,99,9,99,9,99999,9,99,9,99,9","10100,1,99999,9",,,,"MET058METAR SKSA 262000Z 34006KT 9999 NSC 30/17 Q1010 RMK A2985=",
"80222599999","2023-02-26T21:00:00","4","6.95","-71.85","213.0","LOS COLONIZADORES, CO","FM-15","99999","V020","340,1,N,0031,1","22000,1,9,N","009999,1,9,9","+0300,1","+0170,1","99999,9",,,,"00,99,1,99,9,99,9,99999,9,99,9,99,9","10100,1,99999,9",,,,"MET058METAR SKSA 262100Z 34006KT 9999 NSC 30/17 Q1010 RMK A2985=",
"80222599999","2023-02-26T23:00:00","4","6.95","-71.85","213.0","LOS COLONIZADORES, CO","FM-15","99999","V020","999,9,C,0000,1","22000,1,9,N","009999,1,9,9","+0250,1","+0200,1","99999,9",,,,"00,99,1,99,9,99,9,99999,9,99,9,99,9","10100,1,99999,9",,,,"MET058METAR SKSA 262300Z 00000KT 9999 NSC 25/20 Q1010 RMK A2985=",
"80222599999","2023-02-27T11:00:00","4","6.95","-71.85","213.0","LOS COLONIZADORES, CO","FM-15","99999","V020","320,1,N,0015,1","01829,1,C,N","009999,1,9,9","+0240,1","+0190,1","99999,9","08,1,+01829,1,99,9",,"9,AGL   ,+99999,+99999","99,99,9,08,1,99,9,01829,1,99,9,99,9","10120,1,99999,9",,,,"MET061METAR SKSA 271100Z 32003KT 9999 OVC060 24/19 Q1012 RMK A2989=",
"80222599999","2023-02-27T13:00:00","4","6.95","-71.85","213.0","LOS COLONIZADORES, CO","FM-15","99999","V020","350,1,N,0015,1","01829,1,C,N","009999,1,9,9","+0240,1","+0190,1","99999,9","08,1,+01829,1,99,9",,"9,AGL   ,+99999,+99999","99,99,9,08,1,99,9,01829,1,99,9,99,9","10140,1,99999,9",,,,"MET061METAR SKSA 271300Z 35003KT 9999 OVC060 24/19 Q1014 RMK A2994=",
"80222599999","2023-02-27T14:00:00","4","6.95","-71.85","213.0","LOS COLONIZADORES, CO","FM-15","99999","V020","010,1,N,0015,1","01829,1,C,N","009999,1,9,9","+0270,1","+0200,1","99999,9","08,1,+01829,1,99,9",,"9,AGL   ,+99999,+99999","99,99,9,08,1,99,9,01829,1,99,9,99,9","10140,1,99999,9",,,,"MET061METAR SKSA 271400Z 01003KT 9999 OVC060 27/20 Q1014 RMK A2994=",
"80222599999","2023-02-27T15:00:00","4","6.95","-71.85","213.0","LOS COLONIZADORES, CO","FM-15","99999","V020","320,1,N,0026,1","01829,1,C,N","009999,1,9,9","+0260,1","+0200,1","99999,9","08,1,+01829,1,99,9",,"9,AGL   ,+99999,+99999","99,99,9,08,1,99,9,01829,1,99,9,99,9","10150,1,99999,9",,,,"MET061METAR SKSA 271500Z 32005KT 9999 OVC060 26/20 Q1015 RMK A2998=",
"80222599999","2023-02-27T16:00:00","4","6.95","-71.85","213.0","LOS COLONIZADORES, CO","FM-15","99999","V020","260,1,N,0026,1","01829,1,C,N","009999,1,9,9","+0270,1","+0200,1","99999,9","08,1,+01829,1,99,9",,"9,AGL   ,+99999,+99999","99,99,9,08,1,99,9,01829,1,99,9,99,9","10150,1,99999,9",,,,"MET061METAR SKSA 271600Z 26005KT 9999 OVC060 27/20 Q1015 RMK A2998=",
"80222599999","2023-02-27T17:00:00","4","6.95","-71.85","213.0","LOS COLONIZADORES, CO","FM-15","99999","V020","270,1,N,0031,1","22000,1,9,N","009999,1,9,9","+0290,1","+0200,1","99999,9",,,,"00,99,1,99,9,99,9,99999,9,99,9,99,9","10140,1,99999,9",,,,"MET058METAR SKSA 271700Z 27006KT 9999 NSC 29/20 Q1014 RMK A2995=",
"80222599999","2023-02-27T18:00:00","4","6.95","-71.85","213.0","LOS COLONIZADORES, CO","FM-15","99999","V020","010,1,N,0015,1","22000,1,9,N","009999,1,9,9","+0310,1","+0200,1","99999,9",,,,"00,99,1,99,9,99,9,99999,9,99,9,99,9","10130,1,99999,9",,,,"MET058METAR SKSA 271800Z 01003KT 9999 NSC 31/20 Q1013 RMK A2991=",
"80222599999","2023-02-27T19:00:00","4","6.95","-71.85","213.0","LOS COLONIZADORES, CO","FM-15","99999","V020","060,1,N,0015,1","22000,1,9,N","009999,1,9,9","+0330,1","+0200,1","99999,9",,,,"00,99,1,99,9,99,9,99999,9,99,9,99,9","10120,1,99999,9",,,,"MET058METAR SKSA 271900Z 06003KT 9999 NSC 33/20 Q1012 RMK A2988=",
"80222599999","2023-02-27T23:00:00","4","6.95","-71.85","213.0","LOS COLONIZADORES, CO","FM-15","99999","V020","260,1,N,0021,1","22000,1,9,N","009999,1,9,9","+0280,1","+0200,1","99999,9",,,,"00,99,1,99,9,99,9,99999,9,99,9,99,9","10100,1,99999,9",,,,"MET058METAR SKSA 272300Z 26004KT 9999 NSC 28/20 Q1010 RMK A2983=",
"80222599999","2023-02-28T11:00:00","4","6.95","-71.85","213.0","LOS COLONIZADORES, CO","FM-15","99999","V020","999,9,N,9999,9","01829,1,C,N","009999,1,9,9","+0230,1","+0200,1","99999,9","08,1,+01829,1,99,9",,"9,AGL   ,+99999,+99999","99,99,9,08,1,99,9,01829,1,99,9,99,9","10120,1,99999,9",,,,"MET062METAR SKSA 281100Z 080003KT 9999 OVC060 23/20 Q1012 RMK A2989=",
"80222599999","2023-02-28T12:00:00","4","6.95","-71.85","213.0","LOS COLONIZADORES, CO","FM-15","99999","V020","999,9,C,0000,1","01829,1,C,N","009999,1,9,9","+0230,1","+0200,1","99999,9","08,1,+01829,1,99,9",,"9,AGL   ,+99999,+99999","99,99,9,08,1,99,9,01829,1,99,9,99,9","10130,1,99999,9",,,,"MET061METAR SKSA 281200Z 00000KT 9999 OVC060 23/20 Q1013 RMK A2992=",
"80222599999","2023-02-28T14:00:00","4","6.95","-71.85","213.0","LOS COLONIZADORES, CO","FM-15","99999","V020","999,9,C,0000,1","01829,1,C,N","009999,1,9,9","+0240,1","+0220,1","99999,9","08,1,+01829,1,99,9",,"9,AGL   ,+99999,+99999","99,99,9,08,1,99,9,01829,1,99,9,99,9","10150,1,99999,9",,,,"MET061METAR SKSA 281400Z 00000KT 9999 OVC060 24/22 Q1015 RMK A2997=",
"80222599999","2023-02-28T15:00:00","4","6.95","-71.85","213.0","LOS COLONIZADORES, CO","FM-15","99999","V020","230,1,N,0015,1","01829,1,C,N","009999,1,9,9","+0260,1","+0220,1","99999,9","08,1,+01829,1,99,9",,"9,AGL   ,+99999,+99999","99,99,9,08,1,99,9,01829,1,99,9,99,9","10150,1,99999,9",,,,"MET061METAR SKSA 281500Z 23003KT 9999 OVC060 26/22 Q1015 RMK A2997=",
"80222599999","2023-02-28T16:00:00","4","6.95","-71.85","213.0","LOS COLONIZADORES, CO","FM-15","99999","V020","230,1,N,0015,1","01829,1,C,N","009999,1,9,9","+0280,1","+0210,1","99999,9","08,1,+01829,1,99,9",,"9,AGL   ,+99999,+99999","99,99,9,08,1,99,9,01829,1,99,9,99,9","10140,1,99999,9",,,,"MET061METAR SKSA 281600Z 23003KT 9999 OVC060 28/21 Q1014 RMK A2996=",
"80222599999","2023-02-28T17:00:00","4","6.95","-71.85","213.0","LOS COLONIZADORES, CO","FM-15","99999","V020","310,1,N,0015,1","01829,1,C,N","009999,1,9,9","+0290,1","+0210,1","99999,9","08,1,+01829,1,99,9",,"9,AGL   ,+99999,+99999","99,99,9,08,1,99,9,01829,1,99,9,99,9","10140,1,99999,9",,,,"MET061METAR SKSA 281700Z 31003KT 9999 OVC060 29/21 Q1014 RMK A2994=",
"80222599999","2023-02-28T18:00:00","4","6.95","-71.85","213.0","LOS COLONIZADORES, CO","FM-15","99999","V020","360,1,N,0015,1","22000,1,9,N","009999,1,9,9","+0320,1","+0190,1","99999,9",,,,"00,99,1,99,9,99,9,99999,9,99,9,99,9","10120,1,99999,9",,,,"MET058METAR SKSA 281800Z 36003KT 9999 NSC 32/19 Q1012 RMK A2989=",
"80222599999","2023-02-28T19:00:00","4","6.95","-71.85","213.0","LOS COLONIZADORES, CO","FM-15","99999","V020","300,1,N,0026,1","22000,1,9,N","009999,1,9,9","+0320,1","+0190,1","99999,9",,,,"00,99,1,99,9,99,9,99999,9,99,9,99,9","10110,1,99999,9",,,,"MET058METAR SKSA 281900Z 30005KT 9999 NSC 32/19 Q1011 RMK A2986=",
"80222599999","2023-02-28T20:00:00","4","6.95","-71.85","213.0","LOS COLONIZADORES, CO","FM-15","99999","V020","340,1,N,0015,1","22000,1,9,N","009999,1,9,9","+0320,1","+0190,1","99999,9",,,,"00,99,1,99,9,99,9,99999,9,99,9,99,9","10100,1,99999,9",,,,"MET058METAR SKSA 282000Z 34003KT 9999 NSC 32/19 Q1010 RMK A2982=",
"80222599999","2023-02-28T21:00:00","4","6.95","-71.85","213.0","LOS COLONIZADORES, CO","FM-15","99999","V020","220,1,N,0015,1","22000,1,9,N","009999,1,9,9","+0330,1","+0190,1","99999,9",,,,"00,99,1,99,9,99,9,99999,9,99,9,99,9","10100,1,99999,9",,,,"MET058METAR SKSA 282100Z 22003KT 9999 NSC 33/19 Q1010 RMK A2982=",
"80222599999","2023-02-28T22:00:00","4","6.95","-71.85","213.0","LOS COLONIZADORES, CO","FM-15","99999","V020","180,1,N,0015,1","22000,1,9,N","009999,1,9,9","+0320,1","+0190,1","99999,9",,,,"00,99,1,99,9,99,9,99999,9,99,9,99,9","10100,1,99999,9",,,,"MET058METAR SKSA 282200Z 18003KT 9999 NSC 32/19 Q1010 RMK A2982=",
"80222599999","2023-02-28T23:00:00","4","6.95","-71.85","213.0","LOS COLONIZADORES, CO","FM-15","99999","V020","280,1,N,0015,1","22000,1,9,N","009999,1,9,9","+0280,1","+0210,1","99999,9",,,,"00,99,1,99,9,99,9,99999,9,99,9,99,9","10100,1,99999,9",,,,"MET058METAR SKSA 282300Z 28003KT 9999 NSC 28/21 Q1010 RMK A2982=",
"80222599999","2023-03-01T11:00:00","4","6.95","-71.85","213.0","LOS COLONIZADORES, CO","FM-15","99999","V020","999,9,V,0010,1","01829,1,C,N","009999,1,9,9","+0230,1","+0210,1","99999,9","08,1,+01829,1,99,9",,"9,AGL   ,+99999,+99999","99,99,9,08,1,99,9,01829,1,99,9,99,9","10130,1,99999,9",,,,"MET061METAR SKSA 011100Z VRB02KT 9999 OVC060 23/21 Q1013 RMK A2991=",
"80222599999","2023-03-01T13:00:00","4","6.95","-71.85","213.0","LOS COLONIZADORES, CO","FM-15","99999","V020","999,9,V,0010,1","01829,1,C,N","009999,1,9,9","+0250,1","+0210,1","99999,9","08,1,+01829,1,99,9",,"9,AGL   ,+99999,+99999","99,99,9,08,1,99,9,01829,1,99,9,99,9","10140,1,99999,9",,,,"MET061METAR SKSA 011300Z VRB02KT 9999 OVC060 25/21 Q1014 RMK A2996=",
"80222599999","2023-03-01T14:00:00","4","6.95","-71.85","213.0","LOS COLONIZADORES, CO","FM-15","99999","V020","310,1,N,0015,1","01829,1,C,N","009999,1,9,9","+0260,1","+0220,1","99999,9","08,1,+01829,1,99,9",,"9,AGL   ,+99999,+99999","99,99,9,08,1,99,9,01829,1,99,9,99,9","10150,1,99999,9",,,,"MET061METAR SKSA 011400Z 31003KT 9999 OVC060 26/22 Q1015 RMK A2997=",
"80222599999","2023-03-01T15:00:00","4","6.95","-71.85","213.0","LOS COLONIZADORES, CO","FM-15","99999","V020","280,1,N,0015,1","01829,1,C,N","009999,1,9,9","+0270,1","+0220,1","99999,9","08,1,+01829,1,99,9",,"9,AGL   ,+99999,+99999","99,99,9,08,1,99,9,01829,1,99,9,99,9","10150,1,99999,9",,,,"MET061METAR SKSA 011500Z 28003KT 9999 OVC060 27/22 Q1015 RMK A2997=",
"80222599999","2023-03-01T16:00:00","4","6.95","-71.85","213.0","LOS COLONIZADORES, CO","FM-15","99999","V020","340,1,N,0021,1","01829,1,C,N","009999,1,9,9","+0270,1","+0220,1","99999,9","08,1,+01829,1,99,9",,"9,AGL   ,+99999,+99999","99,99,9,08,1,99,9,01829,1,99,9,99,9","10150,1,99999,9",,,,"MET061METAR SKSA 011600Z 34004KT 9999 OVC060 27/22 Q1015 RMK A2997=",
"80222599999","2023-03-01T17:00:00","4","6.95","-71.85","213.0","LOS COLONIZADORES, CO","FM-15","99999","V020","999,9,C,0000,1","01829,1,C,N","009999,1,9,9","+0260,1","+0220,1","99999,9","08,1,+01829,1,99,9",,"9,AGL   ,+99999,+99999","99,99,9,08,1,99,9,01829,1,99,9,99,9","10140,1,99999,9",,,,"MET061METAR SKSA 011700Z 00000KT 9999 OVC060 26/22 Q1014 RMK A2996=",
"80222599999","2023-03-01T18:00:00","4","6.95","-71.85","213.0","LOS COLONIZADORES, CO","FM-15","99999","V020","270,1,N,0026,1","22000,1,9,N","009999,1,9,9","+0270,1","+0220,1","99999,9",,,,"00,99,1,99,9,99,9,99999,9,99,9,99,9","10130,1,99999,9",,,,"MET058METAR SKSA 011800Z 27005KT 9999 NSC 27/22 Q1013 RMK A2992=",
"80222599999","2023-03-01T19:00:00","4","6.95","-71.85","213.0","LOS COLONIZADORES, CO","FM-15","99999","V020","270,1,N,0041,1","22000,1,9,N","009999,1,9,9","+0300,1","+0200,1","99999,9",,,,"00,99,1,99,9,99,9,99999,9,99,9,99,9","10110,1,99999,9",,,,"MET058METAR SKSA 011900Z 27008KT 9999 NSC 30/20 Q1011 RMK A2987=",
"80222599999","2023-03-01T20:00:00","4","6.95","-71.85","213.0","LOS COLONIZADORES, CO","FM-15","99999","V020","290,1,N,0031,1","22000,1,9,N","009999,1,9,9","+0310,1","+0200,1","99999,9",,,,"00,99,1,99,9,99,9,99999,9,99,9,99,9","10100,1,99999,9",,,,"MET058METAR SKSA 012000Z 29006KT 9999 NSC 31/20 Q1010 RMK A2983=",
"80222599999","2023-03-01T21:00:00","4","6.95","-71.85","213.0","LOS COLONIZADORES, CO","FM-15","99999","V020","270,1,N,0031,1","22000,1,9,N","009999,1,9,9","+0310,1","+0210,1","99999,9",,,,"00,99,1,99,9,99,9,99999,9,99,9,99,9","10090,1,99999,9",,,,"MET058METAR SKSA 012100Z 27006KT 9999 NSC 31/21 Q1009 RMK A2980=",
"80222599999","2023-03-01T22:00:00","4","6.95","-71.85","213.0","LOS COLONIZADORES, CO","FM-15","99999","V020","999,9,C,0000,1","22000,1,9,N","009999,1,9,9","+0310,1","+0210,1","99999,9",,,,"00,99,1,99,9,99,9,99999,9,99,9,99,9","10090,1,99999,9",,,,"MET058METAR SKSA 012200Z 00000KT 9999 NSC 31/21 Q1009 RMK A2980=",
"80222599999","2023-03-01T23:00:00","4","6.95","-71.85","213.0","LOS COLONIZADORES, CO","FM-15","99999","V020","320,1,N,0021,1","22000,1,9,N","009999,1,9,9","+0270,1","+0210,1","99999,9",,,,"00,99,1,99,9,99,9,99999,9,99,9,99,9","10090,1,99999,9",,,,"MET058METAR SKSA 012300Z 32004KT 9999 NSC 27/21 Q1009 RMK A2980=",
"80222599999","2023-03-02T11:00:00","4","6.95","-71.85","213.0","LOS COLONIZADORES, CO","FM-15","99999","V020","999,9,V,0010,1","99999,9,9,N","009999,1,9,9","+0240,1","+0210,1","99999,9","02,1,+02743,1,99,9",,"9,AGL   ,+99999,+99999","99,99,9,02,1,99,9,02743,1,99,9,99,9","10110,1,99999,9",,,,"MET061METAR SKSA 021100Z VRB02KT 9999 FEW090 24/21 Q1011 RMK A2985=",
"80222599999","2023-03-02T15:00:00","4","6.95","-71.85","213.0","LOS COLONIZADORES, CO","FM-15","99999","V020","250,1,N,0015,1","01829,1,C,N","009999,1,9,9","+0260,1","+0220,1","99999,9","08,1,+01829,1,99,9",,"9,AGL   ,+99999,+99999","99,99,9,08,1,99,9,01829,1,99,9,99,9","10140,1,99999,9",,,,"MET061METAR SKSA 021500Z 25003KT 9999 OVC060 26/22 Q1014 RMK A2995=",
"80222599999","2023-03-02T16:00:00","4","6.95","-71.85","213.0","LOS COLONIZADORES, CO","FM-15","99999","V020","260,1,N,0015,1","01829,1,C,N","009999,1,9,9","+0280,1","+0220,1","99999,9","08,1,+01829,1,99,9",,"9,AGL   ,+99999,+99999","99,99,9,08,1,99,9,01829,1,99,9,99,9","10130,1,99999,9",,,,"MET061METAR SKSA 021600Z 26003KT 9999 OVC060 28/22 Q1013 RMK A2993=",
"80222599999","2023-03-02T17:00:00","4","6.95","-71.85","213.0","LOS COLONIZADORES, CO","FM-15","99999","V020","250,1,N,0026,1","01829,1,C,N","009999,1,9,9","+0280,1","+0220,1","99999,9","08,1,+01829,1,99,9",,"9,AGL   ,+99999,+99999","99,99,9,08,1,99,9,01829,1,99,9,99,9","10120,1,99999,9",,,,"MET061METAR SKSA 021700Z 25005KT 9999 OVC060 28/22 Q1012 RMK A2990=",
"80222599999","2023-03-02T18:00:00","4","6.95","-71.85","213.0","LOS COLONIZADORES, CO","FM-15","99999","V020","230,1,N,0036,1","02134,1,C,N","009999,1,9,9","+0290,1","+0220,1","99999,9","08,1,+02134,1,99,9",,"9,AGL   ,+99999,+99999","99,99,9,08,1,99,9,02134,1,99,9,99,9","10110,1,99999,9",,,,"MET061METAR SKSA 021800Z 23007KT 9999 OVC070 29/22 Q1011 RMK A2985=",
"80222599999","2023-03-02T19:00:00","4","6.95","-71.85","213.0","LOS COLONIZADORES, CO","FM-15","99999","V020","250,1,N,0036,1","02134,1,C,N","009999,1,9,9","+0290,1","+0220,1","99999,9","08,1,+02134,1,99,9",,"9,AGL   ,+99999,+99999","99,99,9,08,1,99,9,02134,1,99,9,99,9","10100,1,99999,9",,,,"MET061METAR SKSA 021900Z 25007KT 9999 OVC070 29/22 Q1010 RMK A2983=",
"80222599999","2023-03-02T20:00:00","4","6.95","-71.85","213.0","LOS COLONIZADORES, CO","FM-15","99999","V020","300,1,N,0036,1","02134,1,C,N","009999,1,9,9","+0290,1","+0220,1","99999,9","08,1,+02134,1,99,9",,"9,AGL   ,+99999,+99999","99,99,9,08,1,99,9,02134,1,99,9,99,9","10090,1,99999,9",,,,"MET061METAR SKSA 022000Z 30007KT 9999 OVC070 29/22 Q1009 RMK A2979=",
"80222599999","2023-03-02T21:00:00","4","6.95","-71.85","213.0","LOS COLONIZADORES, CO","FM-15","99999","V020","300,1,N,0036,1","02134,1,C,N","009999,1,9,9","+0280,1","+0220,1","99999,9","08,1,+02134,1,99,9",,"9,AGL   ,+99999,+99999","99,99,9,08,1,99,9,02134,1,99,9,99,9","10080,1,99999,9",,,,"MET061METAR SKSA 022100Z 30007KT 9999 OVC070 28/22 Q1008 RMK A2977=",
"80222599999","2023-03-03T11:00:00","4","6.95","-71.85","213.0","LOS COLONIZADORES, CO","FM-15","99999","V020","300,1,N,0015,1","01524,1,C,N","009999,1,9,9","+0240,1","+0210,1","99999,9","08,1,+01524,1,99,9",,"9,AGL   ,+99999,+99999","99,99,9,08,1,99,9,01524,1,99,9,99,9","10110,1,99999,9",,,,"MET061METAR SKSA 031100Z 30003KT 9999 OVC050 24/21 Q1011 RMK A2985=",
"80222599999","2023-03-03T13:00:00","4","6.95","-71.85","213.0","LOS COLONIZADORES, CO","FM-15","99999","V020","300,1,N,0026,1","01219,1,C,N","009999,1,9,9","+0230,1","+0220,1","99999,9","08,1,+01219,1,99,9",,"9,AGL   ,+99999,+99999","99,99,9,08,1,99,9,01219,1,99,9,99,9","10130,1,99999,9",,,,"MET061METAR SKSA 031300Z 30005KT 9999 OVC040 23/22 Q1013 RMK A2992=",
"80222599999","2023-03-03T14:00:00","4","6.95","-71.85","213.0","LOS COLONIZADORES, CO","FM-15","99999","V020","240,1,N,0026,1","01219,1,C,N","009999,1,9,9","+0230,1","+0220,1","99999,9","08,1,+01219,1,99,9",,"9,AGL   ,+99999,+99999","99,99,9,08,1,99,9,01219,1,99,9,99,9","10130,1,99999,9",,,,"MET061METAR SKSA 031400Z 24005KT 9999 OVC040 23/22 Q1013 RMK A2992=",
"80222599999","2023-03-03T16:00:00","4","6.95","-71.85","213.0","LOS COLONIZADORES, CO","FM-15","99999","V020","270,1,N,0015,1","01219,1,C,N","009999,1,9,9","+0260,1","+0220,1","99999,9","08,1,+01219,1,99,9",,"9,AGL   ,+99999,+99999","99,99,9,08,1,99,9,01219,1,99,9,99,9","10130,1,99999,9",,,,"MET061METAR SKSA 031600Z 27003KT 9999 OVC040 26/22 Q1013 RMK A2992=",
"80222599999","2023-03-03T17:00:00","4","6.95","-71.85","213.0","LOS COLONIZADORES, CO","FM-15","99999","V020","270,1,N,0021,1","01219,1,C,N","009999,1,9,9","+0270,1","+0220,1","99999,9","07,1,+01219,1,99,9",,"9,AGL   ,+99999,+99999","99,99,9,07,1,99,9,01219,1,99,9,99,9","10130,1,99999,9",,,,"MET061METAR SKSA 031700Z 27004KT 9999 BKN040 27/22 Q1013 RMK A2992=",
"80222599999","2023-03-03T18:00:00","4","6.95","-71.85","213.0","LOS COLONIZADORES, CO","FM-15","99999","V020","250,1,N,0031,1","01219,1,C,N","009999,1,9,9","+0280,1","+0220,1","99999,9","07,1,+01219,1,99,9",,"9,AGL   ,+99999,+99999","99,99,9,07,1,99,9,01219,1,99,9,99,9","10110,1,99999,9",,,,"MET061METAR SKSA 031800Z 25006KT 9999 BKN040 28/22 Q1011 RMK A2986=",
"80222599999","2023-03-03T19:00:00","4","6.95","-71.85","213.0","LOS COLONIZADORES, CO","FM-15","99999","V020","250,1,N,0015,1","22000,1,9,N","009999,1,9,9","+0300,1","+0220,1","99999,9",,,,"00,99,1,99,9,99,9,99999,9,99,9,99,9","10100,1,99999,9",,,,"MET058METAR SKSA 031900Z 25003KT 9999 NSC 30/22 Q1010 RMK A2982=",
"80222599999","2023-03-03T21:00:00","4","6.95","-71.85","213.0","LOS COLONIZADORES, CO","FM-15","99999","V020","270,1,N,0031,1","22000,1,9,N","009999,1,9,9","+0300,1","+0220,1","99999,9",,,,"00,99,1,99,9,99,9,99999,9,99,9,99,9","10080,1,99999,9",,,,"MET058METAR SKSA 032100Z 27006KT 9999 NSC 30/22 Q1008 RMK A2977=",
"80222599999","2023-03-03T22:00:00","4","6.95","-71.85","213.0","LOS COLONIZADORES, CO","FM-15","99999","V020","260,1,N,0015,1","22000,1,9,N","009999,1,9,9","+0300,1","+0200,1","99999,9",,,,"00,99,1,99,9,99,9,99999,9,99,9,99,9","10080,1,99999,9",,,,"MET058METAR SKSA 032200Z 26003KT 9999 NSC 30/20 Q1008 RMK A2977=",
"80222599999","2023-03-04T11:00:00","4","6.95","-71.85","213.0","LOS COLONIZADORES, CO","FM-15","99999","V020","280,1,N,0021,1","01524,1,C,N","009999,1,9,9","+0240,1","+0210,1","99999,9","08,1,+01524,1,99,9",,"9,AGL   ,+99999,+99999","99,99,9,08,1,99,9,01524,1,99,9,99,9","10100,1,99999,9",,,,"MET061METAR SKSA 041100Z 28004KT 9999 OVC050 24/21 Q1010 RMK A2985=",
"80222599999","2023-03-04T12:00:00","4","6.95","-71.85","213.0","LOS COLONIZADORES, CO","FM-15","99999","V020","290,1,N,0021,1","01524,1,C,N","009999,1,9,9","+0240,1","+0210,1","99999,9","08,1,+01524,1,99,9",,"9,AGL   ,+99999,+99999","99,99,9,08,1,99,9,01524,1,99,9,99,9","10100,1,99999,9",,,,"MET061METAR SKSA 041200Z 29004KT 9999 OVC050 24/21 Q1010 RMK A2985=",
"80222599999","2023-03-04T13:00:00","4","6.95","-71.85","213.0","LOS COLONIZADORES, CO","FM-15","99999","V020","999,9,V,0010,1","01219,1,C,N","009999,1,9,9","+0240,1","+0210,1","99999,9","08,1,+01219,1,99,9",,"9,AGL   ,+99999,+99999","99,99,9,08,1,99,9,01219,1,99,9,99,9","10100,1,99999,9",,,,"MET061METAR SKSA 041300Z VRB02KT 9999 OVC040 24/21 Q1010 RMK A2985=",
"80222599999","2023-03-04T14:00:00","4","6.95","-71.85","213.0","LOS COLONIZADORES, CO","FM-15","99999","V020","999,9,V,0010,1","00914,1,C,N","009999,1,9,9","+0230,1","+0220,1","99999,9","08,1,+00914,1,99,9",,"9,AGL   ,+99999,+99999","99,99,9,08,1,99,9,00914,1,99,9,99,9","10140,2,99999,9","53,1",,,"MET071METAR SKSA 041400Z VRB02KT 9999 5000SW DZ OVC030 23/22 Q1014 RMK A2995=",
"80222599999","2023-03-04T15:00:00","4","6.95","-71.85","213.0","LOS COLONIZADORES, CO","FM-15","99999","V020","300,1,N,0015,1","00914,1,C,N","009999,1,9,9","+0240,1","+0220,1","99999,9","08,1,+00914,1,99,9",,"9,AGL   ,+99999,+99999","99,99,9,08,1,99,9,00914,1,99,9,99,9","10140,1,99999,9",,,,"MET061METAR SKSA 041500Z 30003KT 9999 OVC030 24/22 Q1014 RMK A2995=",
"80222599999","2023-03-04T17:00:00","4","6.95","-71.85","213.0","LOS COLONIZADORES, CO","FM-15","99999","V020","220,1,N,0026,1","02134,1,C,N","009999,1,9,9","+0270,1","+0220,1","99999,9","08,1,+02134,1,99,9",,"9,AGL   ,+99999,+99999","99,99,9,08,1,99,9,02134,1,99,9,99,9","10130,1,99999,9",,,,"MET061METAR SKSA 041700Z 22005KT 9999 OVC070 27/22 Q1013 RMK A2992=",
"80222599999","2023-03-04T18:00:00","4","6.95","-71.85","213.0","LOS COLONIZADORES, CO","FM-15","99999","V020","220,1,N,0031,1","99999,9,9,N","009999,1,9,9","+0280,1","+0210,1","99999,9","04,1,+03353,1,99,9",,"9,AGL   ,+99999,+99999","99,99,9,04,1,99,9,03353,1,99,9,99,9","10120,1,99999,9",,,,"MET061METAR SKSA 041800Z 22006KT 9999 SCT110 28/21 Q1012 RMK A2988=",
"80222599999","2023-03-04T19:00:00","4","6.95","-71.85","213.0","LOS COLONIZADORES, CO","FM-15","99999","V020","290,1,N,0046,1","99999,9,9,N","009999,1,9,9","+0290,1","+0210,1","99999,9","04,1,+03048,1,99,9",,"9,AGL   ,+99999,+99999","99,99,9,04,1,99,9,03048,1,99,9,99,9","10100,1,99999,9",,,,"MET061METAR SKSA 041900Z 29009KT 9999 SCT100 29/21 Q1010 RMK A2984=",
"80222599999","2023-03-04T20:00:00","4","6.95","-71.85","213.0","LOS COLONIZADORES, CO","FM-15","99999","V020","290,1,N,0036,1","22000,1,9,N","009999,1,9,9","+0290,1","+0210,1","99999,9",,,,"00,99,1,99,9,99,9,99999,9,99,9,99,9","10100,1,99999,9",,,,"MET058METAR SKSA 042000Z 29007KT 9999 NSC 29/21 Q1010 RMK A2984=",
"80222599999","2023-03-04T21:00:00","4","6.95","-71.85","213.0","LOS COLONIZADORES, CO","FM-15","99999","V020","290,1,N,0026,1","22000,1,9,N","009999,1,9,9","+0290,1","+0210,1","99999,9",,,,"00,99,1,99,9,99,9,99999,9,99,9,99,9","10090,1,99999,9",,,,"MET058METAR SKSA 042100Z 29005KT 9999 NSC 29/21 Q1009 RMK A2980=",
"80222599999","2023-03-04T22:00:00","4","6.95","-71.85","213.0","LOS COLONIZADORES, CO","FM-15","99999","V020","310,1,N,0026,1","22000,1,9,N","009999,1,9,9","+0290,1","+0210,1","99999,9",,,,"00,99,1,99,9,99,9,99999,9,99,9,99,9","10090,1,99999,9",,,,"MET058METAR SKSA 042200Z 31005KT 9999 NSC 29/21 Q1009 RMK A2980=",
"80222599999","2023-03-04T23:00:00","4","6.95","-71.85","213.0","LOS COLONIZADORES, CO","FM-15","99999","V020","310,1,N,0026,1","22000,1,9,N","009999,1,9,9","+0290,1","+0210,1","99999,9",,,,"00,99,1,99,9,99,9,99999,9,99,9,99,9","10090,1,99999,9",,,,"MET058METAR SKSA 042300Z 31005KT 9999 NSC 29/21 Q1009 RMK A2980=",
"80222599999","2023-03-05T11:00:00","4","6.95","-71.85","213.0","LOS COLONIZADORES, CO","FM-15","99999","V020","340,1,N,0015,1","01524,1,C,N","009999,1,9,9","+0230,1","+0200,1","99999,9","08,1,+01524,1,99,9",,"9,AGL   ,+99999,+99999","99,99,9,08,1,99,9,01524,1,99,9,99,9","10120,1,99999,9",,,,"MET061METAR SKSA 051100Z 34003KT 9999 OVC050 23/20 Q1012 RMK A2989=",
"80222599999","2023-03-05T12:00:00","4","6.95","-71.85","213.0","LOS COLONIZADORES, CO","FM-15","99999","V020","320,1,N,0021,1","01524,1,C,N","009999,1,9,9","+0240,1","+0200,1","99999,9","08,1,+01524,1,99,9",,"9,AGL   ,+99999,+99999","99,99,9,08,1,99,9,01524,1,99,9,99,9","10120,1,99999,9",,,,"MET061METAR SKSA 051200Z 32004KT 9999 OVC050 24/20 Q1012 RMK A2989=",
"80222599999","2023-03-05T14:00:00","4","6.95","-71.85","213.0","LOS COLONIZADORES, CO","FM-15","99999","V020","350,1,N,0015,1","01829,1,C,N","009999,1,9,9","+0260,1","+0200,1","99999,9","08,1,+01829,1,99,9",,"9,AGL   ,+99999,+99999","99,99,9,08,1,99,9,01829,1,99,9,99,9","10150,1,99999,9",,,,"MET061METAR SKSA 051400Z 35003KT 9999 OVC060 26/20 Q1015 RMK A2997=",
"80222599999","2023-03-05T15:00:00","4","6.95","-71.85","213.0","LOS COLONIZADORES, CO","FM-15","99999","V020","340,1,N,0021,1","01829,1,C,N","009999,1,9,9","+0270,1","+0200,1","99999,9","08,1,+01829,1,99,9",,"9,AGL   ,+99999,+99999","99,99,9,08,1,99,9,01829,1,99,9,99,9","10150,1,99999,9",,,,"MET061METAR SKSA 051500Z 34004KT 9999 OVC060 27/20 Q1015 RMK A2997=",
"80222599999","2023-03-05T16:00:00","4","6.95","-71.85","213.0","LOS COLONIZADORES, CO","FM-15","99999","V020","290,1,N,0015,1","02438,1,C,N","009999,1,9,9","+0280,1","+0200,1","99999,9","08,1,+02438,1,99,9",,"9,AGL   ,+99999,+99999","99,99,9,08,1,99,9,02438,1,99,9,99,9","10140,1,99999,9",,,,"MET061METAR SKSA 051600Z 29003KT 9999 OVC080 28/20 Q1014 RMK A2994=",
"80222599999","2023-03-05T18:00:00","4","6.95","-71.85","213.0","LOS COLONIZADORES, CO","FM-15","99999","V020","260,1,N,0015,1","22000,1,9,N","009999,1,9,9","+0320,1","+0190,1","99999,9",,,,"00,99,1,99,9,99,9,99999,9,99,9,99,9","10110,1,99999,9",,,,"MET058METAR SKSA 051800Z 26003KT 9999 NSC 32/19 Q1011 RMK A2986=",
"80222599999","2023-03-05T19:00:00","4","6.95","-71.85","213.0","LOS COLONIZADORES, CO","FM-15","99999","V020","360,1,N,0021,1","22000,1,9,N","009999,1,9,9","+0330,1","+0190,1","99999,9",,,,"00,99,1,99,9,99,9,99999,9,99,9,99,9","10100,1,99999,9",,,,"MET058METAR SKSA 051900Z 36004KT 9999 NSC 33/19 Q1010 RMK A2982=",
"80222599999","2023-03-05T20:00:00","4","6.95","-71.85","213.0","LOS COLONIZADORES, CO","FM-15","99999","V020","340,1,N,0021,1","22000,1,9,N","009999,1,9,9","+0330,1","+0190,1","99999,9",,,,"00,99,1,99,9,99,9,99999,9,99,9,99,9","10090,1,99999,9",,,,"MET058METAR SKSA 052000Z 34004KT 9999 NSC 33/19 Q1009 RMK A2980=",
"80222599999","2023-03-05T21:00:00","4","6.95","-71.85","213.0","LOS COLONIZADORES, CO","FM-15","99999","V020","350,1,N,0015,1","22000,1,9,N","009999,1,9,9","+0330,1","+0190,1","99999,9",,,,"00,99,1,99,9,99,9,99999,9,99,9,99,9","10090,1,99999,9",,,,"MET058METAR SKSA 052100Z 35003KT 9999 NSC 33/19 Q1009 RMK A2980=",
"80222599999","2023-03-05T22:00:00","4","6.95","-71.85","213.0","LOS COLONIZADORES, CO","FM-15","99999","V020","340,1,N,0015,1","22000,1,9,N","009999,1,9,9","+0320,1","+0190,1","99999,9",,,,"00,99,1,99,9,99,9,99999,9,99,9,99,9","10090,1,99999,9",,,,"MET058METAR SKSA 052200Z 34003KT 9999 NSC 32/19 Q1009 RMK A2980=",
"80222599999","2023-03-05T23:00:00","4","6.95","-71.85","213.0","LOS COLONIZADORES, CO","FM-15","99999","V020","340,1,N,0015,1","22000,1,9,N","009999,1,9,9","+0320,1","+0190,1","99999,9",,,,"00,99,1,99,9,99,9,99999,9,99,9,99,9","10090,1,99999,9",,,,"MET058METAR SKSA 052300Z 34003KT 9999 NSC 32/19 Q1009 RMK A2980=",
"80222599999","2023-03-06T11:00:00","4","6.95","-71.85","213.0","LOS COLONIZADORES, CO","FM-15","99999","V020","080,1,N,0015,1","01829,1,C,N","009999,1,9,9","+0250,1","+0200,1","99999,9","08,1,+01829,1,99,9",,"9,AGL   ,+99999,+99999","99,99,9,08,1,99,9,01829,1,99,9,99,9","10120,1,99999,9",,,,"MET061METAR SKSA 061100Z 08003KT 9999 OVC060 25/20 Q1012 RMK A2989=",
"80222599999","2023-03-06T12:00:00","4","6.95","-71.85","213.0","LOS COLONIZADORES, CO","FM-15","99999","V020","210,1,N,0031,1","01829,1,C,N","009999,1,9,9","+0250,1","+0200,1","99999,9","08,1,+01829,1,99,9",,"9,AGL   ,+99999,+99999","99,99,9,08,1,99,9,01829,1,99,9,99,9","10130,1,99999,9",,,,"MET061METAR SKSA 061200Z 21006KT 9999 OVC060 25/20 Q1013 RMK A2992=",
"80222599999","2023-03-06T13:00:00","4","6.95","-71.85","213.0","LOS COLONIZADORES, CO","FM-15","99999","V020","290,1,N,0015,1","01829,1,C,N","009999,1,9,9","+0250,1","+0200,1","99999,9","08,1,+01829,1,99,9",,"9,AGL   ,+99999,+99999","99,99,9,08,1,99,9,01829,1,99,9,99,9","10140,1,99999,9",,,,"MET061METAR SKSA 061300Z 29003KT 9999 OVC060 25/20 Q1014 RMK A2996=",
"80222599999","2023-03-06T14:00:00","4","6.95","-71.85","213.0","LOS COLONIZADORES, CO","FM-15","99999","V020","290,1,N,0015,1","01829,1,C,N","009999,1,9,9","+0250,1","+0200,1","99999,9","08,1,+01829,1,99,9",,"9,AGL   ,+99999,+99999","99,99,9,08,1,99,9,01829,1,99,9,99,9","10140,1,99999,9",,,,"MET061METAR SKSA 061400Z 29003KT 9999 OVC060 25/20 Q1014 RMK A2996=",
"80222599999","2023-03-06T15:00:00","4","6.95","-71.85","213.0","LOS COLONIZADORES, CO","FM-15","99999","V020","300,1,N,0015,1","01829,1,C,N","009999,1,9,9","+0260,1","+0200,1","99999,9","08,1,+01829,1,99,9",,"9,AGL   ,+99999,+99999","99,99,9,08,1,99,9,01829,1,99,9,99,9","10140,1,99999,9",,,,"MET061METAR SKSA 061500Z 30003KT 9999 OVC060 26/20 Q1014 RMK A2996=",
"80222599999","2023-03-06T16:00:00","4","6.95","-71.85","213.0","LOS COLONIZADORES, CO","FM-15","99999","V020","260,1,N,0026,1","01829,1,C,N","009999,1,9,9","+0260,1","+0200,1","99999,9","08,1,+01829,1,99,9",,"9,AGL   ,+99999,+99999","99,99,9,08,1,99,9,01829,1,99,9,99,9","10140,1,99999,9",,,,"MET061METAR SKSA 061600Z 26005KT 9999 OVC060 26/20 Q1014 RMK A2996=",
"80222599999","2023-03-06T17:00:00","4","6.95","-71.85","213.0","LOS COLONIZADORES, CO","FM-15","99999","V020","260,1,N,0041,1","01829,1,C,N","009999,1,9,9","+0270,1","+0200,1","99999,9","08,1,+01829,1,99,9",,"9,AGL   ,+99999,+99999","99,99,9,08,1,99,9,01829,1,99,9,99,9","10130,1,99999,9",,,,"MET061METAR SKSA 061700Z 26008KT 9999 OVC060 27/20 Q1013 RMK A2993=",
"80222599999","2023-03-06T18:00:00","4","6.95","-71.85","213.0","LOS COLONIZADORES, CO","FM-15","99999","V020","240,1,N,0041,1","02134,1,C,N","009999,1,9,9","+0280,1","+0200,1","99999,9","08,1,+02134,1,99,9",,"9,AGL   ,+99999,+99999","99,99,9,08,1,99,9,02134,1,99,9,99,9","10120,1,99999,9",,,,"MET061METAR SKSA 061800Z 24008KT 9999 OVC070 28/20 Q1012 RMK A2988=",
"80222599999","2023-03-06T19:00:00","4","6.95","-71.85","213.0","LOS COLONIZADORES, CO","FM-15","99999","V020","280,1,N,0031,1","03048,1,C,N","009999,1,9,9","+0290,1","+0200,1","99999,9","08,1,+03048,1,99,9",,"9,AGL   ,+99999,+99999","99,99,9,08,1,99,9,03048,1,99,9,99,9","10100,1,99999,9",,,,"MET061METAR SKSA 061900Z 28006KT 9999 OVC100 29/20 Q1010 RMK A2984=",
"80222599999","2023-03-06T21:00:00","4","6.95","-71.85","213.0","LOS COLONIZADORES, CO","FM-15","99999","V020","260,1,N,0015,1","22000,1,9,N","009999,1,9,9","+0310,1","+0200,1","99999,9",,,,"00,99,1,99,9,99,9,99999,9,99,9,99,9","10080,1,99999,9",,,,"MET058METAR SKSA 062100Z 26003KT 9999 NSC 31/20 Q1008 RMK A2978=",
"80222599999","2023-03-06T23:00:00","4","6.95","-71.85","213.0","LOS COLONIZADORES, CO","FM-15","99999","V020","310,1,N,0026,1","22000,1,9,N","009999,1,9,9","+0270,1","+0210,1","99999,9",,,,"00,99,1,99,9,99,9,99999,9,99,9,99,9","10080,1,99999,9",,,,"MET058METAR SKSA 062300Z 31005KT 9999 NSC 27/21 Q1008 RMK A2978=",
"80222599999","2023-03-07T11:00:00","4","6.95","-71.85","213.0","LOS COLONIZADORES, CO","FM-15","99999","V020","999,9,C,0000,1","01829,1,C,N","009999,1,9,9","+0230,1","+0210,1","99999,9","08,1,+01829,1,99,9",,"9,AGL   ,+99999,+99999","99,99,9,08,1,99,9,01829,1,99,9,99,9","10100,1,99999,9",,,,"MET061METAR SKSA 071100Z 00000KT 9999 OVC060 23/21 Q1010 RMK A2984=",
"80222599999","2023-03-07T13:00:00","4","6.95","-71.85","213.0","LOS COLONIZADORES, CO","FM-15","99999","V020","999,9,C,0000,1","01829,1,C,N","009999,1,9,9","+0270,1","+0210,1","99999,9","08,1,+01829,1,99,9",,"9,AGL   ,+99999,+99999","99,99,9,08,1,99,9,01829,1,99,9,99,9","10130,1,99999,9",,,,"MET061METAR SKSA 071300Z 00000KT 9999 OVC060 27/21 Q1013 RMK A2992=",
"80222599999","2023-03-07T15:00:00","4","6.95","-71.85","213.0","LOS COLONIZADORES, CO","FM-15","99999","V020","070,1,N,0015,1","02743,1,C,N","009999,1,9,9","+0290,1","+0220,1","99999,9","07,1,+02743,1,99,9",,"9,AGL   ,+99999,+99999","99,99,9,07,1,99,9,02743,1,99,9,99,9","10130,1,99999,9",,,,"MET061METAR SKSA 071500Z 07003KT 9999 BKN090 29/22 Q1013 RMK A2992=",
"80222599999","2023-03-07T16:00:00","4","6.95","-71.85","213.0","LOS COLONIZADORES, CO","FM-15","99999","V020","090,1,N,0015,1","02438,1,C,N","009999,1,9,9","+0290,1","+0220,1","99999,9","07,1,+02438,1,99,9",,"9,AGL   ,+99999,+99999","99,99,9,07,1,99,9,02438,1,99,9,99,9","10130,1,99999,9",,,,"MET061METAR SKSA 071600Z 09003KT 9999 BKN080 29/22 Q1013 RMK A2992=",
"80222599999","2023-03-07T18:00:00","4","6.95","-71.85","213.0","LOS COLONIZADORES, CO","FM-15","99999","V020","300,1,N,0041,1","00305,1,C,N","009999,1,9,9","+0270,1","+0220,1","99999,9","07,1,+00305,1,99,9",,"9,AGL   ,+99999,+99999","99,99,9,07,1,99,9,00305,1,99,9,99,9","10130,1,99999,9",,,,"MET061METAR SKSA 071800Z 30008KT 9999 BKN010 27/22 Q1013 RMK A2992=",
"80222599999","2023-03-07T19:00:00","4","6.95","-71.85","213.0","LOS COLONIZADORES, CO","FM-15","99999","V020","290,1,N,0051,1","22000,1,9,N","009999,1,9,9","+0300,1","+0210,1","99999,9",,,,"00,99,1,99,9,99,9,99999,9,99,9,99,9","10100,1,99999,9",,,,"MET058METAR SKSA 071900Z 29010KT 9999 NSC 30/21 Q1010 RMK A2983=",
"80222599999","2023-03-07T20:00:00","4","6.95","-71.85","213.0","LOS COLONIZADORES, CO","FM-15","99999","V020","280,1,N,0046,1","22000,1,9,N","009999,1,9,9","+0300,1","+0210,1","99999,9",,,,"00,99,1,99,9,99,9,99999,9,99,9,99,9","10090,1,99999,9",,,,"MET058METAR SKSA 072000Z 28009KT 9999 NSC 30/21 Q1009 RMK A2980=",
"80222599999","2023-03-07T21:00:00","4","6.95","-71.85","213.0","LOS COLONIZADORES, CO","FM-15","99999","V020","280,1,N,0046,1","22000,1,9,N","009999,1,9,9","+0300,1","+0210,1","99999,9",,,,"00,99,1,99,9,99,9,99999,9,99,9,99,9","10080,1,99999,9",,,,"MET058METAR SKSA 072100Z 28009KT 9999 NSC 30/21 Q1008 RMK A2978=",
"80222599999","2023-03-07T22:00:00","4","6.95","-71.85","213.0","LOS COLONIZADORES, CO","FM-15","99999","V020","290,1,N,0015,1","22000,1,9,N","009999,1,9,9","+0290,1","+0200,1","99999,9",,,,"00,99,1,99,9,99,9,99999,9,99,9,99,9","10080,1,99999,9",,,,"MET058METAR SKSA 072200Z 29003KT 9999 NSC 29/20 Q1008 RMK A2978=",
"80222599999","2023-03-07T23:00:00","4","6.95","-71.85","213.0","LOS COLONIZADORES, CO","FM-15","99999","V020","310,1,N,0015,1","22000,1,9,N","009999,1,9,9","+0280,1","+0200,1","99999,9",,,,"00,99,1,99,9,99,9,99999,9,99,9,99,9","10090,1,99999,9",,,,"MET058METAR SKSA 072300Z 31003KT 9999 NSC 28/20 Q1009 RMK A2979=",
"80222599999","2023-03-08T11:00:00","4","6.95","-71.85","213.0","LOS COLONIZADORES, CO","FM-15","99999","V020","999,9,V,0010,1","02438,1,C,N","009999,1,9,9","+0210,1","+0190,1","99999,9","07,1,+02438,1,99,9",,"9,AGL   ,+99999,+99999","99,99,9,07,1,99,9,02438,1,99,9,99,9","10110,1,99999,9",,,,"MET061METAR SKSA 081100Z VRB02KT 9999 BKN080 21/19 Q1011 RMK A2985=",
"80222599999","2023-03-08T12:00:00","4","6.95","-71.85","213.0","LOS COLONIZADORES, CO","FM-15","99999","V020","999,9,V,0010,1","02438,1,C,N","009999,1,9,9","+0230,1","+0210,1","99999,9","07,1,+02438,1,99,9",,"9,AGL   ,+99999,+99999","99,99,9,07,1,99,9,02438,1,99,9,99,9","10110,1,99999,9",,,,"MET061METAR SKSA 081200Z VRB02KT 9999 BKN080 23/21 Q1011 RMK A2987=",
"80222599999","2023-03-08T13:00:00","4","6.95","-71.85","213.0","LOS COLONIZADORES, CO","FM-15","99999","V020","999,9,V,0010,1","01676,1,C,N","009999,1,9,9","+0260,1","+0210,1","99999,9","08,1,+01676,1,99,9",,"9,AGL   ,+99999,+99999","99,99,9,08,1,99,9,01676,1,99,9,99,9","10120,1,99999,9",,,,"MET061METAR SKSA 081300Z VRB02KT 9999 OVC055 26/21 Q1012 RMK A2990=",
"80222599999","2023-03-08T14:00:00","4","6.95","-71.85","213.0","LOS COLONIZADORES, CO","FM-15","99999","V020","999,9,V,0010,1","01829,1,C,N","009999,1,9,9","+0280,1","+0210,1","99999,9","08,1,+01829,1,99,9",,"9,AGL   ,+99999,+99999","99,99,9,08,1,99,9,01829,1,99,9,99,9","10130,1,99999,9",,,,"MET061METAR SKSA 081400Z VRB02KT 9999 OVC060 28/21 Q1013 RMK A2993=",
"80222599999","2023-03-08T15:00:00","4","6.95","-71.85","213.0","LOS COLONIZADORES, CO","FM-15","99999","V020","999,9,V,0010,1","01829,1,C,N","009999,1,9,9","+0300,1","+0200,1","99999,9","08,1,+01829,1,99,9",,"9,AGL   ,+99999,+99999","99,99,9,08,1,99,9,01829,1,99,9,99,9","10130,1,99999,9",,,,"MET061METAR SKSA 081500Z VRB02KT 9999 OVC060 30/20 Q1013 RMK A2993=",
"80222599999","2023-03-08T17:00:00","4","6.95","-71.85","213.0","LOS COLONIZADORES, CO","FM-15","99999","V020","280,1,N,0026,1","99999,9,9,N","009999,1,9,9","+0310,1","+0200,1","99999,9","04,1,+02438,1,99,9",,"9,AGL   ,+99999,+99999","99,99,9,04,1,99,9,02438,1,99,9,99,9","10110,1,99999,9",,,,"MET061METAR SKSA 081700Z 28005KT 9999 SCT080 31/20 Q1011 RMK A2986=",
"80222599999","2023-03-08T19:00:00","4","6.95","-71.85","213.0","LOS COLONIZADORES, CO","FM-15","99999","V020","300,1,N,0051,1","99999,9,9,N","009999,1,9,9","+0310,1","+0200,1","99999,9","04,1,+03048,1,99,9",,"9,AGL   ,+99999,+99999","99,99,9,04,1,99,9,03048,1,99,9,99,9","10090,1,99999,9",,,,"MET061METAR SKSA 081900Z 30010KT 9999 SCT100 31/20 Q1009 RMK A2979=",
"80222599999","2023-03-08T21:00:00","4","6.95","-71.85","213.0","LOS COLONIZADORES, CO","FM-15","99999","V020","070,1,N,0015,1","22000,1,9,N","009999,1,9,9","+0320,1","+9999,9","99999,9",,,,"00,99,1,99,9,99,9,99999,9,99,9,99,9","10070,5,99999,9",,,,"MET060METAR SKSA 082100Z 07003KT 9999 NSC 32/2019 Q1007 RMK A2973=","D01      0ADE693"
"80222599999","2023-03-08T22:00:00","4","6.95","-71.85","213.0","LOS COLONIZADORES, CO","FM-15","99999","V020","999,9,N,9999,9","99999,9,9,N","011265,5,9,9","+0310,5","+0220,5","99999,9",,,,,"10070,5,99999,9",,,,"MET057METAR SKSA 082200Z 0000KT 9999 NSC 31/22 Q1007 RMK A2973=","D01      0ADE693D02      0ADE539D03      0ADE592"
"80222599999","2023-03-09T11:00:00","4","6.95","-71.85","213.0","LOS COLONIZADORES, CO","FM-15","99999","V020","330,1,N,0021,1","02134,1,C,N","009999,1,9,9","+0230,1","+0210,1","99999,9","08,1,+02134,1,99,9",,"9,AGL   ,+99999,+99999","99,99,9,08,1,99,9,02134,1,99,9,99,9","10110,1,99999,9",,,,"MET061METAR SKSA 091100Z 33004KT 9999 OVC070 23/21 Q1011 RMK A2986=",
"80222599999","2023-03-09T12:00:00","4","6.95","-71.85","213.0","LOS COLONIZADORES, CO","FM-15","99999","V020","290,1,N,0021,1","01829,1,C,N","008000,1,9,9","+0230,1","+0210,1","99999,9","08,1,+01829,1,99,9",,"9,AGL   ,+99999,+99999","99,99,9,08,1,99,9,01829,1,99,9,99,9","10120,1,99999,9","63,1",,,"MET067METAR SKSA 091200Z 29004KT 8000 RA OVC060 23/21 Q1012 RMK RA A2988=",
"80222599999","2023-03-09T13:00:00","4","6.95","-71.85","213.0","LOS COLONIZADORES, CO","FM-15","99999","V020","270,1,N,0021,1","01829,1,C,N","008000,1,9,9","+0240,1","+0210,1","99999,9","08,1,+01829,1,99,9",,"9,AGL   ,+99999,+99999","99,99,9,08,1,99,9,01829,1,99,9,99,9","10120,1,99999,9",,,,"MET061METAR SKSA 091300Z 27004KT 8000 OVC060 24/21 Q1012 RMK A2989=",
"80222599999","2023-03-09T14:00:00","4","6.95","-71.85","213.0","LOS COLONIZADORES, CO","FM-15","99999","V020","290,1,N,0026,1","01524,1,C,N","009000,1,9,9","+0240,1","+0210,1","99999,9","08,1,+01524,1,99,9",,"9,AGL   ,+99999,+99999","99,99,9,08,1,99,9,01524,1,99,9,99,9","10130,1,99999,9",,,,"MET061METAR SKSA 091400Z 29005KT 9000 OVC050 24/21 Q1013 RMK A2993=",
"80222599999","2023-03-09T15:00:00","4","6.95","-71.85","213.0","LOS COLONIZADORES, CO","FM-15","99999","V020","320,1,N,0021,1","01067,1,C,N","005000,1,9,9","+0220,1","+0220,1","99999,9","08,1,+01067,1,99,9",,"9,AGL   ,+99999,+99999","99,99,9,08,1,99,9,01067,1,99,9,99,9","10140,1,99999,9",,,,"MET061METAR SKSA 091500Z 32004KT 5000 OVC035 22/22 Q1014 RMK A2995=",
"80222599999","2023-03-09T16:00:00","4","6.95","-71.85","213.0","LOS COLONIZADORES, CO","FM-15","99999","V020","330,1,N,0021,1","01524,1,C,N","007000,1,9,9","+0230,1","+0230,1","99999,9","08,1,+01524,1,99,9",,"9,AGL   ,+99999,+99999","99,99,9,08,1,99,9,01524,1,99,9,99,9","10140,1,99999,9",,,,"MET061METAR SKSA 091600Z 33004KT 7000 OVC050 23/23 Q1014 RMK A2995=",
"80222599999","2023-03-09T17:00:00","4","6.95","-71.85","213.0","LOS COLONIZADORES, CO","FM-15","99999","V020","340,1,N,0031,1","01067,1,C,N","008000,1,9,9","+0230,1","+0230,1","99999,9","08,1,+01067,1,99,9",,"9,AGL   ,+99999,+99999","99,99,9,08,1,99,9,01067,1,99,9,99,9","10130,1,99999,9","80,1",,,"MET067METAR SKSA 091700Z 34006KT 8000 -SHRA OVC035 23/23 Q1013 RMK A2993=",
"80222599999","2023-03-09T18:00:00","4","6.95","-71.85","213.0","LOS COLONIZADORES, CO","FM-15","99999","V020","310,1,N,0026,1","01219,1,C,N","008000,1,9,9","+0230,1","+0220,1","99999,9","08,1,+01219,1,99,9",,"9,AGL   ,+99999,+99999","99,99,9,08,1,99,9,01219,1,99,9,99,9","10130,1,99999,9",,,,"MET061METAR SKSA 091800Z 31005KT 8000 OVC040 23/22 Q1013 RMK A2991=",
"80222599999","2023-03-09T19:00:00","4","6.95","-71.85","213.0","LOS COLONIZADORES, CO","FM-15","99999","V020","300,1,N,0031,1","02438,1,C,N","009000,1,9,9","+0250,1","+0220,1","99999,9","08,1,+02438,1,99,9",,"9,AGL   ,+99999,+99999","99,99,9,08,1,99,9,02438,1,99,9,99,9","10110,1,99999,9",,,,"MET061METAR SKSA 091900Z 30006KT 9000 OVC080 25/22 Q1011 RMK A2986=",
"80222599999","2023-03-09T20:00:00","4","6.95","-71.85","213.0","LOS COLONIZADORES, CO","FM-15","99999","V020","310,1,N,0031,1","02743,1,C,N","009000,1,9,9","+0260,1","+0220,1","99999,9","08,1,+02743,1,99,9",,"9,AGL   ,+99999,+99999","99,99,9,08,1,99,9,02743,1,99,9,99,9","10100,1,99999,9",,,,"MET061METAR SKSA 092000Z 31006KT 9000 OVC090 26/22 Q1010 RMK A2982=",
"80222599999","2023-03-09T21:00:00","4","6.95","-71.85","213.0","LOS COLONIZADORES, CO","FM-15","99999","V020","310,1,N,0036,1","03048,1,C,N","009000,1,9,9","+0270,1","+0220,1","99999,9","08,1,+03048,1,99,9",,"9,AGL   ,+99999,+99999","99,99,9,08,1,99,9,03048,1,99,9,99,9","10090,1,99999,9",,,,"MET061METAR SKSA 092100Z 31007KT 9000 OVC100 27/22 Q1009 RMK A2980=",
"80222599999","2023-03-09T22:00:00","4","6.95","-71.85","213.0","LOS COLONIZADORES, CO","FM-15","99999","V020","320,1,N,0015,1","03048,1,C,N","009000,1,9,9","+0270,1","+0210,1","99999,9","08,1,+03048,1,99,9",,"9,AGL   ,+99999,+99999","99,99,9,08,1,99,9,03048,1,99,9,99,9","10090,1,99999,9",,,,"MET061METAR SKSA 092200Z 32003KT 9000 OVC100 27/21 Q1009 RMK A2980=",
"80222599999","2023-03-09T23:00:00","4","6.95","-71.85","213.0","LOS COLONIZADORES, CO","FM-15","99999","V020","999,9,V,0010,1","03048,1,C,N","009000,1,9,9","+0260,1","+0220,1","99999,9","08,1,+03048,1,99,9",,"9,AGL   ,+99999,+99999","99,99,9,08,1,99,9,03048,1,99,9,99,9","10090,1,99999,9",,,,"MET061METAR SKSA 092300Z VRB02KT 9000 OVC100 26/22 Q1009 RMK A2981=",
"80222599999","2023-03-10T11:00:00","4","6.95","-71.85","213.0","LOS COLONIZADORES, CO","FM-15","99999","V020","999,9,V,0010,1","01981,1,C,N","009999,1,9,9","+0000,1","+0000,1","99999,9","08,1,+01981,1,99,9",,"9,AGL   ,+99999,+99999","99,99,9,08,1,99,9,01981,1,99,9,99,9",,,,,"MET061METAR SKSA 101100Z VRB02KT 9999 OVC065 00/00 Q0000 RMK A0000=",
"80222599999","2023-03-10T12:00:00","4","6.95","-71.85","213.0","LOS COLONIZADORES, CO","FM-15","99999","V020","999,9,V,0010,1","01829,1,C,N","009999,1,9,9","+0240,2","+0220,2","99999,9","08,1,+01829,1,99,9",,"9,AGL   ,+99999,+99999","99,99,9,08,1,99,9,01829,1,99,9,99,9","10130,1,99999,9",,,,"MET061METAR SKSA 101200Z VRB02KT 9999 OVC060 24/22 Q1013 RMK A2993=",
"80222599999","2023-03-10T13:00:00","4","6.95","-71.85","213.0","LOS COLONIZADORES, CO","FM-15","99999","V020","999,9,V,0010,1","01981,1,C,N","009999,1,9,9","+0250,1","+0220,1","99999,9","08,1,+01981,1,99,9",,"9,AGL   ,+99999,+99999","99,99,9,08,1,99,9,01981,1,99,9,99,9","10140,1,99999,9",,,,"MET061METAR SKSA 101300Z VRB02KT 9999 OVC065 25/22 Q1014 RMK A2994=",
"80222599999","2023-03-10T14:00:00","4","6.95","-71.85","213.0","LOS COLONIZADORES, CO","FM-15","99999","V020","310,1,N,0021,1","02286,1,C,N","009999,1,9,9","+0250,1","+0220,1","99999,9","08,1,+02286,1,99,9",,"9,AGL   ,+99999,+99999","99,99,9,08,1,99,9,02286,1,99,9,99,9","10140,1,99999,9",,,,"MET061METAR SKSA 101400Z 31004KT 9999 OVC075 25/22 Q1014 RMK A2996=",
"80222599999","2023-03-10T15:00:00","4","6.95","-71.85","213.0","LOS COLONIZADORES, CO","FM-15","99999","V020","330,1,N,0021,1","02286,1,C,N","009999,1,9,9","+0240,1","+0230,1","99999,9","08,1,+02286,1,99,9",,"9,AGL   ,+99999,+99999","99,99,9,08,1,99,9,02286,1,99,9,99,9","10140,1,99999,9",,,,"MET061METAR SKSA 101500Z 33004KT 9999 OVC075 24/23 Q1014 RMK A2996=",
"80222599999","2023-03-10T16:00:00","4","6.95","-71.85","213.0","LOS COLONIZADORES, CO","FM-15","99999","V020","330,1,N,0036,1","02438,1,C,N","009999,1,9,9","+0260,1","+0220,1","99999,9","08,1,+02438,1,99,9",,"9,AGL   ,+99999,+99999","99,99,9,08,1,99,9,02438,1,99,9,99,9","10140,1,99999,9",,,,"MET061METAR SKSA 101600Z 33007KT 9999 OVC080 26/22 Q1014 RMK A2995=",
"80222599999","2023-03-10T18:00:00","4","6.95","-71.85","213.0","LOS COLONIZADORES, CO","FM-15","99999","V020","040,1,N,0015,1","02438,1,C,N","009999,1,9,9","+0280,1","+0220,1","99999,9","07,1,+02438,1,99,9",,"9,AGL   ,+99999,+99999","99,99,9,07,1,99,9,02438,1,99,9,99,9","10120,1,99999,9",,,,"MET061METAR SKSA 101800Z 04003KT 9999 BKN080 28/22 Q1012 RMK A2989=",
"80222599999","2023-03-10T19:00:00","4","6.95","-71.85","213.0","LOS COLONIZADORES, CO","FM-15","99999","V020","030,1,N,0026,1","01219,1,C,N","009999,1,9,9","+0290,1","+0220,1","99999,9","08,1,+01219,1,99,9",,"9,AGL   ,+99999,+99999","99,99,9,08,1,99,9,01219,1,99,9,99,9","10100,1,99999,9","80,1",,,"MET073METAR SKSA 101900Z 03005KT 9999 -SHRA OVC040 29/22 Q1010 RMK -SHRA A2985=",
"80222599999","2023-03-10T20:01:00","4","6.95","-71.85","213.0","LOS COLONIZADORES, CO","FM-15","99999","V020","999,9,V,0010,1","01219,1,C,N","008000,1,9,9","+0240,1","+0240,1","99999,9","08,1,+01219,1,99,9",,"9,AGL   ,+99999,+99999","99,99,9,08,1,99,9,01219,1,99,9,99,9","10100,1,99999,9","81,1",,,"MET071METAR SKSA 102001Z VRB02KT 8000 SHRA OVC040 24/24 Q1010 RMK SHRA A2982=",
"80222599999","2023-03-10T21:01:00","4","6.95","-71.85","213.0","LOS COLONIZADORES, CO","FM-15","99999","V020","210,1,N,0015,1","01219,1,C,N","009000,1,9,9","+0250,1","+0240,1","99999,9","08,1,+01219,1,99,9",,"9,AGL   ,+99999,+99999","99,99,9,08,1,99,9,01219,1,99,9,99,9","10090,1,99999,9",,,,"MET061METAR SKSA 102101Z 21003KT 9000 OVC040 25/24 Q1009 RMK A2981=",
"80222599999","2023-03-10T22:00:00","4","6.95","-71.85","213.0","LOS COLONIZADORES, CO","FM-15","99999","V020","999,9,V,0010,1","01524,1,C,N","009000,1,9,9","+0250,1","+0240,1","99999,9","08,1,+01524,1,99,9",,"9,AGL   ,+99999,+99999","99,99,9,08,1,99,9,01524,1,99,9,99,9","10090,1,99999,9",,,,"MET061METAR SKSA 102200Z VRB02KT 9000 OVC050 25/24 Q1009 RMK A2981=",
"80222599999","2023-03-10T23:00:00","4","6.95","-71.85","213.0","LOS COLONIZADORES, CO","FM-15","99999","V020","300,1,N,0026,1","99999,9,9,N","009999,1,9,9","+0250,1","+0230,1","99999,9","04,1,+02743,1,99,9",,"9,AGL   ,+99999,+99999","99,99,9,04,1,99,9,02743,1,99,9,99,9","10090,1,99999,9",,,,"MET061METAR SKSA 102300Z 30005KT 9999 SCT090 25/23 Q1009 RMK A2981=",
"80222599999","2023-03-11T11:00:00","4","6.95","-71.85","213.0","LOS COLONIZADORES, CO","FM-15","99999","V020","220,1,N,0021,1","01372,1,C,N","008000,1,9,9","+0000,1","+0000,1","99999,9","08,1,+01372,1,99,9",,"9,AGL   ,+99999,+99999","99,99,9,08,1,99,9,01372,1,99,9,99,9",,"63,1",,,"MET064METAR SKSA 111100Z 22004KT 8000 RA OVC045 00/00 Q0000 RMK A0000=",
"80222599999","2023-03-11T12:00:00","4","6.95","-71.85","213.0","LOS COLONIZADORES, CO","FM-15","99999","V020","230,1,N,0021,1","01372,1,C,N","009000,1,9,9","+0230,2","+0220,2","99999,9","08,1,+01372,1,99,9",,"9,AGL   ,+99999,+99999","99,99,9,08,1,99,9,01372,1,99,9,99,9","10120,1,99999,9","80,1",,,"MET067METAR SKSA 111200Z 23004KT 9000 -SHRA OVC045 23/22 Q1012 RMK A2990=",
"80222599999","2023-03-11T13:00:00","4","6.95","-71.85","213.0","LOS COLONIZADORES, CO","FM-15","99999","V020","999,9,V,0010,1","01372,1,C,N","009000,1,9,9","+0230,1","+0220,2","99999,9","08,1,+01372,1,99,9",,"9,AGL   ,+99999,+99999","99,99,9,08,1,99,9,01372,1,99,9,99,9","10130,1,99999,9",,,,"MET061METAR SKSA 111300Z VRB02KT 9000 OVC045 23/22 Q1013 RMK A2993=",
"80222599999","2023-03-11T14:00:00","4","6.95","-71.85","213.0","LOS COLONIZADORES, CO","FM-15","99999","V020","350,1,N,0015,1","01372,1,C,N","009000,1,9,9","+0230,1","+0220,2","99999,9","08,1,+01372,1,99,9",,"9,AGL   ,+99999,+99999","99,99,9,08,1,99,9,01372,1,99,9,99,9","10140,1,99999,9",,,,"MET061METAR SKSA 111400Z 35003KT 9000 OVC045 23/22 Q1014 RMK A2995=",
"80222599999","2023-03-11T15:00:00","4","6.95","-71.85","213.0","LOS COLONIZADORES, CO","FM-15","99999","V020","330,1,N,0036,1","99999,9,9,N","999999,9,9,9","+0230,5","+0220,6","99999,9",,,,,"10150,5,99999,9","80,1",,,"MET073METAR SKSA 111500Z 33007KT -SHRA 9000 OVC040 23/22 Q1015 RMK -SHRA A2997=","D01      0ADE693D02      0ADE539"
"80222599999","2023-03-11T16:00:00","4","6.95","-71.85","213.0","LOS COLONIZADORES, CO","FM-15","99999","V020","300,1,N,0031,1","01067,1,C,N","009000,1,9,9","+9999,9","+9999,9","99999,9","08,1,+01067,1,99,9",,"9,AGL   ,+99999,+99999","99,99,9,08,1,99,9,01067,1,99,9,99,9","10140,1,99999,9",,,,"MET061METAR SKSA 111600Z 30006KT 9000 OVC035 23/22 Q1014 RMK A2996=","Q01 +02303ATOT  Q02 +02203ATOD  "
"80222599999","2023-03-11T17:00:00","4","6.95","-71.85","213.0","LOS COLONIZADORES, CO","FM-15","99999","V020","320,1,N,0026,1","00762,1,C,N","009000,1,9,9","+9999,9","+9999,9","99999,9","08,1,+00762,1,99,9",,"9,AGL   ,+99999,+99999","99,99,9,08,1,99,9,00762,1,99,9,99,9","10140,1,99999,9",,,,"MET061METAR SKSA 111700Z 32005KT 9000 OVC025 23/22 Q1014 RMK A2995=","Q01 +02303ATOT  Q02 +02203ATOD  "
"80222599999","2023-03-11T18:00:00","4","6.95","-71.85","213.0","LOS COLONIZADORES, CO","FM-15","99999","V020","350,1,N,0021,1","00762,1,C,N","009000,1,9,9","+0230,1","+0220,1","99999,9","08,1,+00762,1,99,9",,"9,AGL   ,+99999,+99999","99,99,9,08,1,99,9,00762,1,99,9,99,9","10130,1,99999,9",,,,"MET061METAR SKSA 111800Z 35004KT 9000 OVC025 23/22 Q1013 RMK A2993=",
"80222599999","2023-03-11T19:00:00","4","6.95","-71.85","213.0","LOS COLONIZADORES, CO","FM-15","99999","V020","340,1,N,0015,1","00762,1,C,N","008000,1,9,9","+0230,1","+0220,1","99999,9","08,1,+00762,1,99,9",,"9,AGL   ,+99999,+99999","99,99,9,08,1,99,9,00762,1,99,9,99,9","10130,1,99999,9","80,1",,,"MET067METAR SKSA 111900Z 34003KT 8000 -SHRA OVC025 23/22 Q1013 RMK A2991=",
"80222599999","2023-03-11T20:00:00","4","6.95","-71.85","213.0","LOS COLONIZADORES, CO","FM-15","99999","V020","340,1,N,0015,1","00762,1,C,N","006000,1,9,9","+0230,1","+0220,1","99999,9","08,1,+00762,1,99,9",,"9,AGL   ,+99999,+99999","99,99,9,08,1,99,9,00762,1,99,9,99,9","10130,1,99999,9","63,1",,,"MET067METAR SKSA 112000Z 34003KT 6000 RA OVC025 23/22 Q1013 RMK RA A2991=",
"80222599999","2023-03-11T22:00:00","4","6.95","-71.85","213.0","LOS COLONIZADORES, CO","FM-15","99999","V020","300,1,N,0015,1","01067,1,C,N","008000,1,9,9","+0000,2","+0000,2","99999,9","08,1,+01067,1,99,9",,"9,AGL   ,+99999,+99999","99,99,9,08,1,99,9,01067,1,99,9,99,9",,"80,1",,,"MET073METAR SKSA 112200Z 30003KT 8000 -SHRA OVC035 00/00 Q0000 RMK -SHRA A0000=",
"80222599999","2023-03-11T23:00:00","4","6.95","-71.85","213.0","LOS COLONIZADORES, CO","FM-15","99999","V020","320,1,N,0010,1","01981,1,C,N","008000,1,9,9","+0000,2","+0000,2","99999,9","08,1,+01981,1,99,9",,"9,AGL   ,+99999,+99999","99,99,9,08,1,99,9,01981,1,99,9,99,9",,"80,1",,,"MET073METAR SKSA 112300Z 32002KT 8000 -SHRA OVC065 00/00 Q0000 RMK -SHRA A0000=",
"80222599999","2023-03-12T11:00:00","4","6.95","-71.85","213.0","LOS COLONIZADORES, CO","FM-15","99999","V020","190,1,N,0036,1","01981,1,C,N","008000,1,9,9","+0000,1","+0000,1","99999,9","08,1,+01981,1,99,9",,"9,AGL   ,+99999,+99999","99,99,9,08,1,99,9,01981,1,99,9,99,9",,"80,1",,,"MET073METAR SKSA 121100Z 19007KT 8000 -SHRA OVC065 00/00 Q0000 RMK -SHRA A0000=",
"80222599999","2023-03-12T12:00:00","4","6.95","-71.85","213.0","LOS COLONIZADORES, CO","FM-15","99999","V020","240,1,N,0031,1","02438,1,C,N","008000,1,9,9","+0230,2","+0200,2","99999,9","08,1,+02438,1,99,9",,"9,AGL   ,+99999,+99999","99,99,9,08,1,99,9,02438,1,99,9,99,9","10140,1,99999,9","80,1",,,"MET073METAR SKSA 121200Z 24006KT 8000 -SHRA OVC080 23/20 Q1014 RMK -SHRA A2994=",
"80222599999","2023-03-12T13:00:00","4","6.95","-71.85","213.0","LOS COLONIZADORES, CO","FM-15","99999","V020","280,1,N,0031,1","02438,1,C,N","008000,1,9,9","+0240,1","+0200,1","99999,9","08,1,+02438,1,99,9",,"9,AGL   ,+99999,+99999","99,99,9,08,1,99,9,02438,1,99,9,99,9","10140,1,99999,9","80,1",,,"MET073METAR SKSA 121300Z 28006KT 8000 -SHRA OVC080 24/20 Q1014 RMK -SHRA A2995=",
"80222599999","2023-03-12T14:00:00","4","6.95","-71.85","213.0","LOS COLONIZADORES, CO","FM-15","99999","V020","280,1,N,0015,1","01981,1,C,N","009000,1,9,9","+0250,1","+0210,1","99999,9","08,1,+01981,1,99,9",,"9,AGL   ,+99999,+99999","99,99,9,08,1,99,9,01981,1,99,9,99,9","10140,1,99999,9",,,,"MET061METAR SKSA 121400Z 28003KT 9000 OVC065 25/21 Q1014 RMK A2996=",
"80222599999","2023-03-12T15:00:00","4","6.95","-71.85","213.0","LOS COLONIZADORES, CO","FM-15","99999","V020","030,1,N,0021,1","02743,1,C,N","009000,1,9,9","+0250,1","+0220,1","99999,9","08,1,+02743,1,99,9",,"9,AGL   ,+99999,+99999","99,99,9,08,1,99,9,02743,1,99,9,99,9","10150,1,99999,9",,,,"MET061METAR SKSA 121500Z 03004KT 9000 OVC090 25/22 Q1015 RMK A2997=",
"80222599999","2023-03-12T16:00:00","4","6.95","-71.85","213.0","LOS COLONIZADORES, CO","FM-15","99999","V020","330,1,N,0036,1","01981,1,C,N","009000,1,9,9","+0260,1","+0210,1","99999,9","08,1,+01981,1,99,9",,"9,AGL   ,+99999,+99999","99,99,9,08,1,99,9,01981,1,99,9,99,9","10150,1,99999,9",,,,"MET061METAR SKSA 121600Z 33007KT 9000 OVC065 26/21 Q1015 RMK A2997=",
"80222599999","2023-03-12T18:00:00","4","6.95","-71.85","213.0","LOS COLONIZADORES, CO","FM-15","99999","V020","330,1,N,0021,1","01829,1,C,N","008000,1,9,9","+0260,1","+0220,1","99999,9","08,1,+01829,1,99,9",,"9,AGL   ,+99999,+99999","99,99,9,08,1,99,9,01829,1,99,9,99,9","10130,1,99999,9","16,1",,,"MET075METAR SKSA 121800Z 33004KT 8000 VCSH OVC060 26/22 Q1013 RMK VCSH S/E A2993=",
"80222599999","2023-03-12T19:00:00","4","6.95","-71.85","213.0","LOS COLONIZADORES, CO","FM-15","99999","V020","290,1,N,0021,1","02743,1,C,N","009000,1,9,9","+0270,1","+0230,1","99999,9","08,1,+02743,1,99,9",,"9,AGL   ,+99999,+99999","99,99,9,08,1,99,9,02743,1,99,9,99,9","10120,1,99999,9",,,,"MET061METAR SKSA 121900Z 29004KT 9000 OVC090 27/23 Q1012 RMK A2990=",
"80222599999","2023-03-12T20:00:00","4","6.95","-71.85","213.0","LOS COLONIZADORES, CO","FM-15","99999","V020","300,1,N,0026,1","03048,1,C,N","009000,1,9,9","+0280,1","+0220,1","99999,9","08,1,+03048,1,99,9",,"9,AGL   ,+99999,+99999","99,99,9,08,1,99,9,03048,1,99,9,99,9","10110,1,99999,9",,,,"MET061METAR SKSA 122000Z 30005KT 9000 OVC100 28/22 Q1011 RMK A2987=",
"80222599999","2023-03-12T21:00:00","4","6.95","-71.85","213.0","LOS COLONIZADORES, CO","FM-15","99999","V020","999,9,V,0010,1","03048,1,C,N","009000,1,9,9","+0280,1","+0220,1","99999,9","08,1,+03048,1,99,9",,"9,AGL   ,+99999,+99999","99,99,9,08,1,99,9,03048,1,99,9,99,9","10110,1,99999,9",,,,"MET061METAR SKSA 122100Z VRB02KT 9000 OVC100 28/22 Q1011 RMK A2986=",
"80222599999","2023-03-12T22:00:00","4","6.95","-71.85","213.0","LOS COLONIZADORES, CO","FM-15","99999","V020","999,9,V,0010,1","03048,1,C,N","009000,1,9,9","+0270,1","+0230,1","99999,9","08,1,+03048,1,99,9",,"9,AGL   ,+99999,+99999","99,99,9,08,1,99,9,03048,1,99,9,99,9","10120,1,99999,9",,,,"MET061METAR SKSA 122200Z VRB02KT 9000 OVC100 27/23 Q1012 RMK A2988=",
"80222599999","2023-03-12T23:00:00","4","6.95","-71.85","213.0","LOS COLONIZADORES, CO","FM-15","99999","V020","340,1,N,0015,1","01829,1,C,N","009000,1,9,9","+0260,1","+0230,1","99999,9","08,1,+01829,1,99,9",,"9,AGL   ,+99999,+99999","99,99,9,08,1,99,9,01829,1,99,9,99,9","10120,1,99999,9",,,,"MET061METAR SKSA 122300Z 34003KT 9000 OVC060 26/23 Q1012 RMK A2989=",
"80222599999","2023-03-13T11:00:00","4","6.95","-71.85","213.0","LOS COLONIZADORES, CO","FM-15","99999","V020","999,9,V,0010,1","03048,1,C,N","009000,1,9,9","+0240,1","+0200,1","99999,9","08,1,+03048,1,99,9",,"9,AGL   ,+99999,+99999","99,99,9,08,1,99,9,03048,1,99,9,99,9","10130,1,99999,9",,,,"MET061METAR SKSA 131100Z VRB02KT 9000 OVC100 24/20 Q1013 RMK A2993=",
"80222599999","2023-03-13T12:00:00","4","6.95","-71.85","213.0","LOS COLONIZADORES, CO","FM-15","99999","V020","999,9,V,0010,1","03048,1,C,N","009000,1,9,9","+0240,1","+0220,1","99999,9","08,1,+03048,1,99,9",,"9,AGL   ,+99999,+99999","99,99,9,08,1,99,9,03048,1,99,9,99,9","10140,1,99999,9",,,,"MET061METAR SKSA 131200Z VRB02KT 9000 OVC100 24/22 Q1014 RMK A2995=",
"80222599999","2023-03-13T13:00:00","4","6.95","-71.85","213.0","LOS COLONIZADORES, CO","FM-15","99999","V020","999,9,V,0010,1","02286,1,C,N","009000,1,9,9","+0260,1","+0220,1","99999,9","08,1,+02286,1,99,9",,"9,AGL   ,+99999,+99999","99,99,9,08,1,99,9,02286,1,99,9,99,9","10140,1,99999,9",,,,"MET061METAR SKSA 131300Z VRB02KT 9000 OVC075 26/22 Q1014 RMK A2996=",
"80222599999","2023-03-13T15:00:00","4","6.95","-71.85","213.0","LOS COLONIZADORES, CO","FM-15","99999","V020","300,1,N,0036,1","02286,1,C,N","009000,1,9,9","+0240,1","+0210,1","99999,9","08,1,+02286,1,99,9",,"9,AGL   ,+99999,+99999","99,99,9,08,1,99,9,02286,1,99,9,99,9","10160,1,99999,9",,,,"MET061METAR SKSA 131500Z 30007KT 9000 OVC075 24/21 Q1016 RMK A3002=",
"80222599999","2023-03-13T16:00:00","4","6.95","-71.85","213.0","LOS COLONIZADORES, CO","FM-15","99999","V020","280,1,N,0046,1","01829,1,C,N","009000,1,9,9","+0240,1","+0220,1","99999,9","08,1,+01829,1,99,9",,"9,AGL   ,+99999,+99999","99,99,9,08,1,99,9,01829,1,99,9,99,9","10160,1,99999,9",,,,"MET061METAR SKSA 131600Z 28009KT 9000 OVC060 24/22 Q1016 RMK A3001=",
"80222599999","2023-03-13T18:00:00","4","6.95","-71.85","213.0","LOS COLONIZADORES, CO","FM-15","99999","V020","320,1,N,0041,1","03048,1,C,N","009000,1,9,9","+0260,1","+0220,1","99999,9","08,1,+03048,1,99,9",,"9,AGL   ,+99999,+99999","99,99,9,08,1,99,9,03048,1,99,9,99,9","10140,1,99999,9",,,,"MET061METAR SKSA 131800Z 32008KT 9000 OVC100 26/22 Q1014 RMK A2995=",
"80222599999","2023-03-13T19:00:00","4","6.95","-71.85","213.0","LOS COLONIZADORES, CO","FM-15","99999","V020","320,1,N,0046,1","03048,1,C,N","009999,1,9,9","+0280,1","+0220,1","99999,9","08,1,+03048,1,99,9",,"9,AGL   ,+99999,+99999","99,99,9,08,1,99,9,03048,1,99,9,99,9","10130,1,99999,9",,,,"MET061METAR SKSA 131900Z 32009KT 9999 OVC100 28/22 Q1013 RMK A2992=",
"80222599999","2023-03-13T20:00:00","4","6.95","-71.85","213.0","LOS COLONIZADORES, CO","FM-15","99999","V020","320,1,N,0041,1","03048,1,C,N","009999,1,9,9","+0280,1","+0220,1","99999,9","07,1,+03048,1,99,9",,"9,AGL   ,+99999,+99999","99,99,9,07,1,99,9,03048,1,99,9,99,9","10120,1,99999,9",,,,"MET061METAR SKSA 132000Z 32008KT 9999 BKN100 28/22 Q1012 RMK A2988=",
"80222599999","2023-03-13T22:00:00","4","6.95","-71.85","213.0","LOS COLONIZADORES, CO","FM-15","99999","V020","250,1,N,0015,1","99999,9,9,N","009999,1,9,9","+0280,1","+0210,1","99999,9","04,1,+03048,1,99,9",,"9,AGL   ,+99999,+99999","99,99,9,04,1,99,9,03048,1,99,9,99,9","10110,1,99999,9",,,,"MET061METAR SKSA 132200Z 25003KT 9999 SCT100 28/21 Q1011 RMK A2985=",
"80222599999","2023-03-13T23:00:00","4","6.95","-71.85","213.0","LOS COLONIZADORES, CO","FM-15","99999","V020","999,9,V,0010,1","99999,9,9,N","009000,1,9,9","+0270,1","+0220,1","99999,9","04,1,+03048,1,99,9",,"9,AGL   ,+99999,+99999","99,99,9,04,1,99,9,03048,1,99,9,99,9","10110,1,99999,9",,,,"MET061METAR SKSA 132300Z VRB02KT 9000 SCT100 27/22 Q1011 RMK A2986=",
"80222599999","2023-03-14T11:00:00","4","6.95","-71.85","213.0","LOS COLONIZADORES, CO","FM-15","99999","V020","999,9,V,0010,1","02134,1,C,N","009999,1,9,9","+0220,1","+0210,1","99999,9","07,1,+02134,1,99,9",,"9,AGL   ,+99999,+99999","99,99,9,07,1,99,9,02134,1,99,9,99,9","10130,1,99999,9",,,,"MET061METAR SKSA 141100Z VRB02KT 9999 BKN070 22/21 Q1013 RMK A2992=",
"80222599999","2023-03-14T12:00:00","4","6.95","-71.85","213.0","LOS COLONIZADORES, CO","FM-15","99999","V020","999,9,V,0010,1","02743,1,C,N","009999,1,9,9","+0240,1","+0210,1","99999,9","07,1,+02743,1,99,9",,"9,AGL   ,+99999,+99999","99,99,9,07,1,99,9,02743,1,99,9,99,9","10140,1,99999,9",,,,"MET061METAR SKSA 141200Z VRB02KT 9999 BKN090 24/21 Q1014 RMK A2995=",
"80222599999","2023-03-14T13:00:00","4","6.95","-71.85","213.0","LOS COLONIZADORES, CO","FM-15","99999","V020","330,1,N,0015,1","02743,1,C,N","009999,1,9,9","+0240,1","+0200,1","99999,9","07,1,+02743,1,99,9",,"9,AGL   ,+99999,+99999","99,99,9,07,1,99,9,02743,1,99,9,99,9","10160,1,99999,9","80,1",,,"MET073METAR SKSA 141300Z 33003KT 9999 -SHRA BKN090 24/20 Q1016 RMK -SHRA A3000=",
"80222599999","2023-03-14T14:00:00","4","6.95","-71.85","213.0","LOS COLONIZADORES, CO","FM-15","99999","V020","270,1,N,0021,1","02134,1,C,N","009000,1,9,9","+0270,1","+0210,1","99999,9","07,1,+02134,1,99,9",,"9,AGL   ,+99999,+99999","99,99,9,07,1,99,9,02134,1,99,9,99,9","10170,1,99999,9",,,,"MET061METAR SKSA 141400Z 27004KT 9000 BKN070 27/21 Q1017 RMK A3000=",
"80222599999","2023-03-14T15:00:00","4","6.95","-71.85","213.0","LOS COLONIZADORES, CO","FM-15","99999","V020","270,1,N,0021,1","02134,1,C,N","009000,1,9,9","+0270,1","+0210,1","99999,9","07,1,+02134,1,99,9",,"9,AGL   ,+99999,+99999","99,99,9,07,1,99,9,02134,1,99,9,99,9","10170,1,99999,9",,,,"MET061METAR SKSA 141500Z 27004KT 9000 BKN070 27/21 Q1017 RMK A3000=",
"80222599999","2023-03-14T16:00:00","4","6.95","-71.85","213.0","LOS COLONIZADORES, CO","FM-15","99999","V020","300,1,N,0031,1","02743,1,C,N","009000,1,9,9","+0280,1","+0200,1","99999,9","07,1,+02743,1,99,9",,"9,AGL   ,+99999,+99999","99,99,9,07,1,99,9,02743,1,99,9,99,9","10170,1,99999,9",,,,"MET061METAR SKSA 141600Z 30006KT 9000 BKN090 28/20 Q1017 RMK A3003=",
"80222599999","2023-03-14T17:00:00","4","6.95","-71.85","213.0","LOS COLONIZADORES, CO","FM-15","99999","V020","280,1,N,0041,1","99999,9,9,N","009999,1,9,9","+0290,1","+0200,1","99999,9","04,1,+02743,1,99,9",,"9,AGL   ,+99999,+99999","99,99,9,04,1,99,9,02743,1,99,9,99,9","10160,1,99999,9",,,,"MET061METAR SKSA 141700Z 28008KT 9999 SCT090 29/20 Q1016 RMK A3000=",
"80222599999","2023-03-14T18:00:00","4","6.95","-71.85","213.0","LOS COLONIZADORES, CO","FM-15","99999","V020","350,1,N,0046,1","99999,9,9,N","009999,1,9,9","+0290,1","+0190,1","99999,9","04,1,+03048,1,99,9",,"9,AGL   ,+99999,+99999","99,99,9,04,1,99,9,03048,1,99,9,99,9","10150,1,99999,9",,,,"MET061METAR SKSA 141800Z 35009KT 9999 SCT100 29/19 Q1015 RMK A2997=",
"80222599999","2023-03-14T19:00:00","4","6.95","-71.85","213.0","LOS COLONIZADORES, CO","FM-15","99999","V020","290,1,N,0041,1","22000,1,9,N","009999,1,9,9","+0300,1","+0190,1","99999,9",,,,"00,99,1,99,9,99,9,99999,9,99,9,99,9","10140,1,99999,9",,,,"MET058METAR SKSA 141900Z 29008KT 9999 NSC 30/19 Q1014 RMK A2994=",
"80222599999","2023-03-14T20:00:00","4","6.95","-71.85","213.0","LOS COLONIZADORES, CO","FM-15","99999","V020","250,1,N,0015,1","22000,1,9,N","009999,1,9,9","+0300,1","+0190,1","99999,9",,,,"00,99,1,99,9,99,9,99999,9,99,9,99,9","10130,1,99999,9",,,,"MET058METAR SKSA 142000Z 25003KT 9999 NSC 30/19 Q1013 RMK A2991=",
"80222599999","2023-03-14T21:00:00","4","6.95","-71.85","213.0","LOS COLONIZADORES, CO","FM-15","99999","V020","999,9,V,0010,1","99999,9,9,N","009999,1,9,9","+0290,1","+0190,1","99999,9","04,1,+02743,1,99,9",,"9,AGL   ,+99999,+99999","99,99,9,04,1,99,9,02743,1,99,9,99,9","10120,1,99999,9",,,,"MET061METAR SKSA 142100Z VRB02KT 9999 SCT090 29/19 Q1012 RMK A2989=",
"80222599999","2023-03-14T22:00:00","4","6.95","-71.85","213.0","LOS COLONIZADORES, CO","FM-15","99999","V020","050,1,N,0015,1","99999,9,9,N","009999,1,9,9","+0280,1","+0200,1","99999,9","04,1,+02438,1,99,9",,"9,AGL   ,+99999,+99999","99,99,9,04,1,99,9,02438,1,99,9,99,9","10120,1,99999,9",,,,"MET061METAR SKSA 142200Z 05003KT 9999 SCT080 28/20 Q1012 RMK A2988=",
"80222599999","2023-03-14T23:00:00","4","6.95","-71.85","213.0","LOS COLONIZADORES, CO","FM-15","99999","V020","320,1,N,0015,1","99999,9,9,N","009999,1,9,9","+0270,1","+0210,1","99999,9","04,1,+03048,1,99,9",,"9,AGL   ,+99999,+99999","99,99,9,04,1,99,9,03048,1,99,9,99,9","10120,1,99999,9",,,,"MET061METAR SKSA 142300Z 32003KT 9999 SCT100 27/21 Q1012 RMK A2988=",
"80222599999","2023-03-15T11:00:00","4","6.95","-71.85","213.0","LOS COLONIZADORES, CO","FM-15","99999","V020","999,9,V,0010,1","99999,9,9,N","009999,1,9,9","+0220,1","+0190,1","99999,9","04,1,+02438,1,99,9",,"9,AGL   ,+99999,+99999","99,99,9,04,1,99,9,02438,1,99,9,99,9","10130,1,99999,9",,,,"MET061METAR SKSA 151100Z VRB02KT 9999 SCT080 22/19 Q1013 RMK A2992=",
"80222599999","2023-03-15T12:00:00","4","6.95","-71.85","213.0","LOS COLONIZADORES, CO","FM-15","99999","V020","999,9,V,0010,1","02743,1,C,N","009000,1,9,9","+0230,1","+0190,1","99999,9","07,1,+02743,1,99,9",,"9,AGL   ,+99999,+99999","99,99,9,07,1,99,9,02743,1,99,9,99,9","10140,1,99999,9",,,,"MET061METAR SKSA 151200Z VRB02KT 9000 BKN090 23/19 Q1014 RMK A2994=",
"80222599999","2023-03-15T13:00:00","4","6.95","-71.85","213.0","LOS COLONIZADORES, CO","FM-15","99999","V020","999,9,V,0010,1","02743,1,C,N","009000,1,9,9","+0240,1","+0190,1","99999,9","08,1,+02743,1,99,9",,"9,AGL   ,+99999,+99999","99,99,9,08,1,99,9,02743,1,99,9,99,9","10150,1,99999,9",,,,"MET061METAR SKSA 151300Z VRB02KT 9000 OVC090 24/19 Q1015 RMK A2998=",
"80222599999","2023-03-15T14:00:00","4","6.95","-71.85","213.0","LOS COLONIZADORES, CO","FM-15","99999","V020","999,9,V,0010,1","03048,1,C,N","009000,1,9,9","+0250,1","+0190,1","99999,9","08,1,+03048,1,99,9",,"9,AGL   ,+99999,+99999","99,99,9,08,1,99,9,03048,1,99,9,99,9","10160,1,99999,9",,,,"MET060METAR SKSA 151400Z VRB02KT 9000 OVC100 25/19 Q1016 RMK 3000=",
"80222599999","2023-03-15T15:00:00","4","6.95","-71.85","213.0","LOS COLONIZADORES, CO","FM-15","99999","V020","300,1,N,0031,1","03048,1,C,N","009000,1,9,9","+0270,1","+0190,1","99999,9","08,1,+03048,1,99,9",,"9,AGL   ,+99999,+99999","99,99,9,08,1,99,9,03048,1,99,9,99,9","10160,1,99999,9",,,,"MET060METAR SKSA 151500Z 30006KT 9000 OVC100 27/19 Q1016 RMK 3001=",
"80222599999","2023-03-15T16:00:00","4","6.95","-71.85","213.0","LOS COLONIZADORES, CO","FM-15","99999","V020","300,1,N,0031,1","02134,1,C,N","009000,1,9,9","+0280,1","+0170,1","99999,9","08,1,+02134,1,99,9",,"9,AGL   ,+99999,+99999","99,99,9,08,1,99,9,02134,1,99,9,99,9","10150,1,99999,9",,,,"MET060METAR SKSA 151600Z 30006KT 9000 OVC070 28/17 Q1015 RMK 2999=",
"80222599999","2023-03-15T17:00:00","4","6.95","-71.85","213.0","LOS COLONIZADORES, CO","FM-15","99999","V020","999,9,V,0010,1","99999,9,9,N","009999,1,9,9","+0290,1","+0160,1","99999,9","04,1,+03048,1,99,9",,"9,AGL   ,+99999,+99999","99,99,9,04,1,99,9,03048,1,99,9,99,9","10140,1,99999,9",,,,"MET060METAR SKSA 151700Z VRB02KT 9999 SCT100 29/16 Q1014 RMK 2995=",
"80222599999","2023-03-15T18:00:00","4","6.95","-71.85","213.0","LOS COLONIZADORES, CO","FM-15","99999","V020","340,1,N,0031,1","99999,9,9,N","009999,1,9,9","+0300,1","+0170,1","99999,9","04,1,+03048,1,99,9",,"9,AGL   ,+99999,+99999","99,99,9,04,1,99,9,03048,1,99,9,99,9","10130,1,99999,9",,,,"MET060METAR SKSA 151800Z 34006KT 9999 SCT100 30/17 Q1013 RMK 2992=",
"80222599999","2023-03-15T19:00:00","4","6.95","-71.85","213.0","LOS COLONIZADORES, CO","FM-15","99999","V020","230,1,N,0031,1","22000,1,9,N","009999,1,9,9","+0300,1","+0180,1","99999,9",,,,"00,99,1,99,9,99,9,99999,9,99,9,99,9","10120,1,99999,9",,,,"MET057METAR SKSA 151900Z 23006KT 9999 NSC 30/18 Q1012 RMK 2988=",
"80222599999","2023-03-15T20:00:00","4","6.95","-71.85","213.0","LOS COLONIZADORES, CO","FM-15","99999","V020","999,9,V,0010,1","22000,1,9,N","009999,1,9,9","+0300,1","+0180,1","99999,9",,,,"00,99,1,99,9,99,9,99999,9,99,9,99,9","10110,1,99999,9",,,,"MET057METAR SKSA 152000Z VRB02KT 9999 NSC 30/18 Q1011 RMK 2986=",
"80222599999","2023-03-15T21:00:00","4","6.95","-71.85","213.0","LOS COLONIZADORES, CO","FM-15","99999","V020","330,1,N,0026,1","22000,1,9,N","009999,1,9,9","+0310,1","+0180,1","99999,9",,,,"00,99,1,99,9,99,9,99999,9,99,9,99,9","10100,1,99999,9",,,,"MET057METAR SKSA 152100Z 33005KT 9999 NSC 31/18 Q1010 RMK 2983=",
"80222599999","2023-03-15T22:00:00","4","6.95","-71.85","213.0","LOS COLONIZADORES, CO","FM-15","99999","V020","330,1,N,0026,1","22000,1,9,N","009999,1,9,9","+0300,1","+0180,1","99999,9",,,,"00,99,1,99,9,99,9,99999,9,99,9,99,9","10100,1,99999,9",,,,"MET057METAR SKSA 152200Z 33005KT 9999 NSC 30/18 Q1010 RMK 2983=",
"80222599999","2023-03-15T23:00:00","4","6.95","-71.85","213.0","LOS COLONIZADORES, CO","FM-15","99999","V020","999,9,V,0010,1","22000,1,9,N","009999,1,9,9","+0270,1","+0190,1","99999,9",,,,"00,99,1,99,9,99,9,99999,9,99,9,99,9","10100,1,99999,9",,,,"MET057METAR SKSA 152300Z VRB02KT 9999 NSC 27/19 Q1010 RMK 2983=",
"80222599999","2023-03-16T11:00:00","4","6.95","-71.85","213.0","LOS COLONIZADORES, CO","FM-15","99999","V020","330,1,N,0026,1","99999,9,9,N","009999,1,9,9","+0220,1","+0170,1","99999,9","04,1,+02134,1,99,9",,"9,AGL   ,+99999,+99999","99,99,9,04,1,99,9,02134,1,99,9,99,9","10110,1,99999,9",,,,"MET061METAR SKSA 161100Z 33005KT 9999 SCT070 22/17 Q1011 RMK A2987=",
"80222599999","2023-03-16T12:00:00","4","6.95","-71.85","213.0","LOS COLONIZADORES, CO","FM-15","99999","V020","310,1,N,0015,1","02134,1,C,N","009999,1,9,9","+0230,1","+0170,1","99999,9","07,1,+02134,1,99,9",,"9,AGL   ,+99999,+99999","99,99,9,07,1,99,9,02134,1,99,9,99,9","10120,1,99999,9",,,,"MET061METAR SKSA 161200Z 31003KT 9999 BKN070 23/17 Q1012 RMK A2989=",
"80222599999","2023-03-16T13:00:00","4","6.95","-71.85","213.0","LOS COLONIZADORES, CO","FM-15","99999","V020","310,1,N,0026,1","02134,1,C,N","009999,1,9,9","+0250,1","+0170,1","99999,9","08,1,+02134,1,99,9",,"9,AGL   ,+99999,+99999","99,99,9,08,1,99,9,02134,1,99,9,99,9","10130,1,99999,9",,,,"MET061METAR SKSA 161300Z 31005KT 9999 OVC070 25/17 Q1013 RMK A2991=",
"80222599999","2023-03-16T15:00:00","4","6.95","-71.85","213.0","LOS COLONIZADORES, CO","FM-15","99999","V020","310,1,N,0026,1","02438,1,C,N","009999,1,9,9","+0290,1","+0170,1","99999,9","08,1,+02438,1,99,9",,"9,AGL   ,+99999,+99999","99,99,9,08,1,99,9,02438,1,99,9,99,9","10130,1,99999,9",,,,"MET061METAR SKSA 161500Z 31005KT 9999 OVC080 29/17 Q1013 RMK A2993=",
"80222599999","2023-03-16T18:00:00","4","6.95","-71.85","213.0","LOS COLONIZADORES, CO","FM-15","99999","V020","040,1,N,0015,1","22000,1,9,N","009999,1,9,9","+0320,1","+0160,1","99999,9",,,,"00,99,1,99,9,99,9,99999,9,99,9,99,9","10100,1,99999,9",,,,"MET058METAR SKSA 161800Z 04003KT 9999 SKC 32/16 Q1010 RMK A2984=",
"80222599999","2023-03-16T21:00:00","4","6.95","-71.85","213.0","LOS COLONIZADORES, CO","FM-15","99999","V020","999,9,V,0010,1","22000,1,9,N","009999,1,9,9","+0330,1","+0160,1","99999,9",,,,"00,99,1,99,9,99,9,99999,9,99,9,99,9","10080,1,99999,9",,,,"MET058METAR SKSA 162100Z VRB02KT 9999 NSC 33/16 Q1008 RMK A2978=",
"80222599999","2023-03-16T22:00:00","4","6.95","-71.85","213.0","LOS COLONIZADORES, CO","FM-15","99999","V020","999,9,V,0010,1","22000,1,9,N","009999,1,9,9","+0310,1","+0190,1","99999,9",,,,"00,99,1,99,9,99,9,99999,9,99,9,99,9","10080,1,99999,9",,,,"MET058METAR SKSA 162200Z VRB02KT 9999 NSC 31/19 Q1008 RMK A2979=",
"80222599999","2023-03-16T23:00:00","4","6.95","-71.85","213.0","LOS COLONIZADORES, CO","FM-15","99999","V020","999,9,V,0010,1","22000,1,9,N","009999,1,9,9","+0270,1","+0210,1","99999,9",,,,"00,99,1,99,9,99,9,99999,9,99,9,99,9","10090,1,99999,9",,,,"MET058METAR SKSA 162300Z VRB02KT 9999 NSC 27/21 Q1009 RMK A2980=",
"80222599999","2023-03-17T11:00:00","4","6.95","-71.85","213.0","LOS COLONIZADORES, CO","FM-15","99999","V020","300,1,N,0026,1","02438,1,C,N","008000,1,9,9","+0260,1","+0180,1","99999,9","08,1,+02438,1,99,9",,"9,AGL   ,+99999,+99999","99,99,9,08,1,99,9,02438,1,99,9,99,9","10100,1,99999,9",,,,"MET061METAR SKSA 171100Z 30005KT 8000 OVC080 26/18 Q1010 RMK A2985=",
"80222599999","2023-03-17T12:00:00","4","6.95","-71.85","213.0","LOS COLONIZADORES, CO","FM-15","99999","V020","310,1,N,0021,1","02591,1,C,N","008000,1,9,9","+0250,1","+0180,1","99999,9","08,1,+02591,1,99,9",,"9,AGL   ,+99999,+99999","99,99,9,08,1,99,9,02591,1,99,9,99,9","10110,1,99999,9",,,,"MET061METAR SKSA 171200Z 31004KT 8000 OVC085 25/18 Q1011 RMK A2986=",
"80222599999","2023-03-17T13:00:00","4","6.95","-71.85","213.0","LOS COLONIZADORES, CO","FM-15","99999","V020","320,1,N,0026,1","02743,1,C,N","008000,1,9,9","+0260,1","+0190,1","99999,9","08,1,+02743,1,99,9",,"9,AGL   ,+99999,+99999","99,99,9,08,1,99,9,02743,1,99,9,99,9","10120,1,99999,9",,,,"MET061METAR SKSA 171300Z 32005KT 8000 OVC090 26/19 Q1012 RMK A2988=",
"80222599999","2023-03-17T14:00:00","4","6.95","-71.85","213.0","LOS COLONIZADORES, CO","FM-15","99999","V020","340,1,N,0015,1","02591,1,C,N","008000,1,9,9","+0270,1","+0200,1","99999,9","08,1,+02591,1,99,9",,"9,AGL   ,+99999,+99999","99,99,9,08,1,99,9,02591,1,99,9,99,9","10130,1,99999,9",,,,"MET061METAR SKSA 171400Z 34003KT 8000 OVC085 27/20 Q1013 RMK A2991=",
"80222599999","2023-03-17T15:00:00","4","6.95","-71.85","213.0","LOS COLONIZADORES, CO","FM-15","99999","V020","030,1,N,0015,1","02438,1,C,N","008000,1,9,9","+0250,1","+0200,1","99999,9","08,1,+02438,1,99,9",,"9,AGL   ,+99999,+99999","99,99,9,08,1,99,9,02438,1,99,9,99,9","10140,1,99999,9",,,,"MET061METAR SKSA 171500Z 03003KT 8000 OVC080 25/20 Q1014 RMK A2995=",
"80222599999","2023-03-17T16:00:00","4","6.95","-71.85","213.0","LOS COLONIZADORES, CO","FM-15","99999","V020","999,9,V,0010,1","02438,1,C,N","008000,1,9,9","+0260,1","+0210,1","99999,9","08,1,+02438,1,99,9",,"9,AGL   ,+99999,+99999","99,99,9,08,1,99,9,02438,1,99,9,99,9","10140,1,99999,9",,,,"MET061METAR SKSA 171600Z VRB02KT 8000 OVC080 26/21 Q1014 RMK A2994=",
"80222599999","2023-03-17T19:00:00","4","6.95","-71.85","213.0","LOS COLONIZADORES, CO","FM-15","99999","V020","290,1,N,0021,1","02438,1,C,N","009000,1,9,9","+0300,1","+0190,1","99999,9","07,1,+02438,1,99,9",,"9,AGL   ,+99999,+99999","99,99,9,07,1,99,9,02438,1,99,9,99,9","10100,1,99999,9",,,,"MET061METAR SKSA 171900Z 29004KT 9000 BKN080 30/19 Q1010 RMK A2984=",
"80222599999","2023-03-17T20:00:00","4","6.95","-71.85","213.0","LOS COLONIZADORES, CO","FM-15","99999","V020","310,1,N,0031,1","22000,1,9,N","009999,1,9,9","+0320,1","+0190,1","99999,9",,,,"00,99,1,99,9,99,9,99999,9,99,9,99,9","10090,1,99999,9",,,,"MET058METAR SKSA 172000Z 31006KT 9999 NSC 32/19 Q1009 RMK A2981=",
"80222599999","2023-03-17T21:00:00","4","6.95","-71.85","213.0","LOS COLONIZADORES, CO","FM-15","99999","V020","310,1,N,0031,1","22000,1,9,N","009999,1,9,9","+0310,1","+0190,1","99999,9",,,,"00,99,1,99,9,99,9,99999,9,99,9,99,9","10090,1,99999,9",,,,"MET058METAR SKSA 172100Z 31006KT 9999 NSC 31/19 Q1009 RMK A2979=",
"80222599999","2023-03-17T22:00:00","4","6.95","-71.85","213.0","LOS COLONIZADORES, CO","FM-15","99999","V020","300,1,N,0015,1","22000,1,9,N","009999,1,9,9","+0310,1","+0180,1","99999,9",,,,"00,99,1,99,9,99,9,99999,9,99,9,99,9","10090,1,99999,9",,,,"MET058METAR SKSA 172200Z 30003KT 9999 NSC 31/18 Q1009 RMK A2979=",
"80222599999","2023-03-17T23:00:00","4","6.95","-71.85","213.0","LOS COLONIZADORES, CO","FM-15","99999","V020","300,1,N,0021,1","03048,1,C,N","009999,1,9,9","+0280,1","+0200,1","99999,9","07,1,+03048,1,99,9",,"9,AGL   ,+99999,+99999","99,99,9,07,1,99,9,03048,1,99,9,99,9","10090,1,99999,9",,,,"MET061METAR SKSA 172300Z 30004KT 9999 BKN100 28/20 Q1009 RMK A2979=",
"80222599999","2023-03-18T11:00:00","4","6.95","-71.85","213.0","LOS COLONIZADORES, CO","FM-15","99999","V020","310,1,N,0021,1","02438,1,C,N","009999,1,9,9","+0250,1","+0180,1","99999,9","07,1,+02438,1,99,9",,"9,AGL   ,+99999,+99999","99,99,9,07,1,99,9,02438,1,99,9,99,9","10110,1,99999,9",,,,"MET061METAR SKSA 181100Z 31004KT 9999 BKN080 25/18 Q1011 RMK A2986=",
"80222599999","2023-03-18T12:00:00","4","6.95","-71.85","213.0","LOS COLONIZADORES, CO","FM-15","99999","V020","999,9,V,0010,1","02134,1,C,N","008000,1,9,9","+0240,1","+0190,1","99999,9","08,1,+02134,1,99,9",,"9,AGL   ,+99999,+99999","99,99,9,08,1,99,9,02134,1,99,9,99,9","10120,1,99999,9",,,,"MET061METAR SKSA 181200Z VRB02KT 8000 OVC070 24/19 Q1012 RMK A2989=",
"80222599999","2023-03-18T13:00:00","4","6.95","-71.85","213.0","LOS COLONIZADORES, CO","FM-15","99999","V020","999,9,V,0010,1","02134,1,C,N","008000,1,9,9","+0240,1","+0190,1","99999,9","08,1,+02134,1,99,9",,"9,AGL   ,+99999,+99999","99,99,9,08,1,99,9,02134,1,99,9,99,9","10140,1,99999,9",,,,"MET061METAR SKSA 181300Z VRB02KT 8000 OVC070 24/19 Q1014 RMK A2994=",
"80222599999","2023-03-18T14:00:00","4","6.95","-71.85","213.0","LOS COLONIZADORES, CO","FM-15","99999","V020","999,9,V,0010,1","01981,1,C,N","008000,1,9,9","+0250,1","+0200,1","99999,9","08,1,+01981,1,99,9",,"9,AGL   ,+99999,+99999","99,99,9,08,1,99,9,01981,1,99,9,99,9","10150,1,99999,9",,,,"MET061METAR SKSA 181400Z VRB02KT 8000 OVC065 25/20 Q1015 RMK A2998=",
"80222599999","2023-03-18T16:00:00","4","6.95","-71.85","213.0","LOS COLONIZADORES, CO","FM-15","99999","V020","330,1,N,0026,1","01829,1,C,N","008000,1,9,9","+0270,1","+0200,1","99999,9","08,1,+01829,1,99,9",,"9,AGL   ,+99999,+99999","99,99,9,08,1,99,9,01829,1,99,9,99,9","10150,1,99999,9",,,,"MET061METAR SKSA 181600Z 33005KT 8000 OVC060 27/20 Q1015 RMK A2998=",
"80222599999","2023-03-18T17:00:00","4","6.95","-71.85","213.0","LOS COLONIZADORES, CO","FM-15","99999","V020","330,1,N,0021,1","01981,1,C,N","008000,1,9,9","+0280,1","+0200,1","99999,9","08,1,+01981,1,99,9",,"9,AGL   ,+99999,+99999","99,99,9,08,1,99,9,01981,1,99,9,99,9","10140,1,99999,9",,,,"MET061METAR SKSA 181700Z 33004KT 8000 OVC065 28/20 Q1014 RMK A2995=",
"80222599999","2023-03-18T18:00:00","4","6.95","-71.85","213.0","LOS COLONIZADORES, CO","FM-15","99999","V020","330,1,N,0021,1","01981,1,C,N","008000,1,9,9","+0280,1","+0200,1","99999,9","08,1,+01981,1,99,9",,"9,AGL   ,+99999,+99999","99,99,9,08,1,99,9,01981,1,99,9,99,9","10140,1,99999,9",,,,"MET061METAR SKSA 181800Z 33004KT 8000 OVC065 28/20 Q1014 RMK A2995=",
"80222599999","2023-03-18T19:00:00","4","6.95","-71.85","213.0","LOS COLONIZADORES, CO","FM-15","99999","V020","330,1,N,0031,1","99999,9,9,N","009999,1,9,9","+0300,1","+0200,1","99999,9","04,1,+01981,1,99,9",,"9,AGL   ,+99999,+99999","99,99,9,04,1,99,9,01981,1,99,9,99,9","10110,1,99999,9",,,,"MET061METAR SKSA 181900Z 33006KT 9999 SCT065 30/20 Q1011 RMK A2987=",
"80222599999","2023-03-18T20:00:00","4","6.95","-71.85","213.0","LOS COLONIZADORES, CO","FM-15","99999","V020","310,1,N,0021,1","99999,9,9,N","009999,1,9,9","+0300,1","+0190,1","99999,9","04,1,+01981,1,99,9",,"9,AGL   ,+99999,+99999","99,99,9,04,1,99,9,01981,1,99,9,99,9","10100,1,99999,9",,,,"MET061METAR SKSA 182000Z 31004KT 9999 SCT065 30/19 Q1010 RMK A2984=",
"80222599999","2023-03-18T21:00:00","4","6.95","-71.85","213.0","LOS COLONIZADORES, CO","FM-15","99999","V020","300,1,N,0021,1","22000,1,9,N","009999,1,9,9","+0300,1","+0190,1","99999,9",,,,"00,99,1,99,9,99,9,99999,9,99,9,99,9","10100,1,99999,9",,,,"MET058METAR SKSA 182100Z 30004KT 9999 NSC 30/19 Q1010 RMK A2982=",
"80222599999","2023-03-18T22:00:00","4","6.95","-71.85","213.0","LOS COLONIZADORES, CO","FM-15","99999","V020","310,1,N,0021,1","22000,1,9,N","009999,1,9,9","+0290,1","+0190,1","99999,9",,,,"00,99,1,99,9,99,9,99999,9,99,9,99,9","10090,1,99999,9",,,,"MET058METAR SKSA 182200Z 31004KT 9999 NSC 29/19 Q1009 RMK A2982=",
"80222599999","2023-03-18T23:00:00","4","6.95","-71.85","213.0","LOS COLONIZADORES, CO","FM-15","99999","V020","290,1,N,0015,1","22000,1,9,N","009999,1,9,9","+0280,1","+0190,1","99999,9",,,,"00,99,1,99,9,99,9,99999,9,99,9,99,9","10100,1,99999,9",,,,"MET058METAR SKSA 182300Z 29003KT 9999 NSC 28/19 Q1010 RMK A2982=",
"80222599999","2023-03-19T11:00:00","4","6.95","-71.85","213.0","LOS COLONIZADORES, CO","FM-15","99999","V020","330,1,N,0021,1","03048,1,C,N","009999,1,9,9","+0250,1","+0180,1","99999,9","08,1,+03048,1,99,9",,"9,AGL   ,+99999,+99999","99,99,9,08,1,99,9,03048,1,99,9,99,9","10110,1,99999,9",,,,"MET061METAR SKSA 191100Z 33004KT 9999 OVC100 25/18 Q1011 RMK A2987=",
"80222599999","2023-03-19T12:00:00","4","6.95","-71.85","213.0","LOS COLONIZADORES, CO","FM-15","99999","V020","999,9,V,0010,1","03048,1,C,N","009999,1,9,9","+0250,1","+0190,1","99999,9","07,1,+03048,1,99,9",,"9,AGL   ,+99999,+99999","99,99,9,07,1,99,9,03048,1,99,9,99,9","10130,1,99999,9",,,,"MET061METAR SKSA 191200Z VRB02KT 9999 BKN100 25/19 Q1013 RMK A2993=",
"80222599999","2023-03-19T13:00:00","4","6.95","-71.85","213.0","LOS COLONIZADORES, CO","FM-15","99999","V020","999,9,V,0010,1","01829,1,C,N","009999,1,9,9","+0260,1","+0200,1","99999,9","08,1,+01829,1,99,9",,"9,AGL   ,+99999,+99999","99,99,9,08,1,99,9,01829,1,99,9,99,9","10140,1,99999,9",,,,"MET061METAR SKSA 191300Z VRB02KT 9999 OVC060 26/20 Q1014 RMK A2996=",
"80222599999","2023-03-19T14:00:00","4","6.95","-71.85","213.0","LOS COLONIZADORES, CO","FM-15","99999","V020","999,9,V,0010,1","01829,1,C,N","009999,1,9,9","+0270,1","+0190,1","99999,9","08,1,+01829,1,99,9",,"9,AGL   ,+99999,+99999","99,99,9,08,1,99,9,01829,1,99,9,99,9","10150,1,99999,9",,,,"MET061METAR SKSA 191400Z VRB02KT 9999 OVC060 27/19 Q1015 RMK A2999=",
"80222599999","2023-03-19T15:00:00","4","6.95","-71.85","213.0","LOS COLONIZADORES, CO","FM-15","99999","V020","999,9,V,0010,1","01524,1,C,N","009999,1,9,9","+0270,1","+0180,1","99999,9","08,1,+01524,1,99,9",,"9,AGL   ,+99999,+99999","99,99,9,08,1,99,9,01524,1,99,9,99,9","10160,1,99999,9",,,,"MET061METAR SKSA 191500Z VRB02KT 9999 OVC050 27/18 Q1016 RMK A3002=",
"80222599999","2023-03-19T16:00:00","4","6.95","-71.85","213.0","LOS COLONIZADORES, CO","FM-15","99999","V020","340,1,N,0021,1","03048,1,C,N","009999,1,9,9","+0280,1","+0170,1","99999,9","08,1,+03048,1,99,9",,"9,AGL   ,+99999,+99999","99,99,9,08,1,99,9,03048,1,99,9,99,9","10180,1,99999,9",,,,"MET061METAR SKSA 191600Z 34004KT 9999 OVC100 28/17 Q1018 RMK A3000=",
"80222599999","2023-03-19T19:00:00","4","6.95","-71.85","213.0","LOS COLONIZADORES, CO","FM-15","99999","V020","120,1,N,0021,1","22000,1,9,N","009999,1,9,9","+0300,1","+0180,1","99999,9",,,,"00,99,1,99,9,99,9,99999,9,99,9,99,9","10100,1,99999,9",,,,"MET058METAR SKSA 191900Z 12004KT 9999 NSC 30/18 Q1010 RMK A2985=",
"80222599999","2023-03-19T20:00:00","4","6.95","-71.85","213.0","LOS COLONIZADORES, CO","FM-15","99999","V020","030,1,N,0021,1","22000,1,9,N","009999,1,9,9","+0310,1","+0180,1","99999,9",,,,"00,99,1,99,9,99,9,99999,9,99,9,99,9","10100,1,99999,9",,,,"MET058METAR SKSA 192000Z 03004KT 9999 NSC 31/18 Q1010 RMK A2983=",
"80222599999","2023-03-19T21:00:00","4","6.95","-71.85","213.0","LOS COLONIZADORES, CO","FM-15","99999","V020","330,1,N,0015,1","22000,1,9,N","009999,1,9,9","+0310,1","+0180,1","99999,9",,,,"00,99,1,99,9,99,9,99999,9,99,9,99,9","10090,1,99999,9",,,,"MET058METAR SKSA 192100Z 33003KT 9999 NSC 31/18 Q1009 RMK A2981=",
"80222599999","2023-03-19T22:00:00","4","6.95","-71.85","213.0","LOS COLONIZADORES, CO","FM-15","99999","V020","999,9,C,0000,1","22000,1,9,N","009999,1,9,9","+0300,1","+0180,1","99999,9",,,,"00,99,1,99,9,99,9,99999,9,99,9,99,9","10090,1,99999,9",,,,"MET058METAR SKSA 192200Z 00000KT 9999 NSC 30/18 Q1009 RMK A2980=",
"80222599999","2023-03-19T23:00:00","4","6.95","-71.85","213.0","LOS COLONIZADORES, CO","FM-15","99999","V020","300,1,N,0015,1","99999,9,9,N","009999,1,9,9","+0280,1","+0190,1","99999,9","04,1,+02134,1,99,9",,"9,AGL   ,+99999,+99999","99,99,9,04,1,99,9,02134,1,99,9,99,9","10100,1,99999,9",,,,"MET061METAR SKSA 192300Z 30003KT 9999 SCT070 28/19 Q1010 RMK A2982=",
"80222599999","2023-03-20T11:00:00","4","6.95","-71.85","213.0","LOS COLONIZADORES, CO","FM-15","99999","V020","310,1,N,0031,1","02438,1,C,N","009999,1,9,9","+0230,1","+0190,1","99999,9","07,1,+02438,1,99,9",,"9,AGL   ,+99999,+99999","99,99,9,07,1,99,9,02438,1,99,9,99,9","10130,1,99999,9",,,,"MET061METAR SKSA 201100Z 31006KT 9999 BKN080 23/19 Q1013 RMK A2991=",
"80222599999","2023-03-20T12:00:00","4","6.95","-71.85","213.0","LOS COLONIZADORES, CO","FM-15","99999","V020","340,1,N,0015,1","02438,1,C,N","009999,1,9,9","+0240,1","+0190,1","99999,9","07,1,+02438,1,99,9",,"9,AGL   ,+99999,+99999","99,99,9,07,1,99,9,02438,1,99,9,99,9","10130,1,99999,9",,,,"MET061METAR SKSA 201200Z 34003KT 9999 BKN080 24/19 Q1013 RMK A2993=",
"80222599999","2023-03-20T13:00:00","4","6.95","-71.85","213.0","LOS COLONIZADORES, CO","FM-15","99999","V020","030,1,N,0015,1","03048,1,C,N","009999,1,9,9","+0260,1","+0190,1","99999,9","07,1,+03048,1,99,9",,"9,AGL   ,+99999,+99999","99,99,9,07,1,99,9,03048,1,99,9,99,9","10150,1,99999,9",,,,"MET061METAR SKSA 201300Z 03003KT 9999 BKN100 26/19 Q1015 RMK A2997=",
"80222599999","2023-03-20T14:00:00","4","6.95","-71.85","213.0","LOS COLONIZADORES, CO","FM-15","99999","V020","330,1,N,0015,1","02743,1,C,N","009999,1,9,9","+0280,1","+0190,1","99999,9","07,1,+02743,1,99,9",,"9,AGL   ,+99999,+99999","99,99,9,07,1,99,9,02743,1,99,9,99,9","10150,1,99999,9",,,,"MET061METAR SKSA 201400Z 33003KT 9999 BKN090 28/19 Q1015 RMK A2999=",
"80222599999","2023-03-20T15:00:00","4","6.95","-71.85","213.0","LOS COLONIZADORES, CO","FM-15","99999","V020","020,1,N,0015,1","03048,1,C,N","009999,1,9,9","+0300,1","+0190,1","99999,9","07,1,+03048,1,99,9",,"9,AGL   ,+99999,+99999","99,99,9,07,1,99,9,03048,1,99,9,99,9","10150,1,99999,9",,,,"MET061METAR SKSA 201500Z 02003KT 9999 BKN100 30/19 Q1015 RMK A2999=",
"80222599999","2023-03-20T16:00:00","4","6.95","-71.85","213.0","LOS COLONIZADORES, CO","FM-15","99999","V020","999,9,V,0010,1","03048,1,C,N","009999,1,9,9","+0300,1","+0180,1","99999,9","07,1,+03048,1,99,9",,"9,AGL   ,+99999,+99999","99,99,9,07,1,99,9,03048,1,99,9,99,9","10150,1,99999,9",,,,"MET061METAR SKSA 201600Z VRB02KT 9999 BKN100 30/18 Q1015 RMK A2998=",
"80222599999","2023-03-20T17:00:00","4","6.95","-71.85","213.0","LOS COLONIZADORES, CO","FM-15","99999","V020","090,1,N,0026,1","99999,9,9,N","009999,1,9,9","+0310,1","+0180,1","99999,9","04,1,+03048,1,99,9",,"9,AGL   ,+99999,+99999","99,99,9,04,1,99,9,03048,1,99,9,99,9","10140,1,99999,9",,,,"MET061METAR SKSA 201700Z 09005KT 9999 SCT100 31/18 Q1014 RMK A2995=",
"80222599999","2023-03-20T18:00:00","4","6.95","-71.85","213.0","LOS COLONIZADORES, CO","FM-15","99999","V020","060,1,N,0026,1","22000,1,9,N","009999,1,9,9","+0310,1","+0180,1","99999,9",,,,"00,99,1,99,9,99,9,99999,9,99,9,99,9","10130,1,99999,9",,,,"MET058METAR SKSA 201800Z 06005KT 9999 NSC 31/18 Q1013 RMK A2991=",
"80222599999","2023-03-20T19:00:00","4","6.95","-71.85","213.0","LOS COLONIZADORES, CO","FM-15","99999","V020","999,9,V,0010,1","22000,1,9,N","009999,1,9,9","+0320,1","+0180,1","99999,9",,,,"00,99,1,99,9,99,9,99999,9,99,9,99,9","10120,1,99999,9",,,,"MET058METAR SKSA 201900Z VRB02KT 9999 NSC 32/18 Q1012 RMK A2988=",
"80222599999","2023-03-20T20:00:00","4","6.95","-71.85","213.0","LOS COLONIZADORES, CO","FM-15","99999","V020","999,9,V,0010,1","22000,1,9,N","009999,1,9,9","+0320,1","+0170,1","99999,9",,,,"00,99,1,99,9,99,9,99999,9,99,9,99,9","10100,1,99999,9",,,,"MET058METAR SKSA 202000Z VRB02KT 9999 NSC 32/17 Q1010 RMK A2984=",
"80222599999","2023-03-20T21:00:00","4","6.95","-71.85","213.0","LOS COLONIZADORES, CO","FM-15","99999","V020","999,9,V,0010,1","22000,1,9,N","009999,1,9,9","+0320,1","+0160,1","99999,9",,,,"00,99,1,99,9,99,9,99999,9,99,9,99,9","10100,1,99999,9",,,,"MET058METAR SKSA 202100Z VRB02KT 9999 NSC 32/16 Q1010 RMK A2983=",
"80222599999","2023-03-20T22:00:00","4","6.95","-71.85","213.0","LOS COLONIZADORES, CO","FM-15","99999","V020","310,1,N,0015,1","22000,1,9,N","009999,1,9,9","+0310,1","+0170,1","99999,9",,,,"00,99,1,99,9,99,9,99999,9,99,9,99,9","10100,1,99999,9",,,,"MET058METAR SKSA 202200Z 31003KT 9999 NSC 31/17 Q1010 RMK A2983=",
"80222599999","2023-03-20T23:00:00","4","6.95","-71.85","213.0","LOS COLONIZADORES, CO","FM-15","99999","V020","270,1,N,0021,1","22000,1,9,N","009999,1,9,9","+0280,1","+0190,1","99999,9",,,,"00,99,1,99,9,99,9,99999,9,99,9,99,9","10100,1,99999,9",,,,"MET058METAR SKSA 202300Z 27004KT 9999 NSC 28/19 Q1010 RMK A2984=",
"80222599999","2023-03-21T11:00:00","4","6.95","-71.85","213.0","LOS COLONIZADORES, CO","FM-15","99999","V020","330,1,N,0031,1","02743,1,C,N","009999,1,9,9","+0240,1","+0190,1","99999,9","07,1,+02743,1,99,9",,"9,AGL   ,+99999,+99999","99,99,9,07,1,99,9,02743,1,99,9,99,9","10120,1,99999,9",,,,"MET061METAR SKSA 211100Z 33006KT 9999 BKN090 24/19 Q1012 RMK A2988=",
"80222599999","2023-03-21T12:00:00","4","6.95","-71.85","213.0","LOS COLONIZADORES, CO","FM-15","99999","V020","360,1,N,0021,1","02743,1,C,N","009999,1,9,9","+0240,1","+0190,1","99999,9","07,1,+02743,1,99,9",,"9,AGL   ,+99999,+99999","99,99,9,07,1,99,9,02743,1,99,9,99,9","10130,1,99999,9",,,,"MET061METAR SKSA 211200Z 36004KT 9999 BKN090 24/19 Q1013 RMK A2991=",
"80222599999","2023-03-21T13:00:00","4","6.95","-71.85","213.0","LOS COLONIZADORES, CO","FM-15","99999","V020","060,1,N,0015,1","01829,1,C,N","009999,1,9,9","+0250,1","+0200,1","99999,9","08,1,+01829,1,99,9",,"9,AGL   ,+99999,+99999","99,99,9,08,1,99,9,01829,1,99,9,99,9","10150,1,99999,9",,,,"MET061METAR SKSA 211300Z 06003KT 9999 OVC060 25/20 Q1015 RMK A2997=",
"80222599999","2023-03-21T15:00:00","4","6.95","-71.85","213.0","LOS COLONIZADORES, CO","FM-15","99999","V020","999,9,C,0000,1","01829,1,C,N","009000,1,9,9","+0270,1","+0180,1","99999,9","08,1,+01829,1,99,9",,"9,AGL   ,+99999,+99999","99,99,9,08,1,99,9,01829,1,99,9,99,9","10170,1,99999,9",,,,"MET061METAR SKSA 211500Z 00000KT 9000 OVC060 27/18 Q1017 RMK A3003=",
"80222599999","2023-03-21T16:00:00","4","6.95","-71.85","213.0","LOS COLONIZADORES, CO","FM-15","99999","V020","999,9,V,0010,1","02134,1,C,N","009000,1,9,9","+0260,1","+0190,1","99999,9","08,1,+02134,1,99,9",,"9,AGL   ,+99999,+99999","99,99,9,08,1,99,9,02134,1,99,9,99,9","10160,1,99999,9",,,,"MET061METAR SKSA 211600Z VRB02KT 9000 OVC070 26/19 Q1016 RMK A3001=",
"80222599999","2023-03-21T18:00:00","4","6.95","-71.85","213.0","LOS COLONIZADORES, CO","FM-15","99999","V020","330,1,N,0021,1","99999,9,9,N","009999,1,9,9","+0290,1","+0190,1","99999,9","04,1,+02134,1,99,9",,"9,AGL   ,+99999,+99999","99,99,9,04,1,99,9,02134,1,99,9,99,9","10130,1,99999,9",,,,"MET061METAR SKSA 211800Z 33004KT 9999 SCT070 29/19 Q1013 RMK A2993=",
"80222599999","2023-03-21T19:00:00","4","6.95","-71.85","213.0","LOS COLONIZADORES, CO","FM-15","99999","V020","230,1,N,0015,1","99999,9,9,N","009999,1,9,9","+0300,1","+0190,1","99999,9","02,1,+02134,1,99,9",,"9,AGL   ,+99999,+99999","99,99,9,02,1,99,9,02134,1,99,9,99,9","10120,1,99999,9",,,,"MET061METAR SKSA 211900Z 23003KT 9999 FEW070 30/19 Q1012 RMK A2989=",
"80222599999","2023-03-21T20:00:00","4","6.95","-71.85","213.0","LOS COLONIZADORES, CO","FM-15","99999","V020","310,1,N,0031,1","22000,1,9,N","009999,1,9,9","+0300,1","+0190,1","99999,9",,,,"00,99,1,99,9,99,9,99999,9,99,9,99,9","10110,1,99999,9",,,,"MET058METAR SKSA 212000Z 31006KT 9999 NSC 30/19 Q1011 RMK A2985=",
"80222599999","2023-03-21T21:00:00","4","6.95","-71.85","213.0","LOS COLONIZADORES, CO","FM-15","99999","V020","280,1,N,0021,1","22000,1,9,N","009999,1,9,9","+0300,1","+0190,1","99999,9",,,,"00,99,1,99,9,99,9,99999,9,99,9,99,9","10100,1,99999,9",,,,"MET058METAR SKSA 212100Z 28004KT 9999 NSC 30/19 Q1010 RMK A2984=",
"80222599999","2023-03-21T22:00:00","4","6.95","-71.85","213.0","LOS COLONIZADORES, CO","FM-15","99999","V020","310,1,N,0026,1","22000,1,9,N","009999,1,9,9","+0300,1","+0190,1","99999,9",,,,"00,99,1,99,9,99,9,99999,9,99,9,99,9","10100,1,99999,9",,,,"MET058METAR SKSA 212200Z 31005KT 9999 NSC 30/19 Q1010 RMK A2984=",
"80222599999","2023-03-21T23:00:00","4","6.95","-71.85","213.0","LOS COLONIZADORES, CO","FM-15","99999","V020","300,1,N,0015,1","22000,1,9,N","009999,1,9,9","+0300,1","+0190,1","99999,9",,,,"00,99,1,99,9,99,9,99999,9,99,9,99,9","10100,1,99999,9",,,,"MET058METAR SKSA 212300Z 30003KT 9999 NSC 30/19 Q1010 RMK A2984=",
"80222599999","2023-03-22T11:00:00","4","6.95","-71.85","213.0","LOS COLONIZADORES, CO","FM-15","99999","V020","999,9,C,0000,1","99999,9,9,N","009999,1,9,9","+0220,1","+0180,1","99999,9","04,1,+01829,1,99,9",,"9,AGL   ,+99999,+99999","99,99,9,04,1,99,9,01829,1,99,9,99,9","10130,1,99999,9",,,,"MET061METAR SKSA 221100Z 00000KT 9999 SCT060 22/18 Q1013 RMK A2992=",
"80222599999","2023-03-22T13:00:00","4","6.95","-71.85","213.0","LOS COLONIZADORES, CO","FM-15","99999","V020","070,1,N,0021,1","99999,9,9,N","009999,1,9,9","+0230,1","+0180,1","99999,9","04,1,+01829,1,99,9",,"9,AGL   ,+99999,+99999","99,99,9,04,1,99,9,01829,1,99,9,99,9","10150,1,99999,9",,,,"MET061METAR SKSA 221300Z 07004KT 9999 SCT060 23/18 Q1015 RMK A2998=",
"80222599999","2023-03-22T14:00:00","4","6.95","-71.85","213.0","LOS COLONIZADORES, CO","FM-15","99999","V020","120,1,N,0015,1","01219,1,C,N","007000,1,9,9","+0210,1","+0100,2","99999,9","07,1,+01219,1,99,9",,"9,AGL   ,+99999,+99999","99,99,9,07,1,99,9,01219,1,99,9,99,9","10160,1,99999,9","63,1",,,"MET064METAR SKSA 221400Z 12003KT 7000 RA BKN040 21/10 Q1016 RMK A3002=",
"80222599999","2023-03-22T16:00:00","4","6.95","-71.85","213.0","LOS COLONIZADORES, CO","FM-15","99999","V020","260,1,N,0036,1","01219,1,C,N","009999,1,9,9","+0220,1","+0200,1","99999,9","07,1,+01219,1,99,9",,"9,AGL   ,+99999,+99999","99,99,9,07,1,99,9,01219,1,99,9,99,9","10160,1,99999,9",,,,"MET061METAR SKSA 221600Z 26007KT 9999 BKN040 22/20 Q1016 RMK A3002=",
"80222599999","2023-03-22T17:00:00","4","6.95","-71.85","213.0","LOS COLONIZADORES, CO","FM-15","99999","V020","280,1,N,0026,1","02438,1,C,N","009999,1,9,9","+0230,1","+0190,1","99999,9","07,1,+02438,1,99,9",,"9,AGL   ,+99999,+99999","99,99,9,07,1,99,9,02438,1,99,9,99,9","10150,1,99999,9",,,,"MET061METAR SKSA 221700Z 28005KT 9999 BKN080 23/19 Q1015 RMK A2998=",
"80222599999","2023-03-22T20:00:00","4","6.95","-71.85","213.0","LOS COLONIZADORES, CO","FM-15","99999","V020","270,1,N,0026,1","02438,1,C,N","009999,1,9,9","+0270,1","+0190,1","99999,9","07,1,+02438,1,99,9",,"9,AGL   ,+99999,+99999","99,99,9,07,1,99,9,02438,1,99,9,99,9","10110,1,99999,9",,,,"MET061METAR SKSA 222000Z 27005KT 9999 BKN080 27/19 Q1011 RMK A2987=",
"80222599999","2023-03-22T21:00:00","4","6.95","-71.85","213.0","LOS COLONIZADORES, CO","FM-15","99999","V020","270,1,N,0041,1","99999,9,9,N","009999,1,9,9","+0280,1","+0190,1","99999,9","04,1,+02438,1,99,9",,"9,AGL   ,+99999,+99999","99,99,9,04,1,99,9,02438,1,99,9,99,9","10100,1,99999,9",,,,"MET061METAR SKSA 222100Z 27008KT 9999 SCT080 28/19 Q1010 RMK A2984=",
"80222599999","2023-03-22T22:00:00","4","6.95","-71.85","213.0","LOS COLONIZADORES, CO","FM-15","99999","V020","300,1,N,0015,1","99999,9,9,N","009999,1,9,9","+0280,1","+0190,1","99999,9","04,1,+02438,1,99,9",,"9,AGL   ,+99999,+99999","99,99,9,04,1,99,9,02438,1,99,9,99,9","10100,1,99999,9",,,,"MET061METAR SKSA 222200Z 30003KT 9999 SCT080 28/19 Q1010 RMK A2984=",
"80222599999","2023-03-22T23:00:00","4","6.95","-71.85","213.0","LOS COLONIZADORES, CO","FM-15","99999","V020","320,1,N,0015,1","99999,9,9,N","009999,1,9,9","+0260,1","+0190,1","99999,9","04,1,+04572,1,99,9",,"9,AGL   ,+99999,+99999","99,99,9,04,1,99,9,04572,1,99,9,99,9","10100,1,99999,9",,,,"MET061METAR SKSA 222300Z 32003KT 9999 SCT150 26/19 Q1010 RMK A2984=",
"80222599999","2023-03-23T11:00:00","4","6.95","-71.85","213.0","LOS COLONIZADORES, CO","FM-15","99999","V020","350,1,N,0015,1","99999,9,9,N","009999,1,9,9","+0230,1","+0190,1","99999,9","04,1,+01829,1,99,9",,"9,AGL   ,+99999,+99999","99,99,9,04,1,99,9,01829,1,99,9,99,9","10120,1,99999,9",,,,"MET061METAR SKSA 231100Z 35003KT 9999 SCT060 23/19 Q1012 RMK A2988=",
"80222599999","2023-03-23T12:00:00","4","6.95","-71.85","213.0","LOS COLONIZADORES, CO","FM-15","99999","V020","290,1,N,0015,1","99999,9,9,N","009999,1,9,9","+0250,1","+0190,1","99999,9","04,1,+02438,1,99,9",,"9,AGL   ,+99999,+99999","99,99,9,04,1,99,9,02438,1,99,9,99,9","10130,1,99999,9",,,,"MET061METAR SKSA 231200Z 29003KT 9999 SCT080 25/19 Q1013 RMK A2992=",
"80222599999","2023-03-23T13:00:00","4","6.95","-71.85","213.0","LOS COLONIZADORES, CO","FM-15","99999","V020","320,1,N,0021,1","99999,9,9,N","009999,1,9,9","+0260,1","+0190,1","99999,9","04,1,+02438,1,99,9",,"9,AGL   ,+99999,+99999","99,99,9,04,1,99,9,02438,1,99,9,99,9","10130,1,99999,9",,,,"MET061METAR SKSA 231300Z 32004KT 9999 SCT080 26/19 Q1013 RMK A2993=",
"80222599999","2023-03-23T14:00:00","4","6.95","-71.85","213.0","LOS COLONIZADORES, CO","FM-15","99999","V020","320,1,N,0015,1","99999,9,9,N","009999,1,9,9","+0280,1","+0180,1","99999,9","04,1,+01829,1,99,9",,"9,AGL   ,+99999,+99999","99,99,9,04,1,99,9,01829,1,99,9,99,9","10140,1,99999,9",,,,"MET061METAR SKSA 231400Z 32003KT 9999 SCT060 28/18 Q1014 RMK A2995=",
"80222599999","2023-03-23T15:00:00","4","6.95","-71.85","213.0","LOS COLONIZADORES, CO","FM-15","99999","V020","330,1,N,0021,1","99999,9,9,N","009999,1,9,9","+0270,1","+0200,1","99999,9","04,1,+01829,1,99,9",,"9,AGL   ,+99999,+99999","99,99,9,04,1,99,9,01829,1,99,9,99,9","10140,1,99999,9",,,,"MET061METAR SKSA 231500Z 33004KT 9999 SCT060 27/20 Q1014 RMK A2995=",
"80222599999","2023-03-23T20:00:00","4","6.95","-71.85","213.0","LOS COLONIZADORES, CO","FM-15","99999","V020","240,1,N,0036,1","22000,1,9,N","009999,1,9,9","+0310,1","+0180,1","99999,9",,,,"00,99,1,99,9,99,9,99999,9,99,9,99,9","10100,1,99999,9",,,,"MET058METAR SKSA 232000Z 24007KT 9999 NSC 31/18 Q1010 RMK A2982=",
"80222599999","2023-03-23T21:00:00","4","6.95","-71.85","213.0","LOS COLONIZADORES, CO","FM-15","99999","V020","280,1,N,0015,1","22000,1,9,N","009999,1,9,9","+0300,1","+0180,1","99999,9",,,,"00,99,1,99,9,99,9,99999,9,99,9,99,9","10090,1,99999,9",,,,"MET058METAR SKSA 232100Z 28003KT 9999 NSC 30/18 Q1009 RMK A2980=",
"80222599999","2023-03-23T22:00:00","4","6.95","-71.85","213.0","LOS COLONIZADORES, CO","FM-15","99999","V020","290,1,N,0021,1","22000,1,9,N","009999,1,9,9","+0290,1","+0190,1","99999,9",,,,"00,99,1,99,9,99,9,99999,9,99,9,99,9","10090,1,99999,9",,,,"MET058METAR SKSA 232200Z 29004KT 9999 NSC 29/19 Q1009 RMK A2980=",
"80222599999","2023-03-23T23:00:00","4","6.95","-71.85","213.0","LOS COLONIZADORES, CO","FM-15","99999","V020","320,1,N,0015,1","22000,1,9,N","009999,1,9,9","+0280,1","+0200,1","99999,9",,,,"00,99,1,99,9,99,9,99999,9,99,9,99,9","10100,1,99999,9",,,,"MET058METAR SKSA 232300Z 32003KT 9999 NSC 28/20 Q1010 RMK A2982=",
"80222599999","2023-03-24T11:00:00","4","6.95","-71.85","213.0","LOS COLONIZADORES, CO","FM-15","99999","V020","340,1,N,0015,1","99999,9,9,N","009999,1,9,9","+0240,1","+0190,1","99999,9","04,1,+02438,1,99,9",,"9,AGL   ,+99999,+99999","99,99,9,04,1,99,9,02438,1,99,9,99,9","10110,1,99999,9",,,,"MET061METAR SKSA 241100Z 34003KT 9999 SCT080 24/19 Q1011 RMK A2986=",
"80222599999","2023-03-24T12:00:00","4","6.95","-71.85","213.0","LOS COLONIZADORES, CO","FM-15","99999","V020","999,9,V,0010,1","99999,9,9,N","009999,1,9,9","+0250,1","+0200,1","99999,9","02,1,+02134,1,99,9",,"9,AGL   ,+99999,+99999","99,99,9,02,1,99,9,02134,1,99,9,99,9","10120,1,99999,9",,,,"MET061METAR SKSA 241200Z VRB02KT 9999 FEW070 25/20 Q1012 RMK A2988=",
"80222599999","2023-03-24T14:00:00","4","6.95","-71.85","213.0","LOS COLONIZADORES, CO","FM-15","99999","V020","999,9,V,0010,1","01829,1,C,N","009999,1,9,9","+0260,1","+0200,1","99999,9","07,1,+01829,1,99,9",,"9,AGL   ,+99999,+99999","99,99,9,07,1,99,9,01829,1,99,9,99,9","10140,1,99999,9",,,,"MET061METAR SKSA 241400Z VRB02KT 9999 BKN060 26/20 Q1014 RMK A2996=",
"80222599999","2023-03-24T15:00:00","4","6.95","-71.85","213.0","LOS COLONIZADORES, CO","FM-15","99999","V020","999,9,C,0000,1","01829,1,C,N","009999,1,9,9","+0280,1","+0190,1","99999,9","07,1,+01829,1,99,9",,"9,AGL   ,+99999,+99999","99,99,9,07,1,99,9,01829,1,99,9,99,9","10150,1,99999,9",,,,"MET061METAR SKSA 241500Z 00000KT 9999 BKN060 28/19 Q1015 RMK A2998=",
"80222599999","2023-03-24T16:00:00","4","6.95","-71.85","213.0","LOS COLONIZADORES, CO","FM-15","99999","V020","999,9,C,0000,1","99999,9,9,N","009999,1,9,9","+0290,1","+0190,1","99999,9","04,1,+01829,1,99,9",,"9,AGL   ,+99999,+99999","99,99,9,04,1,99,9,01829,1,99,9,99,9","10140,1,99999,9",,,,"MET061METAR SKSA 241600Z 00000KT 9999 SCT060 29/19 Q1014 RMK A2995=",
"80222599999","2023-03-24T18:00:00","4","6.95","-71.85","213.0","LOS COLONIZADORES, CO","FM-15","99999","V020","310,1,N,0041,1","22000,1,9,N","009999,1,9,9","+0310,1","+0190,1","99999,9",,,,"00,99,1,99,9,99,9,99999,9,99,9,99,9","10110,1,99999,9",,,,"MET058METAR SKSA 241800Z 31008KT 9999 NSC 31/19 Q1011 RMK A2986=",
"80222599999","2023-03-24T19:00:00","4","6.95","-71.85","213.0","LOS COLONIZADORES, CO","FM-15","99999","V020","360,1,N,0015,1","22000,1,9,N","009999,1,9,9","+0320,1","+0150,1","99999,9",,,,"00,99,1,99,9,99,9,99999,9,99,9,99,9","10100,1,99999,9",,,,"MET061METAR SKSA 241900Z 36003KT 9999 NSC 32/15 Q1010 RMK A2982 HZ=",
"80222599999","2023-03-24T20:00:00","4","6.95","-71.85","213.0","LOS COLONIZADORES, CO","FM-15","99999","V020","340,1,N,0015,1","22000,1,9,N","009999,1,9,9","+0320,1","+0150,1","99999,9",,,,"00,99,1,99,9,99,9,99999,9,99,9,99,9","10090,1,99999,9",,,,"MET061METAR SKSA 242000Z 34003KT 9999 NSC 32/15 Q1009 RMK A2979 HZ=",
"80222599999","2023-03-24T22:00:00","4","6.95","-71.85","213.0","LOS COLONIZADORES, CO","FM-15","99999","V020","999,9,C,0000,1","22000,1,9,N","009999,1,9,9","+0320,1","+0150,1","99999,9",,,,"00,99,1,99,9,99,9,99999,9,99,9,99,9","10090,1,99999,9",,,,"MET061METAR SKSA 242200Z 00000KT 9999 NSC 32/15 Q1009 RMK A2979 HZ=",
"80222599999","2023-03-24T23:00:00","4","6.95","-71.85","213.0","LOS COLONIZADORES, CO","FM-15","99999","V020","999,9,C,0000,1","22000,1,9,N","009999,1,9,9","+0320,1","+0150,1","99999,9",,,,"00,99,1,99,9,99,9,99999,9,99,9,99,9","10090,1,99999,9",,,,"MET061METAR SKSA 242300Z 00000KT 9999 NSC 32/15 Q1009 RMK A2979 HZ=",
"80222599999","2023-03-25T11:00:00","4","6.95","-71.85","213.0","LOS COLONIZADORES, CO","FM-15","99999","V020","340,1,N,0015,1","99999,9,9,N","009999,1,9,9","+0230,1","+0210,1","99999,9","04,1,+02438,1,99,9",,"9,AGL   ,+99999,+99999","99,99,9,04,1,99,9,02438,1,99,9,99,9","10110,1,99999,9",,,,"MET064METAR SKSA 251100Z 34003KT 9999 SCT080 23/21 Q1011 RMK A2986 HZ=",
"80222599999","2023-03-25T12:00:00","4","6.95","-71.85","213.0","LOS COLONIZADORES, CO","FM-15","99999","V020","999,9,C,0000,1","99999,9,9,N","009999,1,9,9","+0250,1","+0210,1","99999,9","04,1,+02438,1,99,9",,"9,AGL   ,+99999,+99999","99,99,9,04,1,99,9,02438,1,99,9,99,9","10110,1,99999,9",,,,"MET064METAR SKSA 251200Z 00000KT 9999 SCT080 25/21 Q1011 RMK A2986 HZ=",
"80222599999","2023-03-25T14:00:00","4","6.95","-71.85","213.0","LOS COLONIZADORES, CO","FM-15","99999","V020","999,9,C,0000,1","99999,9,9,N","009999,1,9,9","+0280,1","+0210,1","99999,9","04,1,+02438,1,99,9",,"9,AGL   ,+99999,+99999","99,99,9,04,1,99,9,02438,1,99,9,99,9","10140,1,99999,9",,,,"MET064METAR SKSA 251400Z 00000KT 9999 SCT080 28/21 Q1014 RMK A2995 HZ=",
"80222599999","2023-03-25T15:00:00","4","6.95","-71.85","213.0","LOS COLONIZADORES, CO","FM-15","99999","V020","999,9,C,0000,1","99999,9,9,N","009999,1,9,9","+0280,1","+0210,1","99999,9","04,1,+02438,1,99,9",,"9,AGL   ,+99999,+99999","99,99,9,04,1,99,9,02438,1,99,9,99,9","10140,1,99999,9",,,,"MET064METAR SKSA 251500Z 00000KT 9999 SCT080 28/21 Q1014 RMK A2995 HZ=",
"80222599999","2023-03-25T17:00:00","4","6.95","-71.85","213.0","LOS COLONIZADORES, CO","FM-15","99999","V020","300,1,N,0021,1","99999,9,9,N","009999,1,9,9","+0290,1","+0200,1","99999,9","04,1,+02438,1,99,9",,"9,AGL   ,+99999,+99999","99,99,9,04,1,99,9,02438,1,99,9,99,9","10130,1,99999,9",,,,"MET064METAR SKSA 251700Z 30004KT 9999 SCT080 29/20 Q1013 RMK A2991 HZ=",
"80222599999","2023-03-25T18:00:00","4","6.95","-71.85","213.0","LOS COLONIZADORES, CO","FM-15","99999","V020","010,1,N,0015,1","22000,1,9,N","009999,1,9,9","+0310,1","+0170,1","99999,9",,,,"00,99,1,99,9,99,9,99999,9,99,9,99,9","10110,1,99999,9",,,,"MET061METAR SKSA 251800Z 01003KT 9999 NSC 31/17 Q1011 RMK A2987 HZ=",
"80222599999","2023-03-25T19:00:00","4","6.95","-71.85","213.0","LOS COLONIZADORES, CO","FM-15","99999","V020","120,1,N,0015,1","22000,1,9,N","009999,1,9,9","+0310,1","+0170,1","99999,9",,,,"00,99,1,99,9,99,9,99999,9,99,9,99,9","10110,1,99999,9",,,,"MET061METAR SKSA 251900Z 12003KT 9999 NSC 31/17 Q1011 RMK A2987 HZ=",
"80222599999","2023-03-25T21:00:00","4","6.95","-71.85","213.0","LOS COLONIZADORES, CO","FM-15","99999","V020","120,1,N,0015,1","22000,1,9,N","009999,1,9,9","+0300,1","+0170,1","99999,9",,,,"00,99,1,99,9,99,9,99999,9,99,9,99,9","10110,1,99999,9",,,,"MET061METAR SKSA 252100Z 12003KT 9999 NSC 30/17 Q1011 RMK A2987 HZ=",
"80222599999","2023-03-25T22:00:00","4","6.95","-71.85","213.0","LOS COLONIZADORES, CO","FM-15","99999","V020","270,1,N,0021,1","22000,1,9,N","009999,1,9,9","+0290,1","+0170,1","99999,9",,,,"00,99,1,99,9,99,9,99999,9,99,9,99,9","10090,1,99999,9",,,,"MET061METAR SKSA 252200Z 27004KT 9999 NSC 29/17 Q1009 RMK A2980 HZ=",
"80222599999","2023-03-25T23:00:00","4","6.95","-71.85","213.0","LOS COLONIZADORES, CO","FM-15","99999","V020","270,1,N,0021,1","22000,1,9,N","009999,1,9,9","+0290,1","+0170,1","99999,9",,,,"00,99,1,99,9,99,9,99999,9,99,9,99,9","10090,1,99999,9",,,,"MET061METAR SKSA 252300Z 27004KT 9999 NSC 29/17 Q1009 RMK A2980 HZ=",
"80222599999","2023-03-26T11:00:00","4","6.95","-71.85","213.0","LOS COLONIZADORES, CO","FM-15","99999","V020","300,1,N,0021,1","01829,1,C,N","008000,1,9,9","+0230,1","+0220,1","99999,9","08,1,+01829,1,99,9",,"9,AGL   ,+99999,+99999","99,99,9,08,1,99,9,01829,1,99,9,99,9","10130,1,99999,9","53,1",,,"MET067METAR SKSA 261100Z 30004KT 8000 DZ OVC060 23/22 Q1013 RMK A2992 HZ=",
"80222599999","2023-03-26T13:00:00","4","6.95","-71.85","213.0","LOS COLONIZADORES, CO","FM-15","99999","V020","260,1,N,0015,1","01829,1,C,N","008000,1,9,9","+0220,1","+0210,1","99999,9","08,1,+01829,1,99,9",,"9,AGL   ,+99999,+99999","99,99,9,08,1,99,9,01829,1,99,9,99,9","10160,1,99999,9","53,1",,,"MET067METAR SKSA 261300Z 26003KT 8000 DZ OVC060 22/21 Q1016 RMK A3000 HZ=",
"80222599999","2023-03-26T17:00:00","4","6.95","-71.85","213.0","LOS COLONIZADORES, CO","FM-15","99999","V020","290,1,N,0036,1","01829,1,C,N","009000,1,9,9","+0230,1","+0200,1","99999,9","08,1,+01829,1,99,9",,"9,AGL   ,+99999,+99999","99,99,9,08,1,99,9,01829,1,99,9,99,9","10160,1,99999,9",,,,"MET064METAR SKSA 261700Z 29007KT 9000 OVC060 23/20 Q1016 RMK A3002 HZ=",
"80222599999","2023-03-26T18:00:00","4","6.95","-71.85","213.0","LOS COLONIZADORES, CO","FM-15","99999","V020","180,1,N,0021,1","01829,1,C,N","009000,1,9,9","+0240,1","+0200,1","99999,9","08,1,+01829,1,99,9",,"9,AGL   ,+99999,+99999","99,99,9,08,1,99,9,01829,1,99,9,99,9","10150,1,99999,9",,,,"MET064METAR SKSA 261800Z 18004KT 9000 OVC060 24/20 Q1015 RMK A2998 HZ=",
"80222599999","2023-03-26T19:00:00","4","6.95","-71.85","213.0","LOS COLONIZADORES, CO","FM-15","99999","V020","290,1,N,0036,1","01829,1,C,N","009000,1,9,9","+0240,1","+0200,1","99999,9","08,1,+01829,1,99,9",,"9,AGL   ,+99999,+99999","99,99,9,08,1,99,9,01829,1,99,9,99,9","10130,1,99999,9",,,,"MET064METAR SKSA 261900Z 29007KT 9000 OVC060 24/20 Q1013 RMK A2992 HZ=",
"80222599999","2023-03-26T20:00:00","4","6.95","-71.85","213.0","LOS COLONIZADORES, CO","FM-15","99999","V020","280,1,N,0057,1","99999,9,9,N","009999,1,9,9","+0250,1","+0200,1","99999,9","04,1,+01829,1,99,9",,"9,AGL   ,+99999,+99999","99,99,9,04,1,99,9,01829,1,99,9,99,9","10130,1,99999,9",,,,"MET064METAR SKSA 262000Z 28011KT 9999 SCT060 25/20 Q1013 RMK A2992 HZ=",
"80222599999","2023-03-26T21:00:00","4","6.95","-71.85","213.0","LOS COLONIZADORES, CO","FM-15","99999","V020","290,1,N,0051,1","22000,1,9,N","009999,1,9,9","+0260,1","+0200,1","99999,9",,,,"00,99,1,99,9,99,9,99999,9,99,9,99,9","10110,1,99999,9",,,,"MET061METAR SKSA 262100Z 29010KT 9999 NSC 26/20 Q1011 RMK A2986 HZ=",
"80222599999","2023-03-26T22:00:00","4","6.95","-71.85","213.0","LOS COLONIZADORES, CO","FM-15","99999","V020","310,1,N,0041,1","22000,1,9,N","009999,1,9,9","+0260,1","+0200,1","99999,9",,,,"00,99,1,99,9,99,9,99999,9,99,9,99,9","10110,1,99999,9",,,,"MET061METAR SKSA 262200Z 31008KT 9999 NSC 26/20 Q1011 RMK A2986 HZ=",
"80222599999","2023-03-26T23:00:00","4","6.95","-71.85","213.0","LOS COLONIZADORES, CO","FM-15","99999","V020","310,1,N,0031,1","22000,1,9,N","009999,1,9,9","+0240,1","+0200,1","99999,9",,,,"00,99,1,99,9,99,9,99999,9,99,9,99,9","10110,1,99999,9",,,,"MET061METAR SKSA 262300Z 31006KT 9999 NSC 24/20 Q1011 RMK A2986 HZ=",
"80222599999","2023-03-27T11:00:00","4","6.95","-71.85","213.0","LOS COLONIZADORES, CO","FM-15","99999","V020","270,1,N,0015,1","99999,9,9,N","009999,1,9,9","+0250,1","+0190,1","99999,9","04,1,+02134,1,99,9",,"9,AGL   ,+99999,+99999","99,99,9,04,1,99,9,02134,1,99,9,99,9","10120,1,99999,9",,,,"MET064METAR SKSA 271100Z 27003KT 9999 SCT070 25/19 Q1012 RMK A2989 HZ=",
"80222599999","2023-03-27T12:00:00","4","6.95","-71.85","213.0","LOS COLONIZADORES, CO","FM-15","99999","V020","270,1,N,0015,1","99999,9,9,N","009999,1,9,9","+0250,1","+0190,1","99999,9","04,1,+02134,1,99,9",,"9,AGL   ,+99999,+99999","99,99,9,04,1,99,9,02134,1,99,9,99,9","10120,1,99999,9",,,,"MET064METAR SKSA 271200Z 27003KT 9999 SCT070 25/19 Q1012 RMK A2989 HZ=",
"80222599999","2023-03-27T13:00:00","4","6.95","-71.85","213.0","LOS COLONIZADORES, CO","FM-15","99999","V020","070,1,N,0031,1","99999,9,9,N","009999,1,9,9","+0250,1","+0190,1","99999,9","04,1,+02134,1,99,9",,"9,AGL   ,+99999,+99999","99,99,9,04,1,99,9,02134,1,99,9,99,9","10140,1,99999,9",,,,"MET064METAR SKSA 271300Z 07006KT 9999 SCT070 25/19 Q1014 RMK A2995 HZ=",
"80222599999","2023-03-27T14:00:00","4","6.95","-71.85","213.0","LOS COLONIZADORES, CO","FM-15","99999","V020","260,1,N,0015,1","99999,9,9,N","009999,1,9,9","+0250,1","+0200,1","99999,9","04,1,+02438,1,99,9",,"9,AGL   ,+99999,+99999","99,99,9,04,1,99,9,02438,1,99,9,99,9","10160,1,99999,9",,,,"MET064METAR SKSA 271400Z 26003KT 9999 SCT080 25/20 Q1016 RMK A3001 HZ=",
"80222599999","2023-03-27T16:00:00","4","6.95","-71.85","213.0","LOS COLONIZADORES, CO","FM-15","99999","V020","250,1,N,0031,1","99999,9,9,N","009999,1,9,9","+0260,1","+0200,1","99999,9","04,1,+02438,1,99,9",,"9,AGL   ,+99999,+99999","99,99,9,04,1,99,9,02438,1,99,9,99,9","10150,1,99999,9",,,,"MET064METAR SKSA 271600Z 25006KT 9999 SCT080 26/20 Q1015 RMK A2999 HZ=",
"80222599999","2023-03-27T17:00:00","4","6.95","-71.85","213.0","LOS COLONIZADORES, CO","FM-15","99999","V020","270,1,N,0046,1","99999,9,9,N","009999,1,9,9","+0260,1","+0200,1","99999,9","04,1,+02438,1,99,9",,"9,AGL   ,+99999,+99999","99,99,9,04,1,99,9,02438,1,99,9,99,9","10150,1,99999,9",,,,"MET064METAR SKSA 271700Z 27009KT 9999 SCT080 26/20 Q1015 RMK A2999 HZ=",
"80222599999","2023-03-27T18:00:00","4","6.95","-71.85","213.0","LOS COLONIZADORES, CO","FM-15","99999","V020","270,1,N,0041,1","99999,9,9,N","009999,1,9,9","+0270,1","+0200,1","99999,9","04,1,+02438,1,99,9",,"9,AGL   ,+99999,+99999","99,99,9,04,1,99,9,02438,1,99,9,99,9","10130,1,99999,9",,,,"MET064METAR SKSA 271800Z 27008KT 9999 SCT080 27/20 Q1013 RMK A2992 HZ=",
"80222599999","2023-03-27T19:00:00","4","6.95","-71.85","213.0","LOS COLONIZADORES, CO","FM-15","99999","V020","270,1,N,0031,1","99999,9,9,N","009999,1,9,9","+0280,1","+0190,1","99999,9","04,1,+02438,1,99,9",,"9,AGL   ,+99999,+99999","99,99,9,04,1,99,9,02438,1,99,9,99,9","10120,1,99999,9",,,,"MET064METAR SKSA 271900Z 27006KT 9999 SCT080 28/19 Q1012 RMK A2989 HZ=",
"80222599999","2023-03-27T20:00:00","4","6.95","-71.85","213.0","LOS COLONIZADORES, CO","FM-15","99999","V020","280,1,N,0041,1","99999,9,9,N","009999,1,9,9","+0290,1","+0190,1","99999,9","04,1,+02743,1,99,9",,"9,AGL   ,+99999,+99999","99,99,9,04,1,99,9,02743,1,99,9,99,9","10110,1,99999,9",,,,"MET064METAR SKSA 272000Z 28008KT 9999 SCT090 29/19 Q1011 RMK A2986 HZ=",
"80222599999","2023-03-27T22:00:00","4","6.95","-71.85","213.0","LOS COLONIZADORES, CO","FM-15","99999","V020","230,1,N,0036,1","99999,9,9,N","009999,1,9,9","+0290,1","+0190,1","99999,9","04,1,+02743,1,99,9",,"9,AGL   ,+99999,+99999","99,99,9,04,1,99,9,02743,1,99,9,99,9","10110,1,99999,9",,,,"MET064METAR SKSA 272200Z 23007KT 9999 SCT090 29/19 Q1011 RMK A2986 HZ=",
"80222599999","2023-03-28T11:00:00","4","6.95","-71.85","213.0","LOS COLONIZADORES, CO","FM-15","99999","V020","290,1,N,0021,1","02743,1,C,N","009999,1,9,9","+0250,1","+0190,1","99999,9","08,1,+02743,1,99,9",,"9,AGL   ,+99999,+99999","99,99,9,08,1,99,9,02743,1,99,9,99,9","10120,1,99999,9",,,,"MET064METAR SKSA 281100Z 29004KT 9999 OVC090 25/19 Q1012 RMK A2990 HZ=",
"80222599999","2023-03-28T13:00:00","4","6.95","-71.85","213.0","LOS COLONIZADORES, CO","FM-15","99999","V020","350,1,N,0015,1","01524,1,C,N","009999,1,9,9","+0240,1","+0190,1","99999,9","08,1,+01524,1,99,9",,"9,AGL   ,+99999,+99999","99,99,9,08,1,99,9,01524,1,99,9,99,9","10150,1,99999,9",,,,"MET064METAR SKSA 281300Z 35003KT 9999 OVC050 24/19 Q1015 RMK A2998 HZ=",
"80222599999","2023-03-28T14:00:00","4","6.95","-71.85","213.0","LOS COLONIZADORES, CO","FM-15","99999","V020","230,1,N,0026,1","01524,1,C,N","009999,1,9,9","+0240,1","+0190,1","99999,9","08,1,+01524,1,99,9",,"9,AGL   ,+99999,+99999","99,99,9,08,1,99,9,01524,1,99,9,99,9","10150,1,99999,9",,,,"MET064METAR SKSA 281400Z 23005KT 9999 OVC050 24/19 Q1015 RMK A2998 HZ=",
"80222599999","2023-03-28T15:00:00","4","6.95","-71.85","213.0","LOS COLONIZADORES, CO","FM-15","99999","V020","350,1,N,0015,1","01219,1,C,N","009999,1,9,9","+0230,1","+0220,1","99999,9","08,1,+01219,1,99,9",,"9,AGL   ,+99999,+99999","99,99,9,08,1,99,9,01219,1,99,9,99,9","10160,1,99999,9",,,,"MET064METAR SKSA 281500Z 35003KT 9999 OVC040 23/22 Q1016 RMK A3001 HZ=",
"80222599999","2023-03-28T17:00:00","4","6.95","-71.85","213.0","LOS COLONIZADORES, CO","FM-15","99999","V020","300,1,N,0051,1","01219,1,C,N","009999,1,9,9","+0240,1","+0220,1","99999,9","08,1,+01219,1,99,9",,"9,AGL   ,+99999,+99999","99,99,9,08,1,99,9,01219,1,99,9,99,9","10140,1,99999,9",,,,"MET064METAR SKSA 281700Z 30010KT 9999 OVC040 24/22 Q1014 RMK A2996 HZ=",
"80222599999","2023-03-28T18:00:00","4","6.95","-71.85","213.0","LOS COLONIZADORES, CO","FM-15","99999","V020","270,1,N,0041,1","01219,1,C,N","009999,1,9,9","+0240,1","+0220,1","99999,9","08,1,+01219,1,99,9",,"9,AGL   ,+99999,+99999","99,99,9,08,1,99,9,01219,1,99,9,99,9","10130,1,99999,9",,,,"MET064METAR SKSA 281800Z 27008KT 9999 OVC040 24/22 Q1013 RMK A2993 HZ=",
"80222599999","2023-03-28T19:00:00","4","6.95","-71.85","213.0","LOS COLONIZADORES, CO","FM-15","99999","V020","280,1,N,0041,1","01219,1,C,N","009999,1,9,9","+0250,1","+0220,1","99999,9","08,1,+01219,1,99,9",,"9,AGL   ,+99999,+99999","99,99,9,08,1,99,9,01219,1,99,9,99,9","10130,1,99999,9",,,,"MET064METAR SKSA 281900Z 28008KT 9999 OVC040 25/22 Q1013 RMK A2993 HZ=",
"80222599999","2023-03-28T21:00:00","4","6.95","-71.85","213.0","LOS COLONIZADORES, CO","FM-15","99999","V020","290,1,N,0041,1","02743,1,C,N","009999,1,9,9","+0270,1","+0200,1","99999,9","08,1,+02743,1,99,9",,"9,AGL   ,+99999,+99999","99,99,9,08,1,99,9,02743,1,99,9,99,9","10100,1,99999,9",,,,"MET064METAR SKSA 282100Z 29008KT 9999 OVC090 27/20 Q1010 RMK A2983 HZ=",
"80222599999","2023-03-28T22:00:00","4","6.95","-71.85","213.0","LOS COLONIZADORES, CO","FM-15","99999","V020","310,1,N,0021,1","02743,1,C,N","009999,1,9,9","+0260,1","+0200,1","99999,9","08,1,+02743,1,99,9",,"9,AGL   ,+99999,+99999","99,99,9,08,1,99,9,02743,1,99,9,99,9","10100,1,99999,9",,,,"MET064METAR SKSA 282200Z 31004KT 9999 OVC090 26/20 Q1010 RMK A2983 HZ=",
"80222599999","2023-03-28T23:00:00","4","6.95","-71.85","213.0","LOS COLONIZADORES, CO","FM-15","99999","V020","310,1,N,0015,1","02743,1,C,N","009999,1,9,9","+0250,1","+0200,1","99999,9","08,1,+02743,1,99,9",,"9,AGL   ,+99999,+99999","99,99,9,08,1,99,9,02743,1,99,9,99,9","10100,1,99999,9",,,,"MET064METAR SKSA 282300Z 31003KT 9999 OVC090 25/20 Q1010 RMK A2983 HZ=",
"80222599999","2023-03-29T11:00:00","4","6.95","-71.85","213.0","LOS COLONIZADORES, CO","FM-15","99999","V020","310,1,N,0036,1","02134,1,C,N","009999,1,9,9","+0240,1","+0200,1","99999,9","08,1,+02134,1,99,9",,"9,AGL   ,+99999,+99999","99,99,9,08,1,99,9,02134,1,99,9,99,9","10120,1,99999,9",,,,"MET064METAR SKSA 291100Z 31007KT 9999 OVC070 24/20 Q1012 RMK A2989 HZ=",
"80222599999","2023-03-29T13:00:00","4","6.95","-71.85","213.0","LOS COLONIZADORES, CO","FM-15","99999","V020","270,1,N,0021,1","02134,1,C,N","009999,1,9,9","+0250,1","+0200,1","99999,9","08,1,+02134,1,99,9",,"9,AGL   ,+99999,+99999","99,99,9,08,1,99,9,02134,1,99,9,99,9","10130,1,99999,9",,,,"MET064METAR SKSA 291300Z 27004KT 9999 OVC070 25/20 Q1013 RMK A2993 HZ=",
"80222599999","2023-03-29T14:00:00","4","6.95","-71.85","213.0","LOS COLONIZADORES, CO","FM-15","99999","V020","020,1,N,0036,1","02134,1,C,N","009999,1,9,9","+0250,1","+0200,1","99999,9","08,1,+02134,1,99,9",,"9,AGL   ,+99999,+99999","99,99,9,08,1,99,9,02134,1,99,9,99,9","10140,1,99999,9",,,,"MET064METAR SKSA 291400Z 02007KT 9999 OVC070 25/20 Q1014 RMK A2996 HZ=",
"80222599999","2023-03-29T15:00:00","4","6.95","-71.85","213.0","LOS COLONIZADORES, CO","FM-15","99999","V020","360,1,N,0015,1","02134,1,C,N","009999,1,9,9","+0250,1","+0200,1","99999,9","08,1,+02134,1,99,9",,"9,AGL   ,+99999,+99999","99,99,9,08,1,99,9,02134,1,99,9,99,9","10140,1,99999,9",,,,"MET064METAR SKSA 291500Z 36003KT 9999 OVC070 25/20 Q1014 RMK A2996 HZ=",
"80222599999","2023-03-29T18:00:00","4","6.95","-71.85","213.0","LOS COLONIZADORES, CO","FM-15","99999","V020","360,1,N,0021,1","02134,1,C,N","009999,1,9,9","+0270,1","+0200,1","99999,9","08,1,+02134,1,99,9",,"9,AGL   ,+99999,+99999","99,99,9,08,1,99,9,02134,1,99,9,99,9","10120,1,99999,9",,,,"MET064METAR SKSA 291800Z 36004KT 9999 OVC070 27/20 Q1012 RMK A2989 HZ=",
"80222599999","2023-03-29T23:00:00","4","6.95","-71.85","213.0","LOS COLONIZADORES, CO","FM-15","99999","V020","290,1,N,0015,1","22000,1,9,N","009999,1,9,9","+0270,1","+0190,1","99999,9",,,,"00,99,1,99,9,99,9,99999,9,99,9,99,9","10090,1,99999,9",,,,"MET061METAR SKSA 292300Z 29003KT 9999 NSC 27/19 Q1009 RMK A2980 HZ=",
"80222599999","2023-03-30T11:00:00","4","6.95","-71.85","213.0","LOS COLONIZADORES, CO","FM-15","99999","V020","280,1,N,0041,1","02134,1,C,N","009999,1,9,9","+0240,1","+0200,1","99999,9","08,1,+02134,1,99,9",,"9,AGL   ,+99999,+99999","99,99,9,08,1,99,9,02134,1,99,9,99,9","10120,1,99999,9",,,,"MET064METAR SKSA 301100Z 28008KT 9999 OVC070 24/20 Q1012 RMK A2989 HZ=",
"80222599999","2023-03-30T13:00:00","4","6.95","-71.85","213.0","LOS COLONIZADORES, CO","FM-15","99999","V020","290,1,N,0015,1","02134,1,C,N","009999,1,9,9","+0250,1","+0190,1","99999,9","08,1,+02134,1,99,9",,"9,AGL   ,+99999,+99999","99,99,9,08,1,99,9,02134,1,99,9,99,9","10140,1,99999,9",,,,"MET064METAR SKSA 301300Z 29003KT 9999 OVC070 25/19 Q1014 RMK A2993 HZ=",
"80222599999","2023-03-30T14:00:00","4","6.95","-71.85","213.0","LOS COLONIZADORES, CO","FM-15","99999","V020","300,1,N,0015,1","02134,1,C,N","009999,1,9,9","+0250,1","+0190,1","99999,9","08,1,+02134,1,99,9",,"9,AGL   ,+99999,+99999","99,99,9,08,1,99,9,02134,1,99,9,99,9","10140,1,99999,9",,,,"MET064METAR SKSA 301400Z 30003KT 9999 OVC070 25/19 Q1014 RMK A2993 HZ=",
"80222599999","2023-03-30T16:00:00","4","6.95","-71.85","213.0","LOS COLONIZADORES, CO","FM-15","99999","V020","320,1,N,0036,1","02134,1,C,N","009999,1,9,9","+0240,1","+0190,1","99999,9","08,1,+02134,1,99,9",,"9,AGL   ,+99999,+99999","99,99,9,08,1,99,9,02134,1,99,9,99,9","10150,1,99999,9",,,,"MET064METAR SKSA 301600Z 32007KT 9999 OVC070 24/19 Q1015 RMK A2998 HZ=",
"80222599999","2023-03-30T18:00:00","4","6.95","-71.85","213.0","LOS COLONIZADORES, CO","FM-15","99999","V020","300,1,N,0041,1","01524,1,C,N","009999,1,9,9","+0250,1","+0200,1","99999,9","08,1,+01524,1,99,9",,"9,AGL   ,+99999,+99999","99,99,9,08,1,99,9,01524,1,99,9,99,9","10140,1,99999,9",,,,"MET064METAR SKSA 301800Z 30008KT 9999 OVC050 25/20 Q1014 RMK A2994 HZ=",
"80222599999","2023-03-30T20:00:00","4","6.95","-71.85","213.0","LOS COLONIZADORES, CO","FM-15","99999","V020","290,1,N,0046,1","03353,1,C,N","009999,1,9,9","+0270,1","+0200,1","99999,9","08,1,+03353,1,99,9",,"9,AGL   ,+99999,+99999","99,99,9,08,1,99,9,03353,1,99,9,99,9","10110,1,99999,9",,,,"MET064METAR SKSA 302000Z 29009KT 9999 OVC110 27/20 Q1011 RMK A2986 HZ=",
"80222599999","2023-03-30T21:00:00","4","6.95","-71.85","213.0","LOS COLONIZADORES, CO","FM-15","99999","V020","280,1,N,0062,1","22000,1,9,N","009999,1,9,9","+0280,1","+0180,1","99999,9",,,,"00,99,1,99,9,99,9,99999,9,99,9,99,9","10100,1,99999,9",,,,"MET061METAR SKSA 302100Z 28012KT 9999 NSC 28/18 Q1010 RMK A2983 HZ=",
"80222599999","2023-03-30T22:00:00","4","6.95","-71.85","213.0","LOS COLONIZADORES, CO","FM-15","99999","V020","300,1,N,0051,1","22000,1,9,N","009999,1,9,9","+0270,1","+0180,1","99999,9",,,,"00,99,1,99,9,99,9,99999,9,99,9,99,9","10100,1,99999,9",,,,"MET061METAR SKSA 302200Z 30010KT 9999 NSC 27/18 Q1010 RMK A2981 HZ=",
"80222599999","2023-03-31T11:00:00","4","6.95","-71.85","213.0","LOS COLONIZADORES, CO","FM-15","99999","V020","320,1,N,0031,1","02743,1,C,N","009999,1,9,9","+0260,1","+0200,1","99999,9","08,1,+02743,1,99,9",,"9,AGL   ,+99999,+99999","99,99,9,08,1,99,9,02743,1,99,9,99,9","10120,1,99999,9",,,,"MET064METAR SKSA 311100Z 32006KT 9999 OVC090 26/20 Q1012 RMK A2989 HZ=",
"80222599999","2023-03-31T14:00:00","4","6.95","-71.85","213.0","LOS COLONIZADORES, CO","FM-15","99999","V020","340,1,N,0021,1","02743,1,C,N","009999,1,9,9","+0250,1","+0200,1","99999,9","08,1,+02743,1,99,9",,"9,AGL   ,+99999,+99999","99,99,9,08,1,99,9,02743,1,99,9,99,9","10160,1,99999,9",,,,"MET064METAR SKSA 311400Z 34004KT 9999 OVC090 25/20 Q1016 RMK A3000 HZ=",
"80222599999","2023-03-31T15:00:00","4","6.95","-71.85","213.0","LOS COLONIZADORES, CO","FM-15","99999","V020","290,1,N,0031,1","01524,1,C,N","009999,1,9,9","+0230,1","+0210,1","99999,9","08,1,+01524,1,99,9",,"9,AGL   ,+99999,+99999","99,99,9,08,1,99,9,01524,1,99,9,99,9","10160,1,99999,9",,,,"MET064METAR SKSA 311500Z 29006KT 9999 OVC050 23/21 Q1016 RMK A3000 HZ=",
"80222599999","2023-03-31T17:00:00","4","6.95","-71.85","213.0","LOS COLONIZADORES, CO","FM-15","99999","V020","270,1,N,0031,1","01524,1,C,N","009999,1,9,9","+0250,1","+0220,1","99999,9","08,1,+01524,1,99,9",,"9,AGL   ,+99999,+99999","99,99,9,08,1,99,9,01524,1,99,9,99,9","10160,1,99999,9",,,,"MET064METAR SKSA 311700Z 27006KT 9999 OVC050 25/22 Q1016 RMK A3000 HZ=",
"80222599999","2023-03-31T18:00:00","4","6.95","-71.85","213.0","LOS COLONIZADORES, CO","FM-15","99999","V020","250,1,N,0031,1","01524,1,C,N","009999,1,9,9","+0240,1","+0220,1","99999,9","08,1,+01524,1,99,9",,"9,AGL   ,+99999,+99999","99,99,9,08,1,99,9,01524,1,99,9,99,9","10140,1,99999,9",,,,"MET064METAR SKSA 311800Z 25006KT 9999 OVC050 24/22 Q1014 RMK A2995 HZ=",
"80222599999","2023-03-31T19:00:00","4","6.95","-71.85","213.0","LOS COLONIZADORES, CO","FM-15","99999","V020","250,1,N,0031,1","01524,1,C,N","009999,1,9,9","+0260,1","+0220,1","99999,9","08,1,+01524,1,99,9",,"9,AGL   ,+99999,+99999","99,99,9,08,1,99,9,01524,1,99,9,99,9","10130,1,99999,9",,,,"MET064METAR SKSA 311900Z 25006KT 9999 OVC050 26/22 Q1013 RMK A2992 HZ=",
"80222599999","2023-03-31T23:00:00","4","6.95","-71.85","213.0","LOS COLONIZADORES, CO","FM-15","99999","V020","310,1,N,0021,1","22000,1,9,N","009999,1,9,9","+0250,1","+0220,1","99999,9",,,,"00,99,1,99,9,99,9,99999,9,99,9,99,9","10100,1,99999,9",,,,"MET061METAR SKSA 312300Z 31004KT 9999 NSC 25/22 Q1010 RMK A2985 HZ=",
"80222599999","2023-04-01T11:00:00","4","6.95","-71.85","213.0","LOS COLONIZADORES, CO","FM-15","99999","V020","999,9,V,0010,1","01524,1,C,N","009999,1,9,9","+0230,1","+0210,1","99999,9","08,1,+01524,1,99,9",,"9,AGL   ,+99999,+99999","99,99,9,08,1,99,9,01524,1,99,9,99,9","10130,1,99999,9",,,,"MET064METAR SKSA 011100Z VRB02KT 9999 OVC050 23/21 Q1013 RMK A2991 HZ=",
"80222599999","2023-04-01T13:00:00","4","6.95","-71.85","213.0","LOS COLONIZADORES, CO","FM-15","99999","V020","999,9,V,0010,1","00914,1,C,N","009999,1,9,9","+0240,1","+0210,1","99999,9","08,1,+00914,1,99,9",,"9,AGL   ,+99999,+99999","99,99,9,08,1,99,9,00914,1,99,9,99,9","10150,1,99999,9",,,,"MET064METAR SKSA 011300Z VRB02KT 9999 OVC030 24/21 Q1015 RMK A2998 HZ=",
"80222599999","2023-04-01T14:00:00","4","6.95","-71.85","213.0","LOS COLONIZADORES, CO","FM-15","99999","V020","320,1,N,0021,1","00610,1,C,N","004000,1,9,9","+0230,1","+0220,1","99999,9","08,1,+00610,1,99,9",,"9,AGL   ,+99999,+99999","99,99,9,08,1,99,9,00610,1,99,9,99,9","10160,1,99999,9","53,1",,,"MET067METAR SKSA 011400Z 32004KT 4000 DZ OVC020 23/22 Q1016 RMK A3001 HZ=",
"80222599999","2023-04-01T15:00:00","4","6.95","-71.85","213.0","LOS COLONIZADORES, CO","FM-15","99999","V020","190,1,N,0015,1","00610,1,C,N","003000,1,9,9","+0220,1","+0220,1","99999,9","08,1,+00610,1,99,9",,"9,AGL   ,+99999,+99999","99,99,9,08,1,99,9,00610,1,99,9,99,9","10160,1,99999,9","63,1",,,"MET067METAR SKSA 011500Z 19003KT 3000 RA OVC020 22/22 Q1016 RMK A3001 HZ=",
"80222599999","2023-04-01T17:00:00","4","6.95","-71.85","213.0","LOS COLONIZADORES, CO","FM-15","99999","V020","260,1,N,0021,1","00610,1,C,N","007000,1,9,9","+0220,1","+0220,1","99999,9","08,1,+00610,1,99,9",,"9,AGL   ,+99999,+99999","99,99,9,08,1,99,9,00610,1,99,9,99,9","10150,1,99999,9","53,1",,,"MET067METAR SKSA 011700Z 26004KT 7000 DZ OVC020 22/22 Q1015 RMK A2998 HZ=",
"80222599999","2023-04-01T18:00:00","4","6.95","-71.85","213.0","LOS COLONIZADORES, CO","FM-15","99999","V020","260,1,N,0021,1","00610,1,C,N","007000,1,9,9","+0230,1","+0220,1","99999,9","08,1,+00610,1,99,9",,"9,AGL   ,+99999,+99999","99,99,9,08,1,99,9,00610,1,99,9,99,9","10140,1,99999,9","53,1",,,"MET067METAR SKSA 011800Z 26004KT 7000 DZ OVC020 23/22 Q1014 RMK A2995 HZ=",
"80222599999","2023-04-01T19:00:00","4","6.95","-71.85","213.0","LOS COLONIZADORES, CO","FM-15","99999","V020","300,1,N,0026,1","02743,1,C,N","008000,1,9,9","+0230,1","+0220,1","99999,9","08,1,+02743,1,99,9",,"9,AGL   ,+99999,+99999","99,99,9,08,1,99,9,02743,1,99,9,99,9","10130,1,99999,9","53,1",,,"MET067METAR SKSA 011900Z 30005KT 8000 DZ OVC090 23/22 Q1013 RMK A2992 HZ=",
"80222599999","2023-04-01T20:00:00","4","6.95","-71.85","213.0","LOS COLONIZADORES, CO","FM-15","99999","V020","290,1,N,0031,1","02743,1,C,N","009000,1,9,9","+0230,1","+0220,1","99999,9","08,1,+02743,1,99,9",,"9,AGL   ,+99999,+99999","99,99,9,08,1,99,9,02743,1,99,9,99,9","10120,1,99999,9","53,1",,,"MET064METAR SKSA 012000Z 29006KT 9000 DZ OVC090 23/22 Q1012 RMK A2989=",
"80222599999","2023-04-01T21:00:00","4","6.95","-71.85","213.0","LOS COLONIZADORES, CO","FM-15","99999","V020","290,1,N,0036,1","03048,1,C,N","009000,1,9,9","+0240,1","+0220,1","99999,9","08,1,+03048,1,99,9",,"9,AGL   ,+99999,+99999","99,99,9,08,1,99,9,03048,1,99,9,99,9","10110,1,99999,9","53,1",,,"MET064METAR SKSA 012100Z 29007KT 9000 DZ OVC100 24/22 Q1011 RMK A2987=",
"80222599999","2023-04-01T22:00:00","4","6.95","-71.85","213.0","LOS COLONIZADORES, CO","FM-15","99999","V020","320,1,N,0031,1","03048,1,C,N","009999,1,9,9","+0250,1","+0210,1","99999,9","08,1,+03048,1,99,9",,"9,AGL   ,+99999,+99999","99,99,9,08,1,99,9,03048,1,99,9,99,9","10110,1,99999,9",,,,"MET061METAR SKSA 012200Z 32006KT 9999 OVC100 25/21 Q1011 RMK A2986=",
"80222599999","2023-04-01T23:00:00","4","6.95","-71.85","213.0","LOS COLONIZADORES, CO","FM-15","99999","V020","290,1,N,0015,1","03048,1,C,N","009999,1,9,9","+0240,1","+0210,1","99999,9","07,1,+03048,1,99,9",,"9,AGL   ,+99999,+99999","99,99,9,07,1,99,9,03048,1,99,9,99,9","10110,1,99999,9",,,,"MET061METAR SKSA 012300Z 29003KT 9999 BKN100 24/21 Q1011 RMK A2987=",
"80222599999","2023-04-02T12:00:00","4","6.95","-71.85","213.0","LOS COLONIZADORES, CO","FM-15","99999","V020","330,1,N,0021,1","02134,1,C,N","009999,1,9,9","+0230,1","+0210,1","99999,9","08,1,+02134,1,99,9",,"9,AGL   ,+99999,+99999","99,99,9,08,1,99,9,02134,1,99,9,99,9","10140,1,99999,9",,,,"MET061METAR SKSA 021200Z 33004KT 9999 OVC070 23/21 Q1014 RMK A2995=",
"80222599999","2023-04-02T13:00:00","4","6.95","-71.85","213.0","LOS COLONIZADORES, CO","FM-15","99999","V020","310,1,N,0015,1","02438,1,C,N","009999,1,9,9","+0250,1","+0210,1","99999,9","08,1,+02438,1,99,9",,"9,AGL   ,+99999,+99999","99,99,9,08,1,99,9,02438,1,99,9,99,9","10150,1,99999,9",,,,"MET061METAR SKSA 021300Z 31003KT 9999 OVC080 25/21 Q1015 RMK A2997=",
"80222599999","2023-04-02T14:00:00","4","6.95","-71.85","213.0","LOS COLONIZADORES, CO","FM-15","99999","V020","290,1,N,0015,1","02743,1,C,N","009999,1,9,9","+0270,1","+0200,1","99999,9","08,1,+02743,1,99,9",,"9,AGL   ,+99999,+99999","99,99,9,08,1,99,9,02743,1,99,9,99,9","10150,1,99999,9",,,,"MET061METAR SKSA 021400Z 29003KT 9999 OVC090 27/20 Q1015 RMK A2999=",
"80222599999","2023-04-02T15:00:00","4","6.95","-71.85","213.0","LOS COLONIZADORES, CO","FM-15","99999","V020","320,1,N,0036,1","01524,1,C,N","009999,1,9,9","+0270,1","+0210,1","99999,9","08,1,+01524,1,99,9",,"9,AGL   ,+99999,+99999","99,99,9,08,1,99,9,01524,1,99,9,99,9","10150,1,99999,9",,,,"MET061METAR SKSA 021500Z 32007KT 9999 OVC050 27/21 Q1015 RMK A2999=",
"80222599999","2023-04-02T16:00:00","4","6.95","-71.85","213.0","LOS COLONIZADORES, CO","FM-15","99999","V020","210,1,N,0015,1","01524,1,C,N","009999,1,9,9","+0280,1","+0220,1","99999,9","08,1,+01524,1,99,9",,"9,AGL   ,+99999,+99999","99,99,9,08,1,99,9,01524,1,99,9,99,9","10150,1,99999,9",,,,"MET061METAR SKSA 021600Z 21003KT 9999 OVC050 28/22 Q1015 RMK A2998=",
"80222599999","2023-04-02T17:00:00","4","6.95","-71.85","213.0","LOS COLONIZADORES, CO","FM-15","99999","V020","180,1,N,0026,1","01829,1,C,N","009999,1,9,9","+0290,1","+0220,1","99999,9","07,1,+01829,1,99,9",,"9,AGL   ,+99999,+99999","99,99,9,07,1,99,9,01829,1,99,9,99,9","10140,1,99999,9",,,,"MET061METAR SKSA 021700Z 18005KT 9999 BKN060 29/22 Q1014 RMK A2995=",
"80222599999","2023-04-02T18:00:00","4","6.95","-71.85","213.0","LOS COLONIZADORES, CO","FM-15","99999","V020","200,1,N,0015,1","99999,9,9,N","009999,1,9,9","+0300,1","+0200,1","99999,9","04,1,+02743,1,99,9",,"9,AGL   ,+99999,+99999","99,99,9,04,1,99,9,02743,1,99,9,99,9","10120,1,99999,9",,,,"MET061METAR SKSA 021800Z 20003KT 9999 SCT090 30/20 Q1012 RMK A2990=",
"80222599999","2023-04-02T19:00:00","4","6.95","-71.85","213.0","LOS COLONIZADORES, CO","FM-15","99999","V020","330,1,N,0031,1","99999,9,9,N","009999,1,9,9","+0310,1","+0200,1","99999,9","04,1,+02743,1,99,9",,"9,AGL   ,+99999,+99999","99,99,9,04,1,99,9,02743,1,99,9,99,9","10110,1,99999,9",,,,"MET061METAR SKSA 021900Z 33006KT 9999 SCT090 31/20 Q1011 RMK A2987=",
"80222599999","2023-04-02T20:00:00","4","6.95","-71.85","213.0","LOS COLONIZADORES, CO","FM-15","99999","V020","310,1,N,0021,1","99999,9,9,N","009999,1,9,9","+0310,1","+0200,1","99999,9","04,1,+03048,1,99,9",,"9,AGL   ,+99999,+99999","99,99,9,04,1,99,9,03048,1,99,9,99,9","10100,1,99999,9",,,,"MET061METAR SKSA 022000Z 31004KT 9999 SCT100 31/20 Q1010 RMK A2982=",
"80222599999","2023-04-02T21:00:00","4","6.95","-71.85","213.0","LOS COLONIZADORES, CO","FM-15","99999","V020","310,1,N,0026,1","99999,9,9,N","009999,1,9,9","+0320,1","+0190,1","99999,9","02,1,+03048,1,99,9",,"9,AGL   ,+99999,+99999","99,99,9,02,1,99,9,03048,1,99,9,99,9","10090,1,99999,9",,,,"MET061METAR SKSA 022100Z 31005KT 9999 FEW100 32/19 Q1009 RMK A2980=",
"80222599999","2023-04-02T22:00:00","4","6.95","-71.85","213.0","LOS COLONIZADORES, CO","FM-15","99999","V020","350,1,N,0015,1","99999,9,9,N","009999,1,9,9","+0310,1","+0190,1","99999,9","02,1,+03048,1,99,9",,"9,AGL   ,+99999,+99999","99,99,9,02,1,99,9,03048,1,99,9,99,9","10090,1,99999,9",,,,"MET061METAR SKSA 022200Z 35003KT 9999 FEW100 31/19 Q1009 RMK A2980=",
"80222599999","2023-04-02T23:00:00","4","6.95","-71.85","213.0","LOS COLONIZADORES, CO","FM-15","99999","V020","999,9,V,0010,1","99999,9,9,N","009999,1,9,9","+0280,1","+0200,1","99999,9","02,1,+03048,1,99,9",,"9,AGL   ,+99999,+99999","99,99,9,02,1,99,9,03048,1,99,9,99,9","10090,1,99999,9",,,,"MET061METAR SKSA 022300Z VRB02KT 9999 FEW100 28/20 Q1009 RMK A2980=",
"80222599999","2023-04-03T11:00:00","4","6.95","-71.85","213.0","LOS COLONIZADORES, CO","FM-15","99999","V020","300,1,N,0036,1","99999,9,9,N","009999,1,9,9","+0240,1","+0190,1","99999,9","04,1,+03048,1,99,9",,"9,AGL   ,+99999,+99999","99,99,9,04,1,99,9,03048,1,99,9,99,9","10120,1,99999,9",,,,"MET061METAR SKSA 031100Z 30007KT 9999 SCT100 24/19 Q1012 RMK A2999=",
"80222599999","2023-04-03T12:00:00","4","6.95","-71.85","213.0","LOS COLONIZADORES, CO","FM-15","99999","V020","300,1,N,0026,1","99999,9,9,N","009999,1,9,9","+0240,1","+0190,1","99999,9","04,1,+03048,1,99,9",,"9,AGL   ,+99999,+99999","99,99,9,04,1,99,9,03048,1,99,9,99,9","10120,1,99999,9",,,,"MET061METAR SKSA 031200Z 30005KT 9999 SCT100 24/19 Q1012 RMK A2990=",
"80222599999","2023-04-03T13:00:00","4","6.95","-71.85","213.0","LOS COLONIZADORES, CO","FM-15","99999","V020","320,1,N,0041,1","01676,1,C,N","009999,1,9,9","+0250,1","+0190,1","99999,9","07,1,+01676,1,99,9",,"9,AGL   ,+99999,+99999","99,99,9,07,1,99,9,01676,1,99,9,99,9","10130,1,99999,9",,,,"MET061METAR SKSA 031300Z 32008KT 9999 BKN055 25/19 Q1013 RMK A2993=",
"80222599999","2023-04-03T14:00:00","4","6.95","-71.85","213.0","LOS COLONIZADORES, CO","FM-15","99999","V020","340,1,N,0051,1","01676,1,C,N","009999,1,9,9","+0260,1","+0190,1","99999,9","07,1,+01676,1,99,9",,"9,AGL   ,+99999,+99999","99,99,9,07,1,99,9,01676,1,99,9,99,9","10140,1,99999,9",,,,"MET061METAR SKSA 031400Z 34010KT 9999 BKN055 26/19 Q1014 RMK A2996=",
"80222599999","2023-04-05T11:00:00","4","6.95","-71.85","213.0","LOS COLONIZADORES, CO","FM-15","99999","V020","999,9,V,0010,1","01829,1,C,N","009999,1,9,9","+0230,1","+0200,1","99999,9","07,1,+01829,1,99,9",,"9,AGL   ,+99999,+99999","99,99,9,07,1,99,9,01829,1,99,9,99,9","10100,1,99999,9",,,,"MET061METAR SKSA 051100Z VRB02KT 9999 BKN060 23/20 Q1010 RMK A2982=",
"80222599999","2023-04-05T12:00:00","4","6.95","-71.85","213.0","LOS COLONIZADORES, CO","FM-15","99999","V020","999,9,V,0010,1","01829,1,C,N","009999,1,9,9","+0240,1","+0200,1","99999,9","08,1,+01829,1,99,9",,"9,AGL   ,+99999,+99999","99,99,9,08,1,99,9,01829,1,99,9,99,9","10110,1,99999,9","16,1","61,1",,"MET076METAR SKSA 051200Z VRB02KT 9999 -RA VCSH OVC060 24/20 Q1011 RMK SH SW A2985=",
"80222599999","2023-04-05T14:00:00","4","6.95","-71.85","213.0","LOS COLONIZADORES, CO","FM-15","99999","V020","320,1,N,0015,1","01676,1,C,N","009000,1,9,9","+0230,1","+0220,1","99999,9","08,1,+01676,1,99,9",,"9,AGL   ,+99999,+99999","99,99,9,08,1,99,9,01676,1,99,9,99,9","10130,1,99999,9","16,1","61,1",,"MET076METAR SKSA 051400Z 32003KT 9000 -RA VCSH OVC055 23/22 Q1013 RMK SH SW A2993=",
"80222599999","2023-04-05T15:00:00","4","6.95","-71.85","213.0","LOS COLONIZADORES, CO","FM-15","99999","V020","320,1,N,0015,1","01219,1,C,N","009000,1,9,9","+0230,1","+0210,1","99999,9","08,1,+01219,1,99,9",,"9,AGL   ,+99999,+99999","99,99,9,08,1,99,9,01219,1,99,9,99,9","10130,1,99999,9","16,1","61,1",,"MET076METAR SKSA 051500Z 32003KT 9000 -RA VCSH OVC040 23/21 Q1013 RMK SH SW A2993=",
"80222599999","2023-04-05T16:00:00","4","6.95","-71.85","213.0","LOS COLONIZADORES, CO","FM-15","99999","V020","240,1,N,0036,1","01219,1,C,N","009000,1,9,9","+0230,1","+0210,1","99999,9","08,1,+01219,1,99,9",,"9,AGL   ,+99999,+99999","99,99,9,08,1,99,9,01219,1,99,9,99,9","10130,1,99999,9","16,1",,,"MET072METAR SKSA 051600Z 24007KT 9000 VCSH OVC040 23/21 Q1013 RMK SH SW A2992=",
"80222599999","2023-04-05T17:00:00","4","6.95","-71.85","213.0","LOS COLONIZADORES, CO","FM-15","99999","V020","250,1,N,0026,1","01524,1,C,N","009000,1,9,9","+0250,1","+0210,1","99999,9","08,1,+01524,1,99,9",,"9,AGL   ,+99999,+99999","99,99,9,08,1,99,9,01524,1,99,9,99,9","10120,1,99999,9","16,1",,,"MET072METAR SKSA 051700Z 25005KT 9000 VCSH OVC050 25/21 Q1012 RMK SH SW A2989=",
"80222599999","2023-04-05T18:00:00","4","6.95","-71.85","213.0","LOS COLONIZADORES, CO","FM-15","99999","V020","280,1,N,0026,1","01829,1,C,N","009000,1,9,9","+0260,1","+0220,1","99999,9","08,1,+01829,1,99,9",,"9,AGL   ,+99999,+99999","99,99,9,08,1,99,9,01829,1,99,9,99,9","10110,1,99999,9","10,1",,,"MET064METAR SKSA 051800Z 28005KT 9000 BR OVC060 26/22 Q1011 RMK A2986=",
"80222599999","2023-04-05T19:00:00","4","6.95","-71.85","213.0","LOS COLONIZADORES, CO","FM-15","99999","V020","310,1,N,0026,1","02438,1,C,N","009000,1,9,9","+0270,1","+0210,1","99999,9","08,1,+02438,1,99,9",,"9,AGL   ,+99999,+99999","99,99,9,08,1,99,9,02438,1,99,9,99,9","10090,1,99999,9","10,1",,,"MET064METAR SKSA 051900Z 31005KT 9000 BR OVC080 27/21 Q1009 RMK A2981=",
"80222599999","2023-04-05T21:00:00","4","6.95","-71.85","213.0","LOS COLONIZADORES, CO","FM-15","99999","V020","300,1,N,0036,1","99999,9,9,N","009999,1,9,9","+0300,1","+0210,1","99999,9","04,1,+03048,1,99,9",,"9,AGL   ,+99999,+99999","99,99,9,04,1,99,9,03048,1,99,9,99,9","10070,1,99999,9",,,,"MET062METAR SKSA 052100Z 30007KT 9999 SCT100 30/21 Q1007 RMK A29874=",
"80222599999","2023-04-05T22:00:00","4","6.95","-71.85","213.0","LOS COLONIZADORES, CO","FM-15","99999","V020","340,1,N,0026,1","22000,1,9,N","009999,1,9,9","+0290,1","+0200,1","99999,9",,,,"00,99,1,99,9,99,9,99999,9,99,9,99,9","10070,1,99999,9",,,,"MET059METAR SKSA 052200Z 34005KT 9999 NSC 29/20 Q1007 RMK A29873=",
"80222599999","2023-04-05T23:00:00","4","6.95","-71.85","213.0","LOS COLONIZADORES, CO","FM-15","99999","V020","310,1,N,0021,1","22000,1,9,N","009999,1,9,9","+0280,1","+0200,1","99999,9",,,,"00,99,1,99,9,99,9,99999,9,99,9,99,9","10070,1,99999,9",,,,"MET059METAR SKSA 052300Z 31004KT 9999 NSC 28/20 Q1007 RMK A29874=",
"80222599999","2023-04-06T11:00:00","4","6.95","-71.85","213.0","LOS COLONIZADORES, CO","FM-15","99999","V020","260,1,N,0015,1","01829,1,C,N","009999,1,9,9","+0250,1","+0190,1","99999,9","07,1,+01829,1,99,9",,"9,AGL   ,+99999,+99999","99,99,9,07,1,99,9,01829,1,99,9,99,9","10080,1,99999,9",,,,"MET061METAR SKSA 061100Z 26003KT 9999 BKN060 25/19 Q1008 RMK A2979=",
"80222599999","2023-04-06T12:00:00","4","6.95","-71.85","213.0","LOS COLONIZADORES, CO","FM-15","99999","V020","020,1,N,0021,1","02134,1,C,N","009999,1,9,9","+0250,1","+0190,1","99999,9","08,1,+02134,1,99,9",,"9,AGL   ,+99999,+99999","99,99,9,08,1,99,9,02134,1,99,9,99,9","10100,1,99999,9",,,,"MET061METAR SKSA 061200Z 02004KT 9999 OVC070 25/19 Q1010 RMK A2983=",
"80222599999","2023-04-06T13:00:00","4","6.95","-71.85","213.0","LOS COLONIZADORES, CO","FM-15","99999","V020","330,1,N,0021,1","02134,1,C,N","009999,1,9,9","+0250,1","+0200,1","99999,9","08,1,+02134,1,99,9",,"9,AGL   ,+99999,+99999","99,99,9,08,1,99,9,02134,1,99,9,99,9","10120,1,99999,9",,,,"MET061METAR SKSA 061300Z 33004KT 9999 OVC070 25/20 Q1012 RMK A2988=",
"80222599999","2023-04-06T14:00:00","4","6.95","-71.85","213.0","LOS COLONIZADORES, CO","FM-15","99999","V020","320,1,N,0021,1","01524,1,C,N","009000,1,9,9","+0250,1","+0210,1","99999,9","08,1,+01524,1,99,9",,"9,AGL   ,+99999,+99999","99,99,9,08,1,99,9,01524,1,99,9,99,9","10130,1,99999,9","10,1",,,"MET064METAR SKSA 061400Z 32004KT 9000 BR OVC050 25/21 Q1013 RMK A2992=",
"80222599999","2023-04-06T15:00:00","4","6.95","-71.85","213.0","LOS COLONIZADORES, CO","FM-15","99999","V020","310,1,N,0021,1","01372,1,C,N","009000,1,9,9","+0240,1","+0210,1","99999,9","08,1,+01372,1,99,9",,"9,AGL   ,+99999,+99999","99,99,9,08,1,99,9,01372,1,99,9,99,9","10130,1,99999,9","10,1","16,1",,"MET076METAR SKSA 061500Z 31004KT 9000 BR VCSH OVC045 24/21 Q1013 RMK VCSH E A2993=",
"80222599999","2023-04-06T16:00:00","4","6.95","-71.85","213.0","LOS COLONIZADORES, CO","FM-15","99999","V020","310,1,N,0026,1","00914,1,C,N","004000,1,9,9","+0220,1","+0220,1","99999,9","08,1,+00914,1,99,9",,"9,AGL   ,+99999,+99999","99,99,9,08,1,99,9,00914,1,99,9,99,9","10130,1,99999,9","63,1",,,"MET069METAR SKSA 061600Z 31005KT 4000 RA OVC030 22/22 Q1013 RMK SHRA A2992=",
"80222599999","2023-04-06T17:00:00","4","6.95","-71.85","213.0","LOS COLONIZADORES, CO","FM-15","99999","V020","999,9,V,0010,1","01219,1,C,N","004000,1,9,9","+0220,1","+0220,1","99999,9","08,1,+01219,1,99,9",,"9,AGL   ,+99999,+99999","99,99,9,08,1,99,9,01219,1,99,9,99,9","10130,1,99999,9","63,1",,,"MET069METAR SKSA 061700Z VRB02KT 4000 RA OVC040 22/22 Q1013 RMK SHRA A2991=",
"80222599999","2023-04-06T18:00:00","4","6.95","-71.85","213.0","LOS COLONIZADORES, CO","FM-15","99999","V020","310,1,N,0021,1","00914,1,C,N","004000,1,9,9","+0220,1","+0220,1","99999,9","08,1,+00914,1,99,9",,"9,AGL   ,+99999,+99999","99,99,9,08,1,99,9,00914,1,99,9,99,9","10120,1,99999,9","63,1",,,"MET069METAR SKSA 061800Z 31004KT 4000 RA OVC030 22/22 Q1012 RMK SHRA A2988=",
"80222599999","2023-04-06T19:00:00","4","6.95","-71.85","213.0","LOS COLONIZADORES, CO","FM-15","99999","V020","270,1,N,0021,1","01829,1,C,N","008000,1,9,9","+0230,1","+0230,1","99999,9","08,1,+01829,1,99,9",,"9,AGL   ,+99999,+99999","99,99,9,08,1,99,9,01829,1,99,9,99,9","10100,1,99999,9","10,1",,,"MET069METAR SKSA 061900Z 27004KT 8000 BR OVC060 23/23 Q1010 RMK SHRA A2983=",
"80222599999","2023-04-06T20:00:00","4","6.95","-71.85","213.0","LOS COLONIZADORES, CO","FM-15","99999","V020","290,1,N,0041,1","02134,1,C,N","008000,1,9,9","+0240,1","+0220,1","99999,9","08,1,+02134,1,99,9",,"9,AGL   ,+99999,+99999","99,99,9,08,1,99,9,02134,1,99,9,99,9","10090,1,99999,9","10,1",,,"MET064METAR SKSA 062000Z 29008KT 8000 BR OVC070 24/22 Q1009 RMK A2981=",
"80222599999","2023-04-06T21:00:00","4","6.95","-71.85","213.0","LOS COLONIZADORES, CO","FM-15","99999","V020","310,1,N,0036,1","02134,1,C,N","009000,1,9,9","+0260,1","+0220,1","99999,9","08,1,+02134,1,99,9",,"9,AGL   ,+99999,+99999","99,99,9,08,1,99,9,02134,1,99,9,99,9","10080,1,99999,9","10,1",,,"MET064METAR SKSA 062100Z 31007KT 9000 BR OVC070 26/22 Q1008 RMK A2977=",
"80222599999","2023-04-06T22:00:00","4","6.95","-71.85","213.0","LOS COLONIZADORES, CO","FM-15","99999","V020","290,1,N,0015,1","02438,1,C,N","009000,1,9,9","+0250,1","+0210,1","99999,9","08,1,+02438,1,99,9",,"9,AGL   ,+99999,+99999","99,99,9,08,1,99,9,02438,1,99,9,99,9","10080,1,99999,9","10,1",,,"MET064METAR SKSA 062200Z 29003KT 9000 BR OVC080 25/21 Q1008 RMK A2976=",
"80222599999","2023-04-06T23:00:00","4","6.95","-71.85","213.0","LOS COLONIZADORES, CO","FM-15","99999","V020","260,1,N,0021,1","02438,1,C,N","009999,1,9,9","+0250,1","+0210,1","99999,9","08,1,+02438,1,99,9",,"9,AGL   ,+99999,+99999","99,99,9,08,1,99,9,02438,1,99,9,99,9","10080,1,99999,9",,,,"MET061METAR SKSA 062300Z 26004KT 9999 OVC080 25/21 Q1008 RMK A2978=",
"80222599999","2023-04-07T11:00:00","4","6.95","-71.85","213.0","LOS COLONIZADORES, CO","FM-15","99999","V020","260,1,N,0026,1","01829,1,C,N","009999,1,9,9","+0000,1","+0000,1","99999,9","08,1,+01829,1,99,9",,"9,AGL   ,+99999,+99999","99,99,9,08,1,99,9,01829,1,99,9,99,9",,,,,"MET061METAR SKSA 071100Z 26005KT 9999 OVC060 00/00 Q0000 RMK A0000=",
"80222599999","2023-04-07T12:00:00","4","6.95","-71.85","213.0","LOS COLONIZADORES, CO","FM-15","99999","V020","220,1,N,0026,1","02134,1,C,N","009000,1,9,9","+0250,2","+0190,2","99999,9","08,1,+02134,1,99,9",,"9,AGL   ,+99999,+99999","99,99,9,08,1,99,9,02134,1,99,9,99,9","10100,1,99999,9","10,1",,,"MET064METAR SKSA 071200Z 22005KT 9000 BR OVC070 25/19 Q1010 RMK A2983=",
"80222599999","2023-04-07T13:00:00","4","6.95","-71.85","213.0","LOS COLONIZADORES, CO","FM-15","99999","V020","210,1,N,0021,1","02134,1,C,N","009000,1,9,9","+0260,1","+0190,1","99999,9","08,1,+02134,1,99,9",,"9,AGL   ,+99999,+99999","99,99,9,08,1,99,9,02134,1,99,9,99,9","10110,1,99999,9","10,1",,,"MET064METAR SKSA 071300Z 21004KT 9000 BR OVC070 26/19 Q1011 RMK A2987=",
"80222599999","2023-04-07T14:00:00","4","6.95","-71.85","213.0","LOS COLONIZADORES, CO","FM-15","99999","V020","999,9,V,0010,1","01981,1,C,N","009000,1,9,9","+0260,1","+0210,1","99999,9","08,1,+01981,1,99,9",,"9,AGL   ,+99999,+99999","99,99,9,08,1,99,9,01981,1,99,9,99,9","10120,1,99999,9","10,1",,,"MET064METAR SKSA 071400Z VRB02KT 9000 BR OVC065 26/21 Q1012 RMK A2988=",
"80222599999","2023-04-07T15:00:00","4","6.95","-71.85","213.0","LOS COLONIZADORES, CO","FM-15","99999","V020","310,1,N,0026,1","01981,1,C,N","009000,1,9,9","+0260,1","+0210,1","99999,9","08,1,+01981,1,99,9",,"9,AGL   ,+99999,+99999","99,99,9,08,1,99,9,01981,1,99,9,99,9","10120,1,99999,9","10,1",,,"MET064METAR SKSA 071500Z 31005KT 9000 BR OVC065 26/21 Q1012 RMK A2989=",
"80222599999","2023-04-07T16:00:00","4","6.95","-71.85","213.0","LOS COLONIZADORES, CO","FM-15","99999","V020","020,1,N,0021,1","01829,1,C,N","009999,1,9,9","+0250,1","+0210,1","99999,9","08,1,+01829,1,99,9",,"9,AGL   ,+99999,+99999","99,99,9,08,1,99,9,01829,1,99,9,99,9","10130,1,99999,9",,,,"MET061METAR SKSA 071600Z 02004KT 9999 OVC060 25/21 Q1013 RMK A2991=",
"80222599999","2023-04-07T17:00:00","4","6.95","-71.85","213.0","LOS COLONIZADORES, CO","FM-15","99999","V020","300,1,N,0021,1","01829,1,C,N","009999,1,9,9","+0240,1","+0210,1","99999,9","08,1,+01829,1,99,9",,"9,AGL   ,+99999,+99999","99,99,9,08,1,99,9,01829,1,99,9,99,9","10120,1,99999,9",,,,"MET061METAR SKSA 071700Z 30004KT 9999 OVC060 24/21 Q1012 RMK A2990=",
"80222599999","2023-04-07T18:00:00","4","6.95","-71.85","213.0","LOS COLONIZADORES, CO","FM-15","99999","V020","300,1,N,0031,1","02134,1,C,N","009999,1,9,9","+0250,1","+0210,1","99999,9","08,1,+02134,1,99,9",,"9,AGL   ,+99999,+99999","99,99,9,08,1,99,9,02134,1,99,9,99,9","10110,1,99999,9",,,,"MET061METAR SKSA 071800Z 30006KT 9999 OVC070 25/21 Q1011 RMK A2987=",
"80222599999","2023-04-07T19:00:00","4","6.95","-71.85","213.0","LOS COLONIZADORES, CO","FM-15","99999","V020","290,1,N,0015,1","02134,1,C,N","009999,1,9,9","+0250,1","+0210,1","99999,9","08,1,+02134,1,99,9",,"9,AGL   ,+99999,+99999","99,99,9,08,1,99,9,02134,1,99,9,99,9","10100,1,99999,9",,,,"MET061METAR SKSA 071900Z 29003KT 9999 OVC070 25/21 Q1010 RMK A2984=",
"80222599999","2023-04-07T20:00:00","4","6.95","-71.85","213.0","LOS COLONIZADORES, CO","FM-15","99999","V020","250,1,N,0015,1","02743,1,C,N","009999,1,9,9","+0260,1","+0210,1","99999,9","08,1,+02743,1,99,9",,"9,AGL   ,+99999,+99999","99,99,9,08,1,99,9,02743,1,99,9,99,9","10090,1,99999,9",,,,"MET061METAR SKSA 072000Z 25003KT 9999 OVC090 26/21 Q1009 RMK A2980=",
"80222599999","2023-04-07T21:00:00","4","6.95","-71.85","213.0","LOS COLONIZADORES, CO","FM-15","99999","V020","280,1,N,0015,1","03048,1,C,N","009999,1,9,9","+0270,1","+0210,1","99999,9","08,1,+03048,1,99,9",,"9,AGL   ,+99999,+99999","99,99,9,08,1,99,9,03048,1,99,9,99,9","10080,1,99999,9",,,,"MET061METAR SKSA 072100Z 28003KT 9999 OVC100 27/21 Q1008 RMK A2978=",
"80222599999","2023-04-07T22:00:00","4","6.95","-71.85","213.0","LOS COLONIZADORES, CO","FM-15","99999","V020","250,1,N,0015,1","03048,1,C,N","009999,1,9,9","+0260,1","+0210,1","99999,9","08,1,+03048,1,99,9",,"9,AGL   ,+99999,+99999","99,99,9,08,1,99,9,03048,1,99,9,99,9","10080,1,99999,9",,,,"MET061METAR SKSA 072200Z 25003KT 9999 OVC100 26/21 Q1008 RMK A2977=",
"80222599999","2023-04-07T23:00:00","4","6.95","-71.85","213.0","LOS COLONIZADORES, CO","FM-15","99999","V020","999,9,V,0010,1","03048,1,C,N","009999,1,9,9","+0250,1","+0210,1","99999,9","08,1,+03048,1,99,9",,"9,AGL   ,+99999,+99999","99,99,9,08,1,99,9,03048,1,99,9,99,9","10080,1,99999,9",,,,"MET061METAR SKSA 072300Z VRB02KT 9999 OVC100 25/21 Q1008 RMK A2978=",
"80222599999","2023-04-08T11:00:00","4","6.95","-71.85","213.0","LOS COLONIZADORES, CO","FM-15","99999","V020","999,9,V,0010,1","02134,1,C,N","009999,1,9,9","+0000,1","+0000,1","99999,9","08,1,+02134,1,99,9",,"9,AGL   ,+99999,+99999","99,99,9,08,1,99,9,02134,1,99,9,99,9",,,,,"MET061METAR SKSA 081100Z VRB02KT 9999 OVC070 00/00 Q0000 RMK A0000=",
"80222599999","2023-04-08T12:00:00","4","6.95","-71.85","213.0","LOS COLONIZADORES, CO","FM-15","99999","V020","020,1,N,0015,1","01829,1,C,N","009999,1,9,9","+0220,2","+0220,2","99999,9","08,1,+01829,1,99,9",,"9,AGL   ,+99999,+99999","99,99,9,08,1,99,9,01829,1,99,9,99,9","10130,1,99999,9",,,,"MET061METAR SKSA 081200Z 02003KT 9999 OVC060 22/22 Q1013 RMK A2993=",
"80222599999","2023-04-08T13:00:00","4","6.95","-71.85","213.0","LOS COLONIZADORES, CO","FM-15","99999","V020","999,9,V,0010,1","01829,1,C,N","009000,1,9,9","+0240,1","+0220,2","99999,9","08,1,+01829,1,99,9",,"9,AGL   ,+99999,+99999","99,99,9,08,1,99,9,01829,1,99,9,99,9","10150,1,99999,9","10,1",,,"MET064METAR SKSA 081300Z VRB02KT 9000 BR OVC060 24/22 Q1015 RMK A2999=",
"80222599999","2023-04-08T14:00:00","4","6.95","-71.85","213.0","LOS COLONIZADORES, CO","FM-15","99999","V020","270,1,N,0015,1","01829,1,C,N","009000,1,9,9","+0240,1","+0210,1","99999,9","08,1,+01829,1,99,9",,"9,AGL   ,+99999,+99999","99,99,9,08,1,99,9,01829,1,99,9,99,9","10150,1,99999,9","10,1",,,"MET064METAR SKSA 081400Z 27003KT 9000 BR OVC060 24/21 Q1015 RMK A2998=",
"80222599999","2023-04-08T15:00:00","4","6.95","-71.85","213.0","LOS COLONIZADORES, CO","FM-15","99999","V020","270,1,N,0015,1","01829,1,C,N","009000,1,9,9","+0240,1","+0210,1","99999,9","08,1,+01829,1,99,9",,"9,AGL   ,+99999,+99999","99,99,9,08,1,99,9,01829,1,99,9,99,9","10150,1,99999,9","10,1",,,"MET064METAR SKSA 081500Z 27003KT 9000 BR OVC060 24/21 Q1015 RMK A2998=",
"80222599999","2023-04-08T16:00:00","4","6.95","-71.85","213.0","LOS COLONIZADORES, CO","FM-15","99999","V020","999,9,V,0010,1","02134,1,C,N","009000,1,9,9","+0250,1","+0220,1","99999,9","08,1,+02134,1,99,9",,"9,AGL   ,+99999,+99999","99,99,9,08,1,99,9,02134,1,99,9,99,9","10150,1,99999,9","10,1",,,"MET064METAR SKSA 081600Z VRB02KT 9000 BR OVC070 25/22 Q1015 RMK A2998=",
"80222599999","2023-04-08T17:00:00","4","6.95","-71.85","213.0","LOS COLONIZADORES, CO","FM-15","99999","V020","999,9,C,0000,1","01829,1,C,N","009000,1,9,9","+0240,1","+0220,1","99999,9","08,1,+01829,1,99,9",,"9,AGL   ,+99999,+99999","99,99,9,08,1,99,9,01829,1,99,9,99,9","10140,1,99999,9","10,1","61,1",,"MET068METAR SKSA 081700Z 00000KT 9000 -RA BR OVC060 24/22 Q1014 RMK A2996=",
"80222599999","2023-04-08T18:00:00","4","6.95","-71.85","213.0","LOS COLONIZADORES, CO","FM-15","99999","V020","999,9,V,0010,1","02438,1,C,N","009000,1,9,9","+0240,1","+0220,1","99999,9","08,1,+02438,1,99,9",,"9,AGL   ,+99999,+99999","99,99,9,08,1,99,9,02438,1,99,9,99,9","10130,1,99999,9","10,1","61,1",,"MET068METAR SKSA 081800Z VRB02KT 9000 -RA BR OVC080 24/22 Q1013 RMK A2993=",
"80222599999","2023-04-08T19:00:00","4","6.95","-71.85","213.0","LOS COLONIZADORES, CO","FM-15","99999","V020","280,1,N,0015,1","02438,1,C,N","009000,1,9,9","+0250,1","+0220,1","99999,9","08,1,+02438,1,99,9",,"9,AGL   ,+99999,+99999","99,99,9,08,1,99,9,02438,1,99,9,99,9","10120,1,99999,9","10,1",,,"MET064METAR SKSA 081900Z 28003KT 9000 BR OVC080 25/22 Q1012 RMK A2989=",
"80222599999","2023-04-08T20:00:00","4","6.95","-71.85","213.0","LOS COLONIZADORES, CO","FM-15","99999","V020","999,9,V,0010,1","03048,1,C,N","009999,1,9,9","+0260,1","+0200,1","99999,9","08,1,+03048,1,99,9",,"9,AGL   ,+99999,+99999","99,99,9,08,1,99,9,03048,1,99,9,99,9","10110,1,99999,9",,,,"MET061METAR SKSA 082000Z VRB02KT 9999 OVC100 26/20 Q1011 RMK A2986=",
"80222599999","2023-04-08T21:00:00","4","6.95","-71.85","213.0","LOS COLONIZADORES, CO","FM-15","99999","V020","320,1,N,0031,1","22000,1,9,N","009999,1,9,9","+0280,1","+0200,1","99999,9",,,,"00,99,1,99,9,99,9,99999,9,99,9,99,9","10100,1,99999,9",,,,"MET058METAR SKSA 082100Z 32006KT 9999 NSC 28/20 Q1010 RMK A2983=",
"80222599999","2023-04-08T23:00:00","4","6.95","-71.85","213.0","LOS COLONIZADORES, CO","FM-15","99999","V020","999,9,C,0000,1","22000,1,9,N","009999,1,9,9","+0240,1","+0220,1","99999,9",,,,"00,99,1,99,9,99,9,99999,9,99,9,99,9","10100,1,99999,9",,,,"MET058METAR SKSA 082300Z 00000KT 9999 NSC 24/22 Q1010 RMK A2983=",
"80222599999","2023-04-09T11:00:00","4","6.95","-71.85","213.0","LOS COLONIZADORES, CO","FM-15","99999","V020","999,9,C,0000,1","02286,1,C,N","009999,1,9,9","+0220,1","+0210,1","99999,9","08,1,+02286,1,99,9",,"9,AGL   ,+99999,+99999","99,99,9,08,1,99,9,02286,1,99,9,99,9","10120,1,99999,9",,,,"MET061METAR SKSA 091100Z 00000KT 9999 OVC075 22/21 Q1012 RMK A2989=",
"80222599999","2023-04-09T12:00:00","4","6.95","-71.85","213.0","LOS COLONIZADORES, CO","FM-15","99999","V020","999,9,V,0010,1","02743,1,C,N","009999,1,9,9","+0230,1","+0220,1","99999,9","08,1,+02743,1,99,9",,"9,AGL   ,+99999,+99999","99,99,9,08,1,99,9,02743,1,99,9,99,9","10130,1,99999,9",,,,"MET061METAR SKSA 091200Z VRB02KT 9999 OVC090 23/22 Q1013 RMK A2991=",
"80222599999","2023-04-09T13:00:00","4","6.95","-71.85","213.0","LOS COLONIZADORES, CO","FM-15","99999","V020","999,9,V,0010,1","02591,1,C,N","009999,1,9,9","+0250,1","+0210,1","99999,9","08,1,+02591,1,99,9",,"9,AGL   ,+99999,+99999","99,99,9,08,1,99,9,02591,1,99,9,99,9","10140,1,99999,9",,,,"MET061METAR SKSA 091300Z VRB02KT 9999 OVC085 25/21 Q1014 RMK A2994=",
"80222599999","2023-04-09T14:00:00","4","6.95","-71.85","213.0","LOS COLONIZADORES, CO","FM-15","99999","V020","999,9,V,0010,1","02286,1,C,N","009999,1,9,9","+0260,1","+0220,1","99999,9","08,1,+02286,1,99,9",,"9,AGL   ,+99999,+99999","99,99,9,08,1,99,9,02286,1,99,9,99,9","10140,1,99999,9",,,,"MET061METAR SKSA 091400Z VRB02KT 9999 OVC075 26/22 Q1014 RMK A2995=",
"80222599999","2023-04-09T15:00:00","4","6.95","-71.85","213.0","LOS COLONIZADORES, CO","FM-15","99999","V020","999,9,V,0010,1","02286,1,C,N","009999,1,9,9","+0260,1","+0210,1","99999,9","08,1,+02286,1,99,9",,"9,AGL   ,+99999,+99999","99,99,9,08,1,99,9,02286,1,99,9,99,9","10140,1,99999,9",,,,"MET061METAR SKSA 091500Z VRB02KT 9999 OVC075 26/21 Q1014 RMK A2996=",
"80222599999","2023-04-09T16:00:00","4","6.95","-71.85","213.0","LOS COLONIZADORES, CO","FM-15","99999","V020","999,9,V,0010,1","02134,1,C,N","009999,1,9,9","+0260,1","+0230,1","99999,9","08,1,+02134,1,99,9",,"9,AGL   ,+99999,+99999","99,99,9,08,1,99,9,02134,1,99,9,99,9","10150,1,99999,9","16,1",,,"MET066METAR SKSA 091600Z VRB02KT 9999 VCSH OVC070 26/23 Q1015 RMK A2997=",
"80222599999","2023-04-09T17:00:00","4","6.95","-71.85","213.0","LOS COLONIZADORES, CO","FM-15","99999","V020","999,9,V,0010,1","02743,1,C,N","009999,1,9,9","+0270,1","+0220,1","99999,9","08,1,+02743,1,99,9",,"9,AGL   ,+99999,+99999","99,99,9,08,1,99,9,02743,1,99,9,99,9","10140,1,99999,9","16,1",,,"MET073METAR SKSA 091700Z VRB02KT 9999 VCSH OVC090 27/22 Q1014 RMK VCSH S A2995=",
"80222599999","2023-04-09T18:00:00","4","6.95","-71.85","213.0","LOS COLONIZADORES, CO","FM-15","99999","V020","999,9,V,0010,1","02743,1,C,N","009000,1,9,9","+0250,1","+0230,1","99999,9","08,1,+02743,1,99,9",,"9,AGL   ,+99999,+99999","99,99,9,08,1,99,9,02743,1,99,9,99,9","10130,1,99999,9","16,1","61,1",,"MET070METAR SKSA 091800Z VRB02KT 9000 -RA VCSH OVC090 25/23 Q1013 RMK A2992=",
"80222599999","2023-04-09T19:00:00","4","6.95","-71.85","213.0","LOS COLONIZADORES, CO","FM-15","99999","V020","999,9,V,0010,1","03048,1,C,N","009999,1,9,9","+0280,1","+0220,1","99999,9","08,1,+03048,1,99,9",,"9,AGL   ,+99999,+99999","99,99,9,08,1,99,9,03048,1,99,9,99,9","10120,1,99999,9","16,1",,,"MET066METAR SKSA 091900Z VRB02KT 9999 VCSH OVC100 28/22 Q1012 RMK A2988=",
"80222599999","2023-04-09T20:00:00","4","6.95","-71.85","213.0","LOS COLONIZADORES, CO","FM-15","99999","V020","360,1,N,0021,1","03048,1,C,N","009999,1,9,9","+0280,1","+0220,1","99999,9","07,1,+03048,1,99,9",,"9,AGL   ,+99999,+99999","99,99,9,07,1,99,9,03048,1,99,9,99,9","10110,1,99999,9",,,,"MET061METAR SKSA 092000Z 36004KT 9999 BKN100 28/22 Q1011 RMK A2985=",
"80222599999","2023-04-09T21:00:00","4","6.95","-71.85","213.0","LOS COLONIZADORES, CO","FM-15","99999","V020","999,9,V,0010,1","22000,1,9,N","009999,1,9,9","+0290,1","+0230,1","99999,9",,,,"00,99,1,99,9,99,9,99999,9,99,9,99,9","10100,1,99999,9",,,,"MET058METAR SKSA 092100Z VRB02KT 9999 NSC 29/23 Q1010 RMK A2983=",
"80222599999","2023-04-09T23:00:00","4","6.95","-71.85","213.0","LOS COLONIZADORES, CO","FM-15","99999","V020","999,9,V,0010,1","22000,1,9,N","009999,1,9,9","+0250,1","+0230,1","99999,9",,,,"00,99,1,99,9,99,9,99999,9,99,9,99,9","10100,1,99999,9",,,,"MET058METAR SKSA 092300Z VRB02KT 9999 NSC 25/23 Q1010 RMK A2984=",
"80222599999","2023-04-10T11:00:00","4","6.95","-71.85","213.0","LOS COLONIZADORES, CO","FM-15","99999","V020","999,9,V,0010,1","03048,1,C,N","009999,1,9,9","+0220,1","+0220,1","99999,9","08,1,+03048,1,99,9",,"9,AGL   ,+99999,+99999","99,99,9,08,1,99,9,03048,1,99,9,99,9","10120,1,99999,9",,,,"MET061METAR SKSA 101100Z VRB02KT 9999 OVC100 22/22 Q1012 RMK A2990=",
"80222599999","2023-04-10T12:00:00","4","6.95","-71.85","213.0","LOS COLONIZADORES, CO","FM-15","99999","V020","999,9,V,0010,1","01829,1,C,N","009999,1,9,9","+0240,1","+0230,1","99999,9","08,1,+01829,1,99,9",,"9,AGL   ,+99999,+99999","99,99,9,08,1,99,9,01829,1,99,9,99,9","10130,1,99999,9",,,,"MET061METAR SKSA 101200Z VRB02KT 9999 OVC060 24/23 Q1013 RMK A2992=",
"80222599999","2023-04-10T13:00:00","4","6.95","-71.85","213.0","LOS COLONIZADORES, CO","FM-15","99999","V020","999,9,V,0010,1","02743,1,C,N","009999,1,9,9","+0250,1","+0230,1","99999,9","07,1,+02743,1,99,9",,"9,AGL   ,+99999,+99999","99,99,9,07,1,99,9,02743,1,99,9,99,9","10140,1,99999,9",,,,"MET061METAR SKSA 101300Z VRB02KT 9999 BKN090 25/23 Q1014 RMK A2995=",
"80222599999","2023-04-10T14:00:00","4","6.95","-71.85","213.0","LOS COLONIZADORES, CO","FM-15","99999","V020","330,1,N,0026,1","03048,1,C,N","009999,1,9,9","+0260,1","+0230,1","99999,9","07,1,+03048,1,99,9",,"9,AGL   ,+99999,+99999","99,99,9,07,1,99,9,03048,1,99,9,99,9","10150,1,99999,9",,,,"MET061METAR SKSA 101400Z 33005KT 9999 BKN100 26/23 Q1015 RMK A2997=",
"80222599999","2023-04-10T15:00:00","4","6.95","-71.85","213.0","LOS COLONIZADORES, CO","FM-15","99999","V020","999,9,V,0010,1","99999,9,9,N","009999,1,9,9","+0280,1","+0220,1","99999,9","04,1,+03048,1,99,9",,"9,AGL   ,+99999,+99999","99,99,9,04,1,99,9,03048,1,99,9,99,9","10150,1,99999,9",,,,"MET061METAR SKSA 101500Z VRB02KT 9999 SCT100 28/22 Q1015 RMK A2997=",
"80222599999","2023-04-10T16:00:00","4","6.95","-71.85","213.0","LOS COLONIZADORES, CO","FM-15","99999","V020","999,9,V,0010,1","99999,9,9,N","009999,1,9,9","+0300,1","+0220,1","99999,9","04,1,+03048,1,99,9",,"9,AGL   ,+99999,+99999","99,99,9,04,1,99,9,03048,1,99,9,99,9","10140,1,99999,9",,,,"MET061METAR SKSA 101600Z VRB02KT 9999 SCT100 30/22 Q1014 RMK A2995=",
"80222599999","2023-04-10T17:00:00","4","6.95","-71.85","213.0","LOS COLONIZADORES, CO","FM-15","99999","V020","360,1,N,0026,1","03048,1,C,N","009999,1,9,9","+0310,1","+0220,1","99999,9","07,1,+03048,1,99,9",,"9,AGL   ,+99999,+99999","99,99,9,07,1,99,9,03048,1,99,9,99,9","10130,1,99999,9",,,,"MET061METAR SKSA 101700Z 36005KT 9999 BKN100 31/22 Q1013 RMK A2991=",
"80222599999","2023-04-10T18:00:00","4","6.95","-71.85","213.0","LOS COLONIZADORES, CO","FM-15","99999","V020","010,1,N,0021,1","01829,1,C,N","009999,1,9,9","+0310,1","+0220,1","99999,9","07,1,+01829,1,99,9",,"9,AGL   ,+99999,+99999","99,99,9,07,1,99,9,01829,1,99,9,99,9","10110,1,99999,9",,,,"MET061METAR SKSA 101800Z 01004KT 9999 BKN060 31/22 Q1011 RMK A2986=",
"80222599999","2023-04-10T19:00:00","4","6.95","-71.85","213.0","LOS COLONIZADORES, CO","FM-15","99999","V020","320,1,N,0026,1","03048,1,C,N","009999,1,9,9","+0310,1","+0230,1","99999,9","08,1,+03048,1,99,9",,"9,AGL   ,+99999,+99999","99,99,9,08,1,99,9,03048,1,99,9,99,9","10100,1,99999,9","16,1",,,"MET074METAR SKSA 101900Z 32005KT 9999 VCSH OVC100 31/23 Q1010 RMK VCSH SE A2983=",
"80222599999","2023-04-10T20:00:00","4","6.95","-71.85","213.0","LOS COLONIZADORES, CO","FM-15","99999","V020","340,1,N,0046,1","00610,1,C,N","004000,1,9,9","+0230,2","+0230,1","99999,9","08,1,+00610,1,99,9",,"9,AGL   ,+99999,+99999","99,99,9,08,1,99,9,00610,1,99,9,99,9","10100,1,99999,9","17,1","65,1",,"MET068METAR SKSA 102000Z 34009KT 4000 TS +RA OVC020 23/23 Q1010 RMK A2984=",
"80222599999","2023-04-10T21:00:00","4","6.95","-71.85","213.0","LOS COLONIZADORES, CO","FM-15","99999","V020","999,9,V,0010,1","01524,1,C,N","009000,1,9,9","+0230,1","+0230,1","99999,9","08,1,+01524,1,99,9",,"9,AGL   ,+99999,+99999","99,99,9,08,1,99,9,01524,1,99,9,99,9","10100,1,99999,9","13,1",,,"MET073METAR SKSA 102100Z VRB02KT 9000 VCTS OVC050 23/23 Q1010 RMK VCTS W A2983=",
"80222599999","2023-04-10T22:00:00","4","6.95","-71.85","213.0","LOS COLONIZADORES, CO","FM-15","99999","V020","999,9,V,0010,1","99999,9,9,N","009999,1,9,9","+0240,1","+0230,1","99999,9","04,1,+03048,1,99,9",,"9,AGL   ,+99999,+99999","99,99,9,04,1,99,9,03048,1,99,9,99,9","10100,1,99999,9",,,,"MET061METAR SKSA 102200Z VRB02KT 9999 SCT100 24/23 Q1010 RMK A2982=",
"80222599999","2023-04-10T23:00:00","4","6.95","-71.85","213.0","LOS COLONIZADORES, CO","FM-15","99999","V020","270,1,N,0021,1","99999,9,9,N","009999,1,9,9","+0250,1","+0230,1","99999,9","04,1,+03048,1,99,9",,"9,AGL   ,+99999,+99999","99,99,9,04,1,99,9,03048,1,99,9,99,9","10100,1,99999,9",,,,"MET061METAR SKSA 102300Z 27004KT 9999 SCT100 25/23 Q1010 RMK A2983=",
"80222599999","2023-04-11T11:00:00","4","6.95","-71.85","213.0","LOS COLONIZADORES, CO","FM-15","99999","V020","310,1,N,0015,1","02438,1,C,N","009999,1,9,9","+0230,1","+0230,1","99999,9","08,1,+02438,1,99,9",,"9,AGL   ,+99999,+99999","99,99,9,08,1,99,9,02438,1,99,9,99,9","10110,1,99999,9",,,,"MET061METAR SKSA 111100Z 31003KT 9999 OVC080 23/23 Q1011 RMK A2987=",
"80222599999","2023-04-11T12:00:00","4","6.95","-71.85","213.0","LOS COLONIZADORES, CO","FM-15","99999","V020","999,9,V,0010,1","03048,1,C,N","009999,1,9,9","+0240,1","+0230,1","99999,9","08,1,+03048,1,99,9",,"9,AGL   ,+99999,+99999","99,99,9,08,1,99,9,03048,1,99,9,99,9","10120,1,99999,9",,,,"MET061METAR SKSA 111200Z VRB02KT 9999 OVC100 24/23 Q1012 RMK A2988=",
"80222599999","2023-04-11T13:00:00","4","6.95","-71.85","213.0","LOS COLONIZADORES, CO","FM-15","99999","V020","230,1,N,0015,1","03048,1,C,N","009999,1,9,9","+0250,1","+0230,1","99999,9","08,1,+03048,1,99,9",,"9,AGL   ,+99999,+99999","99,99,9,08,1,99,9,03048,1,99,9,99,9","10120,1,99999,9",,,,"MET061METAR SKSA 111300Z 23003KT 9999 OVC100 25/23 Q1012 RMK A2990=",
"80222599999","2023-04-11T14:00:00","4","6.95","-71.85","213.0","LOS COLONIZADORES, CO","FM-15","99999","V020","999,9,V,0010,1","02743,1,C,N","009999,1,9,9","+0260,1","+0240,1","99999,9","08,1,+02743,1,99,9",,"9,AGL   ,+99999,+99999","99,99,9,08,1,99,9,02743,1,99,9,99,9","10130,1,99999,9",,,,"MET061METAR SKSA 111400Z VRB02KT 9999 OVC090 26/24 Q1013 RMK A2992=",
"80222599999","2023-04-11T15:00:00","4","6.95","-71.85","213.0","LOS COLONIZADORES, CO","FM-15","99999","V020","999,9,V,0010,1","02743,1,C,N","009999,1,9,9","+0260,1","+0230,1","99999,9","08,1,+02743,1,99,9",,"9,AGL   ,+99999,+99999","99,99,9,08,1,99,9,02743,1,99,9,99,9","10130,1,99999,9","61,1",,,"MET065METAR SKSA 111500Z VRB02KT 9999 -RA OVC090 26/23 Q1013 RMK A2992=",
"80222599999","2023-04-11T16:00:00","4","6.95","-71.85","213.0","LOS COLONIZADORES, CO","FM-15","99999","V020","999,9,V,0010,1","02743,1,C,N","009999,1,9,9","+0270,1","+0240,1","99999,9","08,1,+02743,1,99,9",,"9,AGL   ,+99999,+99999","99,99,9,08,1,99,9,02743,1,99,9,99,9","10130,1,99999,9",,,,"MET061METAR SKSA 111600Z VRB02KT 9999 OVC090 27/24 Q1013 RMK A2991=",
"80222599999","2023-04-11T17:00:00","4","6.95","-71.85","213.0","LOS COLONIZADORES, CO","FM-15","99999","V020","999,9,V,0010,1","99999,9,9,N","009999,1,9,9","+0300,1","+0240,1","99999,9","04,1,+03048,1,99,9",,"9,AGL   ,+99999,+99999","99,99,9,04,1,99,9,03048,1,99,9,99,9","10120,1,99999,9",,,,"MET061METAR SKSA 111700Z VRB02KT 9999 SCT100 30/24 Q1012 RMK A2987=",
"80222599999","2023-04-11T18:00:00","4","6.95","-71.85","213.0","LOS COLONIZADORES, CO","FM-15","99999","V020","060,1,N,0015,1","22000,1,9,N","009999,1,9,9","+0300,1","+0220,1","99999,9",,,,"00,99,1,99,9,99,9,99999,9,99,9,99,9","10100,1,99999,9",,,,"MET058METAR SKSA 111800Z 06003KT 9999 NSC 30/22 Q1010 RMK A2983=",
"80222599999","2023-04-11T20:00:00","4","6.95","-71.85","213.0","LOS COLONIZADORES, CO","FM-15","99999","V020","250,1,N,0021,1","22000,1,9,N","009999,1,9,9","+0300,1","+0230,1","99999,9",,,,"00,99,1,99,9,99,9,99999,9,99,9,99,9","10080,1,99999,9",,,,"MET058METAR SKSA 112000Z 25004KT 9999 NSC 30/23 Q1008 RMK A2977=",
"80222599999","2023-04-11T21:00:00","4","6.95","-71.85","213.0","LOS COLONIZADORES, CO","FM-15","99999","V020","280,1,N,0021,1","22000,1,9,N","009999,1,9,9","+0320,1","+0220,1","99999,9",,,,"00,99,1,99,9,99,9,99999,9,99,9,99,9","10070,1,99999,9",,,,"MET058METAR SKSA 112100Z 28004KT 9999 NSC 32/22 Q1007 RMK A2976=",
"80222599999","2023-04-11T22:00:00","4","6.95","-71.85","213.0","LOS COLONIZADORES, CO","FM-15","99999","V020","220,1,N,0015,1","22000,1,9,N","009999,1,9,9","+0300,1","+0210,1","99999,9",,,,"00,99,1,99,9,99,9,99999,9,99,9,99,9","10070,1,99999,9",,,,"MET058METAR SKSA 112200Z 22003KT 9999 NSC 30/21 Q1007 RMK A2975=",
"80222599999","2023-04-11T23:00:00","4","6.95","-71.85","213.0","LOS COLONIZADORES, CO","FM-15","99999","V020","220,1,N,0015,1","03048,1,C,N","009999,1,9,9","+0270,1","+0230,1","99999,9","07,1,+03048,1,99,9",,"9,AGL   ,+99999,+99999","99,99,9,07,1,99,9,03048,1,99,9,99,9","10080,1,99999,9","16,1",,,"MET076METAR SKSA 112300Z 22003KT 9999 VCSH BKN100 27/23 Q1008 RMK VCSH S SW A2977=",
"80222599999","2023-04-12T11:00:00","4","6.95","-71.85","213.0","LOS COLONIZADORES, CO","FM-15","99999","V020","999,9,V,0010,1","03048,1,C,N","009999,1,9,9","+0230,1","+0230,1","99999,9","08,1,+03048,1,99,9",,"9,AGL   ,+99999,+99999","99,99,9,08,1,99,9,03048,1,99,9,99,9","10100,1,99999,9",,,,"MET061METAR SKSA 121100Z VRB02KT 9999 OVC100 23/23 Q1010 RMK A2983=",
"80222599999","2023-04-12T12:00:00","4","6.95","-71.85","213.0","LOS COLONIZADORES, CO","FM-15","99999","V020","999,9,V,0010,1","03048,1,C,N","009999,1,9,9","+0240,1","+0230,1","99999,9","08,1,+03048,1,99,9",,"9,AGL   ,+99999,+99999","99,99,9,08,1,99,9,03048,1,99,9,99,9","10100,1,99999,9",,,,"MET061METAR SKSA 121200Z VRB02KT 9999 OVC100 24/23 Q1010 RMK A2985=",
"80222599999","2023-04-12T13:00:00","4","6.95","-71.85","213.0","LOS COLONIZADORES, CO","FM-15","99999","V020","999,9,V,0010,1","03048,1,C,N","009000,1,9,9","+0270,1","+0230,1","99999,9","08,1,+03048,1,99,9",,"9,AGL   ,+99999,+99999","99,99,9,08,1,99,9,03048,1,99,9,99,9","10110,1,99999,9","10,1",,,"MET064METAR SKSA 121300Z VRB02KT 9000 BR OVC100 27/23 Q1011 RMK A2987=",
"80222599999","2023-04-12T14:00:00","4","6.95","-71.85","213.0","LOS COLONIZADORES, CO","FM-15","99999","V020","999,9,V,0010,1","03048,1,C,N","009000,1,9,9","+0290,1","+0230,1","99999,9","08,1,+03048,1,99,9",,"9,AGL   ,+99999,+99999","99,99,9,08,1,99,9,03048,1,99,9,99,9","10120,1,99999,9","10,1","16,1",,"MET069METAR SKSA 121400Z VRB02KT 9000 BR VCSH OVC100 29/23 Q1012 RMK A2988=",
"80222599999","2023-04-12T15:00:00","4","6.95","-71.85","213.0","LOS COLONIZADORES, CO","FM-15","99999","V020","190,1,N,0021,1","99999,9,9,N","009999,1,9,9","+0320,1","+0230,1","99999,9","04,1,+03048,1,99,9",,"9,AGL   ,+99999,+99999","99,99,9,04,1,99,9,03048,1,99,9,99,9","10110,1,99999,9","16,1",,,"MET073METAR SKSA 121500Z 19004KT 9999 VCSH SCT100 32/23 Q1011 RMK VCSH W A2987=",
"80222599999","2023-04-12T17:00:00","4","6.95","-71.85","213.0","LOS COLONIZADORES, CO","FM-15","99999","V020","999,9,V,0010,1","22000,1,9,N","009999,1,9,9","+0340,1","+0220,1","99999,9",,,,"00,99,1,99,9,99,9,99999,9,99,9,99,9","10090,1,99999,9",,,,"MET058METAR SKSA 121700Z VRB02KT 9999 NSC 34/22 Q1009 RMK A2981=",
"80222599999","2023-04-12T18:00:00","4","6.95","-71.85","213.0","LOS COLONIZADORES, CO","FM-15","99999","V020","040,1,N,0021,1","22000,1,9,N","009999,1,9,9","+0340,1","+0210,1","99999,9",,,,"00,99,1,99,9,99,9,99999,9,99,9,99,9","10080,1,99999,9",,,,"MET058METAR SKSA 121800Z 04004KT 9999 NSC 34/21 Q1008 RMK A2978=",
"80222599999","2023-04-12T20:00:00","4","6.95","-71.85","213.0","LOS COLONIZADORES, CO","FM-15","99999","V020","999,9,V,0010,1","01524,1,C,N","009999,1,9,9","+0290,1","+0210,1","99999,9","08,1,+01524,1,99,9",,"9,AGL   ,+99999,+99999","99,99,9,08,1,99,9,01524,1,99,9,99,9","10080,1,99999,9",,,,"MET061METAR SKSA 122000Z VRB02KT 9999 OVC050 29/21 Q1008 RMK A2976=",
"80222599999","2023-04-12T21:00:00","4","6.95","-71.85","213.0","LOS COLONIZADORES, CO","FM-15","99999","V020","290,1,N,0026,1","01829,1,C,N","009999,1,9,9","+0290,1","+0210,1","99999,9","08,1,+01829,1,99,9",,"9,AGL   ,+99999,+99999","99,99,9,08,1,99,9,01829,1,99,9,99,9","10070,1,99999,9",,,,"MET061METAR SKSA 122100Z 29005KT 9999 OVC060 29/21 Q1007 RMK A2975=",
"80222599999","2023-04-12T22:00:00","4","6.95","-71.85","213.0","LOS COLONIZADORES, CO","FM-15","99999","V020","290,1,N,0021,1","03048,1,C,N","009999,1,9,9","+0280,1","+0220,1","99999,9","08,1,+03048,1,99,9",,"9,AGL   ,+99999,+99999","99,99,9,08,1,99,9,03048,1,99,9,99,9","10070,1,99999,9",,,,"MET061METAR SKSA 122200Z 29004KT 9999 OVC100 28/22 Q1007 RMK A2975=",
"80222599999","2023-04-12T23:00:00","4","6.95","-71.85","213.0","LOS COLONIZADORES, CO","FM-15","99999","V020","999,9,C,0000,1","03048,1,C,N","009999,1,9,9","+0260,1","+0220,1","99999,9","08,1,+03048,1,99,9",,"9,AGL   ,+99999,+99999","99,99,9,08,1,99,9,03048,1,99,9,99,9","10080,1,99999,9",,,,"MET061METAR SKSA 122300Z 00000KT 9999 OVC100 26/22 Q1008 RMK A2977=",
"80222599999","2023-04-13T11:00:00","4","6.95","-71.85","213.0","LOS COLONIZADORES, CO","FM-15","99999","V020","280,1,N,0021,1","03048,1,C,N","009000,1,9,9","+0250,1","+0230,1","99999,9","08,1,+03048,1,99,9",,"9,AGL   ,+99999,+99999","99,99,9,08,1,99,9,03048,1,99,9,99,9","10100,1,99999,9","10,1",,,"MET064METAR SKSA 131100Z 28004KT 9000 BR OVC100 25/23 Q1010 RMK A2982=",
"80222599999","2023-04-13T12:00:00","4","6.95","-71.85","213.0","LOS COLONIZADORES, CO","FM-15","99999","V020","320,1,N,0026,1","03048,1,C,N","009000,1,9,9","+0250,1","+0220,1","99999,9","08,1,+03048,1,99,9",,"9,AGL   ,+99999,+99999","99,99,9,08,1,99,9,03048,1,99,9,99,9","10100,1,99999,9","10,1",,,"MET064METAR SKSA 131200Z 32005KT 9000 BR OVC100 25/22 Q1010 RMK A2983=",
"80222599999","2023-04-13T13:00:00","4","6.95","-71.85","213.0","LOS COLONIZADORES, CO","FM-15","99999","V020","320,1,N,0026,1","03048,1,C,N","009999,1,9,9","+0260,1","+0220,1","99999,9","08,1,+03048,1,99,9",,"9,AGL   ,+99999,+99999","99,99,9,08,1,99,9,03048,1,99,9,99,9","10110,1,99999,9",,,,"MET061METAR SKSA 131300Z 32005KT 9999 OVC100 26/22 Q1011 RMK A2986=",
"80222599999","2023-04-13T14:00:00","4","6.95","-71.85","213.0","LOS COLONIZADORES, CO","FM-15","99999","V020","330,1,N,0021,1","03048,1,C,N","009999,1,9,9","+0280,1","+0220,1","99999,9","08,1,+03048,1,99,9",,"9,AGL   ,+99999,+99999","99,99,9,08,1,99,9,03048,1,99,9,99,9","10110,1,99999,9",,,,"MET061METAR SKSA 131400Z 33004KT 9999 OVC100 28/22 Q1011 RMK A2987=",
"80222599999","2023-04-13T15:00:00","4","6.95","-71.85","213.0","LOS COLONIZADORES, CO","FM-15","99999","V020","010,1,N,0031,1","03048,1,C,N","009999,1,9,9","+0290,1","+0210,1","99999,9","08,1,+03048,1,99,9",,"9,AGL   ,+99999,+99999","99,99,9,08,1,99,9,03048,1,99,9,99,9","10120,1,99999,9",,,,"MET061METAR SKSA 131500Z 01006KT 9999 OVC100 29/21 Q1012 RMK A2988=",
"80222599999","2023-04-13T16:00:00","4","6.95","-71.85","213.0","LOS COLONIZADORES, CO","FM-15","99999","V020","015,1,N,0021,1","03048,1,C,N","009999,1,9,9","+0310,1","+0210,1","99999,9","08,1,+03048,1,99,9",,"9,AGL   ,+99999,+99999","99,99,9,08,1,99,9,03048,1,99,9,99,9","10110,1,99999,9",,,,"MET061METAR SKSA 131600Z 01504KT 9999 OVC100 31/21 Q1011 RMK A2987=",
"80222599999","2023-04-13T17:00:00","4","6.95","-71.85","213.0","LOS COLONIZADORES, CO","FM-15","99999","V020","350,1,N,0046,1","22000,1,9,N","009999,1,9,9","+0300,1","+0200,1","99999,9",,,,"00,99,1,99,9,99,9,99999,9,99,9,99,9","10110,1,99999,9","10,1",,,"MET061METAR SKSA 131700Z 35009KT 9999 BR NSC 30/20 Q1011 RMK A2985=",
"80222599999","2023-04-13T18:00:00","4","6.95","-71.85","213.0","LOS COLONIZADORES, CO","FM-15","99999","V020","330,1,N,0051,1","22000,1,9,N","009999,1,9,9","+0310,1","+0210,1","99999,9",,,,"00,99,1,99,9,99,9,99999,9,99,9,99,9","10090,1,99999,9","10,1",,,"MET061METAR SKSA 131800Z 33010KT 9999 BR NSC 31/21 Q1009 RMK A2980=",
"80222599999","2023-04-13T19:00:00","4","6.95","-71.85","213.0","LOS COLONIZADORES, CO","FM-15","99999","V020","300,1,N,0031,1","22000,1,9,N","009999,1,9,9","+0320,1","+0220,1","99999,9",,,,"00,99,1,99,9,99,9,99999,9,99,9,99,9","10080,1,99999,9",,,,"MET058METAR SKSA 131900Z 30006KT 9999 NSC 32/22 Q1008 RMK A2976=",
"80222599999","2023-04-13T20:00:00","4","6.95","-71.85","213.0","LOS COLONIZADORES, CO","FM-15","99999","V020","310,1,N,0026,1","22000,1,9,N","009999,1,9,9","+0310,1","+0200,1","99999,9",,,,"00,99,1,99,9,99,9,99999,9,99,9,99,9","10070,1,99999,9",,,,"MET058METAR SKSA 132000Z 31005KT 9999 NSC 31/20 Q1007 RMK A2974=",
"80222599999","2023-04-13T21:00:00","4","6.95","-71.85","213.0","LOS COLONIZADORES, CO","FM-15","99999","V020","300,1,N,0015,1","22000,1,9,N","009999,1,9,9","+0310,1","+0210,1","99999,9",,,,"00,99,1,99,9,99,9,99999,9,99,9,99,9","10070,1,99999,9",,,,"MET058METAR SKSA 132100Z 30003KT 9999 NSC 31/21 Q1007 RMK A2973=",
"80222599999","2023-04-13T22:00:00","4","6.95","-71.85","213.0","LOS COLONIZADORES, CO","FM-15","99999","V020","280,1,N,0021,1","03048,1,C,N","009999,1,9,9","+0300,1","+0220,1","99999,9","08,1,+03048,1,99,9",,"9,AGL   ,+99999,+99999","99,99,9,08,1,99,9,03048,1,99,9,99,9","10060,1,99999,9","10,1",,,"MET064METAR SKSA 132200Z 28004KT 9999 BR OVC100 30/22 Q1006 RMK A2972=",
"80222599999","2023-04-13T23:00:00","4","6.95","-71.85","213.0","LOS COLONIZADORES, CO","FM-15","99999","V020","300,1,N,0021,1","03048,1,C,N","009999,1,9,9","+0280,1","+0230,1","99999,9","08,1,+03048,1,99,9",,"9,AGL   ,+99999,+99999","99,99,9,08,1,99,9,03048,1,99,9,99,9","10060,1,99999,9",,,,"MET061METAR SKSA 132300Z 30004KT 9999 OVC100 28/23 Q1006 RMK A2972=",
"80222599999","2023-04-14T11:00:00","4","6.95","-71.85","213.0","LOS COLONIZADORES, CO","FM-15","99999","V020","310,1,N,0021,1","99999,9,9,N","009999,1,9,9","+0240,1","+0180,1","99999,9","04,1,+03048,1,99,9",,"9,AGL   ,+99999,+99999","99,99,9,04,1,99,9,03048,1,99,9,99,9","10090,1,99999,9","10,1",,,"MET064METAR SKSA 141100Z 31004KT 9999 BR SCT100 24/18 Q1009 RMK A2980=",
"80222599999","2023-04-14T12:00:00","4","6.95","-71.85","213.0","LOS COLONIZADORES, CO","FM-15","99999","V020","020,1,N,0046,1","99999,9,9,N","009999,1,9,9","+0250,1","+0180,1","99999,9","04,1,+02438,1,99,9",,"9,AGL   ,+99999,+99999","99,99,9,04,1,99,9,02438,1,99,9,99,9","10110,1,99999,9","10,1",,,"MET064METAR SKSA 141200Z 02009KT 9999 BR SCT080 25/18 Q1011 RMK A2986=",
"80222599999","2023-04-14T13:00:00","4","6.95","-71.85","213.0","LOS COLONIZADORES, CO","FM-15","99999","V020","330,1,N,0026,1","01981,1,C,N","009999,1,9,9","+0260,1","+0190,1","99999,9","08,1,+01981,1,99,9",,"9,AGL   ,+99999,+99999","99,99,9,08,1,99,9,01981,1,99,9,99,9","10130,1,99999,9","10,1",,,"MET064METAR SKSA 141300Z 33005KT 9999 BR OVC065 26/19 Q1013 RMK A2991=",
"80222599999","2023-04-14T14:00:00","4","6.95","-71.85","213.0","LOS COLONIZADORES, CO","FM-15","99999","V020","260,1,N,0021,1","01829,1,C,N","009000,1,9,9","+0260,1","+0190,1","99999,9","08,1,+01829,1,99,9",,"9,AGL   ,+99999,+99999","99,99,9,08,1,99,9,01829,1,99,9,99,9","10130,1,99999,9","16,1",,,"MET073METAR SKSA 141400Z 26004KT 9000 VCSH OVC060 26/19 Q1013 RMK VCSH S A2993=",
"80222599999","2023-04-14T15:00:00","4","6.95","-71.85","213.0","LOS COLONIZADORES, CO","FM-15","99999","V020","350,1,N,0031,1","01981,1,C,N","009000,1,9,9","+0250,1","+0200,1","99999,9","08,1,+01981,1,99,9",,"9,AGL   ,+99999,+99999","99,99,9,08,1,99,9,01981,1,99,9,99,9","10130,1,99999,9","10,1",,,"MET064METAR SKSA 141500Z 35006KT 9000 BR OVC065 25/20 Q1013 RMK A2993=",
"80222599999","2023-04-14T16:00:00","4","6.95","-71.85","213.0","LOS COLONIZADORES, CO","FM-15","99999","V020","330,1,N,0021,1","01981,1,C,N","009000,1,9,9","+0270,1","+0210,1","99999,9","08,1,+01981,1,99,9",,"9,AGL   ,+99999,+99999","99,99,9,08,1,99,9,01981,1,99,9,99,9","10130,1,99999,9","10,1",,,"MET064METAR SKSA 141600Z 33004KT 9000 BR OVC065 27/21 Q1013 RMK A2992=",
"80222599999","2023-04-14T17:00:00","4","6.95","-71.85","213.0","LOS COLONIZADORES, CO","FM-15","99999","V020","320,1,N,0031,1","02134,1,C,N","009000,1,9,9","+0270,1","+0220,1","99999,9","08,1,+02134,1,99,9",,"9,AGL   ,+99999,+99999","99,99,9,08,1,99,9,02134,1,99,9,99,9","10120,1,99999,9","10,1",,,"MET064METAR SKSA 141700Z 32006KT 9000 BR OVC070 27/22 Q1012 RMK A2989=",
"80222599999","2023-04-14T19:00:00","4","6.95","-71.85","213.0","LOS COLONIZADORES, CO","FM-15","99999","V020","300,1,N,0046,1","02134,1,C,N","009999,1,9,9","+0300,1","+0190,1","99999,9","08,1,+02134,1,99,9",,"9,AGL   ,+99999,+99999","99,99,9,08,1,99,9,02134,1,99,9,99,9","10090,1,99999,9",,,,"MET061METAR SKSA 141900Z 30009KT 9999 OVC070 30/19 Q1009 RMK A2981=",
"80222599999","2023-04-14T20:00:00","4","6.95","-71.85","213.0","LOS COLONIZADORES, CO","FM-15","99999","V020","300,1,N,0036,1","22000,1,9,N","009999,1,9,9","+9999,9","+9999,9","99999,9",,,,"00,99,1,99,9,99,9,99999,9,99,9,99,9","10080,1,99999,9",,,,"MET057METAR SKSA 142000Z 30007KT 9999 NSC 3/19 Q1008 RMK A2977=","Q0119    2ATOD  Q023     3ATOT  "
"80222599999","2023-04-14T21:00:00","4","6.95","-71.85","213.0","LOS COLONIZADORES, CO","FM-15","99999","V020","280,1,N,0026,1","22000,1,9,N","009999,1,9,9","+0310,1","+0180,1","99999,9",,,,"00,99,1,99,9,99,9,99999,9,99,9,99,9","10070,1,99999,9",,,,"MET058METAR SKSA 142100Z 28005KT 9999 NSC 31/18 Q1007 RMK A2974=",
"80222599999","2023-04-14T23:00:00","4","6.95","-71.85","213.0","LOS COLONIZADORES, CO","FM-15","99999","V020","280,1,N,0015,1","22000,1,9,N","009999,1,9,9","+0280,1","+0180,1","99999,9",,,,"00,99,1,99,9,99,9,99999,9,99,9,99,9","10070,1,99999,9",,,,"MET058METAR SKSA 142300Z 28003KT 9999 NSC 28/18 Q1007 RMK A2975=",
"80222599999","2023-04-15T11:00:00","4","6.95","-71.85","213.0","LOS COLONIZADORES, CO","FM-15","99999","V020","310,1,N,0021,1","03048,1,C,N","009999,1,9,9","+0240,1","+0200,1","99999,9","07,1,+03048,1,99,9",,"9,AGL   ,+99999,+99999","99,99,9,07,1,99,9,03048,1,99,9,99,9","10100,1,99999,9",,,,"MET061METAR SKSA 151100Z 31004KT 9999 BKN100 24/20 Q1010 RMK A2984=",
"80222599999","2023-04-15T12:00:00","4","6.95","-71.85","213.0","LOS COLONIZADORES, CO","FM-15","99999","V020","270,1,N,0015,1","02134,1,C,N","009999,1,9,9","+0250,1","+0210,1","99999,9","08,1,+02134,1,99,9",,"9,AGL   ,+99999,+99999","99,99,9,08,1,99,9,02134,1,99,9,99,9","10110,1,99999,9",,,,"MET061METAR SKSA 151200Z 27003KT 9999 OVC070 25/21 Q1011 RMK A2986=",
"80222599999","2023-04-15T13:00:00","4","6.95","-71.85","213.0","LOS COLONIZADORES, CO","FM-15","99999","V020","999,9,V,0010,1","02438,1,C,N","009999,1,9,9","+0260,1","+0220,1","99999,9","08,1,+02438,1,99,9",,"9,AGL   ,+99999,+99999","99,99,9,08,1,99,9,02438,1,99,9,99,9","10120,1,99999,9","16,1",,,"MET073METAR SKSA 151300Z VRB02KT 9999 VCSH OVC080 26/22 Q1012 RMK VCSH W A2989=",
"80222599999","2023-04-15T16:00:00","4","6.95","-71.85","213.0","LOS COLONIZADORES, CO","FM-15","99999","V020","350,1,N,0026,1","02134,1,C,N","009999,1,9,9","+0270,1","+0210,1","99999,9","08,1,+02134,1,99,9",,"9,AGL   ,+99999,+99999","99,99,9,08,1,99,9,02134,1,99,9,99,9","10130,1,99999,9","10,1",,,"MET064METAR SKSA 151600Z 35005KT 9999 BR OVC070 27/21 Q1013 RMK A2991=",
"80222599999","2023-04-15T17:00:00","4","6.95","-71.85","213.0","LOS COLONIZADORES, CO","FM-15","99999","V020","310,1,N,0021,1","02438,1,C,N","009999,1,9,9","+0280,1","+0220,1","99999,9","08,1,+02438,1,99,9",,"9,AGL   ,+99999,+99999","99,99,9,08,1,99,9,02438,1,99,9,99,9","10120,1,99999,9",,,,"MET061METAR SKSA 151700Z 31004KT 9999 OVC080 28/22 Q1012 RMK A2989=",
"80222599999","2023-04-15T18:00:00","4","6.95","-71.85","213.0","LOS COLONIZADORES, CO","FM-15","99999","V020","310,1,N,0021,1","03048,1,C,N","009999,1,9,9","+0300,1","+0220,1","99999,9","08,1,+03048,1,99,9",,"9,AGL   ,+99999,+99999","99,99,9,08,1,99,9,03048,1,99,9,99,9","10110,1,99999,9",,,,"MET061METAR SKSA 151800Z 31004KT 9999 OVC100 30/22 Q1011 RMK A2985=",
"80222599999","2023-04-15T19:00:00","4","6.95","-71.85","213.0","LOS COLONIZADORES, CO","FM-15","99999","V020","290,1,N,0021,1","03048,1,C,N","009999,1,9,9","+0290,1","+0220,1","99999,9","08,1,+03048,1,99,9",,"9,AGL   ,+99999,+99999","99,99,9,08,1,99,9,03048,1,99,9,99,9","10100,1,99999,9",,,,"MET061METAR SKSA 151900Z 29004KT 9999 OVC100 29/22 Q1010 RMK A2982=",
"80222599999","2023-04-15T20:00:00","4","6.95","-71.85","213.0","LOS COLONIZADORES, CO","FM-15","99999","V020","320,1,N,0031,1","22000,1,9,N","009999,1,9,9","+0310,1","+0200,1","99999,9",,,,"00,99,1,99,9,99,9,99999,9,99,9,99,9","10090,1,99999,9",,,,"MET058METAR SKSA 152000Z 32006KT 9999 NSC 31/20 Q1009 RMK A2980=",
"80222599999","2023-04-15T21:00:00","4","6.95","-71.85","213.0","LOS COLONIZADORES, CO","FM-15","99999","V020","290,1,N,0021,1","22000,1,9,N","009999,1,9,9","+0310,1","+0200,1","99999,9",,,,"00,99,1,99,9,99,9,99999,9,99,9,99,9","10080,1,99999,9",,,,"MET058METAR SKSA 152100Z 29004KT 9999 NSC 31/20 Q1008 RMK A2977=",
"80222599999","2023-04-15T22:00:00","4","6.95","-71.85","213.0","LOS COLONIZADORES, CO","FM-15","99999","V020","270,1,N,0015,1","22000,1,9,N","009999,1,9,9","+0290,1","+0190,1","99999,9",,,,"00,99,1,99,9,99,9,99999,9,99,9,99,9","10080,1,99999,9",,,,"MET058METAR SKSA 152200Z 27003KT 9999 NSC 29/19 Q1008 RMK A2976=",
"80222599999","2023-04-15T23:00:00","4","6.95","-71.85","213.0","LOS COLONIZADORES, CO","FM-15","99999","V020","300,1,N,0015,1","22000,1,9,N","009999,1,9,9","+0280,1","+0200,1","99999,9",,,,"00,99,1,99,9,99,9,99999,9,99,9,99,9","10080,1,99999,9",,,,"MET058METAR SKSA 152300Z 30003KT 9999 NSC 28/20 Q1008 RMK A2977=",
"80222599999","2023-04-16T11:00:00","4","6.95","-71.85","213.0","LOS COLONIZADORES, CO","FM-15","99999","V020","999,9,V,0010,1","02134,1,C,N","009999,1,9,9","+0250,1","+0210,1","99999,9","08,1,+02134,1,99,9",,"9,AGL   ,+99999,+99999","99,99,9,08,1,99,9,02134,1,99,9,99,9","10100,1,99999,9",,,,"MET061METAR SKSA 161100Z VRB02KT 9999 OVC070 25/21 Q1010 RMK A2984=",
"80222599999","2023-04-16T12:00:00","4","6.95","-71.85","213.0","LOS COLONIZADORES, CO","FM-15","99999","V020","999,9,V,0010,1","02134,1,C,N","009999,1,9,9","+0260,1","+0210,1","99999,9","08,1,+02134,1,99,9",,"9,AGL   ,+99999,+99999","99,99,9,08,1,99,9,02134,1,99,9,99,9","10110,1,99999,9","16,1",,,"MET073METAR SKSA 161200Z VRB02KT 9999 VCSH OVC070 26/21 Q1011 RMK VCSH W A2985=",
"80222599999","2023-04-16T13:00:00","4","6.95","-71.85","213.0","LOS COLONIZADORES, CO","FM-15","99999","V020","070,1,N,0015,1","01981,1,C,N","009999,1,9,9","+0250,1","+0230,1","99999,9","08,1,+01981,1,99,9",,"9,AGL   ,+99999,+99999","99,99,9,08,1,99,9,01981,1,99,9,99,9","10120,1,99999,9","16,1",,,"MET073METAR SKSA 161300Z 07003KT 9999 VCSH OVC065 25/23 Q1012 RMK VCSH W A2989=",
"80222599999","2023-04-16T14:00:00","4","6.95","-71.85","213.0","LOS COLONIZADORES, CO","FM-15","99999","V020","999,9,V,0010,1","01981,1,C,N","009999,1,9,9","+0250,1","+0220,1","99999,9","08,1,+01981,1,99,9",,"9,AGL   ,+99999,+99999","99,99,9,08,1,99,9,01981,1,99,9,99,9","10130,1,99999,9","16,1",,,"MET073METAR SKSA 161400Z VRB02KT 9999 VCSH OVC065 25/22 Q1013 RMK VCSH W A2993=",
"80222599999","2023-04-16T15:00:00","4","6.95","-71.85","213.0","LOS COLONIZADORES, CO","FM-15","99999","V020","999,9,V,0010,1","01524,1,C,N","008000,1,9,9","+0240,1","+0230,1","99999,9","08,1,+01524,1,99,9",,"9,AGL   ,+99999,+99999","99,99,9,08,1,99,9,01524,1,99,9,99,9","10140,1,99999,9","63,1",,,"MET064METAR SKSA 161500Z VRB02KT 8000 RA OVC050 24/23 Q1014 RMK A2996=",
"80222599999","2023-04-16T16:00:00","4","6.95","-71.85","213.0","LOS COLONIZADORES, CO","FM-15","99999","V020","240,1,N,0021,1","01524,1,C,N","009000,1,9,9","+0230,1","+0230,1","99999,9","08,1,+01524,1,99,9",,"9,AGL   ,+99999,+99999","99,99,9,08,1,99,9,01524,1,99,9,99,9","10140,1,99999,9","61,1",,,"MET065METAR SKSA 161600Z 24004KT 9000 -RA OVC050 23/23 Q1014 RMK A2996=",
"80222599999","2023-04-16T17:00:00","4","6.95","-71.85","213.0","LOS COLONIZADORES, CO","FM-15","99999","V020","999,9,N,9999,9","99999,9,9,N","009000,5,9,9","+0240,5","+0220,5","99999,9",,,,,"10140,5,99999,9","10,5",,,"MET062METAR SKSA 161700Z 270KT 9000 BR OVC060 24/22 Q1014 RMK A2994=","D01      0ADE735"
"80222599999","2023-04-16T18:00:00","4","6.95","-71.85","213.0","LOS COLONIZADORES, CO","FM-15","99999","V020","280,1,N,0026,1","01829,1,C,N","009000,1,9,9","+0250,1","+0220,1","99999,9","08,1,+01829,1,99,9",,"9,AGL   ,+99999,+99999","99,99,9,08,1,99,9,01829,1,99,9,99,9","10120,1,99999,9","10,1",,,"MET064METAR SKSA 161800Z 28005KT 9000 BR OVC060 25/22 Q1012 RMK A2990=",
"80222599999","2023-04-16T19:00:00","4","6.95","-71.85","213.0","LOS COLONIZADORES, CO","FM-15","99999","V020","280,1,N,0026,1","99999,9,9,N","009999,1,9,9","+0280,1","+0220,1","99999,9","02,1,+03048,1,99,9",,"9,AGL   ,+99999,+99999","99,99,9,02,1,99,9,03048,1,99,9,99,9","10100,1,99999,9","10,1",,,"MET064METAR SKSA 161900Z 28005KT 9999 BR FEW100 28/22 Q1010 RMK A2984=",
"80222599999","2023-04-16T20:00:00","4","6.95","-71.85","213.0","LOS COLONIZADORES, CO","FM-15","99999","V020","250,1,N,0031,1","99999,9,9,N","009999,1,9,9","+0280,1","+0220,1","99999,9","02,1,+03048,1,99,9",,"9,AGL   ,+99999,+99999","99,99,9,02,1,99,9,03048,1,99,9,99,9",,,,,"MET061METAR SKSA 162000Z 25006KT 9999 FEW100 28/22 Q1019 RMK A2982=","Q011019  3APOA  "
"80222599999","2023-04-16T21:00:00","4","6.95","-71.85","213.0","LOS COLONIZADORES, CO","FM-15","99999","V020","290,1,N,0031,1","99999,9,9,N","009999,1,9,9","+0290,1","+0210,1","99999,9","02,1,+03048,1,99,9",,"9,AGL   ,+99999,+99999","99,99,9,02,1,99,9,03048,1,99,9,99,9","10090,1,99999,9","10,1",,,"MET064METAR SKSA 162100Z 29006KT 9999 BR FEW100 29/21 Q1009 RMK A2979=",
"80222599999","2023-04-16T22:00:00","4","6.95","-71.85","213.0","LOS COLONIZADORES, CO","FM-15","99999","V020","280,1,N,0015,1","99999,9,9,N","009999,1,9,9","+0290,1","+0220,1","99999,9","02,1,+03048,1,99,9",,"9,AGL   ,+99999,+99999","99,99,9,02,1,99,9,03048,1,99,9,99,9","10090,1,99999,9","10,1",,,"MET064METAR SKSA 162200Z 28003KT 9999 BR FEW100 29/22 Q1009 RMK A2979=",
"80222599999","2023-04-16T23:00:00","4","6.95","-71.85","213.0","LOS COLONIZADORES, CO","FM-15","99999","V020","999,9,V,0010,1","99999,9,9,N","009999,1,9,9","+0270,1","+0230,1","99999,9","02,1,+03048,1,99,9",,"9,AGL   ,+99999,+99999","99,99,9,02,1,99,9,03048,1,99,9,99,9","10090,1,99999,9","10,1",,,"MET064METAR SKSA 162300Z VRB02KT 9999 BR FEW100 27/23 Q1009 RMK A2981=",
"80222599999","2023-04-17T11:00:00","4","6.95","-71.85","213.0","LOS COLONIZADORES, CO","FM-15","99999","V020","280,1,N,0026,1","01524,1,C,N","009999,1,9,9","+0230,1","+0230,1","99999,9","08,1,+01524,1,99,9",,"9,AGL   ,+99999,+99999","99,99,9,08,1,99,9,01524,1,99,9,99,9","10110,1,99999,9","80,1",,,"MET067METAR SKSA 171100Z 28005KT 9999 -SHRA OVC050 23/23 Q1011 RMK A2986=",
"80222599999","2023-04-17T12:00:00","4","6.95","-71.85","213.0","LOS COLONIZADORES, CO","FM-15","99999","V020","310,1,N,0026,1","01524,1,C,N","009999,1,9,9","+0240,1","+0240,1","99999,9","08,1,+01524,1,99,9",,"9,AGL   ,+99999,+99999","99,99,9,08,1,99,9,01524,1,99,9,99,9","10110,1,99999,9","80,1",,,"MET067METAR SKSA 171200Z 31005KT 9999 -SHRA OVC050 24/24 Q1011 RMK A2987=",
"80222599999","2023-04-17T13:00:00","4","6.95","-71.85","213.0","LOS COLONIZADORES, CO","FM-15","99999","V020","310,1,N,0026,1","01524,1,C,N","009999,1,9,9","+0240,1","+0220,1","99999,9","08,1,+01524,1,99,9",,"9,AGL   ,+99999,+99999","99,99,9,08,1,99,9,01524,1,99,9,99,9","10120,1,99999,9","10,1",,,"MET064METAR SKSA 171300Z 31005KT 9999 BR OVC050 24/22 Q1012 RMK A2989=",
"80222599999","2023-04-17T14:00:00","4","6.95","-71.85","213.0","LOS COLONIZADORES, CO","FM-15","99999","V020","270,1,N,0031,1","01829,1,C,N","009999,1,9,9","+0240,1","+0220,1","99999,9","08,1,+01829,1,99,9",,"9,AGL   ,+99999,+99999","99,99,9,08,1,99,9,01829,1,99,9,99,9","10130,1,99999,9","80,1",,,"MET067METAR SKSA 171400Z 27006KT 9999 -SHRA OVC060 24/22 Q1013 RMK A2991=",
"80222599999","2023-04-17T15:00:00","4","6.95","-71.85","213.0","LOS COLONIZADORES, CO","FM-15","99999","V020","270,1,N,0026,1","01829,1,C,N","009999,1,9,9","+0230,1","+0220,1","99999,9","08,1,+01829,1,99,9",,"9,AGL   ,+99999,+99999","99,99,9,08,1,99,9,01829,1,99,9,99,9","10130,1,99999,9","10,1",,,"MET064METAR SKSA 171500Z 27005KT 9999 BR OVC060 23/22 Q1013 RMK A2991=",
"80222599999","2023-04-17T16:00:00","4","6.95","-71.85","213.0","LOS COLONIZADORES, CO","FM-15","99999","V020","280,1,N,0021,1","01676,1,C,N","009999,1,9,9","+0240,1","+0230,1","99999,9","08,1,+01676,1,99,9",,"9,AGL   ,+99999,+99999","99,99,9,08,1,99,9,01676,1,99,9,99,9","10130,1,99999,9","10,1",,,"MET064METAR SKSA 171600Z 28004KT 9999 BR OVC055 24/23 Q1013 RMK A2990=",
"80222599999","2023-04-17T17:00:00","4","6.95","-71.85","213.0","LOS COLONIZADORES, CO","FM-15","99999","V020","290,1,N,0026,1","02134,1,C,N","009999,1,9,9","+0250,1","+0230,1","99999,9","08,1,+02134,1,99,9",,"9,AGL   ,+99999,+99999","99,99,9,08,1,99,9,02134,1,99,9,99,9","10110,1,99999,9",,,,"MET061METAR SKSA 171700Z 29005KT 9999 OVC070 25/23 Q1011 RMK A2987=",
"80222599999","2023-04-17T19:00:00","4","6.95","-71.85","213.0","LOS COLONIZADORES, CO","FM-15","99999","V020","290,1,N,0015,1","02743,1,C,N","009999,1,9,9","+0290,1","+0240,1","99999,9","08,1,+02743,1,99,9",,"9,AGL   ,+99999,+99999","99,99,9,08,1,99,9,02743,1,99,9,99,9","10090,1,99999,9",,,,"MET061METAR SKSA 171900Z 29003KT 9999 OVC090 29/24 Q1009 RMK A2980=",
"80222599999","2023-04-17T20:00:00","4","6.95","-71.85","213.0","LOS COLONIZADORES, CO","FM-15","99999","V020","999,9,V,0010,1","99999,9,9,N","009999,1,9,9","+0310,1","+0210,1","99999,9","04,1,+02743,1,99,9",,"9,AGL   ,+99999,+99999","99,99,9,04,1,99,9,02743,1,99,9,99,9","10080,1,99999,9",,,,"MET061METAR SKSA 172000Z VRB02KT 9999 SCT090 31/21 Q1008 RMK A2978=",
"80222599999","2023-04-17T21:00:00","4","6.95","-71.85","213.0","LOS COLONIZADORES, CO","FM-15","99999","V020","999,9,V,0010,1","99999,9,9,N","009999,1,9,9","+0300,1","+0230,1","99999,9","04,1,+03048,1,99,9",,"9,AGL   ,+99999,+99999","99,99,9,04,1,99,9,03048,1,99,9,99,9","10080,1,99999,9",,,,"MET061METAR SKSA 172100Z VRB02KT 9999 SCT100 30/23 Q1008 RMK A2976=",
"80222599999","2023-04-17T22:00:00","4","6.95","-71.85","213.0","LOS COLONIZADORES, CO","FM-15","99999","V020","999,9,C,0000,1","03048,1,C,N","009999,1,9,9","+0300,1","+0230,1","99999,9","07,1,+03048,1,99,9",,"9,AGL   ,+99999,+99999","99,99,9,07,1,99,9,03048,1,99,9,99,9","10070,1,99999,9",,,,"MET061METAR SKSA 172200Z 00000KT 9999 BKN100 30/23 Q1007 RMK A2975=",
"80222599999","2023-04-17T23:00:00","4","6.95","-71.85","213.0","LOS COLONIZADORES, CO","FM-15","99999","V020","999,9,C,0000,1","03048,1,C,N","009999,1,9,9","+0270,1","+0240,1","99999,9","07,1,+03048,1,99,9",,"9,AGL   ,+99999,+99999","99,99,9,07,1,99,9,03048,1,99,9,99,9","10070,1,99999,9",,,,"MET061METAR SKSA 172300Z 00000KT 9999 BKN100 27/24 Q1007 RMK A2975=",
"80222599999","2023-04-18T11:00:00","4","6.95","-71.85","213.0","LOS COLONIZADORES, CO","FM-15","99999","V020","300,1,N,0015,1","02743,1,C,N","009999,1,9,9","+0230,1","+0220,1","99999,9","07,1,+02743,1,99,9",,"9,AGL   ,+99999,+99999","99,99,9,07,1,99,9,02743,1,99,9,99,9","10090,1,99999,9",,,,"MET061METAR SKSA 181100Z 30003KT 9999 BKN090 23/22 Q1009 RMK A2980=",
"80222599999","2023-04-18T12:00:00","4","6.95","-71.85","213.0","LOS COLONIZADORES, CO","FM-15","99999","V020","999,9,V,0010,1","02743,1,C,N","009999,1,9,9","+0240,1","+0230,1","99999,9","07,1,+02743,1,99,9",,"9,AGL   ,+99999,+99999","99,99,9,07,1,99,9,02743,1,99,9,99,9","10090,1,99999,9",,,,"MET061METAR SKSA 181200Z VRB02KT 9999 BKN090 24/23 Q1009 RMK A2982=",
"80222599999","2023-04-18T13:00:00","4","6.95","-71.85","213.0","LOS COLONIZADORES, CO","FM-15","99999","V020","999,9,V,0010,1","02591,1,C,N","009999,1,9,9","+0250,1","+0220,1","99999,9","08,1,+02591,1,99,9",,"9,AGL   ,+99999,+99999","99,99,9,08,1,99,9,02591,1,99,9,99,9","10100,1,99999,9",,,,"MET061METAR SKSA 181300Z VRB02KT 9999 OVC085 25/22 Q1010 RMK A2984=",
"80222599999","2023-04-18T14:00:00","4","6.95","-71.85","213.0","LOS COLONIZADORES, CO","FM-15","99999","V020","290,1,N,0021,1","02743,1,C,N","009999,1,9,9","+0260,1","+0220,1","99999,9","08,1,+02743,1,99,9",,"9,AGL   ,+99999,+99999","99,99,9,08,1,99,9,02743,1,99,9,99,9","10110,1,99999,9",,,,"MET061METAR SKSA 181400Z 29004KT 9999 OVC090 26/22 Q1011 RMK A2986=",
"80222599999","2023-04-18T15:00:00","4","6.95","-71.85","213.0","LOS COLONIZADORES, CO","FM-15","99999","V020","010,1,N,0010,1","02134,1,C,N","009999,1,9,9","+0270,1","+0230,1","99999,9","08,1,+02134,1,99,9",,"9,AGL   ,+99999,+99999","99,99,9,08,1,99,9,02134,1,99,9,99,9","10110,1,99999,9",,,,"MET061METAR SKSA 181500Z 01002KT 9999 OVC070 27/23 Q1011 RMK A2986=",
"80222599999","2023-04-18T17:00:00","4","6.95","-71.85","213.0","LOS COLONIZADORES, CO","FM-15","99999","V020","040,1,N,0046,1","02438,1,C,N","009999,1,9,9","+0280,1","+0220,1","99999,9","08,1,+02438,1,99,9",,"9,AGL   ,+99999,+99999","99,99,9,08,1,99,9,02438,1,99,9,99,9","10110,1,99999,9","16,1",,,"MET074METAR SKSA 181700Z 04009KT 9999 VCSH OVC080 28/22 Q1011 RMK VCSH SW A2985=",
"80222599999","2023-04-18T18:00:00","4","6.95","-71.85","213.0","LOS COLONIZADORES, CO","FM-15","99999","V020","060,1,N,0015,1","03048,1,C,N","009999,1,9,9","+0290,1","+0220,1","99999,9","07,1,+03048,1,99,9",,"9,AGL   ,+99999,+99999","99,99,9,07,1,99,9,03048,1,99,9,99,9","10100,1,99999,9",,,,"MET061METAR SKSA 181800Z 06003KT 9999 BKN100 29/22 Q1010 RMK A2983=",
"80222599999","2023-04-18T19:00:00","4","6.95","-71.85","213.0","LOS COLONIZADORES, CO","FM-15","99999","V020","340,1,N,0015,1","02438,1,C,N","009000,1,9,9","+0280,1","+0230,1","99999,9","08,1,+02438,1,99,9",,"9,AGL   ,+99999,+99999","99,99,9,08,1,99,9,02438,1,99,9,99,9","10090,1,99999,9","16,1",,,"MET071METAR SKSA 181900Z 34003KT 9000 VCSH OVC080 28/23 Q1009 RMK VCSH A2980=",
"80222599999","2023-04-18T20:00:00","4","6.95","-71.85","213.0","LOS COLONIZADORES, CO","FM-15","99999","V020","260,1,N,0015,1","02743,1,C,N","009999,1,9,9","+0290,1","+0230,1","99999,9","08,1,+02743,1,99,9",,"9,AGL   ,+99999,+99999","99,99,9,08,1,99,9,02743,1,99,9,99,9","10080,1,99999,9",,,,"MET061METAR SKSA 182000Z 26003KT 9999 OVC090 29/23 Q1008 RMK A2977=",
"80222599999","2023-04-18T21:00:00","4","6.95","-71.85","213.0","LOS COLONIZADORES, CO","FM-15","99999","V020","300,1,N,0031,1","99999,9,9,N","009999,1,9,9","+0290,1","+0230,1","99999,9","04,1,+01829,1,99,9",,"9,AGL   ,+99999,+99999","99,99,9,04,1,99,9,01829,1,99,9,99,9","10070,1,99999,9",,,,"MET061METAR SKSA 182100Z 30006KT 9999 SCT060 29/23 Q1007 RMK A2976=",
"80222599999","2023-04-18T22:00:00","4","6.95","-71.85","213.0","LOS COLONIZADORES, CO","FM-15","99999","V020","340,1,N,0031,1","99999,9,9,N","009999,1,9,9","+0280,1","+0230,1","99999,9","04,1,+01829,1,99,9",,"9,AGL   ,+99999,+99999","99,99,9,04,1,99,9,01829,1,99,9,99,9","10080,1,99999,9",,,,"MET061METAR SKSA 182200Z 34006KT 9999 SCT060 28/23 Q1008 RMK A2976=",
"80222599999","2023-04-18T23:00:00","4","6.95","-71.85","213.0","LOS COLONIZADORES, CO","FM-15","99999","V020","999,9,V,0010,1","99999,9,9,N","009999,1,9,9","+0270,1","+0230,1","99999,9","04,1,+01829,1,99,9",,"9,AGL   ,+99999,+99999","99,99,9,04,1,99,9,01829,1,99,9,99,9","10080,1,99999,9",,,,"MET061METAR SKSA 182300Z VRB02KT 9999 SCT060 27/23 Q1008 RMK A2977=",
"80222599999","2023-04-19T11:00:00","4","6.95","-71.85","213.0","LOS COLONIZADORES, CO","FM-15","99999","V020","250,1,N,0015,1","01524,1,C,N","009999,1,9,9","+0260,1","+0200,1","99999,9","08,1,+01524,1,99,9",,"9,AGL   ,+99999,+99999","99,99,9,08,1,99,9,01524,1,99,9,99,9","10100,1,99999,9",,,,"MET061METAR SKSA 191100Z 25003KT 9999 OVC050 26/20 Q1010 RMK A2983=",
"80222599999","2023-04-19T14:00:00","4","6.95","-71.85","213.0","LOS COLONIZADORES, CO","FM-15","99999","V020","030,1,N,0021,1","01524,1,C,N","009000,1,9,9","+0240,1","+0220,1","99999,9","08,1,+01524,1,99,9",,"9,AGL   ,+99999,+99999","99,99,9,08,1,99,9,01524,1,99,9,99,9","10130,1,99999,9",,,,"MET061METAR SKSA 191400Z 03004KT 9000 OVC050 24/22 Q1013 RMK A2992=",
"80222599999","2023-04-19T15:00:00","4","6.95","-71.85","213.0","LOS COLONIZADORES, CO","FM-15","99999","V020","200,1,N,0015,1","01219,1,C,N","008000,1,9,9","+0230,1","+0230,1","99999,9","08,1,+01219,1,99,9",,"9,AGL   ,+99999,+99999","99,99,9,08,1,99,9,01219,1,99,9,99,9","10140,1,99999,9","53,1",,,"MET067METAR SKSA 191500Z 20003KT 8000 DZ OVC040 23/23 Q1014 RMK A2995 HZ=",
"80222599999","2023-04-19T16:00:00","4","6.95","-71.85","213.0","LOS COLONIZADORES, CO","FM-15","99999","V020","310,1,N,0021,1","01829,1,C,N","009000,1,9,9","+0240,1","+0230,1","99999,9","08,1,+01829,1,99,9",,"9,AGL   ,+99999,+99999","99,99,9,08,1,99,9,01829,1,99,9,99,9","10140,1,99999,9",,,,"MET064METAR SKSA 191600Z 31004KT 9000 OVC060 24/23 Q1014 RMK A2995 HZ=",
"80222599999","2023-04-19T17:00:00","4","6.95","-71.85","213.0","LOS COLONIZADORES, CO","FM-15","99999","V020","310,1,N,0021,1","01829,1,C,N","009000,1,9,9","+0260,1","+0230,1","99999,9","08,1,+01829,1,99,9",,"9,AGL   ,+99999,+99999","99,99,9,08,1,99,9,01829,1,99,9,99,9","10130,1,99999,9",,,,"MET064METAR SKSA 191700Z 31004KT 9000 OVC060 26/23 Q1013 RMK A2993 HZ=",
"80222599999","2023-04-19T18:00:00","4","6.95","-71.85","213.0","LOS COLONIZADORES, CO","FM-15","99999","V020","300,1,N,0026,1","01829,1,C,N","009000,1,9,9","+0260,1","+0210,1","99999,9","08,1,+01829,1,99,9",,"9,AGL   ,+99999,+99999","99,99,9,08,1,99,9,01829,1,99,9,99,9","10120,1,99999,9",,,,"MET061METAR SKSA 191800Z 30005KT 9000 OVC060 26/21 Q1012 RMK A2989=",
"80222599999","2023-04-19T19:00:00","4","6.95","-71.85","213.0","LOS COLONIZADORES, CO","FM-15","99999","V020","280,1,N,0026,1","01829,1,C,N","009000,1,9,9","+0270,1","+0200,1","99999,9","08,1,+01829,1,99,9",,"9,AGL   ,+99999,+99999","99,99,9,08,1,99,9,01829,1,99,9,99,9","10110,1,99999,9","16,1",,,"MET074METAR SKSA 191900Z 28005KT 9000 VCSH OVC060 27/20 Q1011 RMK VCSH SW A2985=",
"80222599999","2023-04-19T20:00:00","4","6.95","-71.85","213.0","LOS COLONIZADORES, CO","FM-15","99999","V020","270,1,N,0015,1","01981,1,C,N","009000,1,9,9","+0260,1","+0210,1","99999,9","08,1,+01981,1,99,9",,"9,AGL   ,+99999,+99999","99,99,9,08,1,99,9,01981,1,99,9,99,9","10100,1,99999,9","16,1",,,"MET074METAR SKSA 192000Z 27003KT 9000 VCSH OVC065 26/21 Q1010 RMK VCSH SW A2982=",
"80222599999","2023-04-19T21:00:00","4","6.95","-71.85","213.0","LOS COLONIZADORES, CO","FM-15","99999","V020","320,1,N,0026,1","01981,1,C,N","009000,1,9,9","+0260,1","+0200,1","99999,9","08,1,+01981,1,99,9",,"9,AGL   ,+99999,+99999","99,99,9,08,1,99,9,01981,1,99,9,99,9","10090,1,99999,9","10,1","16,1",,"MET077METAR SKSA 192100Z 32005KT 9000 BR VCSH OVC065 26/20 Q1009 RMK VCSH SW A2980=",
"80222599999","2023-04-19T22:00:00","4","6.95","-71.85","213.0","LOS COLONIZADORES, CO","FM-15","99999","V020","290,1,N,0026,1","02286,1,C,N","009000,1,9,9","+0260,1","+0210,1","99999,9","08,1,+02286,1,99,9",,"9,AGL   ,+99999,+99999","99,99,9,08,1,99,9,02286,1,99,9,99,9","10090,1,99999,9","10,1","16,1",,"MET077METAR SKSA 192200Z 29005KT 9000 BR VCSH OVC075 26/21 Q1009 RMK VCSH SW A2980=",
"80222599999","2023-04-19T23:00:00","4","6.95","-71.85","213.0","LOS COLONIZADORES, CO","FM-15","99999","V020","290,1,N,0015,1","02134,1,C,N","009000,1,9,9","+0250,1","+0200,1","99999,9","08,1,+02134,1,99,9",,"9,AGL   ,+99999,+99999","99,99,9,08,1,99,9,02134,1,99,9,99,9","10090,1,99999,9","10,1",,,"MET064METAR SKSA 192300Z 29003KT 9000 BR OVC070 25/20 Q1009 RMK A2981=",
"80222599999","2023-04-20T11:00:00","4","6.95","-71.85","213.0","LOS COLONIZADORES, CO","FM-15","99999","V020","230,1,N,0015,1","01524,1,C,N","009999,1,9,9","+0240,1","+0220,1","99999,9","08,1,+01524,1,99,9",,"9,AGL   ,+99999,+99999","99,99,9,08,1,99,9,01524,1,99,9,99,9","10110,1,99999,9",,,,"MET061METAR SKSA 201100Z 23003KT 9999 OVC050 24/22 Q1011 RMK A2986=",
"80222599999","2023-04-20T15:00:00","4","6.95","-71.85","213.0","LOS COLONIZADORES, CO","FM-15","99999","V020","260,1,N,0015,1","01829,1,C,N","009999,1,9,9","+0270,1","+0210,1","99999,9","08,1,+01829,1,99,9",,"9,AGL   ,+99999,+99999","99,99,9,08,1,99,9,01829,1,99,9,99,9","10130,1,99999,9",,,,"MET061METAR SKSA 201500Z 26003KT 9999 OVC060 27/21 Q1013 RMK A2992=",
"80222599999","2023-04-20T18:00:00","4","6.95","-71.85","213.0","LOS COLONIZADORES, CO","FM-15","99999","V020","310,1,N,0031,1","01829,1,C,N","009999,1,9,9","+0260,1","+0220,1","99999,9","08,1,+01829,1,99,9",,"9,AGL   ,+99999,+99999","99,99,9,08,1,99,9,01829,1,99,9,99,9","10120,1,99999,9",,,,"MET061METAR SKSA 201800Z 31006KT 9999 OVC060 26/22 Q1012 RMK A2989=",
"80222599999","2023-04-20T19:00:00","4","6.95","-71.85","213.0","LOS COLONIZADORES, CO","FM-15","99999","V020","290,1,N,0015,1","01829,1,C,N","009999,1,9,9","+0250,1","+0230,1","99999,9","08,1,+01829,1,99,9",,"9,AGL   ,+99999,+99999","99,99,9,08,1,99,9,01829,1,99,9,99,9","10110,1,99999,9",,,,"MET061METAR SKSA 201900Z 29003KT 9999 OVC060 25/23 Q1011 RMK A2987=",
"80222599999","2023-04-20T20:00:00","4","6.95","-71.85","213.0","LOS COLONIZADORES, CO","FM-15","99999","V020","270,1,N,0015,1","01829,1,C,N","009999,1,9,9","+0250,1","+0230,1","99999,9","08,1,+01829,1,99,9",,"9,AGL   ,+99999,+99999","99,99,9,08,1,99,9,01829,1,99,9,99,9","10100,1,99999,9",,,,"MET061METAR SKSA 202000Z 27003KT 9999 OVC060 25/23 Q1010 RMK A2983=",
"80222599999","2023-04-20T21:00:00","4","6.95","-71.85","213.0","LOS COLONIZADORES, CO","FM-15","99999","V020","310,1,N,0015,1","04267,1,C,N","009999,1,9,9","+0270,1","+0210,1","99999,9","08,1,+04267,1,99,9",,"9,AGL   ,+99999,+99999","99,99,9,08,1,99,9,04267,1,99,9,99,9","10090,1,99999,9",,,,"MET061METAR SKSA 202100Z 31003KT 9999 OVC140 27/21 Q1009 RMK A2980=",
"80222599999","2023-04-20T22:00:00","4","6.95","-71.85","213.0","LOS COLONIZADORES, CO","FM-15","99999","V020","310,1,N,0015,1","04267,1,C,N","009999,1,9,9","+0270,1","+0210,1","99999,9","08,1,+04267,1,99,9",,"9,AGL   ,+99999,+99999","99,99,9,08,1,99,9,04267,1,99,9,99,9","10090,1,99999,9",,,,"MET061METAR SKSA 202200Z 31003KT 9999 OVC140 27/21 Q1009 RMK A2980=",
"80222599999","2023-04-20T23:00:00","4","6.95","-71.85","213.0","LOS COLONIZADORES, CO","FM-15","99999","V020","310,1,N,0015,1","04267,1,C,N","009999,1,9,9","+0270,1","+0210,1","99999,9","08,1,+04267,1,99,9",,"9,AGL   ,+99999,+99999","99,99,9,08,1,99,9,04267,1,99,9,99,9","10090,1,99999,9",,,,"MET061METAR SKSA 202300Z 31003KT 9999 OVC140 27/21 Q1009 RMK A2980=",
"80222599999","2023-04-21T11:00:00","4","6.95","-71.85","213.0","LOS COLONIZADORES, CO","FM-15","99999","V020","310,1,N,0015,1","02134,1,C,N","009999,1,9,9","+0240,1","+0220,1","99999,9","08,1,+02134,1,99,9",,"9,AGL   ,+99999,+99999","99,99,9,08,1,99,9,02134,1,99,9,99,9","10100,1,99999,9",,,,"MET061METAR SKSA 211100Z 31003KT 9999 OVC070 24/22 Q1010 RMK A2984=",
"80222599999","2023-04-21T12:00:00","4","6.95","-71.85","213.0","LOS COLONIZADORES, CO","FM-15","99999","V020","999,9,C,0000,1","99999,9,9,N","009999,1,9,9","+0250,1","+0220,1","99999,9","04,1,+02134,1,99,9",,"9,AGL   ,+99999,+99999","99,99,9,04,1,99,9,02134,1,99,9,99,9","10110,1,99999,9",,,,"MET051METAR SKSA 211200Z 00000KT 9999 SCT070 25/22 Q1011=",
"80222599999","2023-04-21T13:00:00","4","6.95","-71.85","213.0","LOS COLONIZADORES, CO","FM-15","99999","V020","999,9,C,0000,1","99999,9,9,N","009999,1,9,9","+0260,1","+0220,1","99999,9","04,1,+02134,1,99,9",,"9,AGL   ,+99999,+99999","99,99,9,04,1,99,9,02134,1,99,9,99,9","10110,1,99999,9",,,,"MET061METAR SKSA 211300Z 00000KT 9999 SCT070 26/22 Q1011 RMK A2986=",
"80222599999","2023-04-21T15:00:00","4","6.95","-71.85","213.0","LOS COLONIZADORES, CO","FM-15","99999","V020","999,9,V,0010,1","99999,9,9,N","009999,1,9,9","+0270,1","+0220,1","99999,9","04,1,+02743,1,99,9",,"9,AGL   ,+99999,+99999","99,99,9,04,1,99,9,02743,1,99,9,99,9","10120,1,99999,9",,,,"MET061METAR SKSA 211500Z VRB02KT 9999 SCT090 27/22 Q1012 RMK A2988=",
"80222599999","2023-04-21T16:00:00","4","6.95","-71.85","213.0","LOS COLONIZADORES, CO","FM-15","99999","V020","999,9,C,0000,1","99999,9,9,N","009999,1,9,9","+0280,1","+0220,1","99999,9","04,1,+03353,1,99,9",,"9,AGL   ,+99999,+99999","99,99,9,04,1,99,9,03353,1,99,9,99,9","10120,1,99999,9",,,,"MET061METAR SKSA 211600Z 00000KT 9999 SCT110 28/22 Q1012 RMK A2988=",
"80222599999","2023-04-21T17:00:00","4","6.95","-71.85","213.0","LOS COLONIZADORES, CO","FM-15","99999","V020","999,9,C,0000,1","99999,9,9,N","009999,1,9,9","+0300,1","+0220,1","99999,9","04,1,+03658,1,99,9",,"9,AGL   ,+99999,+99999","99,99,9,04,1,99,9,03658,1,99,9,99,9","10110,1,99999,9",,,,"MET061METAR SKSA 211700Z 00000KT 9999 SCT120 30/22 Q1011 RMK A2986=",
"80222599999","2023-04-21T18:00:00","4","6.95","-71.85","213.0","LOS COLONIZADORES, CO","FM-15","99999","V020","320,1,N,0021,1","99999,9,9,N","009999,1,9,9","+0320,1","+0220,1","99999,9","04,1,+03353,1,99,9",,"9,AGL   ,+99999,+99999","99,99,9,04,1,99,9,03353,1,99,9,99,9","10090,1,99999,9",,,,"MET061METAR SKSA 211800Z 32004KT 9999 SCT110 32/22 Q1009 RMK A2980=",
"80222599999","2023-04-21T19:00:00","4","6.95","-71.85","213.0","LOS COLONIZADORES, CO","FM-15","99999","V020","330,1,N,0021,1","99999,9,9,N","009999,1,9,9","+0320,1","+0220,1","99999,9","04,1,+03048,1,99,9",,"9,AGL   ,+99999,+99999","99,99,9,04,1,99,9,03048,1,99,9,99,9","10080,1,99999,9",,,,"MET061METAR SKSA 211900Z 33004KT 9999 SCT100 32/22 Q1008 RMK A2977=",
"80222599999","2023-04-21T20:00:00","4","6.95","-71.85","213.0","LOS COLONIZADORES, CO","FM-15","99999","V020","360,1,N,0015,1","99999,9,9,N","009999,1,9,9","+0310,1","+0220,1","99999,9","04,1,+02743,1,99,9",,"9,AGL   ,+99999,+99999","99,99,9,04,1,99,9,02743,1,99,9,99,9","10070,1,99999,9",,,,"MET061METAR SKSA 212000Z 36003KT 9999 SCT090 31/22 Q1007 RMK A2973=",
"80222599999","2023-04-21T22:00:00","4","6.95","-71.85","213.0","LOS COLONIZADORES, CO","FM-15","99999","V020","320,1,N,0015,1","99999,9,9,N","009999,1,9,9","+0300,1","+0220,1","99999,9","04,1,+03658,1,99,9",,"9,AGL   ,+99999,+99999","99,99,9,04,1,99,9,03658,1,99,9,99,9","10070,1,99999,9",,,,"MET061METAR SKSA 212200Z 32003KT 9999 SCT120 30/22 Q1007 RMK A2973=",
"80222599999","2023-04-22T11:00:00","4","6.95","-71.85","213.0","LOS COLONIZADORES, CO","FM-15","99999","V020","140,1,N,0015,1","00914,1,C,N","009999,1,9,9","+0230,1","+0230,1","99999,9","08,1,+00914,1,99,9",,"9,AGL   ,+99999,+99999","99,99,9,08,1,99,9,00914,1,99,9,99,9","10110,1,99999,9",,,,"MET061METAR SKSA 221100Z 14003KT 9999 OVC030 23/23 Q1011 RMK A2986=",
"80222599999","2023-04-22T12:00:00","4","6.95","-71.85","213.0","LOS COLONIZADORES, CO","FM-15","99999","V020","999,9,V,0010,1","00914,1,C,N","009999,1,9,9","+0230,1","+0230,1","99999,9","08,1,+00914,1,99,9","04,1,+00610,1,99,9","9,AGL   ,+99999,+99999","99,99,9,08,1,99,9,00914,1,99,9,99,9","10110,1,99999,9",,,,"MET068METAR SKSA 221200Z VRB02KT 9999 OVC030 SCT020 23/23 Q1011 RMK A2986=",
"80222599999","2023-04-22T13:00:00","4","6.95","-71.85","213.0","LOS COLONIZADORES, CO","FM-15","99999","V020","999,9,V,0010,1","00914,1,C,N","008000,1,9,9","+0230,1","+0230,1","99999,9","07,1,+00914,1,99,9",,"9,AGL   ,+99999,+99999","99,99,9,07,1,99,9,00914,1,99,9,99,9","10110,1,99999,9",,,,"MET061METAR SKSA 221300Z VRB02KT 8000 BKN030 23/23 Q1011 RMK A2986=",
"80222599999","2023-04-22T14:00:00","4","6.95","-71.85","213.0","LOS COLONIZADORES, CO","FM-15","99999","V020","320,1,N,0026,1","99999,9,9,N","999999,9,9,9","+0240,5","+0230,5","99999,9",,,,,"10120,5,99999,9",,,,"MET069METAR SKSA 221400Z 32005KT 32005 FEW020 BKN090 24/23 Q1012 RMK A2988=","D01      0ADE693D02      0ADE539"
"80222599999","2023-04-22T18:00:00","4","6.95","-71.85","213.0","LOS COLONIZADORES, CO","FM-15","99999","V020","340,1,N,0015,1","99999,9,9,N","009999,1,9,9","+0260,1","+0230,1","99999,9","04,1,+03048,1,99,9",,"9,AGL   ,+99999,+99999","99,99,9,04,1,99,9,03048,1,99,9,99,9","10090,1,99999,9",,,,"MET061METAR SKSA 221800Z 34003KT 9999 SCT100 26/23 Q1009 RMK A2980=",
"80222599999","2023-04-22T19:00:00","4","6.95","-71.85","213.0","LOS COLONIZADORES, CO","FM-15","99999","V020","999,9,V,0010,1","03353,1,C,N","009999,1,9,9","+0270,1","+0230,1","99999,9","02,1,+00914,1,99,9","04,1,+03353,1,99,9","9,AGL   ,+99999,+99999","99,99,9,02,1,99,9,00914,1,99,9,99,9","10080,1,99999,9",,,,"MET068METAR SKSA 221900Z VRB02KT 9999 FEW030 SCT110 27/23 Q1008 RMK A2977=",
"80222599999","2023-04-22T20:00:00","4","6.95","-71.85","213.0","LOS COLONIZADORES, CO","FM-15","99999","V020","100,1,N,0015,1","03353,1,C,N","009999,1,9,9","+0270,1","+0230,1","99999,9","02,1,+00914,1,99,9","04,1,+03353,1,99,9","9,AGL   ,+99999,+99999","99,99,9,02,1,99,9,00914,1,99,9,99,9","10080,1,99999,9",,,,"MET068METAR SKSA 222000Z 10003KT 9999 FEW030 SCT110 27/23 Q1008 RMK A2977=",
"80222599999","2023-04-22T21:00:00","4","6.95","-71.85","213.0","LOS COLONIZADORES, CO","FM-15","99999","V020","020,1,N,0015,1","99999,9,9,N","009999,1,9,9","+0270,1","+0230,1","99999,9","04,1,+03658,1,99,9",,"9,AGL   ,+99999,+99999","99,99,9,04,1,99,9,03658,1,99,9,99,9","10070,1,99999,9",,,,"MET061METAR SKSA 222100Z 02003KT 9999 SCT120 27/23 Q1007 RMK A2975=",
"80222599999","2023-04-22T23:00:00","4","6.95","-71.85","213.0","LOS COLONIZADORES, CO","FM-15","99999","V020","350,1,N,0015,1","99999,9,9,N","009999,1,9,9","+0250,1","+0230,1","99999,9","04,1,+03658,1,99,9",,"9,AGL   ,+99999,+99999","99,99,9,04,1,99,9,03658,1,99,9,99,9","10080,1,99999,9",,,,"MET061METAR SKSA 222300Z 35003KT 9999 SCT120 25/23 Q1008 RMK A2976=",
"80222599999","2023-04-23T11:00:00","4","6.95","-71.85","213.0","LOS COLONIZADORES, CO","FM-15","99999","V020","030,1,N,0021,1","00914,1,C,N","009999,1,9,9","+0230,1","+0220,1","99999,9","02,1,+00457,1,99,9","04,1,+00914,1,99,9","9,AGL   ,+99999,+99999","99,99,9,02,1,99,9,00457,1,99,9,99,9","10100,1,99999,9",,,,"MET068METAR SKSA 231100Z 03004KT 9999 FEW015 SCT030 23/22 Q1010 RMK A2986=",
"80222599999","2023-04-23T12:00:00","4","6.95","-71.85","213.0","LOS COLONIZADORES, CO","FM-15","99999","V020","040,1,N,0015,1","00244,1,C,N","009999,1,9,9","+0240,1","+0230,1","99999,9","08,1,+00244,1,99,9",,"9,AGL   ,+99999,+99999","99,99,9,08,1,99,9,00244,1,99,9,99,9","10100,1,99999,9",,,,"MET061METAR SKSA 231200Z 04003KT 9999 OVC008 24/23 Q1010 RMK A2986=",
"80222599999","2023-04-23T15:00:00","4","6.95","-71.85","213.0","LOS COLONIZADORES, CO","FM-15","99999","V020","070,1,N,0015,1","99999,9,9,N","009999,1,9,9","+0280,1","+0230,1","99999,9","04,1,+00610,1,99,9",,"9,AGL   ,+99999,+99999","99,99,9,04,1,99,9,00610,1,99,9,99,9","10110,1,99999,9",,,,"MET061METAR SKSA 231500Z 07003KT 9999 SCT020 28/23 Q1011 RMK A2986=",
"80222599999","2023-04-23T17:00:00","4","6.95","-71.85","213.0","LOS COLONIZADORES, CO","FM-15","99999","V020","150,1,N,0026,1","99999,9,9,N","009999,1,9,9","+0300,1","+0230,1","99999,9","04,1,+00914,1,99,9",,"9,AGL   ,+99999,+99999","99,99,9,04,1,99,9,00914,1,99,9,99,9","10100,1,99999,9",,,,"MET061METAR SKSA 231700Z 15005KT 9999 SCT030 30/23 Q1010 RMK A2983=",
"80222599999","2023-04-23T18:00:00","4","6.95","-71.85","213.0","LOS COLONIZADORES, CO","FM-15","99999","V020","030,1,N,0015,1","99999,9,9,N","009999,1,9,9","+0320,1","+0230,1","99999,9","04,1,+00914,1,99,9",,"9,AGL   ,+99999,+99999","99,99,9,04,1,99,9,00914,1,99,9,99,9","10080,1,99999,9",,,,"MET061METAR SKSA 231800Z 03003KT 9999 SCT030 32/23 Q1008 RMK A2978=",
"80222599999","2023-04-23T19:00:00","4","6.95","-71.85","213.0","LOS COLONIZADORES, CO","FM-15","99999","V020","160,1,N,0015,1","99999,9,9,N","009999,1,9,9","+0320,1","+0230,1","99999,9","04,1,+00914,1,99,9",,"9,AGL   ,+99999,+99999","99,99,9,04,1,99,9,00914,1,99,9,99,9","10070,1,99999,9",,,,"MET061METAR SKSA 231900Z 16003KT 9999 SCT030 32/23 Q1007 RMK A2975=",
"80222599999","2023-04-23T20:00:00","4","6.95","-71.85","213.0","LOS COLONIZADORES, CO","FM-15","99999","V020","070,1,N,0015,1","99999,9,9,N","009999,1,9,9","+0310,1","+0230,1","99999,9","04,1,+02438,1,99,9",,"9,AGL   ,+99999,+99999","99,99,9,04,1,99,9,02438,1,99,9,99,9","10070,1,99999,9",,,,"MET061METAR SKSA 232000Z 07003KT 9999 SCT080 31/23 Q1007 RMK A2975=",
"80222599999","2023-04-23T21:00:00","4","6.95","-71.85","213.0","LOS COLONIZADORES, CO","FM-15","99999","V020","999,9,C,0000,1","99999,9,9,N","009999,1,9,9","+0310,1","+0230,1","99999,9","04,1,+02134,1,99,9",,"9,AGL   ,+99999,+99999","99,99,9,04,1,99,9,02134,1,99,9,99,9","10070,1,99999,9",,,,"MET061METAR SKSA 232100Z 00000KT 9999 SCT070 31/23 Q1007 RMK A2975=",
"80222599999","2023-04-23T23:00:00","4","6.95","-71.85","213.0","LOS COLONIZADORES, CO","FM-15","99999","V020","999,9,C,0000,1","99999,9,9,N","009999,1,9,9","+0310,1","+0230,1","99999,9","04,1,+02134,1,99,9",,"9,AGL   ,+99999,+99999","99,99,9,04,1,99,9,02134,1,99,9,99,9","10070,1,99999,9",,,,"MET061METAR SKSA 232300Z 00000KT 9999 SCT070 31/23 Q1007 RMK A2975=",
"80222599999","2023-04-24T11:00:00","4","6.95","-71.85","213.0","LOS COLONIZADORES, CO","FM-15","99999","V020","999,9,V,0010,1","00122,1,C,N","005000,1,9,9","+0230,1","+0230,1","99999,9","08,1,+00122,1,99,9",,"9,AGL   ,+99999,+99999","99,99,9,08,1,99,9,00122,1,99,9,99,9","10120,1,99999,9","40,1",,,"MET069METAR SKSA 241100Z VRB02KT 5000 VCFG OVC004 23/23 Q1012 RMK A2989 HZ=",
"80222599999","2023-04-24T14:00:00","4","6.95","-71.85","213.0","LOS COLONIZADORES, CO","FM-15","99999","V020","330,1,N,0021,1","02438,1,9,N","009999,1,9,9","+0260,1","+0240,1","99999,9","04,1,+00762,1,99,9","08,1,+02438,1,99,9","9,AGL   ,+99999,+99999","99,99,9,04,1,99,9,00762,1,99,9,99,9","10130,1,99999,9",,,,"MET071METAR SKSA 241400Z 33004KT 9999 SCT025 OVC080 26/24 Q1013 RMK A2992 HZ=",
"80222599999","2023-04-24T16:00:00","4","6.95","-71.85","213.0","LOS COLONIZADORES, CO","FM-15","99999","V020","350,1,N,0026,1","02438,1,9,N","009999,1,9,9","+0280,1","+0230,1","99999,9","04,1,+01219,1,99,9","08,1,+02438,1,99,9","9,AGL   ,+99999,+99999","99,99,9,04,1,99,9,01219,1,99,9,99,9","10130,1,99999,9",,,,"MET071METAR SKSA 241600Z 35005KT 9999 SCT040 OVC080 28/23 Q1013 RMK A2992 HZ=",
"80222599999","2023-04-24T18:00:00","4","6.95","-71.85","213.0","LOS COLONIZADORES, CO","FM-15","99999","V020","040,1,N,0026,1","99999,9,9,N","009999,1,9,9","+0280,1","+0230,1","99999,9","04,1,+01219,1,99,9",,"9,AGL   ,+99999,+99999","99,99,9,04,1,99,9,01219,1,99,9,99,9","10110,1,99999,9",,,,"MET064METAR SKSA 241800Z 04005KT 9999 SCT040 28/23 Q1011 RMK A2986 HZ=",
"80222599999","2023-04-24T19:00:00","4","6.95","-71.85","213.0","LOS COLONIZADORES, CO","FM-15","99999","V020","010,1,N,0026,1","99999,9,9,N","009999,1,9,9","+0290,1","+0230,1","99999,9","04,1,+01219,1,99,9",,"9,AGL   ,+99999,+99999","99,99,9,04,1,99,9,01219,1,99,9,99,9","10100,1,99999,9",,,,"MET064METAR SKSA 241900Z 01005KT 9999 SCT040 29/23 Q1010 RMK A2983 HZ=",
"80222599999","2023-04-24T20:00:00","4","6.95","-71.85","213.0","LOS COLONIZADORES, CO","FM-15","99999","V020","020,1,N,0026,1","99999,9,9,N","009999,1,9,9","+0290,1","+0230,1","99999,9","04,1,+00914,1,99,9",,"9,AGL   ,+99999,+99999","99,99,9,04,1,99,9,00914,1,99,9,99,9","10100,1,99999,9",,,,"MET064METAR SKSA 242000Z 02005KT 9999 SCT030 29/23 Q1010 RMK A2983 HZ=",
"80222599999","2023-04-24T21:00:00","4","6.95","-71.85","213.0","LOS COLONIZADORES, CO","FM-15","99999","V020","010,1,N,0015,1","99999,9,9,N","009999,1,9,9","+0290,1","+0230,1","99999,9","04,1,+00914,1,99,9",,"9,AGL   ,+99999,+99999","99,99,9,04,1,99,9,00914,1,99,9,99,9","10100,1,99999,9",,,,"MET064METAR SKSA 242100Z 01003KT 9999 SCT030 29/23 Q1010 RMK A2983 HZ=",
"80222599999","2023-04-24T22:00:00","4","6.95","-71.85","213.0","LOS COLONIZADORES, CO","FM-15","99999","V020","340,1,N,0015,1","99999,9,9,N","009999,1,9,9","+0280,1","+0230,1","99999,9","04,1,+01219,1,99,9",,"9,AGL   ,+99999,+99999","99,99,9,04,1,99,9,01219,1,99,9,99,9","10090,1,99999,9",,,,"MET064METAR SKSA 242200Z 34003KT 9999 SCT040 28/23 Q1009 RMK A2981 HZ=",
"80222599999","2023-04-24T23:00:00","4","6.95","-71.85","213.0","LOS COLONIZADORES, CO","FM-15","99999","V020","340,1,N,0015,1","99999,9,9,N","009999,1,9,9","+0280,1","+0230,1","99999,9","04,1,+01219,1,99,9",,"9,AGL   ,+99999,+99999","99,99,9,04,1,99,9,01219,1,99,9,99,9","10090,1,99999,9",,,,"MET064METAR SKSA 242300Z 34003KT 9999 SCT040 28/23 Q1009 RMK A2981 HZ=",
"80222599999","2023-04-25T11:00:00","4","6.95","-71.85","213.0","LOS COLONIZADORES, CO","FM-15","99999","V020","999,9,C,0000,1","02438,1,C,N","009999,1,9,9","+0230,1","+0230,1","99999,9","08,1,+02438,1,99,9",,"9,AGL   ,+99999,+99999","99,99,9,08,1,99,9,02438,1,99,9,99,9","10110,1,99999,9",,,,"MET061METAR SKSA 251100Z 00000KT 9999 OVC080 23/23 Q1011 RMK A2986=",
"80222599999","2023-04-25T12:00:00","4","6.95","-71.85","213.0","LOS COLONIZADORES, CO","FM-15","99999","V020","999,9,C,0000,1","02438,1,C,N","009999,1,9,9","+0250,1","+0240,1","99999,9","08,1,+02438,1,99,9",,"9,AGL   ,+99999,+99999","99,99,9,08,1,99,9,02438,1,99,9,99,9","10120,1,99999,9",,,,"MET061METAR SKSA 251200Z 00000KT 9999 OVC080 25/24 Q1012 RMK A2989=",
"80222599999","2023-04-25T13:00:00","4","6.95","-71.85","213.0","LOS COLONIZADORES, CO","FM-15","99999","V020","320,1,N,0031,1","02438,1,C,N","009999,1,9,9","+0260,1","+0240,1","99999,9","07,1,+02438,1,99,9",,"9,AGL   ,+99999,+99999","99,99,9,07,1,99,9,02438,1,99,9,99,9","10130,1,99999,9",,,,"MET061METAR SKSA 251300Z 32006KT 9999 BKN080 26/24 Q1013 RMK A2991=",
"80222599999","2023-04-25T15:00:00","4","6.95","-71.85","213.0","LOS COLONIZADORES, CO","FM-15","99999","V020","999,9,C,0000,1","02438,1,C,N","009999,1,9,9","+0290,1","+0240,1","99999,9","08,1,+02438,1,99,9",,"9,AGL   ,+99999,+99999","99,99,9,08,1,99,9,02438,1,99,9,99,9","10130,1,99999,9",,,,"MET061METAR SKSA 251500Z 00000KT 9999 OVC080 29/24 Q1013 RMK A2991=",
"80222599999","2023-04-25T16:00:00","4","6.95","-71.85","213.0","LOS COLONIZADORES, CO","FM-15","99999","V020","140,1,N,0026,1","02134,1,C,N","009999,1,9,9","+0300,1","+0240,1","99999,9","08,1,+02134,1,99,9",,"9,AGL   ,+99999,+99999","99,99,9,08,1,99,9,02134,1,99,9,99,9","10130,1,99999,9",,,,"MET061METAR SKSA 251600Z 14005KT 9999 OVC070 30/24 Q1013 RMK A2991=",
"80222599999","2023-04-25T17:00:00","4","6.95","-71.85","213.0","LOS COLONIZADORES, CO","FM-15","99999","V020","110,1,N,0026,1","01219,1,C,N","009999,1,9,9","+0310,1","+0240,1","99999,9","08,1,+01219,1,99,9",,"9,AGL   ,+99999,+99999","99,99,9,08,1,99,9,01219,1,99,9,99,9","10120,1,99999,9",,,,"MET061METAR SKSA 251700Z 11005KT 9999 OVC040 31/24 Q1012 RMK A2989=",
"80222599999","2023-04-25T19:00:00","4","6.95","-71.85","213.0","LOS COLONIZADORES, CO","FM-15","99999","V020","200,1,N,0036,1","99999,9,9,N","009999,1,9,9","+0280,1","+0230,1","99999,9","04,1,+01219,1,99,9",,"9,AGL   ,+99999,+99999","99,99,9,04,1,99,9,01219,1,99,9,99,9","10100,1,99999,9",,,,"MET061METAR SKSA 251900Z 20007KT 9999 SCT040 28/23 Q1010 RMK A2984=",
"80222599999","2023-04-25T20:00:00","4","6.95","-71.85","213.0","LOS COLONIZADORES, CO","FM-15","99999","V020","999,9,V,0010,1","99999,9,9,N","009999,1,9,9","+0280,1","+0230,1","99999,9","04,1,+01219,1,99,9",,"9,AGL   ,+99999,+99999","99,99,9,04,1,99,9,01219,1,99,9,99,9","10100,1,99999,9",,,,"MET061METAR SKSA 252000Z VRB02KT 9999 SCT040 28/23 Q1010 RMK A2984=",
"80222599999","2023-04-25T22:00:00","4","6.95","-71.85","213.0","LOS COLONIZADORES, CO","FM-15","99999","V020","999,9,V,0010,1","99999,9,9,N","009999,1,9,9","+0240,1","+0230,1","99999,9","04,1,+01219,1,99,9",,"9,AGL   ,+99999,+99999","99,99,9,04,1,99,9,01219,1,99,9,99,9","10100,1,99999,9",,,,"MET061METAR SKSA 252200Z VRB02KT 9999 SCT040 24/23 Q1010 RMK A2984=",
"80222599999","2023-04-25T23:00:00","4","6.95","-71.85","213.0","LOS COLONIZADORES, CO","FM-15","99999","V020","999,9,C,0000,1","00305,1,C,N","009999,1,9,9","+0230,1","+0230,1","99999,9","08,1,+00305,1,99,9",,"9,AGL   ,+99999,+99999","99,99,9,08,1,99,9,00305,1,99,9,99,9","10110,1,99999,9",,,,"MET061METAR SKSA 252300Z 00000KT 9999 OVC010 23/23 Q1011 RMK A2987=",
"80222599999","2023-04-26T11:00:00","4","6.95","-71.85","213.0","LOS COLONIZADORES, CO","FM-15","99999","V020","210,1,N,0015,1","01219,1,C,N","009999,1,9,9","+0230,1","+0230,1","99999,9","08,1,+01219,1,99,9",,"9,AGL   ,+99999,+99999","99,99,9,08,1,99,9,01219,1,99,9,99,9","10130,1,99999,9",,,,"MET061METAR SKSA 261100Z 21003KT 9999 OVC040 23/23 Q1013 RMK A2992=",
"80222599999","2023-04-26T13:00:00","4","6.95","-71.85","213.0","LOS COLONIZADORES, CO","FM-15","99999","V020","180,1,N,0021,1","01524,1,C,N","009999,1,9,9","+0240,1","+0230,1","99999,9","08,1,+01524,1,99,9",,"9,AGL   ,+99999,+99999","99,99,9,08,1,99,9,01524,1,99,9,99,9","10140,1,99999,9",,,,"MET061METAR SKSA 261300Z 18004KT 9999 OVC050 24/23 Q1014 RMK A2996=",
"80222599999","2023-04-26T14:00:00","4","6.95","-71.85","213.0","LOS COLONIZADORES, CO","FM-15","99999","V020","999,9,C,0000,1","02134,1,C,N","009999,1,9,9","+0250,1","+0230,1","99999,9","08,1,+02134,1,99,9",,"9,AGL   ,+99999,+99999","99,99,9,08,1,99,9,02134,1,99,9,99,9","10140,1,99999,9",,,,"MET061METAR SKSA 261400Z 00000KT 9999 OVC070 25/23 Q1014 RMK A2996=",
"80222599999","2023-04-26T15:00:00","4","6.95","-71.85","213.0","LOS COLONIZADORES, CO","FM-15","99999","V020","999,9,V,0010,1","02134,1,C,N","009999,1,9,9","+0280,1","+0230,1","99999,9","08,1,+02134,1,99,9",,"9,AGL   ,+99999,+99999","99,99,9,08,1,99,9,02134,1,99,9,99,9","10140,1,99999,9",,,,"MET061METAR SKSA 261500Z VRB02KT 9999 OVC070 28/23 Q1014 RMK A2996=",
"80222599999","2023-04-26T16:00:00","4","6.95","-71.85","213.0","LOS COLONIZADORES, CO","FM-15","99999","V020","320,1,N,0015,1","99999,9,9,N","009999,1,9,9","+0300,1","+0220,1","99999,9","04,1,+02134,1,99,9",,"9,AGL   ,+99999,+99999","99,99,9,04,1,99,9,02134,1,99,9,99,9","10130,1,99999,9",,,,"MET061METAR SKSA 261600Z 32003KT 9999 SCT070 30/22 Q1013 RMK A2992=",
"80222599999","2023-04-26T17:00:00","4","6.95","-71.85","213.0","LOS COLONIZADORES, CO","FM-15","99999","V020","360,1,N,0031,1","99999,9,9,N","009999,1,9,9","+0310,1","+0220,1","99999,9","04,1,+02743,1,99,9",,"9,AGL   ,+99999,+99999","99,99,9,04,1,99,9,02743,1,99,9,99,9","10130,1,99999,9",,,,"MET061METAR SKSA 261700Z 36006KT 9999 SCT090 31/22 Q1013 RMK A2992=",
"80222599999","2023-04-26T18:00:00","4","6.95","-71.85","213.0","LOS COLONIZADORES, CO","FM-15","99999","V020","070,1,N,0021,1","02438,1,C,N","009999,1,9,9","+0310,1","+0220,1","99999,9","02,1,+00610,1,99,9","04,1,+02438,1,99,9","9,AGL   ,+99999,+99999","99,99,9,02,1,99,9,00610,1,99,9,99,9","10120,1,99999,9",,,,"MET068METAR SKSA 261800Z 07004KT 9999 FEW020 SCT080 31/22 Q1012 RMK A2988=",
"80222599999","2023-04-26T19:00:00","4","6.95","-71.85","213.0","LOS COLONIZADORES, CO","FM-15","99999","V020","120,1,N,0015,1","99999,9,9,N","009999,1,9,9","+0310,1","+0220,1","99999,9","04,1,+00610,1,99,9",,"9,AGL   ,+99999,+99999","99,99,9,04,1,99,9,00610,1,99,9,99,9","10110,1,99999,9",,,,"MET061METAR SKSA 261900Z 12003KT 9999 SCT020 31/22 Q1011 RMK A2986=",
"80222599999","2023-04-26T20:00:00","4","6.95","-71.85","213.0","LOS COLONIZADORES, CO","FM-15","99999","V020","270,1,N,0015,1","01219,1,C,N","009999,1,9,9","+0250,1","+0240,1","99999,9","07,1,+01219,1,99,9",,"9,AGL   ,+99999,+99999","99,99,9,07,1,99,9,01219,1,99,9,99,9","10100,1,99999,9","53,1",,,"MET064METAR SKSA 262000Z 27003KT 9999 DZ BKN040 25/24 Q1010 RMK A2983=",
"80222599999","2023-04-26T21:00:00","4","6.95","-71.85","213.0","LOS COLONIZADORES, CO","FM-15","99999","V020","330,1,N,0021,1","01219,1,C,N","009999,1,9,9","+0250,1","+0240,1","99999,9","07,1,+01219,1,99,9",,"9,AGL   ,+99999,+99999","99,99,9,07,1,99,9,01219,1,99,9,99,9","10100,1,99999,9",,,,"MET061METAR SKSA 262100Z 33004KT 9999 BKN040 25/24 Q1010 RMK A2983=",
"80222599999","2023-04-26T22:00:00","4","6.95","-71.85","213.0","LOS COLONIZADORES, CO","FM-15","99999","V020","260,1,N,0021,1","01219,1,C,N","009999,1,9,9","+0260,1","+0240,1","99999,9","07,1,+01219,1,99,9",,"9,AGL   ,+99999,+99999","99,99,9,07,1,99,9,01219,1,99,9,99,9","10100,1,99999,9",,,,"MET061METAR SKSA 262200Z 26004KT 9999 BKN040 26/24 Q1010 RMK A2983=",
"80222599999","2023-04-26T23:00:00","4","6.95","-71.85","213.0","LOS COLONIZADORES, CO","FM-15","99999","V020","260,1,N,0021,1","99999,9,9,N","009999,1,9,9","+0260,1","+0240,1","99999,9","04,1,+01219,1,99,9",,"9,AGL   ,+99999,+99999","99,99,9,04,1,99,9,01219,1,99,9,99,9","10100,1,99999,9",,,,"MET061METAR SKSA 262300Z 26004KT 9999 SCT040 26/24 Q1010 RMK A2983=",
"80222599999","2023-04-27T11:00:00","4","6.95","-71.85","213.0","LOS COLONIZADORES, CO","FM-15","99999","V020","999,9,C,0000,1","22000,1,9,N","009999,1,9,9","+0230,1","+0230,1","99999,9",,,,"00,99,1,99,9,99,9,99999,9,99,9,99,9","10120,1,99999,9",,,,"MET058METAR SKSA 271100Z 00000KT 9999 NSC 23/23 Q1012 RMK A2989=",
"80222599999","2023-04-27T12:00:00","4","6.95","-71.85","213.0","LOS COLONIZADORES, CO","FM-15","99999","V020","999,9,C,0000,1","22000,1,9,N","009999,1,9,9","+0260,1","+0230,1","99999,9",,,,"00,99,1,99,9,99,9,99999,9,99,9,99,9","10130,1,99999,9",,,,"MET058METAR SKSA 271200Z 00000KT 9999 NSC 26/23 Q1013 RMK A2992=",
"80222599999","2023-04-27T13:00:00","4","6.95","-71.85","213.0","LOS COLONIZADORES, CO","FM-15","99999","V020","999,9,C,0000,1","22000,1,9,N","009999,1,9,9","+0270,1","+0240,1","99999,9",,,,"00,99,1,99,9,99,9,99999,9,99,9,99,9","10130,1,99999,9",,,,"MET058METAR SKSA 271300Z 00000KT 9999 NSC 27/24 Q1013 RMK A2992=",
"80222599999","2023-04-27T14:00:00","4","6.95","-71.85","213.0","LOS COLONIZADORES, CO","FM-15","99999","V020","050,1,N,0015,1","22000,1,9,N","009999,1,9,9","+0290,1","+0230,1","99999,9",,,,"00,99,1,99,9,99,9,99999,9,99,9,99,9","10140,1,99999,9",,,,"MET058METAR SKSA 271400Z 05003KT 9999 NSC 29/23 Q1014 RMK A2995=",
"80222599999","2023-04-27T15:00:00","4","6.95","-71.85","213.0","LOS COLONIZADORES, CO","FM-15","99999","V020","030,1,N,0015,1","22000,1,9,N","009999,1,9,9","+0300,1","+0230,1","99999,9",,,,"00,99,1,99,9,99,9,99999,9,99,9,99,9","10140,1,99999,9",,,,"MET058METAR SKSA 271500Z 03003KT 9999 NSC 30/23 Q1014 RMK A2995=",
"80222599999","2023-04-27T16:00:00","4","6.95","-71.85","213.0","LOS COLONIZADORES, CO","FM-15","99999","V020","180,1,N,0015,1","22000,1,9,N","009999,1,9,9","+0310,1","+0230,1","99999,9",,,,"00,99,1,99,9,99,9,99999,9,99,9,99,9","10130,1,99999,9",,,,"MET058METAR SKSA 271600Z 18003KT 9999 NSC 31/23 Q1013 RMK A2992=",
"80222599999","2023-04-27T17:00:00","4","6.95","-71.85","213.0","LOS COLONIZADORES, CO","FM-15","99999","V020","200,1,N,0015,1","02438,1,C,N","009999,1,9,9","+0320,1","+0230,1","99999,9","02,1,+00914,1,99,9","04,1,+02438,1,99,9","9,AGL   ,+99999,+99999","99,99,9,02,1,99,9,00914,1,99,9,99,9","10120,1,99999,9",,,,"MET068METAR SKSA 271700Z 20003KT 9999 FEW030 SCT080 32/23 Q1012 RMK A2989=",
"80222599999","2023-04-27T18:00:00","4","6.95","-71.85","213.0","LOS COLONIZADORES, CO","FM-15","99999","V020","080,1,N,0015,1","99999,9,9,N","009999,1,9,9","+0320,1","+0230,1","99999,9","02,1,+00914,1,99,9",,"9,AGL   ,+99999,+99999","99,99,9,02,1,99,9,00914,1,99,9,99,9","10110,1,99999,9",,,,"MET061METAR SKSA 271800Z 08003KT 9999 FEW030 32/23 Q1011 RMK A2985=",
"80222599999","2023-04-27T19:00:00","4","6.95","-71.85","213.0","LOS COLONIZADORES, CO","FM-15","99999","V020","140,1,N,0015,1","99999,9,9,N","009999,1,9,9","+0330,1","+0210,1","99999,9","02,1,+00914,1,99,9",,"9,AGL   ,+99999,+99999","99,99,9,02,1,99,9,00914,1,99,9,99,9","10100,1,99999,9",,,,"MET061METAR SKSA 271900Z 14003KT 9999 FEW030 33/21 Q1010 RMK A2981=",
"80222599999","2023-04-27T20:00:00","4","6.95","-71.85","213.0","LOS COLONIZADORES, CO","FM-15","99999","V020","090,1,N,0036,1","99999,9,9,N","009999,1,9,9","+0310,1","+0210,1","99999,9","02,1,+00914,1,99,9",,"9,AGL   ,+99999,+99999","99,99,9,02,1,99,9,00914,1,99,9,99,9","10090,1,99999,9",,,,"MET061METAR SKSA 272000Z 09007KT 9999 FEW030 31/21 Q1009 RMK A2980=",
"80222599999","2023-04-27T21:00:00","4","6.95","-71.85","213.0","LOS COLONIZADORES, CO","FM-15","99999","V020","070,1,N,0021,1","99999,9,9,N","009999,1,9,9","+0310,1","+0210,1","99999,9","02,1,+00914,1,99,9",,"9,AGL   ,+99999,+99999","99,99,9,02,1,99,9,00914,1,99,9,99,9","10090,1,99999,9",,,,"MET061METAR SKSA 272100Z 07004KT 9999 FEW030 31/21 Q1009 RMK A2980=",
"80222599999","2023-04-27T22:00:00","4","6.95","-71.85","213.0","LOS COLONIZADORES, CO","FM-15","99999","V020","070,1,N,0021,1","99999,9,9,N","009999,1,9,9","+0290,1","+0210,1","99999,9","04,1,+02743,1,99,9",,"9,AGL   ,+99999,+99999","99,99,9,04,1,99,9,02743,1,99,9,99,9","10090,1,99999,9",,,,"MET061METAR SKSA 272200Z 07004KT 9999 SCT090 29/21 Q1009 RMK A2980=",
"80222599999","2023-04-27T23:00:00","4","6.95","-71.85","213.0","LOS COLONIZADORES, CO","FM-15","99999","V020","340,1,N,0015,1","99999,9,9,N","009999,1,9,9","+0270,1","+0210,1","99999,9","04,1,+02743,1,99,9",,"9,AGL   ,+99999,+99999","99,99,9,04,1,99,9,02743,1,99,9,99,9","10090,1,99999,9",,,,"MET061METAR SKSA 272300Z 34003KT 9999 SCT090 27/21 Q1009 RMK A2980=",
"80222599999","2023-04-28T11:00:00","4","6.95","-71.85","213.0","LOS COLONIZADORES, CO","FM-15","99999","V020","999,9,C,0000,1","99999,9,9,N","009999,1,9,9","+0240,1","+0240,1","99999,9","04,1,+02438,1,99,9",,"9,AGL   ,+99999,+99999","99,99,9,04,1,99,9,02438,1,99,9,99,9","10120,1,99999,9",,,,"MET061METAR SKSA 281100Z 00000KT 9999 SCT080 24/24 Q1012 RMK A2988=",
"80222599999","2023-04-28T13:00:00","4","6.95","-71.85","213.0","LOS COLONIZADORES, CO","FM-15","99999","V020","999,9,V,0010,1","99999,9,9,N","009999,1,9,9","+0260,1","+0240,1","99999,9","04,1,+02438,1,99,9",,"9,AGL   ,+99999,+99999","99,99,9,04,1,99,9,02438,1,99,9,99,9","10130,1,99999,9",,,,"MET061METAR SKSA 281300Z VRB02KT 9999 SCT080 26/24 Q1013 RMK A2993=",
"80222599999","2023-04-28T14:00:00","4","6.95","-71.85","213.0","LOS COLONIZADORES, CO","FM-15","99999","V020","160,1,N,0031,1","99999,9,9,N","009999,1,9,9","+0290,1","+0240,1","99999,9","04,1,+02438,1,99,9",,"9,AGL   ,+99999,+99999","99,99,9,04,1,99,9,02438,1,99,9,99,9","10140,1,99999,9",,,,"MET061METAR SKSA 281400Z 16006KT 9999 SCT080 29/24 Q1014 RMK A2995=",
"80222599999","2023-04-28T15:00:00","4","6.95","-71.85","213.0","LOS COLONIZADORES, CO","FM-15","99999","V020","160,1,N,0051,1","99999,9,9,N","009999,1,9,9","+0280,1","+0240,1","99999,9","04,1,+02438,1,99,9",,"9,AGL   ,+99999,+99999","99,99,9,04,1,99,9,02438,1,99,9,99,9","10140,1,99999,9",,,,"MET061METAR SKSA 281500Z 16010KT 9999 SCT080 28/24 Q1014 RMK A2995=",
"80222599999","2023-04-28T16:00:00","4","6.95","-71.85","213.0","LOS COLONIZADORES, CO","FM-15","99999","V020","170,1,N,0036,1","99999,9,9,N","009999,1,9,9","+0290,1","+0240,1","99999,9","04,1,+02438,1,99,9",,"9,AGL   ,+99999,+99999","99,99,9,04,1,99,9,02438,1,99,9,99,9","10130,1,99999,9",,,,"MET061METAR SKSA 281600Z 17007KT 9999 SCT080 29/24 Q1013 RMK A2993=",
"80222599999","2023-04-28T17:00:00","4","6.95","-71.85","213.0","LOS COLONIZADORES, CO","FM-15","99999","V020","090,1,N,0015,1","22000,1,9,N","009999,1,9,9","+0310,1","+0230,1","99999,9",,,,"00,99,1,99,9,99,9,99999,9,99,9,99,9","10130,1,99999,9",,,,"MET058METAR SKSA 281700Z 09003KT 9999 NSC 31/23 Q1013 RMK A2993=",
"80222599999","2023-04-28T18:00:00","4","6.95","-71.85","213.0","LOS COLONIZADORES, CO","FM-15","99999","V020","100,1,N,0015,1","22000,1,9,N","009999,1,9,9","+0300,1","+0230,1","99999,9",,,,"00,99,1,99,9,99,9,99999,9,99,9,99,9","10120,1,99999,9",,,,"MET058METAR SKSA 281800Z 10003KT 9999 NSC 30/23 Q1012 RMK A2988=",
"80222599999","2023-04-28T19:00:00","4","6.95","-71.85","213.0","LOS COLONIZADORES, CO","FM-15","99999","V020","010,1,N,0036,1","02134,1,C,N","009999,1,9,9","+0280,1","+0230,1","99999,9","07,1,+02134,1,99,9",,"9,AGL   ,+99999,+99999","99,99,9,07,1,99,9,02134,1,99,9,99,9","10110,1,99999,9",,,,"MET061METAR SKSA 281900Z 01007KT 9999 BKN070 28/23 Q1011 RMK A2985=",
"80222599999","2023-04-28T20:00:00","4","6.95","-71.85","213.0","LOS COLONIZADORES, CO","FM-15","99999","V020","310,1,N,0021,1","02438,1,C,N","009999,1,9,9","+0270,1","+0230,1","99999,9","07,1,+02438,1,99,9",,"9,AGL   ,+99999,+99999","99,99,9,07,1,99,9,02438,1,99,9,99,9","10100,1,99999,9",,,,"MET061METAR SKSA 282000Z 31004KT 9999 BKN080 27/23 Q1010 RMK A2983=",
"80222599999","2023-04-28T22:00:00","4","6.95","-71.85","213.0","LOS COLONIZADORES, CO","FM-15","99999","V020","210,1,N,0015,1","99999,9,9,N","009999,1,9,9","+0260,1","+0230,1","99999,9","04,1,+02743,1,99,9",,"9,AGL   ,+99999,+99999","99,99,9,04,1,99,9,02743,1,99,9,99,9","10100,1,99999,9",,,,"MET061METAR SKSA 282200Z 21003KT 9999 SCT090 26/23 Q1010 RMK A2984=",
"80222599999","2023-04-28T23:00:00","4","6.95","-71.85","213.0","LOS COLONIZADORES, CO","FM-15","99999","V020","210,1,N,0015,1","99999,9,9,N","009999,1,9,9","+0260,1","+0230,1","99999,9","04,1,+02743,1,99,9",,"9,AGL   ,+99999,+99999","99,99,9,04,1,99,9,02743,1,99,9,99,9","10100,1,99999,9",,,,"MET061METAR SKSA 282300Z 21003KT 9999 SCT090 26/23 Q1010 RMK A2984=",
"80222599999","2023-04-29T11:00:00","4","6.95","-71.85","213.0","LOS COLONIZADORES, CO","FM-15","99999","V020","999,9,C,0000,1","99999,9,9,N","009999,1,9,9","+0220,1","+0220,1","99999,9","04,1,+02438,1,99,9",,"9,AGL   ,+99999,+99999","99,99,9,04,1,99,9,02438,1,99,9,99,9","10130,1,99999,9",,,,"MET061METAR SKSA 291100Z 00000KT 9999 SCT080 22/22 Q1013 RMK A2992=",
"80222599999","2023-04-29T12:00:00","4","6.95","-71.85","213.0","LOS COLONIZADORES, CO","FM-15","99999","V020","999,9,C,0000,1","99999,9,9,N","009999,1,9,9","+0230,1","+0220,1","99999,9","04,1,+02438,1,99,9",,"9,AGL   ,+99999,+99999","99,99,9,04,1,99,9,02438,1,99,9,99,9","10130,1,99999,9",,,,"MET061METAR SKSA 291200Z 00000KT 9999 SCT080 23/22 Q1013 RMK A2992=",
"80222599999","2023-04-29T15:00:00","4","6.95","-71.85","213.0","LOS COLONIZADORES, CO","FM-15","99999","V020","170,1,N,0015,1","99999,9,9,N","009999,1,9,9","+0290,1","+0230,1","99999,9","04,1,+02438,1,99,9",,"9,AGL   ,+99999,+99999","99,99,9,04,1,99,9,02438,1,99,9,99,9","10150,1,99999,9",,,,"MET061METAR SKSA 291500Z 17003KT 9999 SCT080 29/23 Q1015 RMK A2998=",
"80222599999","2023-04-29T16:00:00","4","6.95","-71.85","213.0","LOS COLONIZADORES, CO","FM-15","99999","V020","110,1,N,0015,1","99999,9,9,N","009999,1,9,9","+0300,1","+0230,1","99999,9","04,1,+02438,1,99,9",,"9,AGL   ,+99999,+99999","99,99,9,04,1,99,9,02438,1,99,9,99,9","10140,1,99999,9",,,,"MET061METAR SKSA 291600Z 11003KT 9999 SCT080 30/23 Q1014 RMK A2996=",
"80222599999","2023-04-29T17:00:00","4","6.95","-71.85","213.0","LOS COLONIZADORES, CO","FM-15","99999","V020","100,1,N,0026,1","99999,9,9,N","009999,1,9,9","+0310,1","+0230,1","99999,9","02,1,+00914,1,99,9",,"9,AGL   ,+99999,+99999","99,99,9,02,1,99,9,00914,1,99,9,99,9","10140,1,99999,9",,,,"MET061METAR SKSA 291700Z 10005KT 9999 FEW030 31/23 Q1014 RMK A2994=",
"80222599999","2023-04-29T18:00:00","4","6.95","-71.85","213.0","LOS COLONIZADORES, CO","FM-15","99999","V020","090,1,N,0021,1","99999,9,9,N","009999,1,9,9","+0320,1","+0230,1","99999,9","02,1,+00610,1,99,9",,"9,AGL   ,+99999,+99999","99,99,9,02,1,99,9,00610,1,99,9,99,9","10120,1,99999,9",,,,"MET061METAR SKSA 291800Z 09004KT 9999 FEW020 32/23 Q1012 RMK A2989=",
"80222599999","2023-04-29T19:00:00","4","6.95","-71.85","213.0","LOS COLONIZADORES, CO","FM-15","99999","V020","150,1,N,0031,1","99999,9,9,N","009999,1,9,9","+0320,1","+0230,1","99999,9","02,1,+00610,1,99,9",,"9,AGL   ,+99999,+99999","99,99,9,02,1,99,9,00610,1,99,9,99,9","10100,1,99999,9",,,,"MET061METAR SKSA 291900Z 15006KT 9999 FEW020 32/23 Q1010 RMK A2983=",
"80222599999","2023-04-29T21:00:00","4","6.95","-71.85","213.0","LOS COLONIZADORES, CO","FM-15","99999","V020","120,1,N,0015,1","99999,9,9,N","009999,1,9,9","+0320,1","+0230,1","99999,9","02,1,+00610,1,99,9",,"9,AGL   ,+99999,+99999","99,99,9,02,1,99,9,00610,1,99,9,99,9","10100,1,99999,9",,,,"MET061METAR SKSA 292100Z 12003KT 9999 FEW020 32/23 Q1010 RMK A2983=",
"80222599999","2023-04-29T23:00:00","4","6.95","-71.85","213.0","LOS COLONIZADORES, CO","FM-15","99999","V020","120,1,N,0015,1","99999,9,9,N","009999,1,9,9","+0290,1","+0230,1","99999,9","02,1,+00610,1,99,9",,"9,AGL   ,+99999,+99999","99,99,9,02,1,99,9,00610,1,99,9,99,9","10100,1,99999,9",,,,"MET061METAR SKSA 292300Z 12003KT 9999 FEW020 29/23 Q1010 RMK A2983=",
"80222599999","2023-04-30T11:00:00","4","6.95","-71.85","213.0","LOS COLONIZADORES, CO","FM-15","99999","V020","999,9,C,0000,1","99999,9,9,N","009999,1,9,9","+0240,1","+0240,1","99999,9","04,1,+02438,1,99,9",,"9,AGL   ,+99999,+99999","99,99,9,04,1,99,9,02438,1,99,9,99,9","10140,1,99999,9",,,,"MET061METAR SKSA 301100Z 00000KT 9999 SCT080 24/24 Q1014 RMK A2994=",
"80222599999","2023-04-30T13:00:00","4","6.95","-71.85","213.0","LOS COLONIZADORES, CO","FM-15","99999","V020","260,1,N,0015,1","99999,9,9,N","009999,1,9,9","+0260,1","+0240,1","99999,9","04,1,+02438,1,99,9",,"9,AGL   ,+99999,+99999","99,99,9,04,1,99,9,02438,1,99,9,99,9","10140,1,99999,9",,,,"MET061METAR SKSA 301300Z 26003KT 9999 SCT080 26/24 Q1014 RMK A2994=",
"80222599999","2023-04-30T14:00:00","4","6.95","-71.85","213.0","LOS COLONIZADORES, CO","FM-15","99999","V020","160,1,N,0015,1","22000,1,9,N","009999,1,9,9","+0300,1","+0230,1","99999,9",,,,"00,99,1,99,9,99,9,99999,9,99,9,99,9","10150,1,99999,9",,,,"MET058METAR SKSA 301400Z 16003KT 9999 NSC 30/23 Q1015 RMK A2997=",
"80222599999","2023-04-30T15:00:00","4","6.95","-71.85","213.0","LOS COLONIZADORES, CO","FM-15","99999","V020","160,1,N,0021,1","22000,1,9,N","009999,1,9,9","+0320,1","+0230,1","99999,9",,,,"00,99,1,99,9,99,9,99999,9,99,9,99,9","10140,1,99999,9",,,,"MET058METAR SKSA 301500Z 16004KT 9999 NSC 32/23 Q1014 RMK A2995=",
"80222599999","2023-04-30T18:00:00","4","6.95","-71.85","213.0","LOS COLONIZADORES, CO","FM-15","99999","V020","160,1,N,0026,1","22000,1,9,N","009999,1,9,9","+0330,1","+0230,1","99999,9",,,,"00,99,1,99,9,99,9,99999,9,99,9,99,9","10120,1,99999,9",,,,"MET058METAR SKSA 301800Z 16005KT 9999 NSC 33/23 Q1012 RMK A2989=",
"80222599999","2023-04-30T19:00:00","4","6.95","-71.85","213.0","LOS COLONIZADORES, CO","FM-15","99999","V020","160,1,N,0041,1","99999,9,9,N","009999,1,9,9","+0330,1","+0230,1","99999,9","04,1,+00914,1,99,9",,"9,AGL   ,+99999,+99999","99,99,9,04,1,99,9,00914,1,99,9,99,9","10110,1,99999,9",,,,"MET061METAR SKSA 301900Z 16008KT 9999 SCT030 33/23 Q1011 RMK A2986=",
"80222599999","2023-04-30T20:00:00","4","6.95","-71.85","213.0","LOS COLONIZADORES, CO","FM-15","99999","V020","040,1,N,0015,1","99999,9,9,N","009999,1,9,9","+0330,1","+0230,1","99999,9","04,1,+00914,1,99,9",,"9,AGL   ,+99999,+99999","99,99,9,04,1,99,9,00914,1,99,9,99,9","10100,1,99999,9",,,,"MET061METAR SKSA 302000Z 04003KT 9999 SCT030 33/23 Q1010 RMK A2984=",
"80222599999","2023-04-30T21:00:00","4","6.95","-71.85","213.0","LOS COLONIZADORES, CO","FM-15","99999","V020","190,1,N,0041,1","99999,9,9,N","009999,1,9,9","+0310,1","+0230,1","99999,9","04,1,+00914,1,99,9",,"9,AGL   ,+99999,+99999","99,99,9,04,1,99,9,00914,1,99,9,99,9","10100,1,99999,9",,,,"MET061METAR SKSA 302100Z 19008KT 9999 SCT030 31/23 Q1010 RMK A2984=",
"80222599999","2023-04-30T22:00:00","4","6.95","-71.85","213.0","LOS COLONIZADORES, CO","FM-15","99999","V020","260,1,N,0021,1","99999,9,9,N","009999,1,9,9","+0310,1","+0230,1","99999,9","04,1,+00610,1,99,9",,"9,AGL   ,+99999,+99999","99,99,9,04,1,99,9,00610,1,99,9,99,9","10100,1,99999,9",,,,"MET061METAR SKSA 302200Z 26004KT 9999 SCT020 31/23 Q1010 RMK A2984=",
"80222599999","2023-04-30T23:00:00","4","6.95","-71.85","213.0","LOS COLONIZADORES, CO","FM-15","99999","V020","260,1,N,0021,1","99999,9,9,N","009999,1,9,9","+0260,1","+0230,1","99999,9","04,1,+00610,1,99,9",,"9,AGL   ,+99999,+99999","99,99,9,04,1,99,9,00610,1,99,9,99,9","10100,1,99999,9",,,,"MET061METAR SKSA 302300Z 26004KT 9999 SCT020 26/23 Q1010 RMK A2984=",
"80222599999","2023-05-01T11:00:00","4","6.95","-71.85","213.0","LOS COLONIZADORES, CO","FM-15","99999","V020","999,9,C,0000,1","22000,1,9,N","009999,1,9,9","+0230,1","+0210,1","99999,9",,,,"00,99,1,99,9,99,9,99999,9,99,9,99,9","10130,1,99999,9",,,,"MET058METAR SKSA 011100Z 00000KT 9999 NSC 23/21 Q1013 RMK A2992=",
"80222599999","2023-05-01T14:00:00","4","6.95","-71.85","213.0","LOS COLONIZADORES, CO","FM-15","99999","V020","340,1,N,0036,1","22000,1,9,N","009999,1,9,9","+0310,1","+0210,1","99999,9",,,,"00,99,1,99,9,99,9,99999,9,99,9,99,9","10140,1,99999,9",,,,"MET058METAR SKSA 011400Z 34007KT 9999 NSC 31/21 Q1014 RMK A2996=",
"80222599999","2023-05-01T15:00:00","4","6.95","-71.85","213.0","LOS COLONIZADORES, CO","FM-15","99999","V020","070,1,N,0031,1","99999,9,9,N","009999,1,9,9","+0290,1","+0230,1","99999,9","02,1,+01219,1,99,9",,"9,AGL   ,+99999,+99999","99,99,9,02,1,99,9,01219,1,99,9,99,9","10150,1,99999,9",,,,"MET061METAR SKSA 011500Z 07006KT 9999 FEW040 29/23 Q1015 RMK A2997=",
"80222599999","2023-05-01T16:00:00","4","6.95","-71.85","213.0","LOS COLONIZADORES, CO","FM-15","99999","V020","010,1,N,0015,1","99999,9,9,N","009999,1,9,9","+0310,1","+0230,1","99999,9","02,1,+01829,1,99,9",,"9,AGL   ,+99999,+99999","99,99,9,02,1,99,9,01829,1,99,9,99,9","10140,1,99999,9",,,,"MET061METAR SKSA 011600Z 01003KT 9999 FEW060 31/23 Q1014 RMK A2994=",
"80222599999","2023-05-01T17:00:00","4","6.95","-71.85","213.0","LOS COLONIZADORES, CO","FM-15","99999","V020","999,9,C,0000,1","99999,9,9,N","009999,1,9,9","+0330,1","+0230,1","99999,9","02,1,+00914,1,99,9",,"9,AGL   ,+99999,+99999","99,99,9,02,1,99,9,00914,1,99,9,99,9","10130,1,99999,9",,,,"MET061METAR SKSA 011700Z 00000KT 9999 FEW030 33/23 Q1013 RMK A2992=",
"80222599999","2023-05-01T18:00:00","4","6.95","-71.85","213.0","LOS COLONIZADORES, CO","FM-15","99999","V020","010,1,N,0031,1","99999,9,9,N","009999,1,9,9","+0340,1","+0230,1","99999,9","04,1,+00914,1,99,9",,"9,AGL   ,+99999,+99999","99,99,9,04,1,99,9,00914,1,99,9,99,9","10100,1,99999,9",,,,"MET061METAR SKSA 011800Z 01006KT 9999 SCT030 34/23 Q1010 RMK A2984=",
"80222599999","2023-05-01T19:00:00","4","6.95","-71.85","213.0","LOS COLONIZADORES, CO","FM-15","99999","V020","999,9,C,0000,1","99999,9,9,N","009999,1,9,9","+0330,1","+0230,1","99999,9","02,1,+00914,1,99,9",,"9,AGL   ,+99999,+99999","99,99,9,02,1,99,9,00914,1,99,9,99,9","10130,1,99999,9",,,,"MET061METAR SKSA 011900Z 00000KT 9999 FEW030 33/23 Q1013 RMK A2992=",
"80222599999","2023-05-01T20:00:00","4","6.95","-71.85","213.0","LOS COLONIZADORES, CO","FM-15","99999","V020","999,9,V,0010,1","99999,9,9,N","009999,1,9,9","+0350,1","+0230,1","99999,9","04,1,+00914,1,99,9",,"9,AGL   ,+99999,+99999","99,99,9,04,1,99,9,00914,1,99,9,99,9","10090,2,99999,9",,,,"MET061METAR SKSA 012000Z VRB02KT 9999 SCT030 35/23 Q1009 RMK A2980=",
"80222599999","2023-05-01T21:00:00","4","6.95","-71.85","213.0","LOS COLONIZADORES, CO","FM-15","99999","V020","110,1,N,0021,1","99999,9,9,N","009999,1,9,9","+0340,1","+0230,1","99999,9","04,1,+00914,1,99,9",,"9,AGL   ,+99999,+99999","99,99,9,04,1,99,9,00914,1,99,9,99,9","10090,1,99999,9",,,,"MET061METAR SKSA 012100Z 11004KT 9999 SCT030 34/23 Q1009 RMK A2980=",
"80222599999","2023-05-01T22:00:00","4","6.95","-71.85","213.0","LOS COLONIZADORES, CO","FM-15","99999","V020","010,1,N,0015,1","99999,9,9,N","009999,1,9,9","+0330,1","+0230,1","99999,9","02,1,+00914,1,99,9",,"9,AGL   ,+99999,+99999","99,99,9,02,1,99,9,00914,1,99,9,99,9","10090,1,99999,9",,,,"MET061METAR SKSA 012200Z 01003KT 9999 FEW030 33/23 Q1009 RMK A2980=",
"80222599999","2023-05-01T23:00:00","4","6.95","-71.85","213.0","LOS COLONIZADORES, CO","FM-15","99999","V020","999,9,C,0000,1","99999,9,9,N","009999,1,9,9","+0290,1","+0230,1","99999,9","02,1,+01219,1,99,9",,"9,AGL   ,+99999,+99999","99,99,9,02,1,99,9,01219,1,99,9,99,9","10090,1,99999,9",,,,"MET061METAR SKSA 012300Z 00000KT 9999 FEW040 29/23 Q1009 RMK A2980=",
"80222599999","2023-05-02T11:00:00","4","6.95","-71.85","213.0","LOS COLONIZADORES, CO","FM-15","99999","V020","999,9,C,0000,1","22000,1,9,N","009999,1,9,9","+0250,1","+0210,1","99999,9",,,,"00,99,1,99,9,99,9,99999,9,99,9,99,9","10130,1,99999,9",,,,"MET058METAR SKSA 021100Z 00000KT 9999 NSC 25/21 Q1013 RMK A2991=",
"80222599999","2023-05-02T13:00:00","4","6.95","-71.85","213.0","LOS COLONIZADORES, CO","FM-15","99999","V020","310,1,N,0015,1","22000,1,9,N","009999,1,9,9","+0300,1","+0210,1","99999,9",,,,"00,99,1,99,9,99,9,99999,9,99,9,99,9","10140,1,99999,9",,,,"MET058METAR SKSA 021300Z 31003KT 9999 NSC 30/21 Q1014 RMK A2995=",
"80222599999","2023-05-02T18:00:00","4","6.95","-71.85","213.0","LOS COLONIZADORES, CO","FM-15","99999","V020","060,1,N,0031,1","99999,9,9,N","009999,1,9,9","+0340,1","+0220,1","99999,9","04,1,+01219,1,99,9",,"9,AGL   ,+99999,+99999","99,99,9,04,1,99,9,01219,1,99,9,99,9","10120,1,99999,9",,,,"MET061METAR SKSA 021800Z 06006KT 9999 SCT040 34/22 Q1012 RMK A2987=",
"80222599999","2023-05-02T20:00:00","4","6.95","-71.85","213.0","LOS COLONIZADORES, CO","FM-15","99999","V020","110,1,N,0015,1","99999,9,9,N","009999,1,9,9","+0330,1","+0220,1","99999,9","04,1,+01524,1,99,9",,"9,AGL   ,+99999,+99999","99,99,9,04,1,99,9,01524,1,99,9,99,9","10090,1,99999,9",,,,"MET061METAR SKSA 022000Z 11003KT 9999 SCT050 33/22 Q1009 RMK A2980=",
"80222599999","2023-05-02T22:00:00","4","6.95","-71.85","213.0","LOS COLONIZADORES, CO","FM-15","99999","V020","070,1,N,0015,1","22000,1,9,N","009999,1,9,9","+0330,1","+0220,1","99999,9",,,,"00,99,1,99,9,99,9,99999,9,99,9,99,9","10090,1,99999,9",,,,"MET058METAR SKSA 022200Z 07003KT 9999 NSC 33/22 Q1009 RMK A2980=",
"80222599999","2023-05-02T23:00:00","4","6.95","-71.85","213.0","LOS COLONIZADORES, CO","FM-15","99999","V020","070,1,N,0015,1","22000,1,9,N","009999,1,9,9","+0330,1","+0220,1","99999,9",,,,"00,99,1,99,9,99,9,99999,9,99,9,99,9","10090,1,99999,9",,,,"MET058METAR SKSA 022300Z 07003KT 9999 NSC 33/22 Q1009 RMK A2980=",
"80222599999","2023-05-03T11:00:00","4","6.95","-71.85","213.0","LOS COLONIZADORES, CO","FM-15","99999","V020","999,9,C,0000,1","22000,1,9,N","009999,1,9,9","+0240,1","+0170,1","99999,9",,,,"00,99,1,99,9,99,9,99999,9,99,9,99,9","10120,1,99999,9",,,,"MET058METAR SKSA 031100Z 00000KT 9999 NSC 24/17 Q1012 RMK A2987=",
"80222599999","2023-05-03T12:00:00","4","6.95","-71.85","213.0","LOS COLONIZADORES, CO","FM-15","99999","V020","999,9,C,0000,1","22000,1,9,N","009999,1,9,9","+0240,1","+0170,1","99999,9",,,,"00,99,1,99,9,99,9,99999,9,99,9,99,9","10120,1,99999,9",,,,"MET058METAR SKSA 031200Z 00000KT 9999 NSC 24/17 Q1012 RMK A2987=",
"80222599999","2023-05-03T13:00:00","4","6.95","-71.85","213.0","LOS COLONIZADORES, CO","FM-15","99999","V020","310,1,N,0015,1","22000,1,9,N","009999,1,9,9","+0280,1","+0180,1","99999,9",,,,"00,99,1,99,9,99,9,99999,9,99,9,99,9","10130,1,99999,9",,,,"MET058METAR SKSA 031300Z 31003KT 9999 NSC 28/18 Q1013 RMK A2983=",
"80222599999","2023-05-03T14:00:00","4","6.95","-71.85","213.0","LOS COLONIZADORES, CO","FM-15","99999","V020","310,1,N,0015,1","22000,1,9,N","009999,1,9,9","+0310,1","+0180,1","99999,9",,,,"00,99,1,99,9,99,9,99999,9,99,9,99,9","10130,1,99999,9",,,,"MET058METAR SKSA 031400Z 31003KT 9999 NSC 31/18 Q1013 RMK A2983=",
"80222599999","2023-05-03T17:00:00","4","6.95","-71.85","213.0","LOS COLONIZADORES, CO","FM-15","99999","V020","060,1,N,0031,1","22000,1,9,N","009999,1,9,9","+0340,1","+0200,1","99999,9",,,,"00,99,1,99,9,99,9,99999,9,99,9,99,9","10110,1,99999,9",,,,"MET058METAR SKSA 031700Z 06006KT 9999 NSC 34/20 Q1011 RMK A2986=",
"80222599999","2023-05-03T19:00:00","4","6.95","-71.85","213.0","LOS COLONIZADORES, CO","FM-15","99999","V020","360,1,N,0021,1","22000,1,9,N","009999,1,9,9","+0340,1","+0200,1","99999,9",,,,"00,99,1,99,9,99,9,99999,9,99,9,99,9","10090,1,99999,9",,,,"MET058METAR SKSA 031900Z 36004KT 9999 NSC 34/20 Q1009 RMK A2979=",
"80222599999","2023-05-03T20:00:00","4","6.95","-71.85","213.0","LOS COLONIZADORES, CO","FM-15","99999","V020","050,1,N,0031,1","22000,1,9,N","009999,1,9,9","+0340,1","+0200,1","99999,9",,,,"00,99,1,99,9,99,9,99999,9,99,9,99,9","10080,1,99999,9",,,,"MET058METAR SKSA 032000Z 05006KT 9999 NSC 34/20 Q1008 RMK A2977=",
"80222599999","2023-05-03T21:00:00","4","6.95","-71.85","213.0","LOS COLONIZADORES, CO","FM-15","99999","V020","090,1,N,0021,1","22000,1,9,N","009999,1,9,9","+0340,1","+0200,1","99999,9",,,,"00,99,1,99,9,99,9,99999,9,99,9,99,9","10070,1,99999,9",,,,"MET058METAR SKSA 032100Z 09004KT 9999 NSC 34/20 Q1007 RMK A2976=",
"80222599999","2023-05-03T22:00:00","4","6.95","-71.85","213.0","LOS COLONIZADORES, CO","FM-15","99999","V020","090,1,N,0015,1","22000,1,9,N","009999,1,9,9","+0340,1","+0200,1","99999,9",,,,"00,99,1,99,9,99,9,99999,9,99,9,99,9","10080,1,99999,9",,,,"MET058METAR SKSA 032200Z 09003KT 9999 NSC 34/20 Q1008 RMK A2976=",
"80222599999","2023-05-03T23:00:00","4","6.95","-71.85","213.0","LOS COLONIZADORES, CO","FM-15","99999","V020","999,9,C,0000,1","22000,1,9,N","009999,1,9,9","+0340,1","+0210,1","99999,9",,,,"00,99,1,99,9,99,9,99999,9,99,9,99,9","10080,1,99999,9",,,,"MET058METAR SKSA 032300Z 00000KT 9999 NSC 34/21 Q1008 RMK A2977=",
"80222599999","2023-05-04T11:00:00","4","6.95","-71.85","213.0","LOS COLONIZADORES, CO","FM-15","99999","V020","999,9,C,0000,1","22000,1,9,N","009999,1,9,9","+0220,1","+0190,1","99999,9",,,,"00,99,1,99,9,99,9,99999,9,99,9,99,9","10120,1,99999,9",,,,"MET061METAR SKSA 041100Z 00000KT 9999 NSC 22/19 Q1012 RMK A2990 HZ=",
"80222599999","2023-05-04T13:00:00","4","6.95","-71.85","213.0","LOS COLONIZADORES, CO","FM-15","99999","V020","999,9,C,0000,1","22000,1,9,N","009999,1,9,9","+0300,1","+0190,1","99999,9",,,,"00,99,1,99,9,99,9,99999,9,99,9,99,9","10140,1,99999,9",,,,"MET060METAR SKSA 041300Z 00000KT 9999 NSC30/19 Q1014 RMK A2995 HZ=",
"80222599999","2023-05-04T15:00:00","4","6.95","-71.85","213.0","LOS COLONIZADORES, CO","FM-15","99999","V020","040,1,N,0015,1","22000,1,9,N","009999,1,9,9","+0320,1","+0200,1","99999,9",,,,"00,99,1,99,9,99,9,99999,9,99,9,99,9","10140,1,99999,9",,,,"MET061METAR SKSA 041500Z 04003KT 9999 NSC 32/20 Q1014 RMK A2995 HZ=",
"80222599999","2023-05-04T16:00:00","4","6.95","-71.85","213.0","LOS COLONIZADORES, CO","FM-15","99999","V020","060,1,N,0031,1","22000,1,9,N","009999,1,9,9","+0330,1","+0200,1","99999,9",,,,"00,99,1,99,9,99,9,99999,9,99,9,99,9","10130,1,99999,9",,,,"MET061METAR SKSA 041600Z 06006KT 9999 NSC 33/20 Q1013 RMK A2992 HZ=",
"80222599999","2023-05-04T18:00:00","4","6.95","-71.85","213.0","LOS COLONIZADORES, CO","FM-15","99999","V020","060,1,N,0015,1","99999,9,9,N","009999,1,9,9","+0320,1","+0200,1","99999,9","04,1,+01219,1,99,9",,"9,AGL   ,+99999,+99999","99,99,9,04,1,99,9,01219,1,99,9,99,9","10110,1,99999,9",,,,"MET064METAR SKSA 041800Z 06003KT 9999 SCT040 32/20 Q1011 RMK A2986 HZ=",
"80222599999","2023-05-04T19:00:00","4","6.95","-71.85","213.0","LOS COLONIZADORES, CO","FM-15","99999","V020","050,1,N,0021,1","99999,9,9,N","009999,1,9,9","+0330,1","+0200,1","99999,9","04,1,+01219,1,99,9",,"9,AGL   ,+99999,+99999","99,99,9,04,1,99,9,01219,1,99,9,99,9","10100,1,99999,9",,,,"MET064METAR SKSA 041900Z 05004KT 9999 SCT040 33/20 Q1010 RMK A2982 HZ=",
"80222599999","2023-05-04T21:00:00","4","6.95","-71.85","213.0","LOS COLONIZADORES, CO","FM-15","99999","V020","290,1,N,0015,1","99999,9,9,N","009999,1,9,9","+0320,1","+0210,1","99999,9","04,1,+01219,1,99,9",,"9,AGL   ,+99999,+99999","99,99,9,04,1,99,9,01219,1,99,9,99,9","10090,1,99999,9",,,,"MET064METAR SKSA 042100Z 29003KT 9999 SCT040 32/21 Q1009 RMK A2978 HZ=",
"80222599999","2023-05-05T11:00:00","4","6.95","-71.85","213.0","LOS COLONIZADORES, CO","FM-15","99999","V020","330,1,N,0015,1","01829,1,C,N","009999,1,9,9","+0250,1","+0200,1","99999,9","07,1,+01829,1,99,9",,"9,AGL   ,+99999,+99999","99,99,9,07,1,99,9,01829,1,99,9,99,9","10130,1,99999,9",,,,"MET064METAR SKSA 051100Z 33003KT 9999 BKN060 25/20 Q1013 RMK A2991 HZ=",
"80222599999","2023-05-05T12:00:00","4","6.95","-71.85","213.0","LOS COLONIZADORES, CO","FM-15","99999","V020","300,1,N,0021,1","01524,1,C,N","009999,1,9,9","+0260,1","+0200,1","99999,9","07,1,+01524,1,99,9",,"9,AGL   ,+99999,+99999","99,99,9,07,1,99,9,01524,1,99,9,99,9","10130,1,99999,9",,,,"MET064METAR SKSA 051200Z 30004KT 9999 BKN050 26/20 Q1013 RMK A2991 HZ=",
"80222599999","2023-05-05T13:00:00","4","6.95","-71.85","213.0","LOS COLONIZADORES, CO","FM-15","99999","V020","300,1,N,0051,1","01829,1,C,N","009999,1,9,9","+0270,1","+0200,1","99999,9","07,1,+01829,1,99,9",,"9,AGL   ,+99999,+99999","99,99,9,07,1,99,9,01829,1,99,9,99,9","10140,1,99999,9",,,,"MET064METAR SKSA 051300Z 30010KT 9999 BKN060 27/20 Q1014 RMK A2995 HZ=",
"80222599999","2023-05-05T15:00:00","4","6.95","-71.85","213.0","LOS COLONIZADORES, CO","FM-15","99999","V020","250,1,N,0041,1","01829,1,C,N","009999,1,9,9","+0300,1","+0210,1","99999,9","07,1,+01829,1,99,9",,"9,AGL   ,+99999,+99999","99,99,9,07,1,99,9,01829,1,99,9,99,9","10140,1,99999,9",,,,"MET064METAR SKSA 051500Z 25008KT 9999 BKN060 30/21 Q1014 RMK A2995 HZ=",
"80222599999","2023-05-05T16:00:00","4","6.95","-71.85","213.0","LOS COLONIZADORES, CO","FM-15","99999","V020","300,1,N,0021,1","99999,9,9,N","009999,1,9,9","+0310,1","+0230,1","99999,9","04,1,+01829,1,99,9",,"9,AGL   ,+99999,+99999","99,99,9,04,1,99,9,01829,1,99,9,99,9","10140,1,99999,9",,,,"MET064METAR SKSA 051600Z 30004KT 9999 SCT060 31/23 Q1014 RMK A2995 HZ=",
"80222599999","2023-05-05T17:00:00","4","6.95","-71.85","213.0","LOS COLONIZADORES, CO","FM-15","99999","V020","320,1,N,0021,1","99999,9,9,N","009999,1,9,9","+0320,1","+0200,1","99999,9","04,1,+01524,1,99,9",,"9,AGL   ,+99999,+99999","99,99,9,04,1,99,9,01524,1,99,9,99,9","10140,1,99999,9",,,,"MET064METAR SKSA 051700Z 32004KT 9999 SCT050 32/20 Q1014 RMK A2993 HZ=",
"80222599999","2023-05-05T18:00:00","4","6.95","-71.85","213.0","LOS COLONIZADORES, CO","FM-15","99999","V020","100,1,N,0015,1","99999,9,9,N","009999,1,9,9","+0320,1","+0200,1","99999,9","04,1,+00914,1,99,9",,"9,AGL   ,+99999,+99999","99,99,9,04,1,99,9,00914,1,99,9,99,9","10120,1,99999,9",,,,"MET064METAR SKSA 051800Z 10003KT 9999 SCT030 32/20 Q1012 RMK A2989 HZ=",
"80222599999","2023-05-05T19:00:00","4","6.95","-71.85","213.0","LOS COLONIZADORES, CO","FM-15","99999","V020","340,1,N,0031,1","99999,9,9,N","009999,1,9,9","+0330,1","+0200,1","99999,9","02,1,+00914,1,99,9",,"9,AGL   ,+99999,+99999","99,99,9,02,1,99,9,00914,1,99,9,99,9","10100,1,99999,9",,,,"MET064METAR SKSA 051900Z 34006KT 9999 FEW030 33/20 Q1010 RMK A2984 HZ=",
"80222599999","2023-05-05T20:00:00","4","6.95","-71.85","213.0","LOS COLONIZADORES, CO","FM-15","99999","V020","300,1,N,0021,1","99999,9,9,N","009999,1,9,9","+0320,1","+0200,1","99999,9","02,1,+00914,1,99,9",,"9,AGL   ,+99999,+99999","99,99,9,02,1,99,9,00914,1,99,9,99,9","10100,1,99999,9",,,,"MET064METAR SKSA 052000Z 30004KT 9999 FEW030 32/20 Q1010 RMK A2984 HZ=",
"80222599999","2023-05-05T21:00:00","4","6.95","-71.85","213.0","LOS COLONIZADORES, CO","FM-15","99999","V020","280,1,N,0015,1","22000,1,9,N","009999,1,9,9","+0330,1","+0210,1","99999,9",,,,"00,99,1,99,9,99,9,99999,9,99,9,99,9","10090,1,99999,9",,,,"MET061METAR SKSA 052100Z 28003KT 9999 NSC 33/21 Q1009 RMK A2979 HZ=",
"80222599999","2023-05-06T11:00:00","4","6.95","-71.85","213.0","LOS COLONIZADORES, CO","FM-15","99999","V020","999,9,C,0000,1","01524,1,C,N","009999,1,9,9","+0240,1","+0190,1","99999,9","08,1,+01524,1,99,9",,"9,AGL   ,+99999,+99999","99,99,9,08,1,99,9,01524,1,99,9,99,9","10140,1,99999,9",,,,"MET064METAR SKSA 061100Z 00000KT 9999 OVC050 24/19 Q1014 RMK A2995 HZ=",
"80222599999","2023-05-06T13:00:00","4","6.95","-71.85","213.0","LOS COLONIZADORES, CO","FM-15","99999","V020","999,9,V,0010,1","99999,9,9,N","009999,1,9,9","+0270,1","+0200,1","99999,9","04,1,+01524,1,99,9",,"9,AGL   ,+99999,+99999","99,99,9,04,1,99,9,01524,1,99,9,99,9","10150,1,99999,9",,,,"MET064METAR SKSA 061300Z VRB02KT 9999 SCT050 27/20 Q1015 RMK A2997 HZ=",
"80222599999","2023-05-06T14:00:00","4","6.95","-71.85","213.0","LOS COLONIZADORES, CO","FM-15","99999","V020","350,1,N,0036,1","99999,9,9,N","009999,1,9,9","+0300,1","+0200,1","99999,9","04,1,+01524,1,99,9",,"9,AGL   ,+99999,+99999","99,99,9,04,1,99,9,01524,1,99,9,99,9","10150,1,99999,9",,,,"MET064METAR SKSA 061400Z 35007KT 9999 SCT050 30/20 Q1015 RMK A2998 HZ=",
"80222599999","2023-05-06T15:00:00","4","6.95","-71.85","213.0","LOS COLONIZADORES, CO","FM-15","99999","V020","040,1,N,0015,1","99999,9,9,N","009999,1,9,9","+0310,1","+0180,1","99999,9","04,1,+02134,1,99,9",,"9,AGL   ,+99999,+99999","99,99,9,04,1,99,9,02134,1,99,9,99,9","10150,1,99999,9",,,,"MET064METAR SKSA 061500Z 04003KT 9999 SCT070 31/18 Q1015 RMK A2998 HZ=",
"80222599999","2023-05-06T16:00:00","4","6.95","-71.85","213.0","LOS COLONIZADORES, CO","FM-15","99999","V020","240,1,N,0015,1","99999,9,9,N","009999,1,9,9","+0320,1","+0180,1","99999,9","04,1,+01524,1,99,9",,"9,AGL   ,+99999,+99999","99,99,9,04,1,99,9,01524,1,99,9,99,9","10150,1,99999,9",,,,"MET064METAR SKSA 061600Z 24003KT 9999 SCT050 32/18 Q1015 RMK A2996 HZ=",
"80222599999","2023-05-06T17:00:00","4","6.95","-71.85","213.0","LOS COLONIZADORES, CO","FM-15","99999","V020","320,1,N,0015,1","99999,9,9,N","009999,1,9,9","+0330,1","+0180,1","99999,9","04,1,+01219,1,99,9",,"9,AGL   ,+99999,+99999","99,99,9,04,1,99,9,01219,1,99,9,99,9","10130,1,99999,9",,,,"MET064METAR SKSA 061700Z 32003KT 9999 SCT040 33/18 Q1013 RMK A2992 HZ=",
"80222599999","2023-05-06T18:00:00","4","6.95","-71.85","213.0","LOS COLONIZADORES, CO","FM-15","99999","V020","220,1,N,0015,1","99999,9,9,N","009999,1,9,9","+0330,1","+0180,1","99999,9","04,1,+01219,1,99,9",,"9,AGL   ,+99999,+99999","99,99,9,04,1,99,9,01219,1,99,9,99,9","10120,1,99999,9",,,,"MET064METAR SKSA 061800Z 22003KT 9999 SCT040 33/18 Q1012 RMK A2989 HZ=",
"80222599999","2023-05-06T19:00:00","4","6.95","-71.85","213.0","LOS COLONIZADORES, CO","FM-15","99999","V020","020,1,N,0015,1","99999,9,9,N","009999,1,9,9","+0330,1","+0180,1","99999,9","02,1,+01219,1,99,9",,"9,AGL   ,+99999,+99999","99,99,9,02,1,99,9,01219,1,99,9,99,9","10110,1,99999,9",,,,"MET064METAR SKSA 061900Z 02003KT 9999 FEW040 33/18 Q1011 RMK A2985 HZ=",
"80222599999","2023-05-06T21:00:00","4","6.95","-71.85","213.0","LOS COLONIZADORES, CO","FM-15","99999","V020","999,9,C,0000,1","22000,1,9,N","009999,1,9,9","+0330,1","+0180,1","99999,9",,,,"00,99,1,99,9,99,9,99999,9,99,9,99,9","10090,1,99999,9",,,,"MET061METAR SKSA 062100Z 00000KT 9999 NSC 33/18 Q1009 RMK A2980 HZ=",
"80222599999","2023-05-06T22:00:00","4","6.95","-71.85","213.0","LOS COLONIZADORES, CO","FM-15","99999","V020","999,9,C,0000,1","22000,1,9,N","009999,1,9,9","+0320,1","+0200,1","99999,9",,,,"00,99,1,99,9,99,9,99999,9,99,9,99,9","10090,1,99999,9",,,,"MET061METAR SKSA 062200Z 00000KT 9999 NSC 32/20 Q1009 RMK A2981 HZ=",
"80222599999","2023-05-06T23:00:00","4","6.95","-71.85","213.0","LOS COLONIZADORES, CO","FM-15","99999","V020","999,9,C,0000,1","22000,1,9,N","009999,1,9,9","+0270,1","+0200,1","99999,9",,,,"00,99,1,99,9,99,9,99999,9,99,9,99,9","10100,1,99999,9",,,,"MET061METAR SKSA 062300Z 00000KT 9999 NSC 27/20 Q1010 RMK A2983 HZ=",
"80222599999","2023-05-07T11:00:00","4","6.95","-71.85","213.0","LOS COLONIZADORES, CO","FM-15","99999","V020","999,9,V,0010,1","22000,1,9,N","009999,1,9,9","+0210,1","+0180,1","99999,9",,,,"00,99,1,99,9,99,9,99999,9,99,9,99,9","10120,1,99999,9",,,,"MET061METAR SKSA 071100Z VRB02KT 9999 NSC 21/18 Q1012 RMK A2990 HZ=",
"80222599999","2023-05-07T13:00:00","4","6.95","-71.85","213.0","LOS COLONIZADORES, CO","FM-15","99999","V020","290,1,N,0021,1","22000,1,9,N","009999,1,9,9","+0280,1","+0180,1","99999,9",,,,"00,99,1,99,9,99,9,99999,9,99,9,99,9","10130,1,99999,9",,,,"MET061METAR SKSA 071300Z 29004KT 9999 NSC 28/18 Q1013 RMK A2993 HZ=",
"80222599999","2023-05-07T14:00:00","4","6.95","-71.85","213.0","LOS COLONIZADORES, CO","FM-15","99999","V020","330,1,N,0026,1","22000,1,9,N","009999,1,9,9","+0320,1","+0190,1","99999,9",,,,"00,99,1,99,9,99,9,99999,9,99,9,99,9","10130,1,99999,9",,,,"MET061METAR SKSA 071400Z 33005KT 9999 NSC 32/19 Q1013 RMK A2993 HZ=",
"80222599999","2023-05-07T15:00:00","4","6.95","-71.85","213.0","LOS COLONIZADORES, CO","FM-15","99999","V020","999,9,C,0000,1","22000,1,9,N","009999,1,9,9","+0320,1","+0190,1","99999,9",,,,"00,99,1,99,9,99,9,99999,9,99,9,99,9","10130,1,99999,9",,,,"MET061METAR SKSA 071500Z 00000KT 9999 NSC 32/19 Q1013 RMK A2993 HZ=",
"80222599999","2023-05-07T16:00:00","4","6.95","-71.85","213.0","LOS COLONIZADORES, CO","FM-15","99999","V020","070,1,N,0031,1","22000,1,9,N","009999,1,9,9","+0330,1","+0200,1","99999,9",,,,"00,99,1,99,9,99,9,99999,9,99,9,99,9","10130,1,99999,9",,,,"MET061METAR SKSA 071600Z 07006KT 9999 NSC 33/20 Q1013 RMK A2993 HZ=",
"80222599999","2023-05-07T18:00:00","4","6.95","-71.85","213.0","LOS COLONIZADORES, CO","FM-15","99999","V020","100,1,N,0026,1","22000,1,9,N","009999,1,9,9","+0340,1","+0200,1","99999,9",,,,"00,99,1,99,9,99,9,99999,9,99,9,99,9","10110,1,99999,9",,,,"MET061METAR SKSA 071800Z 10005KT 9999 NSC 34/20 Q1011 RMK A2985 HZ=",
"80222599999","2023-05-07T20:00:00","4","6.95","-71.85","213.0","LOS COLONIZADORES, CO","FM-15","99999","V020","130,1,N,0015,1","02743,1,C,N","009999,1,9,9","+0330,1","+0200,1","99999,9","08,1,+02743,1,99,9",,"9,AGL   ,+99999,+99999","99,99,9,08,1,99,9,02743,1,99,9,99,9","10100,1,99999,9",,,,"MET064METAR SKSA 072000Z 13003KT 9999 OVC090 33/20 Q1010 RMK A2981 HZ=",
"80222599999","2023-05-07T22:00:00","4","6.95","-71.85","213.0","LOS COLONIZADORES, CO","FM-15","99999","V020","130,1,N,0015,1","02743,1,C,N","009999,1,9,9","+0320,1","+0200,1","99999,9","08,1,+02743,1,99,9",,"9,AGL   ,+99999,+99999","99,99,9,08,1,99,9,02743,1,99,9,99,9","10100,1,99999,9",,,,"MET064METAR SKSA 072200Z 13003KT 9999 OVC090 32/20 Q1010 RMK A2981 HZ=",
"80222599999","2023-05-07T23:00:00","4","6.95","-71.85","213.0","LOS COLONIZADORES, CO","FM-15","99999","V020","999,9,C,0000,1","22000,1,9,N","009999,1,9,9","+0280,1","+0230,1","99999,9",,,,"00,99,1,99,9,99,9,99999,9,99,9,99,9","10100,1,99999,9",,,,"MET061METAR SKSA 072300Z 00000KT 9999 NSC 28/23 Q1010 RMK A2982 HZ=",
"80222599999","2023-05-08T11:00:00","4","6.95","-71.85","213.0","LOS COLONIZADORES, CO","FM-15","99999","V020","999,9,V,0010,1","99999,9,9,N","001500,1,9,9","+0230,1","+0230,1","99999,9",,,,,"10130,1,99999,9","63,1",,,"MET060METAR SKSA 081100Z VRB02KT 1500 RA 23/23 Q1013 RMK A2992 HZ=",
"80222599999","2023-05-08T12:00:00","4","6.95","-71.85","213.0","LOS COLONIZADORES, CO","FM-15","99999","V020","999,9,V,0010,1","99999,9,9,N","001500,1,9,9","+0230,1","+0230,1","99999,9",,,,,"10130,1,99999,9","63,1",,,"MET060METAR SKSA 081200Z VRB02KT 1500 RA 23/23 Q1013 RMK A2992 HZ=",
"80222599999","2023-05-08T14:00:00","4","6.95","-71.85","213.0","LOS COLONIZADORES, CO","FM-15","99999","V020","300,1,N,0031,1","00914,1,C,N","008000,1,9,9","+0230,1","+0230,1","99999,9","08,1,+00914,1,99,9",,"9,AGL   ,+99999,+99999","99,99,9,08,1,99,9,00914,1,99,9,99,9","10140,1,99999,9",,,,"MET064METAR SKSA 081400Z 30006KT 8000 OVC030 23/23 Q1014 RMK A2995 HZ=",
"80222599999","2023-05-08T16:00:00","4","6.95","-71.85","213.0","LOS COLONIZADORES, CO","FM-15","99999","V020","280,1,N,0031,1","01524,1,C,N","008000,1,9,9","+0280,1","+0230,1","99999,9","07,1,+01524,1,99,9",,"9,AGL   ,+99999,+99999","99,99,9,07,1,99,9,01524,1,99,9,99,9","10130,1,99999,9",,,,"MET064METAR SKSA 081600Z 28006KT 8000 BKN050 28/23 Q1013 RMK A2993 HZ=",
"80222599999","2023-05-08T17:00:00","4","6.95","-71.85","213.0","LOS COLONIZADORES, CO","FM-15","99999","V020","310,1,N,0031,1","99999,9,9,N","009999,1,9,9","+0300,1","+0230,1","99999,9","04,1,+01524,1,99,9",,"9,AGL   ,+99999,+99999","99,99,9,04,1,99,9,01524,1,99,9,99,9","10130,1,99999,9",,,,"MET064METAR SKSA 081700Z 31006KT 9999 SCT050 30/23 Q1013 RMK A2993 HZ=",
"80222599999","2023-05-08T18:00:00","4","6.95","-71.85","213.0","LOS COLONIZADORES, CO","FM-15","99999","V020","320,1,N,0015,1","99999,9,9,N","009999,1,9,9","+0310,1","+0230,1","99999,9","04,1,+01219,1,99,9",,"9,AGL   ,+99999,+99999","99,99,9,04,1,99,9,01219,1,99,9,99,9","10120,1,99999,9",,,,"MET064METAR SKSA 081800Z 32003KT 9999 SCT040 31/23 Q1012 RMK A2988 HZ=",
"80222599999","2023-05-08T20:00:00","4","6.95","-71.85","213.0","LOS COLONIZADORES, CO","FM-15","99999","V020","310,1,N,0041,1","99999,9,9,N","009999,1,9,9","+0310,1","+0230,1","99999,9","04,1,+01219,1,99,9",,"9,AGL   ,+99999,+99999","99,99,9,04,1,99,9,01219,1,99,9,99,9","10100,1,99999,9",,,,"MET064METAR SKSA 082000Z 31008KT 9999 SCT040 31/23 Q1010 RMK A2982 HZ=",
"80222599999","2023-05-08T21:00:00","4","6.95","-71.85","213.0","LOS COLONIZADORES, CO","FM-15","99999","V020","290,1,N,0031,1","99999,9,9,N","009999,1,9,9","+0320,1","+0220,1","99999,9","04,1,+00610,1,09,1",,"9,AGL   ,+99999,+99999","99,99,9,04,1,99,9,00610,1,99,9,99,9","10090,1,99999,9","13,1",,,"MET084METAR SKSA 082100Z 29006KT 9999 4000S VCTS SCT020CB 32/22 Q1009 RMK A2981 VCTS/S HZ=",
"80222599999","2023-05-08T23:00:00","4","6.95","-71.85","213.0","LOS COLONIZADORES, CO","FM-15","99999","V020","270,1,N,0015,1","22000,1,9,N","009999,1,9,9","+0290,1","+0220,1","99999,9",,,,"00,99,1,99,9,99,9,99999,9,99,9,99,9","10100,1,99999,9",,,,"MET061METAR SKSA 082300Z 27003KT 9999 NSC 29/22 Q1010 RMK A2983 HZ=",
"80222599999","2023-05-09T11:00:00","4","6.95","-71.85","213.0","LOS COLONIZADORES, CO","FM-15","99999","V020","250,1,N,0015,1","99999,9,9,N","006000,1,9,9","+0240,1","+0230,1","99999,9",,,,,"10120,1,99999,9","53,1",,,"MET060METAR SKSA 091100Z 25003KT 6000 DZ 24/23 Q1012 RMK A2990 HZ=",
"80222599999","2023-05-09T12:00:00","4","6.95","-71.85","213.0","LOS COLONIZADORES, CO","FM-15","99999","V020","270,1,N,0021,1","99999,9,9,N","006000,1,9,9","+0240,1","+0230,1","99999,9",,,,,"10130,1,99999,9",,,,"MET062METAR SKSA 091200Z 27004KT 6000 24/23 Q1013 RMK RERA A2992 HZ=",
"80222599999","2023-05-09T13:00:00","4","6.95","-71.85","213.0","LOS COLONIZADORES, CO","FM-15","99999","V020","260,1,N,0026,1","99999,9,9,N","009999,1,9,9","+0260,1","+0230,1","99999,9",,,,,"10130,1,99999,9",,,,"MET057METAR SKSA 091300Z 26005KT 9999 26/23 Q1013 RMK A2992 HZ=",
"80222599999","2023-05-09T14:00:00","4","6.95","-71.85","213.0","LOS COLONIZADORES, CO","FM-15","99999","V020","290,1,N,0015,1","02438,1,C,N","009999,1,9,9","+0270,1","+0230,1","99999,9","07,1,+02438,1,99,9",,"9,AGL   ,+99999,+99999","99,99,9,07,1,99,9,02438,1,99,9,99,9","10140,1,99999,9",,,,"MET061METAR SKSA 091400Z 29003KT 9999 BKN080 27/23 Q1014 RMK A2995=",
"80222599999","2023-05-09T15:00:00","4","6.95","-71.85","213.0","LOS COLONIZADORES, CO","FM-15","99999","V020","330,1,N,0026,1","99999,9,9,N","009999,1,9,9","+0300,1","+0240,1","99999,9","04,1,+02438,1,99,9",,"9,AGL   ,+99999,+99999","99,99,9,04,1,99,9,02438,1,99,9,99,9","10140,1,99999,9",,,,"MET061METAR SKSA 091500Z 33005KT 9999 SCT080 30/24 Q1014 RMK A2995=",
"80222599999","2023-05-09T16:00:00","4","6.95","-71.85","213.0","LOS COLONIZADORES, CO","FM-15","99999","V020","280,1,N,0026,1","99999,9,9,N","009999,1,9,9","+0310,1","+0220,1","99999,9","04,1,+02438,1,99,9",,"9,AGL   ,+99999,+99999","99,99,9,04,1,99,9,02438,1,99,9,99,9","10130,1,99999,9",,,,"MET061METAR SKSA 091600Z 28005KT 9999 SCT080 31/22 Q1013 RMK A2992=",
"80222599999","2023-05-09T17:00:00","4","6.95","-71.85","213.0","LOS COLONIZADORES, CO","FM-15","99999","V020","310,1,N,0026,1","99999,9,9,N","009999,1,9,9","+0330,1","+0220,1","99999,9","04,1,+02438,1,99,9",,"9,AGL   ,+99999,+99999","99,99,9,04,1,99,9,02438,1,99,9,99,9","10120,1,99999,9",,,,"MET061METAR SKSA 091700Z 31005KT 9999 SCT080 33/22 Q1012 RMK A2988=",
"80222599999","2023-05-09T18:00:00","4","6.95","-71.85","213.0","LOS COLONIZADORES, CO","FM-15","99999","V020","360,1,N,0015,1","99999,9,9,N","009999,1,9,9","+0330,1","+0220,1","99999,9","04,1,+02438,1,99,9",,"9,AGL   ,+99999,+99999","99,99,9,04,1,99,9,02438,1,99,9,99,9","10110,1,99999,9",,,,"MET061METAR SKSA 091800Z 36003KT 9999 SCT080 33/22 Q1011 RMK A2986=",
"80222599999","2023-05-09T19:00:00","4","6.95","-71.85","213.0","LOS COLONIZADORES, CO","FM-15","99999","V020","100,1,N,0051,1","00914,1,C,N","007000,1,9,9","+0240,2","+0230,1","99999,9","08,1,+00914,1,99,9",,"9,AGL   ,+99999,+99999","99,99,9,08,1,99,9,00914,1,99,9,99,9","10120,1,99999,9","63,1",,"0082,1","MET067METAR SKSA 091900Z 10010G16KT 7000 RA OVC030 24/23 Q1012 RMK A2990=",
"80222599999","2023-05-09T20:00:00","4","6.95","-71.85","213.0","LOS COLONIZADORES, CO","FM-15","99999","V020","200,1,N,0031,1","01372,1,C,N","009000,1,9,9","+0240,1","+0240,1","99999,9","08,1,+01372,1,99,9",,"9,AGL   ,+99999,+99999","99,99,9,08,1,99,9,01372,1,99,9,99,9","10120,1,99999,9","61,1",,,"MET065METAR SKSA 092000Z 20006KT 9000 -RA OVC045 24/24 Q1012 RMK A2989=",
"80222599999","2023-05-09T21:00:00","4","6.95","-71.85","213.0","LOS COLONIZADORES, CO","FM-15","99999","V020","200,1,N,0031,1","02743,1,C,N","009999,1,9,9","+0250,1","+0240,1","99999,9","07,1,+02743,1,99,9",,"9,AGL   ,+99999,+99999","99,99,9,07,1,99,9,02743,1,99,9,99,9","10120,1,99999,9","16,5",,,"MET073METAR SKSA 092100Z 20006KT 9999 VCRA BKN090 25/24 Q1012 RMK VCRA S A2990=","D01      0ADE735"
"80222599999","2023-05-09T23:00:00","4","6.95","-71.85","213.0","LOS COLONIZADORES, CO","FM-15","99999","V020","360,1,N,0015,1","99999,9,9,N","009999,1,9,9","+0240,1","+0240,1","99999,9","04,1,+02743,1,99,9",,"9,AGL   ,+99999,+99999","99,99,9,04,1,99,9,02743,1,99,9,99,9","10120,1,99999,9",,,,"MET061METAR SKSA 092300Z 36003KT 9999 SCT090 24/24 Q1012 RMK A2989=",
"80222599999","2023-05-10T11:00:00","4","6.95","-71.85","213.0","LOS COLONIZADORES, CO","FM-15","99999","V020","150,1,N,0021,1","01981,1,C,N","009999,1,9,9","+0230,1","+0220,1","99999,9","08,1,+01981,1,99,9",,"9,AGL   ,+99999,+99999","99,99,9,08,1,99,9,01981,1,99,9,99,9","10130,1,99999,9",,,,"MET061METAR SKSA 101100Z 15004KT 9999 OVC065 23/22 Q1013 RMK A2992=",
"80222599999","2023-05-10T12:00:00","4","6.95","-71.85","213.0","LOS COLONIZADORES, CO","FM-15","99999","V020","999,9,V,0010,1","01829,1,C,N","009999,1,9,9","+0230,1","+0230,1","99999,9","08,1,+01829,1,99,9",,"9,AGL   ,+99999,+99999","99,99,9,08,1,99,9,01829,1,99,9,99,9","10140,1,99999,9","16,1",,,"MET073METAR SKSA 101200Z VRB02KT 9999 VCSH OVC060 23/23 Q1014 RMK VCSH S A2992=",
"80222599999","2023-05-10T13:00:00","4","6.95","-71.85","213.0","LOS COLONIZADORES, CO","FM-15","99999","V020","999,9,V,0010,1","01676,1,C,N","009999,1,9,9","+0240,1","+0230,1","99999,9","08,1,+01676,1,99,9",,"9,AGL   ,+99999,+99999","99,99,9,08,1,99,9,01676,1,99,9,99,9","10160,1,99999,9",,,,"MET061METAR SKSA 101300Z VRB02KT 9999 OVC055 24/23 Q1016 RMK A3000=",
"80222599999","2023-05-10T14:00:00","4","6.95","-71.85","213.0","LOS COLONIZADORES, CO","FM-15","99999","V020","250,1,N,0015,1","01372,1,C,N","009999,1,9,9","+0250,1","+0220,1","99999,9","08,1,+01372,1,99,9",,"9,AGL   ,+99999,+99999","99,99,9,08,1,99,9,01372,1,99,9,99,9","10160,1,99999,9",,,,"MET061METAR SKSA 101400Z 25003KT 9999 OVC045 25/22 Q1016 RMK A3000=",
"80222599999","2023-05-10T19:00:00","4","6.95","-71.85","213.0","LOS COLONIZADORES, CO","FM-15","99999","V020","350,1,N,0015,1","01219,1,C,N","009999,1,9,9","+0300,1","+0230,1","99999,9","07,1,+01219,1,99,9",,"9,AGL   ,+99999,+99999","99,99,9,07,1,99,9,01219,1,99,9,99,9","10120,1,99999,9",,,,"MET061METAR SKSA 101900Z 35003KT 9999 BKN040 30/23 Q1012 RMK A2989=",
"80222599999","2023-05-10T20:00:00","4","6.95","-71.85","213.0","LOS COLONIZADORES, CO","FM-15","99999","V020","040,1,N,0031,1","00610,1,C,N","009999,1,9,9","+0270,1","+0240,1","99999,9","08,1,+00610,1,99,9",,"9,AGL   ,+99999,+99999","99,99,9,08,1,99,9,00610,1,99,9,99,9","10120,1,99999,9",,,,"MET061METAR SKSA 102000Z 04006KT 9999 OVC020 27/24 Q1012 RMK A2989=",
"80222599999","2023-05-10T21:00:00","4","6.95","-71.85","213.0","LOS COLONIZADORES, CO","FM-15","99999","V020","060,1,N,0015,1","00762,1,C,N","009999,1,9,9","+0260,1","+0240,1","99999,9","08,1,+00762,1,99,9",,"9,AGL   ,+99999,+99999","99,99,9,08,1,99,9,00762,1,99,9,99,9","10120,1,99999,9",,,,"MET061METAR SKSA 102100Z 06003KT 9999 OVC025 26/24 Q1012 RMK A2988=",
"80222599999","2023-05-10T22:00:00","4","6.95","-71.85","213.0","LOS COLONIZADORES, CO","FM-15","99999","V020","040,1,N,0015,1","00457,1,C,N","009999,1,9,9","+0260,1","+0240,1","99999,9","08,1,+00457,1,99,9",,"9,AGL   ,+99999,+99999","99,99,9,08,1,99,9,00457,1,99,9,99,9","10120,1,99999,9",,,,"MET061METAR SKSA 102200Z 04003KT 9999 OVC015 26/24 Q1012 RMK A2989=",
"80222599999","2023-05-10T23:00:00","4","6.95","-71.85","213.0","LOS COLONIZADORES, CO","FM-15","99999","V020","270,1,N,0021,1","00762,1,C,N","009999,1,9,9","+0250,1","+0240,1","99999,9","08,1,+00762,1,99,9",,"9,AGL   ,+99999,+99999","99,99,9,08,1,99,9,00762,1,99,9,99,9","10130,1,99999,9",,,,"MET061METAR SKSA 102300Z 27004KT 9999 OVC025 25/24 Q1013 RMK A2992=",
"80222599999","2023-05-11T11:00:00","4","6.95","-71.85","213.0","LOS COLONIZADORES, CO","FM-15","99999","V020","999,9,C,0000,1","01981,1,C,N","009999,1,9,9","+0220,1","+0220,1","99999,9","08,1,+01981,1,99,9",,"9,AGL   ,+99999,+99999","99,99,9,08,1,99,9,01981,1,99,9,99,9","10140,1,99999,9",,,,"MET061METAR SKSA 111100Z 00000KT 9999 OVC065 22/22 Q1014 RMK A2994=",
"80222599999","2023-05-11T12:00:00","4","6.95","-71.85","213.0","LOS COLONIZADORES, CO","FM-15","99999","V020","999,9,C,0000,1","01524,1,C,N","009999,1,9,9","+0230,1","+0230,1","99999,9","08,1,+01524,1,99,9",,"9,AGL   ,+99999,+99999","99,99,9,08,1,99,9,01524,1,99,9,99,9","10140,1,99999,9",,,,"MET061METAR SKSA 111200Z 00000KT 9999 OVC050 23/23 Q1014 RMK A2995=",
"80222599999","2023-05-11T13:00:00","4","6.95","-71.85","213.0","LOS COLONIZADORES, CO","FM-15","99999","V020","999,9,V,0010,1","01524,1,C,N","009999,1,9,9","+0250,1","+0220,1","99999,9","08,1,+01524,1,99,9",,"9,AGL   ,+99999,+99999","99,99,9,08,1,99,9,01524,1,99,9,99,9","10150,1,99999,9",,,,"MET061METAR SKSA 111300Z VRB02KT 9999 OVC050 25/22 Q1015 RMK A2997=",
"80222599999","2023-05-11T15:00:00","4","6.95","-71.85","213.0","LOS COLONIZADORES, CO","FM-15","99999","V020","130,1,N,0015,1","99999,9,9,N","009999,1,9,9","+0300,1","+0220,1","99999,9","04,1,+02743,1,99,9",,"9,AGL   ,+99999,+99999","99,99,9,04,1,99,9,02743,1,99,9,99,9","10140,1,99999,9",,,,"MET061METAR SKSA 111500Z 13003KT 9999 SCT090 30/22 Q1014 RMK A2996=",
"80222599999","2023-05-11T18:00:00","4","6.95","-71.85","213.0","LOS COLONIZADORES, CO","FM-15","99999","V020","070,1,N,0021,1","99999,9,9,N","009999,1,9,9","+0320,1","+0210,1","99999,9","04,1,+02743,1,99,9",,"9,AGL   ,+99999,+99999","99,99,9,04,1,99,9,02743,1,99,9,99,9","10120,1,99999,9",,,,"MET061METAR SKSA 111800Z 07004KT 9999 SCT090 32/21 Q1012 RMK A2988=",
"80222599999","2023-05-11T19:00:00","4","6.95","-71.85","213.0","LOS COLONIZADORES, CO","FM-15","99999","V020","080,1,N,0021,1","99999,9,9,N","009999,1,9,9","+0330,1","+0210,1","99999,9","02,1,+99999,9,99,9",,"9,AGL   ,+99999,+99999","99,99,9,02,1,99,9,99999,9,99,9,99,9","10110,1,99999,9",,,,"MET060METAR SKSA 111900Z 08004KT 9999 FEW90 33/21 Q1011 RMK A2985=",
"80222599999","2023-05-11T20:00:00","4","6.95","-71.85","213.0","LOS COLONIZADORES, CO","FM-15","99999","V020","090,1,N,0015,1","99999,9,9,N","009999,1,9,9","+0330,1","+0210,1","99999,9","02,1,+99999,9,99,9",,"9,AGL   ,+99999,+99999","99,99,9,02,1,99,9,99999,9,99,9,99,9","10090,1,99999,9",,,,"MET060METAR SKSA 112000Z 09003KT 9999 FEW90 33/21 Q1009 RMK A2982=",
"80222599999","2023-05-11T21:00:00","4","6.95","-71.85","213.0","LOS COLONIZADORES, CO","FM-15","99999","V020","100,1,N,0015,1","22000,1,9,N","009999,1,9,9","+0320,1","+0210,1","99999,9",,,,"00,99,1,99,9,99,9,99999,9,99,9,99,9","10090,1,99999,9",,,,"MET058METAR SKSA 112100Z 10003KT 9999 NSC 32/21 Q1009 RMK A2980=",
"80222599999","2023-05-11T22:00:00","4","6.95","-71.85","213.0","LOS COLONIZADORES, CO","FM-15","99999","V020","999,9,V,0010,1","22000,1,9,N","009999,1,9,9","+0300,1","+0220,1","99999,9",,,,"00,99,1,99,9,99,9,99999,9,99,9,99,9","10090,1,99999,9",,,,"MET058METAR SKSA 112200Z VRB02KT 9999 NSC 30/22 Q1009 RMK A2980=",
"80222599999","2023-05-11T23:00:00","4","6.95","-71.85","213.0","LOS COLONIZADORES, CO","FM-15","99999","V020","999,9,V,0010,1","22000,1,9,N","009999,1,9,9","+0280,1","+0230,1","99999,9",,,,"00,99,1,99,9,99,9,99999,9,99,9,99,9","10090,1,99999,9",,,,"MET058METAR SKSA 112300Z VRB02KT 9999 NSC 28/23 Q1009 RMK A2981=",
"80222599999","2023-05-12T11:00:00","4","6.95","-71.85","213.0","LOS COLONIZADORES, CO","FM-15","99999","V020","350,1,N,0015,1","99999,9,9,N","009999,1,9,9","+0230,1","+0230,1","99999,9","04,1,+03048,1,99,9",,"9,AGL   ,+99999,+99999","99,99,9,04,1,99,9,03048,1,99,9,99,9","10120,1,99999,9",,,,"MET061METAR SKSA 121100Z 35003KT 9999 SCT100 23/23 Q1012 RMK A2999=",
"80222599999","2023-05-12T12:00:00","4","6.95","-71.85","213.0","LOS COLONIZADORES, CO","FM-15","99999","V020","999,9,V,0010,1","01219,1,C,N","009999,1,9,9","+0240,1","+0230,1","99999,9","07,1,+01219,1,99,9",,"9,AGL   ,+99999,+99999","99,99,9,07,1,99,9,01219,1,99,9,99,9","10130,1,99999,9",,,,"MET061METAR SKSA 121200Z VRB02KT 9999 BKN040 24/23 Q1013 RMK A2991=",
"80222599999","2023-05-12T13:00:00","4","6.95","-71.85","213.0","LOS COLONIZADORES, CO","FM-15","99999","V020","050,1,N,0015,1","03048,1,C,N","009999,1,9,9","+0260,1","+0230,1","99999,9","07,1,+03048,1,99,9",,"9,AGL   ,+99999,+99999","99,99,9,07,1,99,9,03048,1,99,9,99,9","10130,1,99999,9",,,,"MET061METAR SKSA 121300Z 05003KT 9999 BKN100 26/23 Q1013 RMK A2993=",
"80222599999","2023-05-12T15:00:00","4","6.95","-71.85","213.0","LOS COLONIZADORES, CO","FM-15","99999","V020","999,9,V,0010,1","02743,1,C,N","009999,1,9,9","+0290,1","+0230,1","99999,9","07,1,+02743,1,99,9",,"9,AGL   ,+99999,+99999","99,99,9,07,1,99,9,02743,1,99,9,99,9","10140,1,99999,9",,,,"MET061METAR SKSA 121500Z VRB02KT 9999 BKN090 29/23 Q1014 RMK A2994=",
"80222599999","2023-05-12T16:00:00","4","6.95","-71.85","213.0","LOS COLONIZADORES, CO","FM-15","99999","V020","300,1,N,0026,1","99999,9,9,N","009999,1,9,9","+0300,1","+0240,1","99999,9","04,1,+02743,1,99,9",,"9,AGL   ,+99999,+99999","99,99,9,04,1,99,9,02743,1,99,9,99,9","10130,1,99999,9",,,,"MET061METAR SKSA 121600Z 30005KT 9999 SCT090 30/24 Q1013 RMK A2992=",
"80222599999","2023-05-12T17:00:00","4","6.95","-71.85","213.0","LOS COLONIZADORES, CO","FM-15","99999","V020","999,9,V,0010,1","99999,9,9,N","009999,1,9,9","+0320,1","+0230,1","99999,9","04,1,+02743,1,99,9",,"9,AGL   ,+99999,+99999","99,99,9,04,1,99,9,02743,1,99,9,99,9","10120,1,99999,9",,,,"MET061METAR SKSA 121700Z VRB02KT 9999 SCT090 32/23 Q1012 RMK A2990=",
"80222599999","2023-05-12T18:00:00","4","6.95","-71.85","213.0","LOS COLONIZADORES, CO","FM-15","99999","V020","360,1,N,0015,1","99999,9,9,N","009999,1,9,9","+0320,1","+0230,1","99999,9","04,1,+02743,1,99,9",,"9,AGL   ,+99999,+99999","99,99,9,04,1,99,9,02743,1,99,9,99,9","10110,1,99999,9",,,,"MET061METAR SKSA 121800Z 36003KT 9999 SCT090 32/23 Q1011 RMK A2987=",
"80222599999","2023-05-12T19:00:00","4","6.95","-71.85","213.0","LOS COLONIZADORES, CO","FM-15","99999","V020","250,1,N,0021,1","01372,1,C,N","009999,1,9,9","+0310,1","+0230,1","99999,9","07,1,+01372,1,99,9",,"9,AGL   ,+99999,+99999","99,99,9,07,1,99,9,01372,1,99,9,99,9","10100,1,99999,9",,,,"MET061METAR SKSA 121900Z 25004KT 9999 BKN045 31/23 Q1010 RMK A2984=",
"80222599999","2023-05-12T20:00:00","4","6.95","-71.85","213.0","LOS COLONIZADORES, CO","FM-15","99999","V020","230,1,N,0015,1","01372,1,C,N","009999,1,9,9","+0300,1","+0230,1","99999,9","07,1,+01372,1,99,9",,"9,AGL   ,+99999,+99999","99,99,9,07,1,99,9,01372,1,99,9,99,9","10090,1,99999,9",,,,"MET061METAR SKSA 122000Z 23003KT 9999 BKN045 30/23 Q1009 RMK A2981=",
"80222599999","2023-05-12T22:00:00","4","6.95","-71.85","213.0","LOS COLONIZADORES, CO","FM-15","99999","V020","999,9,V,0010,1","99999,9,9,N","009999,1,9,9","+0290,1","+0230,1","99999,9","04,1,+02134,1,99,9",,"9,AGL   ,+99999,+99999","99,99,9,04,1,99,9,02134,1,99,9,99,9","10100,1,99999,9",,,,"MET061METAR SKSA 122200Z VRB02KT 9999 SCT070 29/23 Q1010 RMK A2982=",
"80222599999","2023-05-12T23:00:00","4","6.95","-71.85","213.0","LOS COLONIZADORES, CO","FM-15","99999","V020","999,9,V,0010,1","99999,9,9,N","009999,1,9,9","+0280,1","+0230,1","99999,9","04,1,+02134,1,99,9",,"9,AGL   ,+99999,+99999","99,99,9,04,1,99,9,02134,1,99,9,99,9","10100,1,99999,9",,,,"MET061METAR SKSA 122300Z VRB02KT 9999 SCT070 28/23 Q1010 RMK A2983=",
"80222599999","2023-05-13T11:00:00","4","6.95","-71.85","213.0","LOS COLONIZADORES, CO","FM-15","99999","V020","190,1,N,0021,1","02743,1,C,N","009999,1,9,9","+0240,1","+0230,1","99999,9","07,1,+02743,1,99,9",,"9,AGL   ,+99999,+99999","99,99,9,07,1,99,9,02743,1,99,9,99,9","10120,1,99999,9","61,1",,,"MET065METAR SKSA 131100Z 19004KT 9999 -RA BKN090 24/23 Q1012 RMK A2990=",
"80222599999","2023-05-13T12:00:00","4","6.95","-71.85","213.0","LOS COLONIZADORES, CO","FM-15","99999","V020","230,1,N,0021,1","02743,1,C,N","009999,1,9,9","+0240,1","+0230,1","99999,9","07,1,+02743,1,99,9",,"9,AGL   ,+99999,+99999","99,99,9,07,1,99,9,02743,1,99,9,99,9","10130,1,99999,9","16,5",,,"MET073METAR SKSA 131200Z 23004KT 9999 VCRA BKN090 24/23 Q1013 RMK VCRA W A2991=","D01      0ADE735"
"80222599999","2023-05-13T13:00:00","4","6.95","-71.85","213.0","LOS COLONIZADORES, CO","FM-15","99999","V020","270,1,N,0021,1","01524,1,C,N","009999,1,9,9","+0260,1","+0210,1","99999,9","07,1,+01524,1,99,9",,"9,AGL   ,+99999,+99999","99,99,9,07,1,99,9,01524,1,99,9,99,9","10130,1,99999,9","16,5",,,"MET073METAR SKSA 131300Z 27004KT 9999 VCRA BKN050 26/21 Q1013 RMK VCRA W A2993=","D01      0ADE735"
"80222599999","2023-05-13T14:00:00","4","6.95","-71.85","213.0","LOS COLONIZADORES, CO","FM-15","99999","V020","300,1,N,0021,1","02134,1,C,N","009999,1,9,9","+0260,1","+0220,1","99999,9","07,1,+02134,1,99,9",,"9,AGL   ,+99999,+99999","99,99,9,07,1,99,9,02134,1,99,9,99,9","10140,1,99999,9","16,5",,,"MET073METAR SKSA 131400Z 30004KT 9999 VCRA BKN070 26/22 Q1014 RMK VCRA S A2994=","D01      0ADE735"
"80222599999","2023-05-13T15:00:00","4","6.95","-71.85","213.0","LOS COLONIZADORES, CO","FM-15","99999","V020","300,1,N,0026,1","01372,1,C,N","009999,1,9,9","+0280,1","+0220,1","99999,9","08,1,+01372,1,99,9",,"9,AGL   ,+99999,+99999","99,99,9,08,1,99,9,01372,1,99,9,99,9","10140,1,99999,9","16,5",,,"MET073METAR SKSA 131500Z 30005KT 9999 VCRA OVC045 28/22 Q1014 RMK VCRA S A2994=","D01      0ADE735"
"80222599999","2023-05-13T16:00:00","4","6.95","-71.85","213.0","LOS COLONIZADORES, CO","FM-15","99999","V020","999,9,V,0010,1","02438,1,C,N","009999,1,9,9","+0270,1","+0230,1","99999,9","08,1,+02438,1,99,9",,"9,AGL   ,+99999,+99999","99,99,9,08,1,99,9,02438,1,99,9,99,9","10130,1,99999,9","16,5",,,"MET077METAR SKSA 131600Z VRB02KT 9999 VCRA OVC080 27/23 Q1013 RMK VCRA SW SE A2993=","D01      0ADE735"
"80222599999","2023-05-13T18:00:00","4","6.95","-71.85","213.0","LOS COLONIZADORES, CO","FM-15","99999","V020","180,1,N,0021,1","01829,1,C,N","009999,1,9,9","+0280,1","+0230,1","99999,9","08,1,+01829,1,99,9",,"9,AGL   ,+99999,+99999","99,99,9,08,1,99,9,01829,1,99,9,99,9","10120,1,99999,9","16,5",,,"MET073METAR SKSA 131800Z 18004KT 9999 VCRA OVC060 28/23 Q1012 RMK VCRA E A2989=","D01      0ADE735"
"80222599999","2023-05-13T19:00:00","4","6.95","-71.85","213.0","LOS COLONIZADORES, CO","FM-15","99999","V020","180,1,N,0026,1","02743,1,C,N","009999,1,9,9","+0290,1","+0230,1","99999,9","08,1,+02743,1,99,9",,"9,AGL   ,+99999,+99999","99,99,9,08,1,99,9,02743,1,99,9,99,9","10100,1,99999,9","16,5",,,"MET073METAR SKSA 131900Z 18005KT 9999 VCRA OVC090 29/23 Q1010 RMK VCRA S A2985=","D01      0ADE735"
"80222599999","2023-05-13T20:00:00","4","6.95","-71.85","213.0","LOS COLONIZADORES, CO","FM-15","99999","V020","160,1,N,0062,1","02743,1,C,N","009999,1,9,9","+0260,1","+0240,1","99999,9","08,1,+02743,1,99,9",,"9,AGL   ,+99999,+99999","99,99,9,08,1,99,9,02743,1,99,9,99,9","10100,1,99999,9",,,,"MET061METAR SKSA 132000Z 16012KT 9999 OVC090 26/24 Q1010 RMK A2984=",
"80222599999","2023-05-13T21:00:00","4","6.95","-71.85","213.0","LOS COLONIZADORES, CO","FM-15","99999","V020","999,9,V,0010,1","99999,9,9,N","009999,1,9,9","+0270,1","+0240,1","99999,9","07,1,+99999,9,99,9",,"9,AGL   ,+99999,+99999","99,99,9,07,1,99,9,99999,9,99,9,99,9","10100,1,99999,9",,,,"MET060METAR SKSA 132100Z VRB02KT 9999 BKN90 27/24 Q1010 RMK A2983=",
"80222599999","2023-05-13T22:00:00","4","6.95","-71.85","213.0","LOS COLONIZADORES, CO","FM-15","99999","V020","070,1,N,0021,1","99999,9,9,N","009999,1,9,9","+0260,1","+0240,1","99999,9","04,1,+02743,1,99,9",,"9,AGL   ,+99999,+99999","99,99,9,04,1,99,9,02743,1,99,9,99,9","10100,1,99999,9",,,,"MET061METAR SKSA 132200Z 07004KT 9999 SCT090 26/24 Q1010 RMK A2983=",
"80222599999","2023-05-13T23:00:00","4","6.95","-71.85","213.0","LOS COLONIZADORES, CO","FM-15","99999","V020","999,9,V,0010,1","02743,1,C,N","009999,1,9,9","+0250,1","+0230,1","99999,9","07,1,+02743,1,99,9",,"9,AGL   ,+99999,+99999","99,99,9,07,1,99,9,02743,1,99,9,99,9","10110,1,99999,9",,,,"MET061METAR SKSA 132300Z VRB02KT 9999 BKN090 25/23 Q1011 RMK A2986=",
"80222599999","2023-05-14T11:00:00","4","6.95","-71.85","213.0","LOS COLONIZADORES, CO","FM-15","99999","V020","999,9,C,0000,1","99999,9,9,N","009999,1,9,9","+0230,1","+0230,1","99999,9","04,1,+02743,1,99,9",,"9,AGL   ,+99999,+99999","99,99,9,04,1,99,9,02743,1,99,9,99,9","10140,1,99999,9",,,,"MET061METAR SKSA 141100Z 00000KT 9999 SCT090 23/23 Q1014 RMK A2994=",
"80222599999","2023-05-14T12:00:00","4","6.95","-71.85","213.0","LOS COLONIZADORES, CO","FM-15","99999","V020","999,9,C,0000,1","99999,9,9,N","009999,1,9,9","+0240,1","+0230,1","99999,9","04,1,+02134,1,99,9",,"9,AGL   ,+99999,+99999","99,99,9,04,1,99,9,02134,1,99,9,99,9","10140,1,99999,9",,,,"MET061METAR SKSA 141200Z 00000KT 9999 SCT070 24/23 Q1014 RMK A2996=",
"80222599999","2023-05-14T14:00:00","4","6.95","-71.85","213.0","LOS COLONIZADORES, CO","FM-15","99999","V020","999,9,C,0000,1","02134,1,C,N","009999,1,9,9","+0260,1","+0220,1","99999,9","07,1,+02134,1,99,9",,"9,AGL   ,+99999,+99999","99,99,9,07,1,99,9,02134,1,99,9,99,9","10160,1,99999,9",,,,"MET061METAR SKSA 141400Z 00000KT 9999 BKN070 26/22 Q1016 RMK A3001=",
"80222599999","2023-05-14T15:00:00","4","6.95","-71.85","213.0","LOS COLONIZADORES, CO","FM-15","99999","V020","999,9,C,0000,1","02286,1,C,N","009999,1,9,9","+0270,1","+0220,1","99999,9","07,1,+02286,1,99,9",,"9,AGL   ,+99999,+99999","99,99,9,07,1,99,9,02286,1,99,9,99,9","10160,1,99999,9",,,,"MET061METAR SKSA 141500Z 00000KT 9999 BKN075 27/22 Q1016 RMK A3002=",
"80222599999","2023-05-14T16:00:00","4","6.95","-71.85","213.0","LOS COLONIZADORES, CO","FM-15","99999","V020","999,9,C,0000,1","02896,1,C,N","009999,1,9,9","+0280,1","+0230,1","99999,9","07,1,+02896,1,99,9",,"9,AGL   ,+99999,+99999","99,99,9,07,1,99,9,02896,1,99,9,99,9","10160,1,99999,9",,,,"MET061METAR SKSA 141600Z 00000KT 9999 BKN095 28/23 Q1016 RMK A3000=",
"80222599999","2023-05-14T17:00:00","4","6.95","-71.85","213.0","LOS COLONIZADORES, CO","FM-15","99999","V020","999,9,V,0010,1","02743,1,C,N","009999,1,9,9","+0270,1","+0230,1","99999,9","07,1,+02743,1,99,9",,"9,AGL   ,+99999,+99999","99,99,9,07,1,99,9,02743,1,99,9,99,9","10150,1,99999,9",,,,"MET061METAR SKSA 141700Z VRB02KT 9999 BKN090 27/23 Q1015 RMK A2999=",
"80222599999","2023-05-14T18:00:00","4","6.95","-71.85","213.0","LOS COLONIZADORES, CO","FM-15","99999","V020","350,1,N,0015,1","02438,1,C,N","009999,1,9,9","+0280,1","+0220,1","99999,9","07,1,+02438,1,99,9",,"9,AGL   ,+99999,+99999","99,99,9,07,1,99,9,02438,1,99,9,99,9","10140,1,99999,9",,,,"MET061METAR SKSA 141800Z 35003KT 9999 BKN080 28/22 Q1014 RMK A2996=",
"80222599999","2023-05-14T19:00:00","4","6.95","-71.85","213.0","LOS COLONIZADORES, CO","FM-15","99999","V020","270,1,N,0021,1","02743,1,C,N","009999,1,9,9","+0290,1","+0230,1","99999,9","07,1,+02743,1,99,9",,"9,AGL   ,+99999,+99999","99,99,9,07,1,99,9,02743,1,99,9,99,9","10130,1,99999,9",,,,"MET061METAR SKSA 141900Z 27004KT 9999 BKN090 29/23 Q1013 RMK A2992=",
"80222599999","2023-05-14T20:00:00","4","6.95","-71.85","213.0","LOS COLONIZADORES, CO","FM-15","99999","V020","290,1,N,0031,1","99999,9,9,N","009999,1,9,9","+0300,1","+0210,1","99999,9","04,1,+02743,1,99,9",,"9,AGL   ,+99999,+99999","99,99,9,04,1,99,9,02743,1,99,9,99,9","10120,1,99999,9",,,,"MET061METAR SKSA 142000Z 29006KT 9999 SCT090 30/21 Q1012 RMK A2989=",
"80222599999","2023-05-14T21:00:00","4","6.95","-71.85","213.0","LOS COLONIZADORES, CO","FM-15","99999","V020","280,1,N,0021,1","99999,9,9,N","009999,1,9,9","+0290,1","+0220,1","99999,9","04,1,+02743,1,99,9",,"9,AGL   ,+99999,+99999","99,99,9,04,1,99,9,02743,1,99,9,99,9","10110,1,99999,9",,,,"MET061METAR SKSA 142100Z 28004KT 9999 SCT090 29/22 Q1011 RMK A2987=",
"80222599999","2023-05-14T22:00:00","4","6.95","-71.85","213.0","LOS COLONIZADORES, CO","FM-15","99999","V020","999,9,C,0000,1","99999,9,9,N","009999,1,9,9","+0300,1","+0230,1","99999,9","04,1,+02743,1,99,9",,"9,AGL   ,+99999,+99999","99,99,9,04,1,99,9,02743,1,99,9,99,9","10120,1,99999,9",,,,"MET061METAR SKSA 142200Z 00000KT 9999 SCT090 30/23 Q1012 RMK A2988=",
"80222599999","2023-05-14T23:00:00","4","6.95","-71.85","213.0","LOS COLONIZADORES, CO","FM-15","99999","V020","999,9,C,0000,1","99999,9,9,N","009999,1,9,9","+0270,1","+0240,1","99999,9","04,1,+02438,1,99,9",,"9,AGL   ,+99999,+99999","99,99,9,04,1,99,9,02438,1,99,9,99,9","10130,1,99999,9",,,,"MET061METAR SKSA 142300Z 00000KT 9999 SCT080 27/24 Q1013 RMK A2991=",
"80222599999","2023-05-15T11:00:00","4","6.95","-71.85","213.0","LOS COLONIZADORES, CO","FM-15","99999","V020","999,9,C,0000,1","02438,1,C,N","009999,1,9,9","+0220,1","+0220,1","99999,9","07,1,+02438,1,99,9",,"9,AGL   ,+99999,+99999","99,99,9,07,1,99,9,02438,1,99,9,99,9","10150,1,99999,9",,,,"MET061METAR SKSA 151100Z 00000KT 9999 BKN080 22/22 Q1015 RMK A2997=",
"80222599999","2023-05-15T12:00:00","4","6.95","-71.85","213.0","LOS COLONIZADORES, CO","FM-15","99999","V020","999,9,C,0000,1","02286,1,C,N","009999,1,9,9","+0240,1","+0220,1","99999,9","07,1,+02286,1,99,9",,"9,AGL   ,+99999,+99999","99,99,9,07,1,99,9,02286,1,99,9,99,9","10150,1,99999,9",,,,"MET061METAR SKSA 151200Z 00000KT 9999 BKN075 24/22 Q1015 RMK A2999=",
"80222599999","2023-05-15T13:00:00","4","6.95","-71.85","213.0","LOS COLONIZADORES, CO","FM-15","99999","V020","999,9,V,0010,1","02134,1,C,N","009999,1,9,9","+0240,1","+0230,1","99999,9","08,1,+02134,1,99,9",,"9,AGL   ,+99999,+99999","99,99,9,08,1,99,9,02134,1,99,9,99,9","10160,1,99999,9",,,,"MET061METAR SKSA 151300Z VRB02KT 9999 OVC070 24/23 Q1016 RMK A3002=",
"80222599999","2023-05-15T14:00:00","4","6.95","-71.85","213.0","LOS COLONIZADORES, CO","FM-15","99999","V020","250,1,N,0015,1","01829,1,C,N","009999,1,9,9","+0280,1","+0240,1","99999,9","08,1,+01829,1,99,9",,"9,AGL   ,+99999,+99999","99,99,9,08,1,99,9,01829,1,99,9,99,9","10170,1,99999,9","16,5",,,"MET073METAR SKSA 151400Z 25003KT 9999 VCRA OVC060 28/24 Q1017 RMK VCRA W A3003=","D01      0ADE735"
"80222599999","2023-05-15T15:00:00","4","6.95","-71.85","213.0","LOS COLONIZADORES, CO","FM-15","99999","V020","290,1,N,0026,1","01829,1,C,N","009999,1,9,9","+0270,1","+0220,1","99999,9","08,1,+01829,1,99,9",,"9,AGL   ,+99999,+99999","99,99,9,08,1,99,9,01829,1,99,9,99,9","10160,1,99999,9",,,,"MET061METAR SKSA 151500Z 29005KT 9999 OVC060 27/22 Q1016 RMK A3002=",
"80222599999","2023-05-15T16:00:00","4","6.95","-71.85","213.0","LOS COLONIZADORES, CO","FM-15","99999","V020","260,1,N,0026,1","01372,1,C,N","009999,1,9,9","+0270,1","+0230,1","99999,9","08,1,+01372,1,99,9",,"9,AGL   ,+99999,+99999","99,99,9,08,1,99,9,01372,1,99,9,99,9","10160,1,99999,9",,,,"MET061METAR SKSA 151600Z 26005KT 9999 OVC045 27/23 Q1016 RMK A3002=",
"80222599999","2023-05-15T18:00:00","4","6.95","-71.85","213.0","LOS COLONIZADORES, CO","FM-15","99999","V020","020,1,N,0015,1","01524,1,C,N","009999,1,9,9","+0290,1","+0230,1","99999,9","08,1,+01524,1,99,9",,"9,AGL   ,+99999,+99999","99,99,9,08,1,99,9,01524,1,99,9,99,9","10150,1,99999,9","16,5",,,"MET076METAR SKSA 151800Z 02003KT 9999 VCRA OVC050 29/23 Q1015 RMK VCRA W SW A2997=","D01      0ADE735"
"80222599999","2023-05-15T19:00:00","4","6.95","-71.85","213.0","LOS COLONIZADORES, CO","FM-15","99999","V020","150,1,N,0021,1","01829,1,C,N","009999,1,9,9","+0280,1","+0240,1","99999,9","07,1,+01829,1,99,9",,"9,AGL   ,+99999,+99999","99,99,9,07,1,99,9,01829,1,99,9,99,9","10140,1,99999,9",,,,"MET061METAR SKSA 151900Z 15004KT 9999 BKN060 28/24 Q1014 RMK A2995=",
"80222599999","2023-05-15T21:00:00","4","6.95","-71.85","213.0","LOS COLONIZADORES, CO","FM-15","99999","V020","140,1,N,0015,1","02743,1,C,N","009999,1,9,9","+0280,1","+0250,1","99999,9","08,1,+02743,1,99,9",,"9,AGL   ,+99999,+99999","99,99,9,08,1,99,9,02743,1,99,9,99,9","10120,1,99999,9",,,,"MET061METAR SKSA 152100Z 14003KT 9999 OVC090 28/25 Q1012 RMK A2990=",
"80222599999","2023-05-15T22:00:00","4","6.95","-71.85","213.0","LOS COLONIZADORES, CO","FM-15","99999","V020","999,9,C,0000,1","02743,1,C,N","009999,1,9,9","+0270,1","+0250,1","99999,9","07,1,+02743,1,99,9",,"9,AGL   ,+99999,+99999","99,99,9,07,1,99,9,02743,1,99,9,99,9","10130,1,99999,9",,,,"MET061METAR SKSA 152200Z 00000KT 9999 BKN090 27/25 Q1013 RMK A2991=",
"80222599999","2023-05-15T23:00:00","4","6.95","-71.85","213.0","LOS COLONIZADORES, CO","FM-15","99999","V020","999,9,V,0010,1","02743,1,C,N","009999,1,9,9","+0270,1","+0250,1","99999,9","07,1,+02743,1,99,9",,"9,AGL   ,+99999,+99999","99,99,9,07,1,99,9,02743,1,99,9,99,9","10130,1,99999,9",,,,"MET061METAR SKSA 152300Z VRB02KT 9999 BKN090 27/25 Q1013 RMK A2992=",
"80222599999","2023-05-16T11:00:00","4","6.95","-71.85","213.0","LOS COLONIZADORES, CO","FM-15","99999","V020","999,9,C,0000,1","99999,9,9,N","009999,1,9,9","+0230,1","+0230,1","99999,9","04,1,+02743,1,99,9",,"9,AGL   ,+99999,+99999","99,99,9,04,1,99,9,02743,1,99,9,99,9","10140,1,99999,9",,,,"MET061METAR SKSA 161100Z 00000KT 9999 SCT090 23/23 Q1014 RMK A2995=",
"80222599999","2023-05-16T12:00:00","4","6.95","-71.85","213.0","LOS COLONIZADORES, CO","FM-15","99999","V020","999,9,C,0000,1","99999,9,9,N","009999,1,9,9","+0250,1","+0230,1","99999,9","04,1,+02743,1,99,9",,"9,AGL   ,+99999,+99999","99,99,9,04,1,99,9,02743,1,99,9,99,9","10150,1,99999,9",,,,"MET061METAR SKSA 161200Z 00000KT 9999 SCT090 25/23 Q1015 RMK A2997=",
"80222599999","2023-05-16T14:00:00","4","6.95","-71.85","213.0","LOS COLONIZADORES, CO","FM-15","99999","V020","360,1,N,0015,1","02743,1,C,N","009999,1,9,9","+0290,1","+0230,1","99999,9","07,1,+02743,1,99,9",,"9,AGL   ,+99999,+99999","99,99,9,07,1,99,9,02743,1,99,9,99,9","10150,1,99999,9",,,,"MET061METAR SKSA 161400Z 36003KT 9999 BKN090 29/23 Q1015 RMK A2998=",
"80222599999","2023-05-16T17:00:00","4","6.95","-71.85","213.0","LOS COLONIZADORES, CO","FM-15","99999","V020","999,9,V,0010,1","99999,9,9,N","009999,1,9,9","+0320,1","+0210,1","99999,9","04,1,+02134,1,99,9",,"9,AGL   ,+99999,+99999","99,99,9,04,1,99,9,02134,1,99,9,99,9","10130,1,99999,9",,,,"MET061METAR SKSA 161700Z VRB02KT 9999 SCT070 32/21 Q1013 RMK A2993=",
"80222599999","2023-05-16T19:00:00","4","6.95","-71.85","213.0","LOS COLONIZADORES, CO","FM-15","99999","V020","999,9,C,0000,1","99999,9,9,N","009999,1,9,9","+0320,1","+0210,1","99999,9","04,1,+02134,1,99,9",,"9,AGL   ,+99999,+99999","99,99,9,04,1,99,9,02134,1,99,9,99,9","10110,1,99999,9",,,,"MET061METAR SKSA 161900Z 00000KT 9999 SCT070 32/21 Q1011 RMK A2986=",
"80222599999","2023-05-16T20:00:00","4","6.95","-71.85","213.0","LOS COLONIZADORES, CO","FM-15","99999","V020","020,1,N,0015,1","99999,9,9,N","009999,1,9,9","+0320,1","+0220,1","99999,9","04,1,+02134,1,99,9",,"9,AGL   ,+99999,+99999","99,99,9,04,1,99,9,02134,1,99,9,99,9","10100,1,99999,9",,,,"MET061METAR SKSA 162000Z 02003KT 9999 SCT070 32/22 Q1010 RMK A2982=",
"80222599999","2023-05-16T21:00:00","4","6.95","-71.85","213.0","LOS COLONIZADORES, CO","FM-15","99999","V020","020,1,N,0015,1","99999,9,9,N","009999,1,9,9","+0310,1","+0220,1","99999,9","02,1,+02134,1,99,9",,"9,AGL   ,+99999,+99999","99,99,9,02,1,99,9,02134,1,99,9,99,9","10090,1,99999,9",,,,"MET061METAR SKSA 162100Z 02003KT 9999 FEW070 31/22 Q1009 RMK A2981=",
"80222599999","2023-05-16T22:00:00","4","6.95","-71.85","213.0","LOS COLONIZADORES, CO","FM-15","99999","V020","350,1,N,0015,1","99999,9,9,N","009999,1,9,9","+0300,1","+0220,1","99999,9","02,1,+02134,1,99,9",,"9,AGL   ,+99999,+99999","99,99,9,02,1,99,9,02134,1,99,9,99,9","10090,1,99999,9",,,,"MET061METAR SKSA 162200Z 35003KT 9999 FEW070 30/22 Q1009 RMK A2981=",
"80222599999","2023-05-16T23:00:00","4","6.95","-71.85","213.0","LOS COLONIZADORES, CO","FM-15","99999","V020","999,9,C,0000,1","99999,9,9,N","009999,1,9,9","+0270,1","+0240,1","99999,9","02,1,+02134,1,99,9",,"9,AGL   ,+99999,+99999","99,99,9,02,1,99,9,02134,1,99,9,99,9","10100,1,99999,9",,,,"MET061METAR SKSA 162300Z 00000KT 9999 FEW070 27/24 Q1010 RMK A2983=",
"80222599999","2023-05-17T11:00:00","4","6.95","-71.85","213.0","LOS COLONIZADORES, CO","FM-15","99999","V020","350,1,N,0015,1","99999,9,9,N","009999,1,9,9","+0230,1","+0220,1","99999,9","04,1,+02743,1,99,9",,"9,AGL   ,+99999,+99999","99,99,9,04,1,99,9,02743,1,99,9,99,9","10120,1,99999,9",,,,"MET061METAR SKSA 171100Z 35003KT 9999 SCT090 23/22 Q1012 RMK A2999=",
"80222599999","2023-05-17T12:00:00","4","6.95","-71.85","213.0","LOS COLONIZADORES, CO","FM-15","99999","V020","290,1,N,0021,1","99999,9,9,N","009999,1,9,9","+0250,1","+0230,1","99999,9","04,1,+02743,1,99,9",,"9,AGL   ,+99999,+99999","99,99,9,04,1,99,9,02743,1,99,9,99,9","10130,1,99999,9",,,,"MET061METAR SKSA 171200Z 29004KT 9999 SCT090 25/23 Q1013 RMK A2991=",
"80222599999","2023-05-17T13:00:00","4","6.95","-71.85","213.0","LOS COLONIZADORES, CO","FM-15","99999","V020","999,9,C,0000,1","99999,9,9,N","009999,1,9,9","+0280,1","+0220,1","99999,9","02,1,+02743,1,99,9",,"9,AGL   ,+99999,+99999","99,99,9,02,1,99,9,02743,1,99,9,99,9","10140,1,99999,9",,,,"MET061METAR SKSA 171300Z 00000KT 9999 FEW090 28/22 Q1014 RMK A2994=",
"80222599999","2023-05-17T14:00:00","4","6.95","-71.85","213.0","LOS COLONIZADORES, CO","FM-15","99999","V020","999,9,V,0010,1","99999,9,9,N","009999,1,9,9","+0300,1","+0210,1","99999,9","02,1,+02743,1,99,9",,"9,AGL   ,+99999,+99999","99,99,9,02,1,99,9,02743,1,99,9,99,9","10140,1,99999,9",,,,"MET061METAR SKSA 171400Z VRB02KT 9999 FEW090 30/21 Q1014 RMK A2995=",
"80222599999","2023-05-17T15:00:00","4","6.95","-71.85","213.0","LOS COLONIZADORES, CO","FM-15","99999","V020","100,1,N,0021,1","99999,9,9,N","009999,1,9,9","+0320,1","+0220,1","99999,9","02,1,+02743,1,99,9",,"9,AGL   ,+99999,+99999","99,99,9,02,1,99,9,02743,1,99,9,99,9","10140,1,99999,9",,,,"MET061METAR SKSA 171500Z 10004KT 9999 FEW090 32/22 Q1014 RMK A2995=",
"80222599999","2023-05-17T16:00:00","4","6.95","-71.85","213.0","LOS COLONIZADORES, CO","FM-15","99999","V020","999,9,C,0000,1","99999,9,9,N","009999,1,9,9","+0320,1","+0220,1","99999,9","04,1,+02743,1,99,9",,"9,AGL   ,+99999,+99999","99,99,9,04,1,99,9,02743,1,99,9,99,9","10130,1,99999,9",,,,"MET061METAR SKSA 171600Z 00000KT 9999 SCT090 32/22 Q1013 RMK A2992=",
"80222599999","2023-05-17T18:00:00","4","6.95","-71.85","213.0","LOS COLONIZADORES, CO","FM-15","99999","V020","999,9,V,0010,1","99999,9,9,N","009999,1,9,9","+0320,1","+0230,1","99999,9","04,1,+02743,1,99,9",,"9,AGL   ,+99999,+99999","99,99,9,04,1,99,9,02743,1,99,9,99,9","10120,1,99999,9",,,,"MET061METAR SKSA 171800Z VRB02KT 9999 SCT090 32/23 Q1012 RMK A2988=",
"80222599999","2023-05-17T19:00:00","4","6.95","-71.85","213.0","LOS COLONIZADORES, CO","FM-15","99999","V020","200,1,N,0026,1","99999,9,9,N","999999,9,9,9","+0320,5","+0240,5","99999,9",,,,,"10100,5,99999,9","16,5",,,"MET073METAR SKSA 171900Z 20005KT VCRA 9999 BKN080 32/24 Q1010 RMK VCRA E A2985=","D01      0ADE693D02      0ADE539D03      0ADE735"
"80222599999","2023-05-17T20:00:00","4","6.95","-71.85","213.0","LOS COLONIZADORES, CO","FM-15","99999","V020","110,1,N,0021,1","99999,9,9,N","999999,9,9,9","+0270,5","+0230,5","99999,9",,,,,"10100,5,99999,9","16,5",,,"MET074METAR SKSA 172000Z 11004KT VCRA 9999 BKN080 27/23 Q1010 RMK VCRA SW A2984=","D01      0ADE693D02      0ADE539D03      0ADE735"
"80222599999","2023-05-17T22:00:00","4","6.95","-71.85","213.0","LOS COLONIZADORES, CO","FM-15","99999","V020","310,1,N,0021,1","22000,1,9,N","009999,1,9,9","+0290,1","+0240,1","99999,9",,,,"00,99,1,99,9,99,9,99999,9,99,9,99,9","10090,1,99999,9",,,,"MET058METAR SKSA 172200Z 31004KT 9999 NSC 29/24 Q1009 RMK A2980=",
"80222599999","2023-05-17T23:00:00","4","6.95","-71.85","213.0","LOS COLONIZADORES, CO","FM-15","99999","V020","290,1,N,0015,1","22000,1,9,N","009999,1,9,9","+0270,1","+0230,1","99999,9",,,,"00,99,1,99,9,99,9,99999,9,99,9,99,9","10100,1,99999,9","16,5",,,"MET070METAR SKSA 172300Z 29003KT 9999 VCRA NSC 27/23 Q1010 RMK VCRA E A2982=","D01      0ADE735"
"80222599999","2023-05-18T11:00:00","4","6.95","-71.85","213.0","LOS COLONIZADORES, CO","FM-15","99999","V020","999,9,V,0010,1","99999,9,9,N","009999,1,9,9","+0230,1","+0230,1","99999,9","02,1,+03048,1,99,9",,"9,AGL   ,+99999,+99999","99,99,9,02,1,99,9,03048,1,99,9,99,9","10120,1,99999,9",,,,"MET061METAR SKSA 181100Z VRB02KT 9999 FEW100 23/23 Q1012 RMK A2998=",
"80222599999","2023-05-18T13:00:00","4","6.95","-71.85","213.0","LOS COLONIZADORES, CO","FM-15","99999","V020","999,9,V,0010,1","99999,9,9,N","009999,1,9,9","+0290,1","+0240,1","99999,9","02,1,+03048,1,99,9",,"9,AGL   ,+99999,+99999","99,99,9,02,1,99,9,03048,1,99,9,99,9","10140,1,99999,9",,,,"MET061METAR SKSA 181300Z VRB02KT 9999 FEW100 29/24 Q1014 RMK A2994=",
"80222599999","2023-05-18T14:00:00","4","6.95","-71.85","213.0","LOS COLONIZADORES, CO","FM-15","99999","V020","999,9,V,0010,1","01219,1,C,N","009999,1,9,9","+0300,1","+0230,1","99999,9","07,1,+01219,1,99,9",,"9,AGL   ,+99999,+99999","99,99,9,07,1,99,9,01219,1,99,9,99,9","10140,1,99999,9",,,,"MET061METAR SKSA 181400Z VRB02KT 9999 BKN040 30/23 Q1014 RMK A2995=",
"80222599999","2023-05-18T15:00:00","4","6.95","-71.85","213.0","LOS COLONIZADORES, CO","FM-15","99999","V020","999,9,V,0010,1","99999,9,9,N","009999,1,9,9","+0300,1","+0240,1","99999,9","04,1,+01219,1,99,9",,"9,AGL   ,+99999,+99999","99,99,9,04,1,99,9,01219,1,99,9,99,9","10140,1,99999,9","16,5",,,"MET073METAR SKSA 181500Z VRB02KT 9999 VCRA SCT040 30/24 Q1014 RMK VCRA E A2995=","D01      0ADE735"
"80222599999","2023-05-18T18:00:00","4","6.95","-71.85","213.0","LOS COLONIZADORES, CO","FM-15","99999","V020","999,9,V,0010,1","99999,9,9,N","009999,1,9,9","+0330,1","+0240,1","99999,9","04,1,+01524,1,99,9",,"9,AGL   ,+99999,+99999","99,99,9,04,1,99,9,01524,1,99,9,99,9","10110,1,99999,9",,,,"MET061METAR SKSA 181800Z VRB02KT 9999 SCT050 33/24 Q1011 RMK A2987=",
"80222599999","2023-05-18T19:00:00","4","6.95","-71.85","213.0","LOS COLONIZADORES, CO","FM-15","99999","V020","999,9,V,0010,1","01219,1,C,N","009999,1,9,9","+0280,1","+0260,1","99999,9","08,1,+01219,1,99,9",,"9,AGL   ,+99999,+99999","99,99,9,08,1,99,9,01219,1,99,9,99,9","10100,1,99999,9","61,1",,,"MET065METAR SKSA 181900Z VRB02KT 9999 -RA OVC040 28/26 Q1010 RMK A2984=",
"80222599999","2023-05-18T20:00:00","4","6.95","-71.85","213.0","LOS COLONIZADORES, CO","FM-15","99999","V020","240,1,N,0026,1","99999,9,9,N","009999,1,9,9","+0290,1","+0250,1","99999,9","04,1,+02438,1,99,9",,"9,AGL   ,+99999,+99999","99,99,9,04,1,99,9,02438,1,99,9,99,9","10100,1,99999,9",,,,"MET061METAR SKSA 182000Z 24005KT 9999 SCT080 29/25 Q1010 RMK A2983=",
"80222599999","2023-05-18T21:00:00","4","6.95","-71.85","213.0","LOS COLONIZADORES, CO","FM-15","99999","V020","260,1,N,0041,1","02743,1,C,N","009999,1,9,9","+0290,1","+0240,1","99999,9","07,1,+02743,1,99,9",,"9,AGL   ,+99999,+99999","99,99,9,07,1,99,9,02743,1,99,9,99,9","10100,1,99999,9","16,5",,,"MET073METAR SKSA 182100Z 26008KT 9999 VCRA BKN090 29/24 Q1010 RMK VCRA E A2983=","D01      0ADE735"
"80222599999","2023-05-18T22:00:00","4","6.95","-71.85","213.0","LOS COLONIZADORES, CO","FM-15","99999","V020","999,9,V,0010,1","01829,1,C,N","009000,1,9,9","+0230,1","+0230,1","99999,9","08,1,+01829,1,99,9",,"9,AGL   ,+99999,+99999","99,99,9,08,1,99,9,01829,1,99,9,99,9","10100,1,99999,9","63,1",,,"MET064METAR SKSA 182200Z VRB02KT 9000 RA OVC060 23/23 Q1010 RMK A2983=",
"80222599999","2023-05-18T23:00:00","4","6.95","-71.85","213.0","LOS COLONIZADORES, CO","FM-15","99999","V020","250,1,N,0021,1","22000,1,9,N","009999,1,9,9","+0250,1","+0250,1","99999,9",,,,"00,99,1,99,9,99,9,99999,9,99,9,99,9","10100,1,99999,9",,,,"MET058METAR SKSA 182300Z 25004KT 9999 NSC 25/25 Q1010 RMK A2983=",
"80222599999","2023-05-19T11:00:00","4","6.95","-71.85","213.0","LOS COLONIZADORES, CO","FM-15","99999","V020","999,9,C,0000,1","99999,9,9,N","009999,1,9,9","+0230,1","+0230,1","99999,9","02,1,+03048,1,99,9",,"9,AGL   ,+99999,+99999","99,99,9,02,1,99,9,03048,1,99,9,99,9","10120,1,99999,9",,,,"MET061METAR SKSA 191100Z 00000KT 9999 FEW100 23/23 Q1012 RMK A2988=",
"80222599999","2023-05-19T12:00:00","4","6.95","-71.85","213.0","LOS COLONIZADORES, CO","FM-15","99999","V020","999,9,C,0000,1","99999,9,9,N","009999,1,9,9","+0250,1","+0240,1","99999,9","02,1,+03048,1,99,9",,"9,AGL   ,+99999,+99999","99,99,9,02,1,99,9,03048,1,99,9,99,9","10130,1,99999,9",,,,"MET061METAR SKSA 191200Z 00000KT 9999 FEW100 25/24 Q1013 RMK A2991=",
"80222599999","2023-05-19T13:00:00","4","6.95","-71.85","213.0","LOS COLONIZADORES, CO","FM-15","99999","V020","999,9,C,0000,1","99999,9,9,N","009999,1,9,9","+0280,1","+0240,1","99999,9","04,1,+02743,1,99,9",,"9,AGL   ,+99999,+99999","99,99,9,04,1,99,9,02743,1,99,9,99,9","10130,1,99999,9",,,,"MET061METAR SKSA 191300Z 00000KT 9999 SCT090 28/24 Q1013 RMK A2992=",
"80222599999","2023-05-19T14:00:00","4","6.95","-71.85","213.0","LOS COLONIZADORES, CO","FM-15","99999","V020","999,9,C,0000,1","99999,9,9,N","009999,1,9,9","+0300,1","+0240,1","99999,9","04,1,+02743,1,99,9",,"9,AGL   ,+99999,+99999","99,99,9,04,1,99,9,02743,1,99,9,99,9","10130,1,99999,9",,,,"MET061METAR SKSA 191400Z 00000KT 9999 SCT090 30/24 Q1013 RMK A2993=",
"80222599999","2023-05-19T15:00:00","4","6.95","-71.85","213.0","LOS COLONIZADORES, CO","FM-15","99999","V020","330,1,N,0015,1","99999,9,9,N","009999,1,9,9","+0320,1","+0240,1","99999,9","02,1,+02743,1,99,9",,"9,AGL   ,+99999,+99999","99,99,9,02,1,99,9,02743,1,99,9,99,9","10130,1,99999,9",,,,"MET061METAR SKSA 191500Z 33003KT 9999 FEW090 32/24 Q1013 RMK A2991=",
"80222599999","2023-05-19T16:00:00","4","6.95","-71.85","213.0","LOS COLONIZADORES, CO","FM-15","99999","V020","080,1,N,0026,1","99999,9,9,N","009999,1,9,9","+0330,1","+0230,1","99999,9","02,1,+02743,1,99,9",,"9,AGL   ,+99999,+99999","99,99,9,02,1,99,9,02743,1,99,9,99,9","10120,1,99999,9",,,,"MET061METAR SKSA 191600Z 08005KT 9999 FEW090 33/23 Q1012 RMK A2990=",
"80222599999","2023-05-19T17:00:00","4","6.95","-71.85","213.0","LOS COLONIZADORES, CO","FM-15","99999","V020","360,1,N,0015,1","99999,9,9,N","009999,1,9,9","+0340,1","+0230,1","99999,9","02,1,+02743,1,99,9",,"9,AGL   ,+99999,+99999","99,99,9,02,1,99,9,02743,1,99,9,99,9","10110,1,99999,9",,,,"MET061METAR SKSA 191700Z 36003KT 9999 FEW090 34/23 Q1011 RMK A2987=",
"80222599999","2023-05-19T19:00:00","4","6.95","-71.85","213.0","LOS COLONIZADORES, CO","FM-15","99999","V020","170,1,N,0021,1","99999,9,9,N","009999,1,9,9","+0340,1","+0220,1","99999,9","04,1,+02743,1,99,9",,"9,AGL   ,+99999,+99999","99,99,9,04,1,99,9,02743,1,99,9,99,9","10090,1,99999,9",,,,"MET061METAR SKSA 191900Z 17004KT 9999 SCT090 34/22 Q1009 RMK A2980=",
"80222599999","2023-05-19T20:00:00","4","6.95","-71.85","213.0","LOS COLONIZADORES, CO","FM-15","99999","V020","110,1,N,0015,1","99999,9,9,N","009999,1,9,9","+0340,1","+0220,1","99999,9","04,1,+02438,1,99,9",,"9,AGL   ,+99999,+99999","99,99,9,04,1,99,9,02438,1,99,9,99,9","10080,1,99999,9","16,5",,,"MET074METAR SKSA 192000Z 11003KT 9999 VCRA SCT080 34/22 Q1008 RMK VCRA SE A2978=","D01      0ADE735"
"80222599999","2023-05-19T21:00:00","4","6.95","-71.85","213.0","LOS COLONIZADORES, CO","FM-15","99999","V020","999,9,V,0010,1","99999,9,9,N","009999,1,9,9","+0270,1","+0240,1","99999,9","04,1,+02591,1,99,9",,"9,AGL   ,+99999,+99999","99,99,9,04,1,99,9,02591,1,99,9,99,9","10080,1,99999,9",,,,"MET061METAR SKSA 192100Z VRB02KT 9999 SCT085 27/24 Q1008 RMK A2978=",
"80222599999","2023-05-19T22:00:00","4","6.95","-71.85","213.0","LOS COLONIZADORES, CO","FM-15","99999","V020","210,1,N,0015,1","99999,9,9,N","009999,1,9,9","+0270,1","+0250,1","99999,9","04,1,+02591,1,99,9",,"9,AGL   ,+99999,+99999","99,99,9,04,1,99,9,02591,1,99,9,99,9","10080,1,99999,9",,,,"MET061METAR SKSA 192200Z 21003KT 9999 SCT085 27/25 Q1008 RMK A2978=",
"80222599999","2023-05-22T15:00:00","4","6.95","-71.85","213.0","LOS COLONIZADORES, CO","FM-15","99999","V020","020,1,N,0015,1","99999,9,9,N","009999,1,9,9","+0270,1","+0240,1","99999,9","04,1,+00914,1,99,9",,"9,AGL   ,+99999,+99999","99,99,9,04,1,99,9,00914,1,99,9,99,9","10140,1,99999,9",,,,"MET064METAR SKSA 221500Z 02003KT 9999 SCT030 27/24 Q1014 RMK A2996 HZ=",
"80222599999","2023-05-22T20:00:00","4","6.95","-71.85","213.0","LOS COLONIZADORES, CO","FM-15","99999","V020","010,1,N,0041,1","00610,1,C,N","009999,1,9,9","+0280,1","+0240,1","99999,9","08,1,+00610,1,99,9",,"9,AGL   ,+99999,+99999","99,99,9,08,1,99,9,00610,1,99,9,99,9","10100,1,99999,9",,,,"MET064METAR SKSA 222000Z 01008KT 9999 OVC020 28/24 Q1010 RMK A2984 HZ=",
"80222599999","2023-05-23T22:00:00","4","6.95","-71.85","213.0","LOS COLONIZADORES, CO","FM-15","99999","V020","290,1,N,0026,1","02134,1,C,N","009999,1,9,9","+0270,1","+0230,1","99999,9","07,1,+02134,1,99,9",,"9,AGL   ,+99999,+99999","99,99,9,07,1,99,9,02134,1,99,9,99,9","10090,1,99999,9",,,,"MET064METAR SKSA 232200Z 29005KT 9999 BKN070 27/23 Q1009 RMK A2981 HZ=",
"80222599999","2023-05-24T21:00:00","4","6.95","-71.85","213.0","LOS COLONIZADORES, CO","FM-15","99999","V020","050,1,N,0021,1","01524,1,C,N","009999,1,9,9","+0290,1","+0230,1","99999,9","02,1,+00914,1,99,9","04,1,+01524,1,99,9","9,AGL   ,+99999,+99999","99,99,9,02,1,99,9,00914,1,99,9,99,9","10070,1,99999,9",,,,"MET068METAR SKSA 242100Z 05004KT 9999 FEW030 SCT050 29/23 Q1007 RMK A2974=",
"80222599999","2023-05-25T20:00:00","4","6.95","-71.85","213.0","LOS COLONIZADORES, CO","FM-15","99999","V020","360,1,N,0031,1","99999,9,9,N","009999,1,9,9","+0270,1","+0250,1","99999,9","04,1,+01524,1,99,9",,"9,AGL   ,+99999,+99999","99,99,9,04,1,99,9,01524,1,99,9,99,9","10080,1,99999,9",,,,"MET064METAR SKSA 252000Z 36006KT 9999 SCT050 27/25 Q1008 RMK A2976 HZ=",
"80222599999","2023-05-26T14:00:00","4","6.95","-71.85","213.0","LOS COLONIZADORES, CO","FM-15","99999","V020","330,1,N,0026,1","02438,1,C,N","009999,1,9,9","+0260,1","+0230,1","99999,9","08,1,+02438,1,99,9",,"9,AGL   ,+99999,+99999","99,99,9,08,1,99,9,02438,1,99,9,99,9","10140,1,99999,9",,,,"MET064METAR SKSA 261400Z 33005KT 9999 OVC080 26/23 Q1014 RMK A2994 HZ=",
"80222599999","2023-05-26T23:00:00","4","6.95","-71.85","213.0","LOS COLONIZADORES, CO","FM-15","99999","V020","999,9,C,0000,1","22000,1,9,N","009999,1,9,9","+0260,1","+0240,1","99999,9",,,,"00,99,1,99,9,99,9,99999,9,99,9,99,9","10090,1,99999,9",,,,"MET061METAR SKSA 262300Z 00000KT 9999 NSC 26/24 Q1009 RMK A2980 HZ=",
"80222599999","2023-05-27T17:00:00","4","6.95","-71.85","213.0","LOS COLONIZADORES, CO","FM-15","99999","V020","100,1,N,0015,1","01219,1,C,N","009999,1,9,9","+0330,1","+0230,1","99999,9","07,1,+01219,1,99,9",,"9,AGL   ,+99999,+99999","99,99,9,07,1,99,9,01219,1,99,9,99,9","10140,1,99999,9",,,,"MET064METAR SKSA 271700Z 10003KT 9999 BKN040 33/23 Q1014 RMK A2995 HZ=",
"80222599999","2023-05-28T11:00:00","4","6.95","-71.85","213.0","LOS COLONIZADORES, CO","FM-15","99999","V020","999,9,C,0000,1","22000,1,9,N","009999,1,9,9","+0220,1","+0220,1","99999,9",,,,"00,99,1,99,9,99,9,99999,9,99,9,99,9","10130,1,99999,9",,,,"MET061METAR SKSA 281100Z 00000KT 9999 NSC 22/22 Q1013 RMK A2993 HZ=",
"80222599999","2023-05-29T11:00:00","4","6.95","-71.85","213.0","LOS COLONIZADORES, CO","FM-15","99999","V020","999,9,C,0000,1","22000,1,9,N","009999,1,9,9","+0240,1","+0230,1","99999,9",,,,"00,99,1,99,9,99,9,99999,9,99,9,99,9","10120,1,99999,9",,,,"MET061METAR SKSA 291100Z 00000KT 9999 NSC 24/23 Q1012 RMK A2990 HZ=",
"80222599999","2023-05-29T12:00:00","4","6.95","-71.85","213.0","LOS COLONIZADORES, CO","FM-15","99999","V020","999,9,V,0010,1","22000,1,9,N","009999,1,9,9","+0250,1","+0230,1","99999,9",,,,"00,99,1,99,9,99,9,99999,9,99,9,99,9","10130,1,99999,9",,,,"MET061METAR SKSA 291200Z VRB02KT 9999 NSC 25/23 Q1013 RMK A2992 HZ=",
"80222599999","2023-05-29T15:00:00","4","6.95","-71.85","213.0","LOS COLONIZADORES, CO","FM-15","99999","V020","010,1,N,0015,1","00914,1,C,N","009999,1,9,9","+0240,1","+0240,1","99999,9","07,1,+00914,1,99,9",,"9,AGL   ,+99999,+99999","99,99,9,07,1,99,9,00914,1,99,9,99,9","10140,1,99999,9","16,1",,,"MET075METAR SKSA 291500Z 01003KT 9999 5000E VCSH BKN030 24/24 Q1014 RMK A2995 HZ=",
"80222599999","2023-05-30T16:00:00","4","6.95","-71.85","213.0","LOS COLONIZADORES, CO","FM-15","99999","V020","010,1,N,0015,1","00914,1,C,N","009999,1,9,9","+0290,1","+0240,1","99999,9","08,1,+00914,1,99,9",,"9,AGL   ,+99999,+99999","99,99,9,08,1,99,9,00914,1,99,9,99,9","10130,1,99999,9",,,,"MET064METAR SKSA 301600Z 01003KT 9999 OVC030 29/24 Q1013 RMK A2992 HZ=",
"80222599999","2023-05-30T20:00:00","4","6.95","-71.85","213.0","LOS COLONIZADORES, CO","FM-15","99999","V020","010,1,N,0015,1","00457,1,C,N","004000,1,9,9","+0230,1","+0230,1","99999,9","08,1,+00457,1,99,9",,"9,AGL   ,+99999,+99999","99,99,9,08,1,99,9,00457,1,99,9,99,9","10110,1,99999,9","53,1",,,"MET067METAR SKSA 302000Z 01003KT 4000 DZ OVC015 23/23 Q1011 RMK A2987 HZ=",
"80222599999","2023-05-31T11:00:00","4","6.95","-71.85","213.0","LOS COLONIZADORES, CO","FM-15","99999","V020","180,1,N,0015,1","22000,1,9,N","009999,1,9,9","+0220,1","+0220,1","99999,9",,,,"00,99,1,99,9,99,9,99999,9,99,9,99,9","10130,1,99999,9",,,,"MET061METAR SKSA 311100Z 18003KT 9999 NSC 22/22 Q1013 RMK A2992 HZ=",
"80222599999","2023-05-31T14:00:00","4","6.95","-71.85","213.0","LOS COLONIZADORES, CO","FM-15","99999","V020","030,1,N,0015,1","00457,1,C,N","008000,1,9,9","+0250,1","+0240,1","99999,9","08,1,+00457,1,99,9",,"9,AGL   ,+99999,+99999","99,99,9,08,1,99,9,00457,1,99,9,99,9","10150,1,99999,9",,,,"MET064METAR SKSA 311400Z 03003KT 8000 OVC015 25/24 Q1015 RMK A2998 HZ=",
"80222599999","2023-05-31T23:00:00","4","6.95","-71.85","213.0","LOS COLONIZADORES, CO","FM-15","99999","V020","999,9,C,0000,1","01219,1,9,N","009999,1,9,9","+0240,1","+0240,1","99999,9","04,1,+00610,1,99,9","07,1,+01219,1,99,9","9,AGL   ,+99999,+99999","99,99,9,04,1,99,9,00610,1,99,9,99,9","10120,1,99999,9",,,,"MET071METAR SKSA 312300Z 00000KT 9999 SCT020 BKN040 24/24 Q1012 RMK A2988 HZ=",
"80222599999","2023-06-01T16:00:00","4","6.95","-71.85","213.0","LOS COLONIZADORES, CO","FM-15","99999","V020","999,9,C,0000,1","02743,1,C,N","009999,1,9,9","+0290,1","+0240,1","99999,9","02,1,+00610,1,99,9","04,1,+02743,1,99,9","9,AGL   ,+99999,+99999","99,99,9,02,1,99,9,00610,1,99,9,99,9","10140,1,99999,9",,,,"MET071METAR SKSA 011600Z 00000KT 9999 FEW020 SCT090 29/24 Q1014 RMK A2995 HZ=",
"80222599999","2023-06-01T19:00:00","4","6.95","-71.85","213.0","LOS COLONIZADORES, CO","FM-15","99999","V020","999,9,C,0000,1","99999,9,9,N","009999,1,9,9","+0320,1","+0240,1","99999,9","04,1,+00914,1,99,9",,"9,AGL   ,+99999,+99999","99,99,9,04,1,99,9,00914,1,99,9,99,9","10100,1,99999,9",,,,"MET064METAR SKSA 011900Z 00000KT 9999 SCT030 32/24 Q1010 RMK A2985 HZ=",
"80222599999","2023-06-02T12:00:00","4","6.95","-71.85","213.0","LOS COLONIZADORES, CO","FM-15","99999","V020","999,9,C,0000,1","99999,9,9,N","009999,1,9,9","+0230,1","+0230,1","99999,9","04,1,+02134,1,99,9",,"9,AGL   ,+99999,+99999","99,99,9,04,1,99,9,02134,1,99,9,99,9","10130,1,99999,9",,,,"MET064METAR SKSA 021200Z 00000KT 9999 SCT070 23/23 Q1013 RMK A2992 HZ=",
"80222599999","2023-06-03T12:00:00","4","6.95","-71.85","213.0","LOS COLONIZADORES, CO","FM-15","99999","V020","020,1,N,0031,1","00457,1,C,N","009999,1,9,9","+0230,1","+0230,1","99999,9","08,1,+00457,1,99,9",,"9,AGL   ,+99999,+99999","99,99,9,08,1,99,9,00457,1,99,9,99,9","10130,1,99999,9",,,,"MET064METAR SKSA 031200Z 02006KT 9999 OVC015 23/23 Q1013 RMK A2991 HZ=",
"80222599999","2023-06-03T20:00:00","4","6.95","-71.85","213.0","LOS COLONIZADORES, CO","FM-15","99999","V020","280,1,N,0021,1","00914,1,C,N","009999,1,9,9","+0280,1","+0240,1","99999,9","07,1,+00914,1,99,9",,"9,AGL   ,+99999,+99999","99,99,9,07,1,99,9,00914,1,99,9,99,9","10100,1,99999,9",,,,"MET064METAR SKSA 032000Z 28004KT 9999 BKN030 28/24 Q1010 RMK A2984 HZ=",
"80222599999","2023-06-04T18:00:00","4","6.95","-71.85","213.0","LOS COLONIZADORES, CO","FM-15","99999","V020","150,1,N,0015,1","99999,9,9,N","009999,1,9,9","+0330,1","+0230,1","99999,9","04,1,+00914,1,99,9",,"9,AGL   ,+99999,+99999","99,99,9,04,1,99,9,00914,1,99,9,99,9","10120,1,99999,9",,,,"MET064METAR SKSA 041800Z 15003KT 9999 SCT030 33/23 Q1012 RMK A2989 HZ=",
"80222599999","2023-06-05T19:00:00","4","6.95","-71.85","213.0","LOS COLONIZADORES, CO","FM-15","99999","V020","040,1,N,0015,1","99999,9,9,N","009999,1,9,9","+0300,1","+0230,1","99999,9","04,1,+01219,1,99,9",,"9,AGL   ,+99999,+99999","99,99,9,04,1,99,9,01219,1,99,9,99,9","10110,1,99999,9",,,,"MET064METAR SKSA 051900Z 04003KT 9999 SCT040 30/23 Q1011 RMK A2986 HZ=",
"80222599999","2023-06-06T13:00:00","4","6.95","-71.85","213.0","LOS COLONIZADORES, CO","FM-15","99999","V020","150,1,N,0015,1","99999,9,9,N","009999,1,9,9","+0240,1","+0230,1","99999,9","04,1,+02134,1,99,9",,"9,AGL   ,+99999,+99999","99,99,9,04,1,99,9,02134,1,99,9,99,9","10150,1,99999,9",,,,"MET064METAR SKSA 061300Z 15003KT 9999 SCT070 24/23 Q1015 RMK A2998 HZ=",
"80222599999","2023-06-06T15:00:00","4","6.95","-71.85","213.0","LOS COLONIZADORES, CO","FM-15","99999","V020","130,1,N,0015,1","99999,9,9,N","009999,1,9,9","+0280,1","+0230,1","99999,9","04,1,+01829,1,99,9",,"9,AGL   ,+99999,+99999","99,99,9,04,1,99,9,01829,1,99,9,99,9","10150,1,99999,9",,,,"MET061METAR SKSA 061500Z 13003KT 9999 SCT060 28/23 Q1015 RMK A2999=",
"80222599999","2023-06-06T16:00:00","4","6.95","-71.85","213.0","LOS COLONIZADORES, CO","FM-15","99999","V020","999,9,V,0010,1","01829,1,C,N","009999,1,9,9","+0280,1","+0230,1","99999,9","07,1,+01829,1,99,9",,"9,AGL   ,+99999,+99999","99,99,9,07,1,99,9,01829,1,99,9,99,9","10150,1,99999,9",,,,"MET061METAR SKSA 061600Z VRB02KT 9999 BKN060 28/23 Q1015 RMK A2998=",
"80222599999","2023-06-06T17:00:00","4","6.95","-71.85","213.0","LOS COLONIZADORES, CO","FM-15","99999","V020","330,1,N,0015,1","01829,1,C,N","009999,1,9,9","+0270,1","+0240,1","99999,9","07,1,+01829,1,99,9",,"9,AGL   ,+99999,+99999","99,99,9,07,1,99,9,01829,1,99,9,99,9","10150,1,99999,9",,,,"MET061METAR SKSA 061700Z 33003KT 9999 BKN060 27/24 Q1015 RMK A2997=",
"80222599999","2023-06-06T19:00:00","4","6.95","-71.85","213.0","LOS COLONIZADORES, CO","FM-15","99999","V020","220,1,N,0021,1","01067,1,C,N","009999,1,9,9","+0280,1","+0230,1","99999,9","07,1,+01067,1,99,9",,"9,AGL   ,+99999,+99999","99,99,9,07,1,99,9,01067,1,99,9,99,9","10130,1,99999,9",,,,"MET061METAR SKSA 061900Z 22004KT 9999 BKN035 28/23 Q1013 RMK A2991=",
"80222599999","2023-06-07T15:00:00","4","6.95","-71.85","213.0","LOS COLONIZADORES, CO","FM-15","99999","V020","360,1,N,0015,1","99999,9,9,N","009999,1,9,9","+0270,1","+0230,1","99999,9","04,1,+01219,1,99,9",,"9,AGL   ,+99999,+99999","99,99,9,04,1,99,9,01219,1,99,9,99,9","10160,1,99999,9",,,,"MET061METAR SKSA 071500Z 36003KT 9999 SCT040 27/23 Q1016 RMK A3001=",
"80222599999","2023-06-08T12:00:00","4","6.95","-71.85","213.0","LOS COLONIZADORES, CO","FM-15","99999","V020","280,1,N,0015,1","01372,1,C,N","009000,1,9,9","+0230,1","+0230,1","99999,9","08,1,+01372,1,99,9",,"9,AGL   ,+99999,+99999","99,99,9,08,1,99,9,01372,1,99,9,99,9","10150,1,99999,9","61,1",,,"MET072METAR SKSA 081200Z 28003KT 9000 -RA OVC045 23/23 Q1015 RMK VCSH S A2999=",
"80222599999","2023-06-08T18:00:00","4","6.95","-71.85","213.0","LOS COLONIZADORES, CO","FM-15","99999","V020","010,1,N,0026,1","02438,1,C,N","009999,1,9,9","+0280,1","+0240,1","99999,9","07,1,+02438,1,99,9",,"9,AGL   ,+99999,+99999","99,99,9,07,1,99,9,02438,1,99,9,99,9","10140,1,99999,9","16,1",,,"MET073METAR SKSA 081800Z 01005KT 9999 VCSH BKN080 28/24 Q1014 RMK VCSH S A2995=",
"80222599999","2023-06-09T12:00:00","4","6.95","-71.85","213.0","LOS COLONIZADORES, CO","FM-15","99999","V020","999,9,C,0000,1","01524,1,C,N","009999,1,9,9","+0220,1","+0220,1","99999,9","08,1,+01524,1,99,9",,"9,AGL   ,+99999,+99999","99,99,9,08,1,99,9,01524,1,99,9,99,9","10170,1,99999,9",,,,"MET061METAR SKSA 091200Z 00000KT 9999 OVC050 22/22 Q1017 RMK A3003=",
"80222599999","2023-06-09T18:00:00","4","6.95","-71.85","213.0","LOS COLONIZADORES, CO","FM-15","99999","V020","020,1,N,0021,1","99999,9,9,N","009999,1,9,9","+0290,1","+0220,1","99999,9","04,1,+01524,1,99,9",,"9,AGL   ,+99999,+99999","99,99,9,04,1,99,9,01524,1,99,9,99,9","10150,1,99999,9",,,,"MET061METAR SKSA 091800Z 02004KT 9999 SCT050 29/22 Q1015 RMK A2997=",
"80222599999","2023-06-10T15:00:00","4","6.95","-71.85","213.0","LOS COLONIZADORES, CO","FM-15","99999","V020","340,1,N,0015,1","99999,9,9,N","009999,1,9,9","+0280,1","+0240,1","99999,9","04,1,+02743,1,99,9",,"9,AGL   ,+99999,+99999","99,99,9,04,1,99,9,02743,1,99,9,99,9","10150,1,99999,9",,,,"MET061METAR SKSA 101500Z 34003KT 9999 SCT090 28/24 Q1015 RMK A2998=",
"80222599999","2023-06-11T15:00:00","4","6.95","-71.85","213.0","LOS COLONIZADORES, CO","FM-15","99999","V020","040,1,N,0031,1","22000,1,9,N","009999,1,9,9","+0310,1","+0230,1","99999,9",,,,"00,99,1,99,9,99,9,99999,9,99,9,99,9","10150,1,99999,9",,,,"MET058METAR SKSA 111500Z 04006KT 9999 NSC 31/23 Q1015 RMK A2997=",
"80222599999","2023-06-11T19:00:00","4","6.95","-71.85","213.0","LOS COLONIZADORES, CO","FM-15","99999","V020","320,1,N,0026,1","02134,1,C,N","009999,1,9,9","+0250,1","+0240,1","99999,9","08,1,+02134,1,99,9",,"9,AGL   ,+99999,+99999","99,99,9,08,1,99,9,02134,1,99,9,99,9","10130,1,99999,9","16,5",,,"MET074METAR SKSA 111900Z 32005KT 9999 VCRA OVC070 25/24 Q1013 RMK VCRA NW A2993=","D01      0ADE735"
"80222599999","2023-06-12T12:00:00","4","6.95","-71.85","213.0","LOS COLONIZADORES, CO","FM-15","99999","V020","999,9,V,0010,1","02134,1,C,N","009999,1,9,9","+0230,1","+0220,1","99999,9","08,1,+02134,1,99,9",,"9,AGL   ,+99999,+99999","99,99,9,08,1,99,9,02134,1,99,9,99,9","10150,1,99999,9",,,,"MET061METAR SKSA 121200Z VRB02KT 9999 OVC070 23/22 Q1015 RMK A2998=",
"80222599999","2023-06-12T20:00:00","4","6.95","-71.85","213.0","LOS COLONIZADORES, CO","FM-15","99999","V020","330,1,N,0015,1","22000,1,9,N","009999,1,9,9","+0280,1","+0220,1","99999,9",,,,"00,99,1,99,9,99,9,99999,9,99,9,99,9","10140,1,99999,9",,,,"MET058METAR SKSA 122000Z 33003KT 9999 NSC 28/22 Q1014 RMK A2990=",
"80222599999","2023-06-19T23:00:00","4","6.95","-71.85","213.0","LOS COLONIZADORES, CO","FM-15","99999","V020","999,9,V,0010,1","99999,9,9,N","009999,1,9,9","+0260,1","+0240,1","99999,9","04,1,+01219,1,99,9",,"9,AGL   ,+99999,+99999","99,99,9,04,1,99,9,01219,1,99,9,99,9","10120,1,99999,9",,,,"MET060METAR SKSA 192300Z VRB02KT 9999 SCT040 26/24 Q1012 RMK 2990=",
"80222599999","2023-06-21T21:00:00","4","6.95","-71.85","213.0","LOS COLONIZADORES, CO","FM-15","99999","V020","120,1,N,0021,1","99999,9,9,N","009999,1,9,9","+0270,1","+0250,1","99999,9","04,1,+01067,1,99,9",,"9,AGL   ,+99999,+99999","99,99,9,04,1,99,9,01067,1,99,9,99,9","10100,1,99999,9",,,,"MET061METAR SKSA 212100Z 12004KT 9999 SCT035 27/25 Q1010 RMK A2984=",
"80222599999","2023-06-22T15:00:00","4","6.95","-71.85","213.0","LOS COLONIZADORES, CO","FM-15","99999","V020","030,1,N,0015,1","22000,1,9,N","009999,1,9,9","+0290,1","+0230,1","99999,9",,,,"00,99,1,99,9,99,9,99999,9,99,9,99,9","10140,1,99999,9",,,,"MET058METAR SKSA 221500Z 03003KT 9999 NSC 29/23 Q1014 RMK A2995=",
"80222599999","2023-06-22T16:00:00","4","6.95","-71.85","213.0","LOS COLONIZADORES, CO","FM-15","99999","V020","030,1,N,0015,1","22000,1,9,N","009999,1,9,9","+0300,1","+0240,1","99999,9",,,,"00,99,1,99,9,99,9,99999,9,99,9,99,9","10130,1,99999,9",,,,"MET058METAR SKSA 221600Z 03003KT 9999 NSC 30/24 Q1013 RMK A2993=",
"80222599999","2023-07-01T19:00:00","4","6.95","-71.85","213.0","LOS COLONIZADORES, CO","FM-15","99999","V020","090,1,N,0015,1","99999,9,9,N","009999,1,9,9","+0310,1","+0240,1","99999,9","04,1,+00610,1,99,9",,"9,AGL   ,+99999,+99999","99,99,9,04,1,99,9,00610,1,99,9,99,9","10110,1,99999,9",,,,"MET061METAR SKSA 011900Z 09003KT 9999 SCT020 31/24 Q1011 RMK A2986=",
"80222599999","2023-07-02T13:00:00","4","6.95","-71.85","213.0","LOS COLONIZADORES, CO","FM-15","99999","V020","999,9,C,0000,1","22000,1,9,N","009999,1,9,9","+0250,1","+0230,1","99999,9",,,,"00,99,1,99,9,99,9,99999,9,99,9,99,9","10130,1,99999,9",,,,"MET058METAR SKSA 021300Z 00000KT 9999 NSC 25/23 Q1013 RMK A2992=",
"80222599999","2023-07-02T15:00:00","4","6.95","-71.85","213.0","LOS COLONIZADORES, CO","FM-15","99999","V020","999,9,C,0000,1","99999,9,9,N","009999,1,9,9","+0260,1","+0230,1","99999,9","04,1,+00914,1,99,9",,"9,AGL   ,+99999,+99999","99,99,9,04,1,99,9,00914,1,99,9,99,9","10140,1,99999,9",,,,"MET061METAR SKSA 021500Z 00000KT 9999 SCT030 26/23 Q1014 RMK A2995=",
"80222599999","2023-07-02T16:00:00","4","6.95","-71.85","213.0","LOS COLONIZADORES, CO","FM-15","99999","V020","030,1,N,0015,1","99999,9,9,N","009999,1,9,9","+0270,1","+0230,1","99999,9","04,1,+00914,1,99,9",,"9,AGL   ,+99999,+99999","99,99,9,04,1,99,9,00914,1,99,9,99,9","10140,1,99999,9",,,,"MET061METAR SKSA 021600Z 03003KT 9999 SCT030 27/23 Q1014 RMK A2995=",
"80222599999","2023-07-02T17:00:00","4","6.95","-71.85","213.0","LOS COLONIZADORES, CO","FM-15","99999","V020","110,1,N,0015,1","99999,9,9,N","009999,1,9,9","+0280,1","+0230,1","99999,9","04,1,+00914,1,99,9",,"9,AGL   ,+99999,+99999","99,99,9,04,1,99,9,00914,1,99,9,99,9","10140,1,99999,9",,,,"MET061METAR SKSA 021700Z 11003KT 9999 SCT030 28/23 Q1014 RMK A2995=",
"80222599999","2023-07-03T19:00:00","4","6.95","-71.85","213.0","LOS COLONIZADORES, CO","FM-15","99999","V020","020,1,N,0015,1","99999,9,9,N","009999,1,9,9","+0320,1","+0220,1","99999,9","04,1,+00914,1,99,9",,"9,AGL   ,+99999,+99999","99,99,9,04,1,99,9,00914,1,99,9,99,9","10110,1,99999,9",,,,"MET061METAR SKSA 031900Z 02003KT 9999 SCT030 32/22 Q1011 RMK A2986=",
"80222599999","2023-07-11T14:00:00","4","6.95","-71.85","213.0","LOS COLONIZADORES, CO","FM-15","99999","V020","999,9,V,0010,1","01219,1,C,N","008000,1,9,9","+0260,1","+0230,1","99999,9","08,1,+01219,1,99,9",,"9,AGL   ,+99999,+99999","99,99,9,08,1,99,9,01219,1,99,9,99,9","10150,1,99999,9",,,,"MET064METAR SKSA 111400Z VRB02KT 8000 OVC040 26/23 Q1015 RMK A2997 HZ=",
"80222599999","2023-07-19T18:00:00","4","6.95","-71.85","213.0","LOS COLONIZADORES, CO","FM-15","99999","V020","999,9,V,0010,1","00610,1,C,N","009999,1,9,9","+0280,1","+0230,1","99999,9","08,1,+00610,1,99,9",,"9,AGL   ,+99999,+99999","99,99,9,08,1,99,9,00610,1,99,9,99,9","10170,1,99999,9",,,,"MET051METAR SKSA 191800Z VRB02KT 9999 OVC020 28/23 Q1017=",
"80222599999","2023-07-27T15:00:00","4","6.95","-71.85","213.0","LOS COLONIZADORES, CO","FM-15","99999","V020","310,1,N,0015,1","99999,9,9,N","999999,9,9,9","+0250,5","+0230,5","99999,9",,,,,"10160,5,99999,9","16,5",,,"MET075METAR SKSA 271500Z 31003KT 90000 VCSH BKN030 OVC050 25/23 Q1016 RMK VCSH S=","D01      0ADE735"
"80222599999","2023-07-27T16:00:00","4","6.95","-71.85","213.0","LOS COLONIZADORES, CO","FM-15","99999","V020","290,1,N,0015,1","01524,1,C,N","009000,1,9,9","+0270,1","+0230,1","99999,9","08,1,+01524,1,99,9",,"9,AGL   ,+99999,+99999","99,99,9,08,1,99,9,01524,1,99,9,99,9","10150,1,99999,9","16,1",,,"MET068METAR SKSA 271600Z 29003KT 9000 VCSH OVC050 27/23 Q1015 RMK VCSH SE=",
"80222599999","2023-07-27T17:00:00","4","6.95","-71.85","213.0","LOS COLONIZADORES, CO","FM-15","99999","V020","100,1,N,0015,1","02743,1,C,N","009999,1,9,9","+0280,1","+0230,1","99999,9","08,1,+02743,1,99,9",,"9,AGL   ,+99999,+99999","99,99,9,08,1,99,9,02743,1,99,9,99,9","10140,1,99999,9","16,1",,,"MET068METAR SKSA 271700Z 10003KT 9999 VCSH OVC090 28/23 Q1014 RMK VCSH NE=",
"80222599999","2023-07-27T18:00:00","4","6.95","-71.85","213.0","LOS COLONIZADORES, CO","FM-15","99999","V020","140,1,N,0015,1","02743,1,C,N","009999,1,9,9","+0260,1","+0240,1","99999,9","08,1,+02743,1,99,9",,"9,AGL   ,+99999,+99999","99,99,9,08,1,99,9,02743,1,99,9,99,9","10140,1,99999,9","16,1",,,"MET068METAR SKSA 271800Z 14003KT 9999 VCSH OVC090 26/24 Q1014 RMK VCSH SW=",
"80222599999","2023-07-27T19:00:00","4","6.95","-71.85","213.0","LOS COLONIZADORES, CO","FM-15","99999","V020","140,1,N,0021,1","01219,1,C,N","009999,1,9,9","+0260,1","+0240,1","99999,9","07,1,+01219,1,99,9","08,1,+02743,1,99,9","9,AGL   ,+99999,+99999","99,99,9,07,1,99,9,01219,1,99,9,99,9","10130,1,99999,9",,,,"MET058METAR SKSA 271900Z 14004KT 9999 BKN040 OVC090 26/24 Q1013=",
"80222599999","2023-07-27T20:00:00","4","6.95","-71.85","213.0","LOS COLONIZADORES, CO","FM-15","99999","V020","180,1,N,0021,1","99999,9,9,N","009999,1,9,9","+0280,1","+0240,1","99999,9","04,1,+01219,1,99,9",,"9,AGL   ,+99999,+99999","99,99,9,04,1,99,9,01219,1,99,9,99,9","10120,1,99999,9",,,,"MET051METAR SKSA 272000Z 18004KT 9999 SCT040 28/24 Q1012=",
"80222599999","2023-07-27T21:00:00","4","6.95","-71.85","213.0","LOS COLONIZADORES, CO","FM-15","99999","V020","140,1,N,0021,1","99999,9,9,N","009999,1,9,9","+0280,1","+0230,1","99999,9","04,1,+01219,1,99,9",,"9,AGL   ,+99999,+99999","99,99,9,04,1,99,9,01219,1,99,9,99,9","10110,1,99999,9",,,,"MET051METAR SKSA 272100Z 14004KT 9999 SCT040 28/23 Q1011=",
"80222599999","2023-07-27T22:00:00","4","6.95","-71.85","213.0","LOS COLONIZADORES, CO","FM-15","99999","V020","999,9,C,0000,1","02743,1,9,N","009999,1,9,9","+0280,1","+0240,1","99999,9","04,1,+01219,1,99,9","08,1,+02743,1,99,9","9,AGL   ,+99999,+99999","99,99,9,04,1,99,9,01219,1,99,9,99,9","10110,1,99999,9",,,,"MET058METAR SKSA 272200Z 00000KT 9999 SCT040 OVC090 28/24 Q1011=",
"80222599999","2023-07-27T23:00:00","4","6.95","-71.85","213.0","LOS COLONIZADORES, CO","FM-15","99999","V020","999,9,V,0010,1","02743,1,C,N","009999,1,9,9","+0270,1","+0250,1","99999,9","08,1,+02743,1,99,9",,"9,AGL   ,+99999,+99999","99,99,9,08,1,99,9,02743,1,99,9,99,9","10110,1,99999,9",,,,"MET051METAR SKSA 272300Z VRB02KT 9999 OVC090 27/25 Q1011=",
"80222599999","2023-07-28T11:00:00","4","6.95","-71.85","213.0","LOS COLONIZADORES, CO","FM-15","99999","V020","100,1,N,0015,1","02743,1,C,N","009999,1,9,9","+0220,1","+0220,1","99999,9","07,1,+02743,1,99,9",,"9,AGL   ,+99999,+99999","99,99,9,07,1,99,9,02743,1,99,9,99,9","10140,1,99999,9",,,,"MET051METAR SKSA 281100Z 10003KT 9999 BKN090 22/22 Q1014=",
"80222599999","2023-07-28T12:00:00","4","6.95","-71.85","213.0","LOS COLONIZADORES, CO","FM-15","99999","V020","130,1,N,0015,1","02743,1,C,N","009999,1,9,9","+0230,1","+0230,1","99999,9","07,1,+02743,1,99,9",,"9,AGL   ,+99999,+99999","99,99,9,07,1,99,9,02743,1,99,9,99,9","10150,1,99999,9",,,,"MET051METAR SKSA 281200Z 13003KT 9999 BKN090 23/23 Q1015=",
"80222599999","2023-07-28T13:00:00","4","6.95","-71.85","213.0","LOS COLONIZADORES, CO","FM-15","99999","V020","999,9,V,0010,1","02743,1,C,N","009999,1,9,9","+0250,1","+0240,1","99999,9","07,1,+02743,1,99,9",,"9,AGL   ,+99999,+99999","99,99,9,07,1,99,9,02743,1,99,9,99,9","10160,1,99999,9",,,,"MET051METAR SKSA 281300Z VRB02KT 9999 BKN090 25/24 Q1016=",
"80222599999","2023-07-28T14:00:00","4","6.95","-71.85","213.0","LOS COLONIZADORES, CO","FM-15","99999","V020","040,1,N,0015,1","02743,1,C,N","009999,1,9,9","+0270,1","+0230,1","99999,9","07,1,+02743,1,99,9",,"9,AGL   ,+99999,+99999","99,99,9,07,1,99,9,02743,1,99,9,99,9","10160,1,99999,9","16,1",,,"MET067METAR SKSA 281400Z 04003KT 9999 VCSH BKN090 27/23 Q1016 RMK VCSH E=",
"80222599999","2023-07-28T15:00:00","4","6.95","-71.85","213.0","LOS COLONIZADORES, CO","FM-15","99999","V020","010,1,N,0026,1","01524,1,C,N","009999,1,9,9","+0270,1","+0240,1","99999,9","07,1,+01524,1,99,9","08,1,+02743,1,99,9","9,AGL   ,+99999,+99999","99,99,9,07,1,99,9,01524,1,99,9,99,9","10160,1,99999,9","16,1",,,"MET074METAR SKSA 281500Z 01005KT 9999 VCSH BKN050 OVC090 27/24 Q1016 RMK VCSH E=",
"80222599999","2023-07-28T16:00:00","4","6.95","-71.85","213.0","LOS COLONIZADORES, CO","FM-15","99999","V020","070,1,N,0021,1","00457,1,C,N","009999,1,9,9","+0270,1","+0250,1","99999,9","07,1,+00457,1,99,9",,"9,AGL   ,+99999,+99999","99,99,9,07,1,99,9,00457,1,99,9,99,9","10160,1,99999,9","16,1",,,"MET068METAR SKSA 281600Z 07004KT 9999 VCSH BKN015 27/25 Q1016 RMK VCSH SE=",
"80222599999","2023-07-28T17:00:00","4","6.95","-71.85","213.0","LOS COLONIZADORES, CO","FM-15","99999","V020","090,1,N,0026,1","00457,1,C,N","009999,1,9,9","+0260,1","+0240,1","99999,9","08,1,+00457,1,99,9",,"9,AGL   ,+99999,+99999","99,99,9,08,1,99,9,00457,1,99,9,99,9","10150,1,99999,9","16,1",,,"MET067METAR SKSA 281700Z 09005KT 9999 VCSH OVC015 26/24 Q1015 RMK VCSH N=",
"80222599999","2023-07-28T18:00:00","4","6.95","-71.85","213.0","LOS COLONIZADORES, CO","FM-15","99999","V020","110,1,N,0021,1","00457,1,C,N","009999,1,9,9","+0250,1","+0240,1","99999,9","07,1,+00457,1,99,9","08,1,+01829,1,99,9","9,AGL   ,+99999,+99999","99,99,9,07,1,99,9,00457,1,99,9,99,9","10150,1,99999,9","16,1",,,"MET074METAR SKSA 281800Z 11004KT 9999 VCSH BKN015 OVC060 25/24 Q1015 RMK VCSH N=",
"80222599999","2023-07-28T19:00:00","4","6.95","-71.85","213.0","LOS COLONIZADORES, CO","FM-15","99999","V020","999,9,V,0010,1","00610,1,C,N","009999,1,9,9","+0270,1","+0230,1","99999,9","07,1,+00610,1,99,9","08,1,+01524,1,99,9","9,AGL   ,+99999,+99999","99,99,9,07,1,99,9,00610,1,99,9,99,9","10150,1,99999,9","16,1",,,"MET074METAR SKSA 281900Z VRB02KT 9999 VCSH BKN020 OVC050 27/23 Q1015 RMK VCSH N=",
"80222599999","2023-07-28T20:00:00","4","6.95","-71.85","213.0","LOS COLONIZADORES, CO","FM-15","99999","V020","350,1,N,0031,1","00610,1,C,N","009999,1,9,9","+0260,1","+0230,1","99999,9","07,1,+00610,1,99,9","08,1,+02743,1,99,9","9,AGL   ,+99999,+99999","99,99,9,07,1,99,9,00610,1,99,9,99,9","10140,1,99999,9","16,1",,,"MET075METAR SKSA 282000Z 35006KT 9999 VCSH BKN020 OVC090 26/23 Q1014 RMK VCSH NE=",
"80222599999","2023-07-28T21:00:00","4","6.95","-71.85","213.0","LOS COLONIZADORES, CO","FM-15","99999","V020","350,1,N,0031,1","00610,1,C,N","009999,1,9,9","+0260,1","+0240,1","99999,9","07,1,+00610,1,99,9","08,1,+02743,1,99,9","9,AGL   ,+99999,+99999","99,99,9,07,1,99,9,00610,1,99,9,99,9","10140,1,99999,9","16,1",,,"MET075METAR SKSA 282100Z 35006KT 9999 VCSH BKN020 OVC090 26/24 Q1014 RMK VCSH NE=",
"80222599999","2023-07-28T22:00:00","4","6.95","-71.85","213.0","LOS COLONIZADORES, CO","FM-15","99999","V020","360,1,N,0015,1","02743,1,9,N","009999,1,9,9","+0250,1","+0230,1","99999,9","04,1,+01219,1,99,9","08,1,+02743,1,99,9","9,AGL   ,+99999,+99999","99,99,9,04,1,99,9,01219,1,99,9,99,9","10130,1,99999,9","16,1",,,"MET074METAR SKSA 282200Z 36003KT 9999 VCSH SCT040 OVC090 25/23 Q1013 RMK VCSH N=",
"80222599999","2023-07-28T23:00:00","4","6.95","-71.85","213.0","LOS COLONIZADORES, CO","FM-15","99999","V020","010,1,N,0021,1","02743,1,9,N","009999,1,9,9","+0240,1","+0240,1","99999,9","04,1,+02438,1,99,9","08,1,+02743,1,99,9","9,AGL   ,+99999,+99999","99,99,9,04,1,99,9,02438,1,99,9,99,9","10130,1,99999,9","16,1",,,"MET075METAR SKSA 282300Z 01004KT 9999 VCSH SCT080 OVC090 24/24 Q1013 RMK VCSH NW=",
"80222599999","2023-07-29T11:00:00","4","6.95","-71.85","213.0","LOS COLONIZADORES, CO","FM-15","99999","V020","999,9,V,0010,1","99999,9,9,N","009999,1,9,9","+0220,1","+0220,1","99999,9","04,1,+01219,1,99,9",,"9,AGL   ,+99999,+99999","99,99,9,04,1,99,9,01219,1,99,9,99,9","10150,1,99999,9",,,,"MET051METAR SKSA 291100Z VRB02KT 9999 SCT040 22/22 Q1015=",
"80222599999","2023-07-29T12:00:00","4","6.95","-71.85","213.0","LOS COLONIZADORES, CO","FM-15","99999","V020","999,9,V,0010,1","99999,9,9,N","009999,1,9,9","+0230,1","+0230,1","99999,9","04,1,+01829,1,99,9",,"9,AGL   ,+99999,+99999","99,99,9,04,1,99,9,01829,1,99,9,99,9","10160,1,99999,9",,,,"MET051METAR SKSA 291200Z VRB02KT 9999 SCT060 23/23 Q1016=",
"80222599999","2023-07-29T13:00:00","4","6.95","-71.85","213.0","LOS COLONIZADORES, CO","FM-15","99999","V020","999,9,C,0000,1","01829,1,C,N","009999,1,9,9","+0240,1","+0230,1","99999,9","07,1,+01829,1,99,9",,"9,AGL   ,+99999,+99999","99,99,9,07,1,99,9,01829,1,99,9,99,9","10160,1,99999,9",,,,"MET051METAR SKSA 291300Z 00000KT 9999 BKN060 24/23 Q1016=",
"80222599999","2023-07-29T14:00:00","4","6.95","-71.85","213.0","LOS COLONIZADORES, CO","FM-15","99999","V020","999,9,V,0010,1","01829,1,C,N","009999,1,9,9","+0260,1","+0220,1","99999,9","07,1,+01829,1,99,9","07,1,+02743,1,99,9","9,AGL   ,+99999,+99999","99,99,9,07,1,99,9,01829,1,99,9,99,9","10170,1,99999,9",,,,"MET058METAR SKSA 291400Z VRB02KT 9999 BKN060 BKN090 26/22 Q1017=",
"80222599999","2023-07-29T15:00:00","4","6.95","-71.85","213.0","LOS COLONIZADORES, CO","FM-15","99999","V020","999,9,V,0010,1","02743,1,C,N","009999,1,9,9","+0270,1","+0220,1","99999,9","07,1,+02743,1,99,9",,"9,AGL   ,+99999,+99999","99,99,9,07,1,99,9,02743,1,99,9,99,9","10170,1,99999,9",,,,"MET051METAR SKSA 291500Z VRB02KT 9999 BKN090 27/22 Q1017=",
"80222599999","2023-07-29T16:00:00","4","6.95","-71.85","213.0","LOS COLONIZADORES, CO","FM-15","99999","V020","170,1,N,0026,1","01829,1,C,N","009999,1,9,9","+0280,1","+0220,1","99999,9","07,1,+01829,1,99,9","08,1,+02743,1,99,9","9,AGL   ,+99999,+99999","99,99,9,07,1,99,9,01829,1,99,9,99,9","10170,1,99999,9",,,,"MET058METAR SKSA 291600Z 17005KT 9999 BKN060 OVC090 28/22 Q1017=",
"80222599999","2023-07-29T17:00:00","4","6.95","-71.85","213.0","LOS COLONIZADORES, CO","FM-15","99999","V020","240,1,N,0015,1","01829,1,C,N","009999,1,9,9","+0290,1","+0220,1","99999,9","07,1,+01829,1,99,9",,"9,AGL   ,+99999,+99999","99,99,9,07,1,99,9,01829,1,99,9,99,9","10160,1,99999,9",,,,"MET051METAR SKSA 291700Z 24003KT 9999 BKN060 29/22 Q1016=",
"80222599999","2023-07-29T18:00:00","4","6.95","-71.85","213.0","LOS COLONIZADORES, CO","FM-15","99999","V020","999,9,V,0010,1","01372,1,C,N","009999,1,9,9","+0290,1","+0230,1","99999,9","07,1,+01372,1,99,9",,"9,AGL   ,+99999,+99999","99,99,9,07,1,99,9,01372,1,99,9,99,9","10140,1,99999,9",,,,"MET051METAR SKSA 291800Z VRB02KT 9999 BKN045 29/23 Q1014=",
"80222599999","2023-07-29T19:00:00","4","6.95","-71.85","213.0","LOS COLONIZADORES, CO","FM-15","99999","V020","999,9,V,0010,1","01372,1,C,N","009999,1,9,9","+0290,1","+0230,1","99999,9","07,1,+01372,1,99,9",,"9,AGL   ,+99999,+99999","99,99,9,07,1,99,9,01372,1,99,9,99,9","10130,1,99999,9",,,,"MET051METAR SKSA 291900Z VRB02KT 9999 BKN045 29/23 Q1013=",
"80222599999","2023-07-29T20:00:00","4","6.95","-71.85","213.0","LOS COLONIZADORES, CO","FM-15","99999","V020","150,1,N,0026,1","99999,9,9,N","009999,1,9,9","+0310,1","+0230,1","99999,9","04,1,+01372,1,99,9",,"9,AGL   ,+99999,+99999","99,99,9,04,1,99,9,01372,1,99,9,99,9","10120,1,99999,9",,,,"MET051METAR SKSA 292000Z 15005KT 9999 SCT045 31/23 Q1012=",
"80222599999","2023-07-29T21:00:00","4","6.95","-71.85","213.0","LOS COLONIZADORES, CO","FM-15","99999","V020","999,9,C,0000,1","99999,9,9,N","009999,1,9,9","+0310,1","+0230,1","99999,9","04,1,+01372,1,99,9",,"9,AGL   ,+99999,+99999","99,99,9,04,1,99,9,01372,1,99,9,99,9","10120,1,99999,9",,,,"MET051METAR SKSA 292100Z 00000KT 9999 SCT045 31/23 Q1012=",
"80222599999","2023-07-29T22:00:00","4","6.95","-71.85","213.0","LOS COLONIZADORES, CO","FM-15","99999","V020","260,1,N,0031,1","99999,9,9,N","009999,1,9,9","+0290,1","+0240,1","99999,9","02,1,+01372,1,99,9",,"9,AGL   ,+99999,+99999","99,99,9,02,1,99,9,01372,1,99,9,99,9","10120,1,99999,9",,,,"MET051METAR SKSA 292200Z 26006KT 9999 FEW045 29/24 Q1012=",
"80222599999","2023-07-29T23:00:00","4","6.95","-71.85","213.0","LOS COLONIZADORES, CO","FM-15","99999","V020","280,1,N,0026,1","99999,9,9,N","009999,1,9,9","+0280,1","+0230,1","99999,9","02,1,+01372,1,99,9",,"9,AGL   ,+99999,+99999","99,99,9,02,1,99,9,01372,1,99,9,99,9","10120,1,99999,9",,,,"MET051METAR SKSA 292300Z 28005KT 9999 FEW045 28/23 Q1012=",
"80222599999","2023-08-01T20:00:00","4","6.95","-71.85","213.0","LOS COLONIZADORES, CO","FM-15","99999","V020","020,1,N,0041,1","00610,1,C,N","009999,1,9,9","+0270,1","+0240,1","99999,9","07,1,+00610,1,99,9",,"9,AGL   ,+99999,+99999","99,99,9,07,1,99,9,00610,1,99,9,99,9","10150,1,99999,9",,,,"MET051METAR SKSA 012000Z 02008KT 9999 BKN020 27/24 Q1015=",
"80222599999","2023-08-01T21:00:00","4","6.95","-71.85","213.0","LOS COLONIZADORES, CO","FM-15","99999","V020","340,1,N,0041,1","00914,1,C,N","009999,1,9,9","+0270,1","+0240,1","99999,9","07,1,+00914,1,99,9",,"9,AGL   ,+99999,+99999","99,99,9,07,1,99,9,00914,1,99,9,99,9","10150,1,99999,9",,,,"MET051METAR SKSA 012100Z 34008KT 9999 BKN030 27/24 Q1015=",
"80222599999","2023-08-01T22:00:00","4","6.95","-71.85","213.0","LOS COLONIZADORES, CO","FM-15","99999","V020","020,1,N,0015,1","01219,1,C,N","009999,1,9,9","+0270,1","+0230,1","99999,9","07,1,+01219,1,99,9",,"9,AGL   ,+99999,+99999","99,99,9,07,1,99,9,01219,1,99,9,99,9","10150,1,99999,9",,,,"MET051METAR SKSA 012200Z 02003KT 9999 BKN040 27/23 Q1015=",
"80222599999","2023-08-01T23:00:00","4","6.95","-71.85","213.0","LOS COLONIZADORES, CO","FM-15","99999","V020","280,1,N,0015,1","99999,9,9,N","009999,1,9,9","+0260,1","+0230,1","99999,9","04,1,+01524,1,99,9",,"9,AGL   ,+99999,+99999","99,99,9,04,1,99,9,01524,1,99,9,99,9","10150,1,99999,9",,,,"MET051METAR SKSA 012300Z 28003KT 9999 SCT050 26/23 Q1015=",
"80222599999","2023-08-02T14:00:00","4","6.95","-71.85","213.0","LOS COLONIZADORES, CO","FM-15","99999","V020","999,9,C,0000,1","99999,9,9,N","009999,1,9,9","+0270,1","+0230,1","99999,9","04,1,+03048,1,99,9",,"9,AGL   ,+99999,+99999","99,99,9,04,1,99,9,03048,1,99,9,99,9","10170,1,99999,9",,,,"MET051METAR SKSA 021400Z 00000KT 9999 SCT100 27/23 Q1017=",
"80222599999","2023-08-02T16:00:00","4","6.95","-71.85","213.0","LOS COLONIZADORES, CO","FM-15","99999","V020","220,1,N,0015,1","99999,9,9,N","009999,1,9,9","+0300,1","+0210,1","99999,9","04,1,+03048,1,99,9",,"9,AGL   ,+99999,+99999","99,99,9,04,1,99,9,03048,1,99,9,99,9","10170,1,99999,9",,,,"MET051METAR SKSA 021600Z 22003KT 9999 SCT100 30/21 Q1017=",
"80222599999","2023-08-02T17:00:00","4","6.95","-71.85","213.0","LOS COLONIZADORES, CO","FM-15","99999","V020","999,9,C,0000,1","99999,9,9,N","009999,1,9,9","+0310,1","+0210,1","99999,9","04,1,+00610,1,99,9",,"9,AGL   ,+99999,+99999","99,99,9,04,1,99,9,00610,1,99,9,99,9","10160,1,99999,9",,,,"MET051METAR SKSA 021700Z 00000KT 9999 SCT020 31/21 Q1016=",
"80222599999","2023-08-02T18:00:00","4","6.95","-71.85","213.0","LOS COLONIZADORES, CO","FM-15","99999","V020","170,1,N,0015,1","99999,9,9,N","009999,1,9,9","+0320,1","+0220,1","99999,9","02,1,+00610,1,99,9",,"9,AGL   ,+99999,+99999","99,99,9,02,1,99,9,00610,1,99,9,99,9","10140,1,99999,9",,,,"MET051METAR SKSA 021800Z 17003KT 9999 FEW020 32/22 Q1014=",
"80222599999","2023-08-02T19:00:00","4","6.95","-71.85","213.0","LOS COLONIZADORES, CO","FM-15","99999","V020","080,1,N,0015,1","99999,9,9,N","009999,1,9,9","+0320,1","+0220,1","99999,9","02,1,+00610,1,99,9",,"9,AGL   ,+99999,+99999","99,99,9,02,1,99,9,00610,1,99,9,99,9","10140,1,99999,9",,,,"MET051METAR SKSA 021900Z 08003KT 9999 FEW020 32/22 Q1014=",
"80222599999","2023-08-02T20:00:00","4","6.95","-71.85","213.0","LOS COLONIZADORES, CO","FM-15","99999","V020","060,1,N,0015,1","99999,9,9,N","009999,1,9,9","+0320,1","+0220,1","99999,9","02,1,+00610,1,99,9",,"9,AGL   ,+99999,+99999","99,99,9,02,1,99,9,00610,1,99,9,99,9","10120,1,99999,9",,,,"MET051METAR SKSA 022000Z 06003KT 9999 FEW020 32/22 Q1012=",
"80222599999","2023-08-02T21:00:00","4","6.95","-71.85","213.0","LOS COLONIZADORES, CO","FM-15","99999","V020","080,1,N,0046,1","99999,9,9,N","009999,1,9,9","+0320,1","+0220,1","99999,9","02,1,+00610,1,99,9",,"9,AGL   ,+99999,+99999","99,99,9,02,1,99,9,00610,1,99,9,99,9","10120,1,99999,9",,,,"MET051METAR SKSA 022100Z 08009KT 9999 FEW020 32/22 Q1012=",
"80222599999","2023-08-02T22:00:00","4","6.95","-71.85","213.0","LOS COLONIZADORES, CO","FM-15","99999","V020","090,1,N,0015,1","99999,9,9,N","009999,1,9,9","+0310,1","+0220,1","99999,9","02,1,+00610,1,99,9",,"9,AGL   ,+99999,+99999","99,99,9,02,1,99,9,00610,1,99,9,99,9","10120,1,99999,9",,,,"MET051METAR SKSA 022200Z 09003KT 9999 FEW020 31/22 Q1012=",
"80222599999","2023-08-02T23:00:00","4","6.95","-71.85","213.0","LOS COLONIZADORES, CO","FM-15","99999","V020","999,9,C,0000,1","99999,9,9,N","009999,1,9,9","+0290,1","+0240,1","99999,9","02,1,+00610,1,99,9",,"9,AGL   ,+99999,+99999","99,99,9,02,1,99,9,00610,1,99,9,99,9","10130,1,99999,9",,,,"MET051METAR SKSA 022300Z 00000KT 9999 FEW020 29/24 Q1013=",
"80222599999","2023-08-03T11:00:00","4","6.95","-71.85","213.0","LOS COLONIZADORES, CO","FM-15","99999","V020","240,1,N,0015,1","99999,9,9,N","009999,1,9,9","+0220,1","+0220,1","99999,9","02,1,+02134,1,99,9",,"9,AGL   ,+99999,+99999","99,99,9,02,1,99,9,02134,1,99,9,99,9","10150,1,99999,9",,,,"MET051METAR SKSA 031100Z 24003KT 9999 FEW070 22/22 Q1015=",
"80222599999","2023-08-03T13:00:00","4","6.95","-71.85","213.0","LOS COLONIZADORES, CO","FM-15","99999","V020","250,1,N,0015,1","99999,9,9,N","009999,1,9,9","+0240,1","+0240,1","99999,9","02,1,+02134,1,99,9",,"9,AGL   ,+99999,+99999","99,99,9,02,1,99,9,02134,1,99,9,99,9","10160,1,99999,9",,,,"MET051METAR SKSA 031300Z 25003KT 9999 FEW070 24/24 Q1016=",
"80222599999","2023-08-03T14:00:00","4","6.95","-71.85","213.0","LOS COLONIZADORES, CO","FM-15","99999","V020","999,9,C,0000,1","99999,9,9,N","009999,1,9,9","+0270,1","+0240,1","99999,9","04,1,+02134,1,99,9",,"9,AGL   ,+99999,+99999","99,99,9,04,1,99,9,02134,1,99,9,99,9","10160,1,99999,9",,,,"MET051METAR SKSA 031400Z 00000KT 9999 SCT070 27/24 Q1016=",
"80222599999","2023-08-03T15:00:00","4","6.95","-71.85","213.0","LOS COLONIZADORES, CO","FM-15","99999","V020","310,1,N,0015,1","22000,1,9,N","009999,1,9,9","+0300,1","+0220,1","99999,9",,,,"00,99,1,99,9,99,9,99999,9,99,9,99,9","10160,1,99999,9",,,,"MET048METAR SKSA 031500Z 31003KT 9999 NSC 30/22 Q1016=",
"80222599999","2023-08-03T16:00:00","4","6.95","-71.85","213.0","LOS COLONIZADORES, CO","FM-15","99999","V020","350,1,N,0015,1","22000,1,9,N","009999,1,9,9","+0310,1","+0230,1","99999,9",,,,"00,99,1,99,9,99,9,99999,9,99,9,99,9","10160,1,99999,9",,,,"MET048METAR SKSA 031600Z 35003KT 9999 NSC 31/23 Q1016=",
"80222599999","2023-08-03T17:00:00","4","6.95","-71.85","213.0","LOS COLONIZADORES, CO","FM-15","99999","V020","160,1,N,0031,1","22000,1,9,N","009999,1,9,9","+0320,1","+0230,1","99999,9",,,,"00,99,1,99,9,99,9,99999,9,99,9,99,9","10150,1,99999,9",,,,"MET048METAR SKSA 031700Z 16006KT 9999 NSC 32/23 Q1015=",
"80222599999","2023-08-03T18:00:00","4","6.95","-71.85","213.0","LOS COLONIZADORES, CO","FM-15","99999","V020","180,1,N,0015,1","22000,1,9,N","009999,1,9,9","+0320,1","+0230,1","99999,9",,,,"00,99,1,99,9,99,9,99999,9,99,9,99,9","10130,1,99999,9",,,,"MET048METAR SKSA 031800Z 18003KT 9999 NSC 32/23 Q1013=",
"80222599999","2023-08-03T19:00:00","4","6.95","-71.85","213.0","LOS COLONIZADORES, CO","FM-15","99999","V020","180,1,N,0015,1","22000,1,9,N","009999,1,9,9","+0320,1","+0230,1","99999,9",,,,"00,99,1,99,9,99,9,99999,9,99,9,99,9","10130,1,99999,9",,,,"MET048METAR SKSA 031900Z 18003KT 9999 NSC 32/23 Q1013=",
"80222599999","2023-08-03T20:00:00","4","6.95","-71.85","213.0","LOS COLONIZADORES, CO","FM-15","99999","V020","070,1,N,0015,1","99999,9,9,N","009999,1,9,9","+0330,1","+0210,1","99999,9","02,1,+00914,1,99,9",,"9,AGL   ,+99999,+99999","99,99,9,02,1,99,9,00914,1,99,9,99,9","10120,1,99999,9",,,,"MET051METAR SKSA 032000Z 07003KT 9999 FEW030 33/21 Q1012=",
"80222599999","2023-08-03T22:00:00","4","6.95","-71.85","213.0","LOS COLONIZADORES, CO","FM-15","99999","V020","130,1,N,0015,1","22000,1,9,N","009999,1,9,9","+0310,1","+0210,1","99999,9",,,,"00,99,1,99,9,99,9,99999,9,99,9,99,9","10120,1,99999,9",,,,"MET048METAR SKSA 032200Z 13003KT 9999 NSC 31/21 Q1012=",
"80222599999","2023-08-03T23:00:00","4","6.95","-71.85","213.0","LOS COLONIZADORES, CO","FM-15","99999","V020","130,1,N,0015,1","22000,1,9,N","009999,1,9,9","+0280,1","+0210,1","99999,9",,,,"00,99,1,99,9,99,9,99999,9,99,9,99,9","10110,1,99999,9",,,,"MET048METAR SKSA 032300Z 13003KT 9999 NSC 28/21 Q1011=",
"80222599999","2023-08-04T11:00:00","4","6.95","-71.85","213.0","LOS COLONIZADORES, CO","FM-15","99999","V020","999,9,V,0010,1","22000,1,9,N","009999,1,9,9","+0220,1","+0220,1","99999,9",,,,"00,99,1,99,9,99,9,99999,9,99,9,99,9","10140,1,99999,9",,,,"MET048METAR SKSA 041100Z VRB02KT 9999 NSC 22/22 Q1014=",
"80222599999","2023-08-04T14:00:00","4","6.95","-71.85","213.0","LOS COLONIZADORES, CO","FM-15","99999","V020","999,9,C,0000,1","22000,1,9,N","009999,1,9,9","+0290,1","+0220,1","99999,9",,,,"00,99,1,99,9,99,9,99999,9,99,9,99,9","10150,1,99999,9",,,,"MET048METAR SKSA 041400Z 00000KT 9999 NSC 29/22 Q1015=",
"80222599999","2023-08-04T15:00:00","4","6.95","-71.85","213.0","LOS COLONIZADORES, CO","FM-15","99999","V020","060,1,N,0021,1","22000,1,9,N","009999,1,9,9","+0300,1","+0230,1","99999,9",,,,"00,99,1,99,9,99,9,99999,9,99,9,99,9","10150,1,99999,9",,,,"MET048METAR SKSA 041500Z 06004KT 9999 NSC 30/23 Q1015=",
"80222599999","2023-08-04T16:00:00","4","6.95","-71.85","213.0","LOS COLONIZADORES, CO","FM-15","99999","V020","130,1,N,0036,1","00914,1,C,N","009999,1,9,9","+0310,1","+0230,1","99999,9","07,1,+00914,1,99,9",,"9,AGL   ,+99999,+99999","99,99,9,07,1,99,9,00914,1,99,9,99,9","10150,1,99999,9",,,,"MET051METAR SKSA 041600Z 13007KT 9999 BKN030 31/23 Q1015=",
"80222599999","2023-08-04T17:00:00","4","6.95","-71.85","213.0","LOS COLONIZADORES, CO","FM-15","99999","V020","080,1,N,0021,1","00914,1,9,N","009999,1,9,9","+0300,1","+0230,1","99999,9","04,1,+00610,1,99,9","07,1,+00914,1,99,9","9,AGL   ,+99999,+99999","99,99,9,04,1,99,9,00610,1,99,9,99,9","10140,1,99999,9",,,,"MET058METAR SKSA 041700Z 08004KT 9999 SCT020 BKN030 30/23 Q1014=",
"80222599999","2023-08-04T18:00:00","4","6.95","-71.85","213.0","LOS COLONIZADORES, CO","FM-15","99999","V020","090,1,N,0015,1","01524,1,C,N","009999,1,9,9","+0260,1","+0250,1","99999,9","07,1,+01524,1,99,9",,"9,AGL   ,+99999,+99999","99,99,9,07,1,99,9,01524,1,99,9,99,9","10130,1,99999,9",,,,"MET051METAR SKSA 041800Z 09003KT 9999 BKN050 26/25 Q1013=",
"80222599999","2023-08-04T19:00:00","4","6.95","-71.85","213.0","LOS COLONIZADORES, CO","FM-15","99999","V020","120,1,N,0015,1","02134,1,C,N","009999,1,9,9","+0250,1","+0230,1","99999,9","07,1,+02134,1,99,9",,"9,AGL   ,+99999,+99999","99,99,9,07,1,99,9,02134,1,99,9,99,9","10130,1,99999,9",,,,"MET051METAR SKSA 041900Z 12003KT 9999 BKN070 25/23 Q1013=",
"80222599999","2023-08-04T20:00:00","4","6.95","-71.85","213.0","LOS COLONIZADORES, CO","FM-15","99999","V020","999,9,C,0000,1","22000,1,9,N","009999,1,9,9","+0240,1","+0240,1","99999,9",,,,"00,99,1,99,9,99,9,99999,9,99,9,99,9","10130,1,99999,9",,,,"MET048METAR SKSA 042000Z 00000KT 9999 NSC 24/24 Q1013=",
"80222599999","2023-08-04T23:00:00","4","6.95","-71.85","213.0","LOS COLONIZADORES, CO","FM-15","99999","V020","220,1,N,0015,1","22000,1,9,N","009999,1,9,9","+0250,1","+0240,1","99999,9",,,,"00,99,1,99,9,99,9,99999,9,99,9,99,9","10130,1,99999,9",,,,"MET048METAR SKSA 042300Z 22003KT 9999 NSC 25/24 Q1013=",
"80222599999","2023-08-05T11:00:00","4","6.95","-71.85","213.0","LOS COLONIZADORES, CO","FM-15","99999","V020","240,1,N,0015,1","22000,1,9,N","009999,1,9,9","+0220,1","+0220,1","99999,9",,,,"00,99,1,99,9,99,9,99999,9,99,9,99,9","10140,1,99999,9",,,,"MET048METAR SKSA 051100Z 24003KT 9999 NSC 22/22 Q1014=",
"80222599999","2023-08-05T12:00:00","4","6.95","-71.85","213.0","LOS COLONIZADORES, CO","FM-15","99999","V020","999,9,C,0000,1","22000,1,9,N","009999,1,9,9","+0220,1","+0220,1","99999,9",,,,"00,99,1,99,9,99,9,99999,9,99,9,99,9","10150,1,99999,9",,,,"MET048METAR SKSA 051200Z 00000KT 9999 NSC 22/22 Q1015=",
"80222599999","2023-08-05T13:00:00","4","6.95","-71.85","213.0","LOS COLONIZADORES, CO","FM-15","99999","V020","999,9,C,0000,1","22000,1,9,N","009999,1,9,9","+0270,1","+0220,1","99999,9",,,,"00,99,1,99,9,99,9,99999,9,99,9,99,9","10160,1,99999,9",,,,"MET048METAR SKSA 051300Z 00000KT 9999 NSC 27/22 Q1016=",
"80222599999","2023-08-05T14:00:00","4","6.95","-71.85","213.0","LOS COLONIZADORES, CO","FM-15","99999","V020","999,9,C,0000,1","22000,1,9,N","009999,1,9,9","+0280,1","+0220,1","99999,9",,,,"00,99,1,99,9,99,9,99999,9,99,9,99,9","10160,1,99999,9",,,,"MET048METAR SKSA 051400Z 00000KT 9999 NSC 28/22 Q1016=",
"80222599999","2023-08-05T15:00:00","4","6.95","-71.85","213.0","LOS COLONIZADORES, CO","FM-15","99999","V020","110,1,N,0015,1","22000,1,9,N","009999,1,9,9","+0290,1","+0220,1","99999,9",,,,"00,99,1,99,9,99,9,99999,9,99,9,99,9","10160,1,99999,9",,,,"MET048METAR SKSA 051500Z 11003KT 9999 NSC 29/22 Q1016=",
"80222599999","2023-08-05T16:00:00","4","6.95","-71.85","213.0","LOS COLONIZADORES, CO","FM-15","99999","V020","090,1,N,0021,1","01219,1,C,N","009999,1,9,9","+0300,1","+0230,1","99999,9","07,1,+01219,1,99,9",,"9,AGL   ,+99999,+99999","99,99,9,07,1,99,9,01219,1,99,9,99,9","10160,1,99999,9",,,,"MET051METAR SKSA 051600Z 09004KT 9999 BKN040 30/23 Q1016=",
"80222599999","2023-08-05T17:00:00","4","6.95","-71.85","213.0","LOS COLONIZADORES, CO","FM-15","99999","V020","120,1,N,0015,1","02134,1,C,N","009999,1,9,9","+0300,1","+0230,1","99999,9","07,1,+02134,1,99,9",,"9,AGL   ,+99999,+99999","99,99,9,07,1,99,9,02134,1,99,9,99,9","10150,1,99999,9",,,,"MET051METAR SKSA 051700Z 12003KT 9999 BKN070 30/23 Q1015=",
"80222599999","2023-08-05T18:00:00","4","6.95","-71.85","213.0","LOS COLONIZADORES, CO","FM-15","99999","V020","999,9,C,0000,1","02134,1,C,N","009999,1,9,9","+0310,1","+0230,1","99999,9","07,1,+02134,1,99,9",,"9,AGL   ,+99999,+99999","99,99,9,07,1,99,9,02134,1,99,9,99,9","10140,1,99999,9",,,,"MET051METAR SKSA 051800Z 00000KT 9999 BKN070 31/23 Q1014=",
"80222599999","2023-08-05T19:00:00","4","6.95","-71.85","213.0","LOS COLONIZADORES, CO","FM-15","99999","V020","140,1,N,0015,1","99999,9,9,N","009999,1,9,9","+0310,1","+0230,1","99999,9","04,1,+01219,1,99,9",,"9,AGL   ,+99999,+99999","99,99,9,04,1,99,9,01219,1,99,9,99,9","10120,1,99999,9",,,,"MET051METAR SKSA 051900Z 14003KT 9999 SCT040 31/23 Q1012=",
"80222599999","2023-08-05T20:00:00","4","6.95","-71.85","213.0","LOS COLONIZADORES, CO","FM-15","99999","V020","240,1,N,0015,1","99999,9,9,N","009999,1,9,9","+0270,1","+0230,1","99999,9","04,1,+01219,1,99,9",,"9,AGL   ,+99999,+99999","99,99,9,04,1,99,9,01219,1,99,9,99,9","10120,1,99999,9",,,,"MET051METAR SKSA 052000Z 24003KT 9999 SCT040 27/23 Q1012=",
"80222599999","2023-08-05T22:00:00","4","6.95","-71.85","213.0","LOS COLONIZADORES, CO","FM-15","99999","V020","300,1,N,0015,1","22000,1,9,N","009999,1,9,9","+0300,1","+0230,1","99999,9",,,,"00,99,1,99,9,99,9,99999,9,99,9,99,9","10110,1,99999,9",,,,"MET048METAR SKSA 052200Z 30003KT 9999 NSC 30/23 Q1011=",
"80222599999","2023-08-05T23:00:00","4","6.95","-71.85","213.0","LOS COLONIZADORES, CO","FM-15","99999","V020","999,9,C,0000,1","22000,1,9,N","009999,1,9,9","+0270,1","+0240,1","99999,9",,,,"00,99,1,99,9,99,9,99999,9,99,9,99,9","10120,1,99999,9",,,,"MET048METAR SKSA 052300Z 00000KT 9999 NSC 27/24 Q1012=",
"80222599999","2023-08-06T11:00:00","4","6.95","-71.85","213.0","LOS COLONIZADORES, CO","FM-15","99999","V020","080,1,N,0015,1","00305,1,C,N","003000,1,9,9","+0230,1","+0230,1","99999,9","08,1,+00305,1,99,9",,"9,AGL   ,+99999,+99999","99,99,9,08,1,99,9,00305,1,99,9,99,9","10150,1,99999,9","63,1",,,"MET054METAR SKSA 061100Z 08003KT 3000 RA OVC010 23/23 Q1015=",
"80222599999","2023-08-06T13:00:00","4","6.95","-71.85","213.0","LOS COLONIZADORES, CO","FM-15","99999","V020","999,9,C,0000,1","00244,1,C,N","005000,1,9,9","+0240,1","+0240,1","99999,9","08,1,+00244,1,99,9",,"9,AGL   ,+99999,+99999","99,99,9,08,1,99,9,00244,1,99,9,99,9","10160,1,99999,9","53,1",,,"MET054METAR SKSA 061300Z 00000KT 5000 DZ OVC008 24/24 Q1016=",
"80222599999","2023-08-06T14:00:00","4","6.95","-71.85","213.0","LOS COLONIZADORES, CO","FM-15","99999","V020","310,1,N,0015,1","00457,1,C,N","007000,1,9,9","+0250,1","+0240,1","99999,9","07,1,+00457,1,99,9",,"9,AGL   ,+99999,+99999","99,99,9,07,1,99,9,00457,1,99,9,99,9","10160,1,99999,9",,,,"MET051METAR SKSA 061400Z 31003KT 7000 BKN015 25/24 Q1016=",
"80222599999","2023-08-06T15:00:00","4","6.95","-71.85","213.0","LOS COLONIZADORES, CO","FM-15","99999","V020","360,1,N,0021,1","00610,1,C,N","009999,1,9,9","+0270,1","+0240,1","99999,9","07,1,+00610,1,99,9",,"9,AGL   ,+99999,+99999","99,99,9,07,1,99,9,00610,1,99,9,99,9","10160,1,99999,9",,,,"MET051METAR SKSA 061500Z 36004KT 9999 BKN020 27/24 Q1016=",
"80222599999","2023-08-06T16:00:00","4","6.95","-71.85","213.0","LOS COLONIZADORES, CO","FM-15","99999","V020","300,1,N,0015,1","00610,1,C,N","009999,1,9,9","+0280,1","+0240,1","99999,9","07,1,+00610,1,99,9",,"9,AGL   ,+99999,+99999","99,99,9,07,1,99,9,00610,1,99,9,99,9","10150,1,99999,9",,,,"MET051METAR SKSA 061600Z 30003KT 9999 BKN020 28/24 Q1015=",
"80222599999","2023-08-06T17:00:00","4","6.95","-71.85","213.0","LOS COLONIZADORES, CO","FM-15","99999","V020","080,1,N,0021,1","99999,9,9,N","009999,1,9,9","+0290,1","+0240,1","99999,9","04,1,+00610,1,99,9",,"9,AGL   ,+99999,+99999","99,99,9,04,1,99,9,00610,1,99,9,99,9","10150,1,99999,9",,,,"MET051METAR SKSA 061700Z 08004KT 9999 SCT020 29/24 Q1015=",
"80222599999","2023-08-06T21:00:00","4","6.95","-71.85","213.0","LOS COLONIZADORES, CO","FM-15","99999","V020","270,1,N,0021,1","00914,1,C,N","009999,1,9,9","+0270,1","+0250,1","99999,9","07,1,+00914,1,99,9",,"9,AGL   ,+99999,+99999","99,99,9,07,1,99,9,00914,1,99,9,99,9","10110,1,99999,9",,,,"MET051METAR SKSA 062100Z 27004KT 9999 BKN030 27/25 Q1011=",
"80222599999","2023-08-06T22:00:00","4","6.95","-71.85","213.0","LOS COLONIZADORES, CO","FM-15","99999","V020","280,1,N,0015,1","99999,9,9,N","009999,1,9,9","+0260,1","+0240,1","99999,9","04,1,+00914,1,99,9",,"9,AGL   ,+99999,+99999","99,99,9,04,1,99,9,00914,1,99,9,99,9","10110,1,99999,9",,,,"MET051METAR SKSA 062200Z 28003KT 9999 SCT030 26/24 Q1011=",
"80222599999","2023-08-06T23:00:00","4","6.95","-71.85","213.0","LOS COLONIZADORES, CO","FM-15","99999","V020","210,1,N,0015,1","99999,9,9,N","009999,1,9,9","+0260,1","+0240,1","99999,9","04,1,+00914,1,99,9",,"9,AGL   ,+99999,+99999","99,99,9,04,1,99,9,00914,1,99,9,99,9","10120,1,99999,9",,,,"MET051METAR SKSA 062300Z 21003KT 9999 SCT030 26/24 Q1012=",
"80222599999","2023-08-07T11:00:00","4","6.95","-71.85","213.0","LOS COLONIZADORES, CO","FM-15","99999","V020","999,9,C,0000,1","00152,1,C,N","002000,1,9,9","+0240,1","+0240,1","99999,9","08,1,+00152,1,99,9",,"9,AGL   ,+99999,+99999","99,99,9,08,1,99,9,00152,1,99,9,99,9","10150,1,99999,9","63,1",,,"MET054METAR SKSA 071100Z 00000KT 2000 RA OVC005 24/24 Q1015=",
"80222599999","2023-08-07T12:00:00","4","6.95","-71.85","213.0","LOS COLONIZADORES, CO","FM-15","99999","V020","999,9,C,0000,1","00152,1,C,N","001500,1,9,9","+0240,1","+0240,1","99999,9","08,1,+00152,1,99,9",,"9,AGL   ,+99999,+99999","99,99,9,08,1,99,9,00152,1,99,9,99,9","10150,1,99999,9","63,1",,,"MET054METAR SKSA 071200Z 00000KT 1500 RA OVC005 24/24 Q1015=",
"80222599999","2023-08-07T17:00:00","4","6.95","-71.85","213.0","LOS COLONIZADORES, CO","FM-15","99999","V020","310,1,N,0015,1","99999,9,9,N","007000,1,9,9","+0270,1","+0240,1","99999,9","04,1,+01524,1,99,9",,"9,AGL   ,+99999,+99999","99,99,9,04,1,99,9,01524,1,99,9,99,9","10170,1,99999,9",,,,"MET051METAR SKSA 071700Z 31003KT 7000 SCT050 27/24 Q1017=",
"80222599999","2023-08-07T18:00:00","4","6.95","-71.85","213.0","LOS COLONIZADORES, CO","FM-15","99999","V020","280,1,N,0021,1","99999,9,9,N","009999,1,9,9","+0290,1","+0240,1","99999,9","04,1,+02134,1,99,9",,"9,AGL   ,+99999,+99999","99,99,9,04,1,99,9,02134,1,99,9,99,9","10150,1,99999,9",,,,"MET051METAR SKSA 071800Z 28004KT 9999 SCT070 29/24 Q1015=",
"80222599999","2023-08-07T19:00:00","4","6.95","-71.85","213.0","LOS COLONIZADORES, CO","FM-15","99999","V020","050,1,N,0021,1","99999,9,9,N","009999,1,9,9","+0290,1","+0240,1","99999,9","04,1,+01219,1,99,9",,"9,AGL   ,+99999,+99999","99,99,9,04,1,99,9,01219,1,99,9,99,9","10140,1,99999,9",,,,"MET051METAR SKSA 071900Z 05004KT 9999 SCT040 29/24 Q1014=",
"80222599999","2023-08-07T20:00:00","4","6.95","-71.85","213.0","LOS COLONIZADORES, CO","FM-15","99999","V020","050,1,N,0021,1","99999,9,9,N","009999,1,9,9","+0290,1","+0240,1","99999,9","04,1,+01219,1,99,9",,"9,AGL   ,+99999,+99999","99,99,9,04,1,99,9,01219,1,99,9,99,9","10140,1,99999,9",,,,"MET051METAR SKSA 072000Z 05004KT 9999 SCT040 29/24 Q1014=",
"80222599999","2023-08-07T21:00:00","4","6.95","-71.85","213.0","LOS COLONIZADORES, CO","FM-15","99999","V020","350,1,N,0021,1","99999,9,9,N","009999,1,9,9","+0280,1","+0230,1","99999,9","04,1,+01219,1,99,9",,"9,AGL   ,+99999,+99999","99,99,9,04,1,99,9,01219,1,99,9,99,9","10130,1,99999,9",,,,"MET051METAR SKSA 072100Z 35004KT 9999 SCT040 28/23 Q1013=",
"80222599999","2023-08-07T22:00:00","4","6.95","-71.85","213.0","LOS COLONIZADORES, CO","FM-15","99999","V020","350,1,N,0015,1","01219,1,C,N","009999,1,9,9","+0280,1","+0230,1","99999,9","08,1,+01219,1,99,9",,"9,AGL   ,+99999,+99999","99,99,9,08,1,99,9,01219,1,99,9,99,9","10130,1,99999,9",,,,"MET051METAR SKSA 072200Z 35003KT 9999 OVC040 28/23 Q1013=",
"80222599999","2023-08-07T23:00:00","4","6.95","-71.85","213.0","LOS COLONIZADORES, CO","FM-15","99999","V020","999,9,C,0000,1","00914,1,C,N","009999,1,9,9","+0270,1","+0260,1","99999,9","08,1,+00914,1,99,9",,"9,AGL   ,+99999,+99999","99,99,9,08,1,99,9,00914,1,99,9,99,9","10130,1,99999,9",,,,"MET051METAR SKSA 072300Z 00000KT 9999 OVC030 27/26 Q1013=",
"80222599999","2023-08-08T11:00:00","4","6.95","-71.85","213.0","LOS COLONIZADORES, CO","FM-15","99999","V020","999,9,C,0000,1","22000,1,9,N","009999,1,9,9","+0230,1","+0230,1","99999,9",,,,"00,99,1,99,9,99,9,99999,9,99,9,99,9","10150,1,99999,9",,,,"MET048METAR SKSA 081100Z 00000KT 9999 NSC 23/23 Q1015=",
"80222599999","2023-08-08T13:00:00","4","6.95","-71.85","213.0","LOS COLONIZADORES, CO","FM-15","99999","V020","999,9,C,0000,1","22000,1,9,N","009999,1,9,9","+0280,1","+0230,1","99999,9",,,,"00,99,1,99,9,99,9,99999,9,99,9,99,9","10160,1,99999,9",,,,"MET048METAR SKSA 081300Z 00000KT 9999 NSC 28/23 Q1016=",
"80222599999","2023-08-08T14:00:00","4","6.95","-71.85","213.0","LOS COLONIZADORES, CO","FM-15","99999","V020","330,1,N,0015,1","22000,1,9,N","009999,1,9,9","+0290,1","+0230,1","99999,9",,,,"00,99,1,99,9,99,9,99999,9,99,9,99,9","10160,1,99999,9",,,,"MET048METAR SKSA 081400Z 33003KT 9999 NSC 29/23 Q1016=",
"80222599999","2023-08-08T15:00:00","4","6.95","-71.85","213.0","LOS COLONIZADORES, CO","FM-15","99999","V020","120,1,N,0015,1","99999,9,9,N","009999,1,9,9","+0300,1","+0230,1","99999,9","02,1,+00914,1,99,9",,"9,AGL   ,+99999,+99999","99,99,9,02,1,99,9,00914,1,99,9,99,9","10160,1,99999,9",,,,"MET051METAR SKSA 081500Z 12003KT 9999 FEW030 30/23 Q1016=",
"80222599999","2023-08-08T16:00:00","4","6.95","-71.85","213.0","LOS COLONIZADORES, CO","FM-15","99999","V020","090,1,N,0015,1","99999,9,9,N","009999,1,9,9","+0320,1","+0230,1","99999,9","02,1,+00914,1,99,9",,"9,AGL   ,+99999,+99999","99,99,9,02,1,99,9,00914,1,99,9,99,9","10160,1,99999,9",,,,"MET051METAR SKSA 081600Z 09003KT 9999 FEW030 32/23 Q1016=",
"80222599999","2023-08-08T18:00:00","4","6.95","-71.85","213.0","LOS COLONIZADORES, CO","FM-15","99999","V020","040,1,N,0015,1","99999,9,9,N","009999,1,9,9","+0330,1","+0230,1","99999,9","04,1,+00914,1,99,9",,"9,AGL   ,+99999,+99999","99,99,9,04,1,99,9,00914,1,99,9,99,9","10160,1,99999,9",,,,"MET051METAR SKSA 081800Z 04003KT 9999 SCT030 33/23 Q1016=",
"80222599999","2023-08-08T20:00:00","4","6.95","-71.85","213.0","LOS COLONIZADORES, CO","FM-15","99999","V020","170,1,N,0021,1","99999,9,9,N","009999,1,9,9","+0330,1","+0230,1","99999,9","02,1,+01067,1,99,9",,"9,AGL   ,+99999,+99999","99,99,9,02,1,99,9,01067,1,99,9,99,9","10110,1,99999,9",,,,"MET051METAR SKSA 082000Z 17004KT 9999 FEW035 33/23 Q1011=",
"80222599999","2023-08-08T21:00:00","4","6.95","-71.85","213.0","LOS COLONIZADORES, CO","FM-15","99999","V020","250,1,N,0041,1","22000,1,9,N","009999,1,9,9","+0310,1","+0230,1","99999,9",,,,"00,99,1,99,9,99,9,99999,9,99,9,99,9","10110,1,99999,9",,,,"MET048METAR SKSA 082100Z 25008KT 9999 NSC 31/23 Q1011=",
"80222599999","2023-08-08T23:00:00","4","6.95","-71.85","213.0","LOS COLONIZADORES, CO","FM-15","99999","V020","300,1,N,0015,1","22000,1,9,N","009999,1,9,9","+0290,1","+0230,1","99999,9",,,,"00,99,1,99,9,99,9,99999,9,99,9,99,9","10110,1,99999,9",,,,"MET048METAR SKSA 082300Z 30003KT 9999 NSC 29/23 Q1011=",
"80222599999","2023-08-09T11:00:00","4","6.95","-71.85","213.0","LOS COLONIZADORES, CO","FM-15","99999","V020","310,1,N,0015,1","00914,1,C,N","009999,1,9,9","+0230,1","+0230,1","99999,9","08,1,+00914,1,99,9",,"9,AGL   ,+99999,+99999","99,99,9,08,1,99,9,00914,1,99,9,99,9","10150,1,99999,9",,,,"MET051METAR SKSA 091100Z 31003KT 9999 OVC030 23/23 Q1015=",
"80222599999","2023-08-09T13:00:00","4","6.95","-71.85","213.0","LOS COLONIZADORES, CO","FM-15","99999","V020","360,1,N,0026,1","99999,9,9,N","009999,1,9,9","+0240,1","+0230,1","99999,9","04,1,+02134,1,99,9",,"9,AGL   ,+99999,+99999","99,99,9,04,1,99,9,02134,1,99,9,99,9","10170,1,99999,9",,,,"MET051METAR SKSA 091300Z 36005KT 9999 SCT070 24/23 Q1017=",
"80222599999","2023-08-09T14:00:00","4","6.95","-71.85","213.0","LOS COLONIZADORES, CO","FM-15","99999","V020","140,1,N,0021,1","22000,1,9,N","009999,1,9,9","+0260,1","+0230,1","99999,9",,,,"00,99,1,99,9,99,9,99999,9,99,9,99,9","10160,1,99999,9",,,,"MET048METAR SKSA 091400Z 14004KT 9999 NSC 26/23 Q1016=",
"80222599999","2023-08-09T15:00:00","4","6.95","-71.85","213.0","LOS COLONIZADORES, CO","FM-15","99999","V020","240,1,N,0015,1","22000,1,9,N","009999,1,9,9","+0280,1","+0230,1","99999,9",,,,"00,99,1,99,9,99,9,99999,9,99,9,99,9","10160,1,99999,9",,,,"MET048METAR SKSA 091500Z 24003KT 9999 NSC 28/23 Q1016=",
"80222599999","2023-08-09T17:00:00","4","6.95","-71.85","213.0","LOS COLONIZADORES, CO","FM-15","99999","V020","140,1,N,0015,1","22000,1,9,N","009999,1,9,9","+0310,1","+0230,1","99999,9",,,,"00,99,1,99,9,99,9,99999,9,99,9,99,9","10140,1,99999,9",,,,"MET048METAR SKSA 091700Z 14003KT 9999 NSC 31/23 Q1014=",
"80222599999","2023-08-09T19:00:00","4","6.95","-71.85","213.0","LOS COLONIZADORES, CO","FM-15","99999","V020","999,9,V,0010,1","99999,9,9,N","009999,1,9,9","+0320,1","+0230,1","99999,9","02,1,+01219,1,99,9",,"9,AGL   ,+99999,+99999","99,99,9,02,1,99,9,01219,1,99,9,99,9","10140,1,99999,9",,,,"MET051METAR SKSA 091900Z VRB02KT 9999 FEW040 32/23 Q1014=",
"80222599999","2023-08-09T20:00:00","4","6.95","-71.85","213.0","LOS COLONIZADORES, CO","FM-15","99999","V020","999,9,V,0010,1","99999,9,9,N","009999,1,9,9","+0320,1","+0230,1","99999,9","02,1,+01219,1,99,9",,"9,AGL   ,+99999,+99999","99,99,9,02,1,99,9,01219,1,99,9,99,9","10140,1,99999,9",,,,"MET055METAR COR SKSA 092000Z VRB02KT 9999 FEW040 32/23 Q1014=",
"80222599999","2023-08-09T22:00:00","4","6.95","-71.85","213.0","LOS COLONIZADORES, CO","FM-15","99999","V020","250,1,N,0026,1","99999,9,9,N","009999,1,9,9","+0300,1","+0230,1","99999,9","02,1,+01219,1,99,9",,"9,AGL   ,+99999,+99999","99,99,9,02,1,99,9,01219,1,99,9,99,9","10100,1,99999,9",,,,"MET051METAR SKSA 092200Z 25005KT 9999 FEW040 30/23 Q1010=",
"80222599999","2023-08-09T23:00:00","4","6.95","-71.85","213.0","LOS COLONIZADORES, CO","FM-15","99999","V020","220,1,N,0010,1","99999,9,9,N","009999,1,9,9","+0280,1","+0230,1","99999,9","02,1,+01219,1,99,9",,"9,AGL   ,+99999,+99999","99,99,9,02,1,99,9,01219,1,99,9,99,9","10100,1,99999,9",,,,"MET051METAR SKSA 092300Z 22002KT 9999 FEW040 28/23 Q1010=",
"80222599999","2023-08-10T11:00:00","4","6.95","-71.85","213.0","LOS COLONIZADORES, CO","FM-15","99999","V020","999,9,C,0000,1","01829,1,C,N","004000,1,9,9","+0230,1","+0230,1","99999,9","08,1,+01829,1,99,9",,"9,AGL   ,+99999,+99999","99,99,9,08,1,99,9,01829,1,99,9,99,9","10140,1,99999,9","53,1",,,"MET054METAR SKSA 101100Z 00000KT 4000 DZ OVC060 23/23 Q1014=",
"80222599999","2023-08-10T14:00:00","4","6.95","-71.85","213.0","LOS COLONIZADORES, CO","FM-15","99999","V020","999,9,C,0000,1","01829,1,C,N","007000,1,9,9","+0230,1","+0230,1","99999,9","08,1,+01829,1,99,9",,"9,AGL   ,+99999,+99999","99,99,9,08,1,99,9,01829,1,99,9,99,9","10160,1,99999,9","53,1",,,"MET054METAR SKSA 101400Z 00000KT 7000 DZ OVC060 23/23 Q1016=",
"80222599999","2023-08-10T16:00:00","4","6.95","-71.85","213.0","LOS COLONIZADORES, CO","FM-15","99999","V020","180,1,N,0026,1","02134,1,C,N","009000,1,9,9","+0250,1","+0240,1","99999,9","08,1,+02134,1,99,9",,"9,AGL   ,+99999,+99999","99,99,9,08,1,99,9,02134,1,99,9,99,9","10160,1,99999,9",,,,"MET051METAR SKSA 101600Z 18005KT 9000 OVC070 25/24 Q1016=",
"80222599999","2023-08-10T17:00:00","4","6.95","-71.85","213.0","LOS COLONIZADORES, CO","FM-15","99999","V020","070,1,N,0026,1","22000,1,9,N","009999,1,9,9","+0280,1","+0230,1","99999,9",,,,"00,99,1,99,9,99,9,99999,9,99,9,99,9","10130,1,99999,9",,,,"MET048METAR SKSA 101700Z 07005KT 9999 NSC 28/23 Q1013=",
"80222599999","2023-08-10T19:00:00","4","6.95","-71.85","213.0","LOS COLONIZADORES, CO","FM-15","99999","V020","999,9,C,0000,1","22000,1,9,N","009999,1,9,9","+0290,1","+0230,1","99999,9",,,,"00,99,1,99,9,99,9,99999,9,99,9,99,9","10110,1,99999,9",,,,"MET048METAR SKSA 101900Z 00000KT 9999 NSC 29/23 Q1011=",
"80222599999","2023-08-10T20:00:00","4","6.95","-71.85","213.0","LOS COLONIZADORES, CO","FM-15","99999","V020","070,1,N,0015,1","22000,1,9,N","009999,1,9,9","+0290,1","+0230,1","99999,9",,,,"00,99,1,99,9,99,9,99999,9,99,9,99,9","10110,1,99999,9",,,,"MET048METAR SKSA 102000Z 07003KT 9999 NSC 29/23 Q1011=",
"80222599999","2023-08-10T21:00:00","4","6.95","-71.85","213.0","LOS COLONIZADORES, CO","FM-15","99999","V020","130,1,N,0015,1","22000,1,9,N","009999,1,9,9","+0300,1","+0230,1","99999,9",,,,"00,99,1,99,9,99,9,99999,9,99,9,99,9","10100,1,99999,9",,,,"MET048METAR SKSA 102100Z 13003KT 9999 NSC 30/23 Q1010=",
"80222599999","2023-08-10T23:00:00","4","6.95","-71.85","213.0","LOS COLONIZADORES, CO","FM-15","99999","V020","150,1,N,0015,1","22000,1,9,N","009999,1,9,9","+0260,1","+0240,1","99999,9",,,,"00,99,1,99,9,99,9,99999,9,99,9,99,9","10120,1,99999,9",,,,"MET048METAR SKSA 102300Z 15003KT 9999 NSC 26/24 Q1012=",
"80222599999","2023-08-11T11:00:00","4","6.95","-71.85","213.0","LOS COLONIZADORES, CO","FM-15","99999","V020","999,9,C,0000,1","22000,1,9,N","009999,1,9,9","+0230,1","+0230,1","99999,9",,,,"00,99,1,99,9,99,9,99999,9,99,9,99,9","10140,1,99999,9",,,,"MET048METAR SKSA 111100Z 00000KT 9999 NSC 23/23 Q1014=",
"80222599999","2023-08-11T12:00:00","4","6.95","-71.85","213.0","LOS COLONIZADORES, CO","FM-15","99999","V020","999,9,C,0000,1","22000,1,9,N","009999,1,9,9","+0250,1","+0230,1","99999,9",,,,"00,99,1,99,9,99,9,99999,9,99,9,99,9","10140,1,99999,9",,,,"MET048METAR SKSA 111200Z 00000KT 9999 NSC 25/23 Q1014=",
"80222599999","2023-08-11T13:00:00","4","6.95","-71.85","213.0","LOS COLONIZADORES, CO","FM-15","99999","V020","999,9,C,0000,1","22000,1,9,N","009999,1,9,9","+0270,1","+0240,1","99999,9",,,,"00,99,1,99,9,99,9,99999,9,99,9,99,9","10160,1,99999,9",,,,"MET048METAR SKSA 111300Z 00000KT 9999 NSC 27/24 Q1016=",
"80222599999","2023-08-11T15:00:00","4","6.95","-71.85","213.0","LOS COLONIZADORES, CO","FM-15","99999","V020","330,1,N,0021,1","22000,1,9,N","009999,1,9,9","+0290,1","+0230,1","99999,9",,,,"00,99,1,99,9,99,9,99999,9,99,9,99,9","10160,1,99999,9",,,,"MET048METAR SKSA 111500Z 33004KT 9999 NSC 29/23 Q1016=",
"80222599999","2023-08-11T16:00:00","4","6.95","-71.85","213.0","LOS COLONIZADORES, CO","FM-15","99999","V020","360,1,N,0015,1","22000,1,9,N","009999,1,9,9","+0310,1","+0230,1","99999,9",,,,"00,99,1,99,9,99,9,99999,9,99,9,99,9","10140,1,99999,9",,,,"MET048METAR SKSA 111600Z 36003KT 9999 NSC 31/23 Q1014=",
"80222599999","2023-08-11T19:00:00","4","6.95","-71.85","213.0","LOS COLONIZADORES, CO","FM-15","99999","V020","060,1,N,0026,1","99999,9,9,N","009999,1,9,9","+0330,1","+0230,1","99999,9","04,1,+01219,1,99,9",,"9,AGL   ,+99999,+99999","99,99,9,04,1,99,9,01219,1,99,9,99,9","10110,1,99999,9",,,,"MET051METAR SKSA 111900Z 06005KT 9999 SCT040 33/23 Q1011=",
"80222599999","2023-08-11T20:00:00","4","6.95","-71.85","213.0","LOS COLONIZADORES, CO","FM-15","99999","V020","999,9,C,0000,1","99999,9,9,N","009999,1,9,9","+0320,1","+0230,1","99999,9","04,1,+01219,1,99,9",,"9,AGL   ,+99999,+99999","99,99,9,04,1,99,9,01219,1,99,9,99,9","10100,1,99999,9",,,,"MET051METAR SKSA 112000Z 00000KT 9999 SCT040 32/23 Q1010=",
"80222599999","2023-08-11T21:00:00","4","6.95","-71.85","213.0","LOS COLONIZADORES, CO","FM-15","99999","V020","050,1,N,0015,1","99999,9,9,N","009999,1,9,9","+0330,1","+0230,1","99999,9","02,1,+01219,1,99,9",,"9,AGL   ,+99999,+99999","99,99,9,02,1,99,9,01219,1,99,9,99,9","10100,1,99999,9",,,,"MET051METAR SKSA 112100Z 05003KT 9999 FEW040 33/23 Q1010=",
"80222599999","2023-08-11T22:00:00","4","6.95","-71.85","213.0","LOS COLONIZADORES, CO","FM-15","99999","V020","999,9,C,0000,1","99999,9,9,N","009999,1,9,9","+0310,1","+0230,1","99999,9","02,1,+01524,1,99,9",,"9,AGL   ,+99999,+99999","99,99,9,02,1,99,9,01524,1,99,9,99,9","10100,1,99999,9",,,,"MET051METAR SKSA 112200Z 00000KT 9999 FEW050 31/23 Q1010=",
"80222599999","2023-08-11T23:00:00","4","6.95","-71.85","213.0","LOS COLONIZADORES, CO","FM-15","99999","V020","999,9,C,0000,1","99999,9,9,N","009999,1,9,9","+0280,1","+0230,1","99999,9","02,1,+01524,1,99,9",,"9,AGL   ,+99999,+99999","99,99,9,02,1,99,9,01524,1,99,9,99,9","10100,1,99999,9",,,,"MET051METAR SKSA 112300Z 00000KT 9999 FEW050 28/23 Q1010=",
"80222599999","2023-08-12T12:00:00","4","6.95","-71.85","213.0","LOS COLONIZADORES, CO","FM-15","99999","V020","999,9,C,0000,1","02743,1,C,N","009999,1,9,9","+0250,1","+0220,1","99999,9","08,1,+02743,1,99,9",,"9,AGL   ,+99999,+99999","99,99,9,08,1,99,9,02743,1,99,9,99,9","10140,1,99999,9",,,,"MET051METAR SKSA 121200Z 00000KT 9999 OVC090 25/22 Q1014=",
"80222599999","2023-08-12T15:00:00","4","6.95","-71.85","213.0","LOS COLONIZADORES, CO","FM-15","99999","V020","300,1,N,0041,1","22000,1,9,N","009999,1,9,9","+0300,1","+0220,1","99999,9",,,,"00,99,1,99,9,99,9,99999,9,99,9,99,9","10140,1,99999,9",,,,"MET048METAR SKSA 121500Z 30008KT 9999 NSC 30/22 Q1014=",
"80222599999","2023-08-12T17:00:00","4","6.95","-71.85","213.0","LOS COLONIZADORES, CO","FM-15","99999","V020","350,1,N,0031,1","22000,1,9,N","009999,1,9,9","+0330,1","+0220,1","99999,9",,,,"00,99,1,99,9,99,9,99999,9,99,9,99,9","10130,1,99999,9",,,,"MET048METAR SKSA 121700Z 35006KT 9999 NSC 33/22 Q1013=",
"80222599999","2023-08-12T18:00:00","4","6.95","-71.85","213.0","LOS COLONIZADORES, CO","FM-15","99999","V020","999,9,C,0000,1","22000,1,9,N","009999,1,9,9","+0340,1","+0220,1","99999,9",,,,"00,99,1,99,9,99,9,99999,9,99,9,99,9","10110,1,99999,9",,,,"MET048METAR SKSA 121800Z 00000KT 9999 NSC 34/22 Q1011=",
"80222599999","2023-08-12T19:00:00","4","6.95","-71.85","213.0","LOS COLONIZADORES, CO","FM-15","99999","V020","060,1,N,0046,1","22000,1,9,N","009999,1,9,9","+0340,1","+0200,1","99999,9",,,,"00,99,1,99,9,99,9,99999,9,99,9,99,9","10100,1,99999,9",,,,"MET048METAR SKSA 121900Z 06009KT 9999 NSC 34/20 Q1010=",
"80222599999","2023-08-12T20:00:00","4","6.95","-71.85","213.0","LOS COLONIZADORES, CO","FM-15","99999","V020","360,1,N,0026,1","22000,1,9,N","009999,1,9,9","+0340,1","+0200,1","99999,9",,,,"00,99,1,99,9,99,9,99999,9,99,9,99,9","10090,1,99999,9",,,,"MET048METAR SKSA 122000Z 36005KT 9999 NSC 34/20 Q1009=",
"80222599999","2023-08-12T21:00:00","4","6.95","-71.85","213.0","LOS COLONIZADORES, CO","FM-15","99999","V020","030,1,N,0010,1","22000,1,9,N","009999,1,9,9","+0330,1","+0200,1","99999,9",,,,"00,99,1,99,9,99,9,99999,9,99,9,99,9","10090,1,99999,9",,,,"MET048METAR SKSA 122100Z 03002KT 9999 NSC 33/20 Q1009=",
"80222599999","2023-08-12T22:00:00","4","6.95","-71.85","213.0","LOS COLONIZADORES, CO","FM-15","99999","V020","030,1,N,0015,1","22000,1,9,N","009999,1,9,9","+0320,1","+0200,1","99999,9",,,,"00,99,1,99,9,99,9,99999,9,99,9,99,9","10090,1,99999,9",,,,"MET048METAR SKSA 122200Z 03003KT 9999 NSC 32/20 Q1009=",
"80222599999","2023-08-12T23:00:00","4","6.95","-71.85","213.0","LOS COLONIZADORES, CO","FM-15","99999","V020","999,9,C,0000,1","22000,1,9,N","009999,1,9,9","+0290,1","+0230,1","99999,9",,,,"00,99,1,99,9,99,9,99999,9,99,9,99,9","10100,1,99999,9",,,,"MET048METAR SKSA 122300Z 00000KT 9999 NSC 29/23 Q1010=",
"80222599999","2023-08-13T11:00:00","4","6.95","-71.85","213.0","LOS COLONIZADORES, CO","FM-15","99999","V020","190,1,N,0015,1","22000,1,9,N","009999,1,9,9","+0230,1","+0230,1","99999,9",,,,"00,99,1,99,9,99,9,99999,9,99,9,99,9","10120,1,99999,9",,,,"MET048METAR SKSA 131100Z 19003KT 9999 NSC 23/23 Q1012=",
"80222599999","2023-08-13T13:00:00","4","6.95","-71.85","213.0","LOS COLONIZADORES, CO","FM-15","99999","V020","999,9,C,0000,1","22000,1,9,N","009999,1,9,9","+0250,1","+0230,1","99999,9",,,,"00,99,1,99,9,99,9,99999,9,99,9,99,9","10140,1,99999,9",,,,"MET048METAR SKSA 131300Z 00000KT 9999 NSC 25/23 Q1014=",
"80222599999","2023-08-13T14:00:00","4","6.95","-71.85","213.0","LOS COLONIZADORES, CO","FM-15","99999","V020","999,9,C,0000,1","22000,1,9,N","009999,1,9,9","+0270,1","+0220,1","99999,9",,,,"00,99,1,99,9,99,9,99999,9,99,9,99,9","10140,1,99999,9",,,,"MET048METAR SKSA 131400Z 00000KT 9999 NSC 27/22 Q1014=",
"80222599999","2023-08-13T16:00:00","4","6.95","-71.85","213.0","LOS COLONIZADORES, CO","FM-15","99999","V020","310,1,N,0021,1","22000,1,9,N","009999,1,9,9","+0300,1","+0220,1","99999,9",,,,"00,99,1,99,9,99,9,99999,9,99,9,99,9","10140,1,99999,9",,,,"MET048METAR SKSA 131600Z 31004KT 9999 NSC 30/22 Q1014=",
"80222599999","2023-08-13T17:00:00","4","6.95","-71.85","213.0","LOS COLONIZADORES, CO","FM-15","99999","V020","350,1,N,0021,1","22000,1,9,N","009999,1,9,9","+0310,1","+0220,1","99999,9",,,,"00,99,1,99,9,99,9,99999,9,99,9,99,9","10120,1,99999,9",,,,"MET048METAR SKSA 131700Z 35004KT 9999 NSC 31/22 Q1012=",
"80222599999","2023-08-13T19:00:00","4","6.95","-71.85","213.0","LOS COLONIZADORES, CO","FM-15","99999","V020","070,1,N,0046,1","01219,1,C,N","009999,1,9,9","+0270,1","+0230,1","99999,9","07,1,+01219,1,99,9",,"9,AGL   ,+99999,+99999","99,99,9,07,1,99,9,01219,1,99,9,99,9","10110,1,99999,9",,,,"MET051METAR SKSA 131900Z 07009KT 9999 BKN040 27/23 Q1011=",
"80222599999","2023-08-14T11:00:00","4","6.95","-71.85","213.0","LOS COLONIZADORES, CO","FM-15","99999","V020","999,9,C,0000,1","02743,1,C,N","009999,1,9,9","+0220,1","+0220,1","99999,9","08,1,+02743,1,99,9",,"9,AGL   ,+99999,+99999","99,99,9,08,1,99,9,02743,1,99,9,99,9","10120,1,99999,9",,,,"MET051METAR SKSA 141100Z 00000KT 9999 OVC090 22/22 Q1012=",
"80222599999","2023-08-14T13:00:00","4","6.95","-71.85","213.0","LOS COLONIZADORES, CO","FM-15","99999","V020","240,1,N,0026,1","02743,1,C,N","009999,1,9,9","+0250,1","+0230,1","99999,9","08,1,+02743,1,99,9",,"9,AGL   ,+99999,+99999","99,99,9,08,1,99,9,02743,1,99,9,99,9","10130,1,99999,9",,,,"MET051METAR SKSA 141300Z 24005KT 9999 OVC090 25/23 Q1013=",
"80222599999","2023-08-15T15:00:00","4","6.95","-71.85","213.0","LOS COLONIZADORES, CO","FM-15","99999","V020","340,1,N,0036,1","22000,1,9,N","009999,1,9,9","+0280,1","+0220,1","99999,9",,,,"00,99,1,99,9,99,9,99999,9,99,9,99,9","10130,1,99999,9",,,,"MET048METAR SKSA 151500Z 34007KT 9999 NSC 28/22 Q1013=",
"80222599999","2023-08-15T17:00:00","4","6.95","-71.85","213.0","LOS COLONIZADORES, CO","FM-15","99999","V020","999,9,V,0010,1","99999,9,9,N","009999,1,9,9","+0300,1","+0220,1","99999,9","04,1,+02743,1,99,9",,"9,AGL   ,+99999,+99999","99,99,9,04,1,99,9,02743,1,99,9,99,9","10120,1,99999,9",,,,"MET051METAR SKSA 151700Z VRB02KT 9999 SCT090 30/22 Q1012=",
"80222599999","2023-08-15T18:00:00","4","6.95","-71.85","213.0","LOS COLONIZADORES, CO","FM-15","99999","V020","999,9,V,0010,1","99999,9,9,N","009999,1,9,9","+0300,1","+0220,1","99999,9","04,1,+01219,1,99,9",,"9,AGL   ,+99999,+99999","99,99,9,04,1,99,9,01219,1,99,9,99,9","10110,1,99999,9",,,,"MET051METAR SKSA 151800Z VRB02KT 9999 SCT040 30/22 Q1011=",
"80222599999","2023-08-15T19:00:00","4","6.95","-71.85","213.0","LOS COLONIZADORES, CO","FM-15","99999","V020","999,9,V,0010,1","99999,9,9,N","009999,1,9,9","+0300,1","+0220,1","99999,9","04,1,+01219,1,99,9",,"9,AGL   ,+99999,+99999","99,99,9,04,1,99,9,01219,1,99,9,99,9","10100,1,99999,9",,,,"MET051METAR SKSA 151900Z VRB02KT 9999 SCT040 30/22 Q1010=",
"80222599999","2023-08-15T20:00:00","4","6.95","-71.85","213.0","LOS COLONIZADORES, CO","FM-15","99999","V020","300,1,N,0015,1","99999,9,9,N","009999,1,9,9","+0310,1","+0230,1","99999,9","04,1,+01219,1,99,9",,"9,AGL   ,+99999,+99999","99,99,9,04,1,99,9,01219,1,99,9,99,9","10090,1,99999,9",,,,"MET051METAR SKSA 152000Z 30003KT 9999 SCT040 31/23 Q1009=",
"80222599999","2023-08-15T21:00:00","4","6.95","-71.85","213.0","LOS COLONIZADORES, CO","FM-15","99999","V020","240,1,N,0015,1","99999,9,9,N","009999,1,9,9","+0310,1","+0220,1","99999,9","04,1,+01219,1,99,9",,"9,AGL   ,+99999,+99999","99,99,9,04,1,99,9,01219,1,99,9,99,9","10080,1,99999,9",,,,"MET051METAR SKSA 152100Z 24003KT 9999 SCT040 31/22 Q1008=",
"80222599999","2023-08-15T22:00:00","4","6.95","-71.85","213.0","LOS COLONIZADORES, CO","FM-15","99999","V020","100,1,N,0015,1","99999,9,9,N","009999,1,9,9","+0310,1","+0230,1","99999,9","04,1,+01219,1,99,9",,"9,AGL   ,+99999,+99999","99,99,9,04,1,99,9,01219,1,99,9,99,9","10090,1,99999,9","16,1",,,"MET067METAR SKSA 152200Z 10003KT 9999 VCSH SCT040 31/23 Q1009 RMK VCSH E=",
"80222599999","2023-08-16T11:00:00","4","6.95","-71.85","213.0","LOS COLONIZADORES, CO","FM-15","99999","V020","310,1,N,0026,1","02134,1,C,N","009999,1,9,9","+0230,1","+0210,1","99999,9","08,1,+02134,1,99,9",,"9,AGL   ,+99999,+99999","99,99,9,08,1,99,9,02134,1,99,9,99,9","10130,1,99999,9",,,,"MET051METAR SKSA 161100Z 31005KT 9999 OVC070 23/21 Q1013=",
"80222599999","2023-08-16T12:00:00","4","6.95","-71.85","213.0","LOS COLONIZADORES, CO","FM-15","99999","V020","320,1,N,0026,1","02743,1,C,N","009999,1,9,9","+0230,1","+0210,1","99999,9","08,1,+02743,1,99,9",,"9,AGL   ,+99999,+99999","99,99,9,08,1,99,9,02743,1,99,9,99,9","10130,1,99999,9",,,,"MET051METAR SKSA 161200Z 32005KT 9999 OVC090 23/21 Q1013=",
"80222599999","2023-08-16T13:00:00","4","6.95","-71.85","213.0","LOS COLONIZADORES, CO","FM-15","99999","V020","310,1,N,0015,1","02743,1,C,N","009999,1,9,9","+0250,1","+0220,1","99999,9","08,1,+02743,1,99,9",,"9,AGL   ,+99999,+99999","99,99,9,08,1,99,9,02743,1,99,9,99,9","10140,1,99999,9",,,,"MET051METAR SKSA 161300Z 31003KT 9999 OVC090 25/22 Q1014=",
"80222599999","2023-08-16T14:00:00","4","6.95","-71.85","213.0","LOS COLONIZADORES, CO","FM-15","99999","V020","320,1,N,0021,1","02743,1,C,N","009999,1,9,9","+0270,1","+0220,1","99999,9","07,1,+02743,1,99,9",,"9,AGL   ,+99999,+99999","99,99,9,07,1,99,9,02743,1,99,9,99,9","10140,1,99999,9",,,,"MET051METAR SKSA 161400Z 32004KT 9999 BKN090 27/22 Q1014=",
"80222599999","2023-08-16T15:00:00","4","6.95","-71.85","213.0","LOS COLONIZADORES, CO","FM-15","99999","V020","070,1,N,0015,1","02743,1,C,N","009999,1,9,9","+0290,1","+0210,1","99999,9","07,1,+02743,1,99,9",,"9,AGL   ,+99999,+99999","99,99,9,07,1,99,9,02743,1,99,9,99,9","10140,1,99999,9",,,,"MET051METAR SKSA 161500Z 07003KT 9999 BKN090 29/21 Q1014=",
"80222599999","2023-08-16T16:00:00","4","6.95","-71.85","213.0","LOS COLONIZADORES, CO","FM-15","99999","V020","110,1,N,0021,1","02438,1,C,N","009999,1,9,9","+0300,1","+0220,1","99999,9","07,1,+02438,1,99,9",,"9,AGL   ,+99999,+99999","99,99,9,07,1,99,9,02438,1,99,9,99,9","10140,1,99999,9",,,,"MET051METAR SKSA 161600Z 11004KT 9999 BKN080 30/22 Q1014=",
"80222599999","2023-08-16T17:00:00","4","6.95","-71.85","213.0","LOS COLONIZADORES, CO","FM-15","99999","V020","100,1,N,0031,1","02438,1,C,N","009999,1,9,9","+0300,1","+0220,1","99999,9","07,1,+02438,1,99,9",,"9,AGL   ,+99999,+99999","99,99,9,07,1,99,9,02438,1,99,9,99,9","10130,1,99999,9",,,,"MET051METAR SKSA 161700Z 10006KT 9999 BKN080 30/22 Q1013=",
"80222599999","2023-08-16T18:00:00","4","6.95","-71.85","213.0","LOS COLONIZADORES, CO","FM-15","99999","V020","140,1,N,0015,1","99999,9,9,N","009999,1,9,9","+0300,1","+0210,1","99999,9","04,1,+02438,1,99,9",,"9,AGL   ,+99999,+99999","99,99,9,04,1,99,9,02438,1,99,9,99,9","10120,1,99999,9",,,,"MET051METAR SKSA 161800Z 14003KT 9999 SCT080 30/21 Q1012=",
"80222599999","2023-08-16T19:00:00","4","6.95","-71.85","213.0","LOS COLONIZADORES, CO","FM-15","99999","V020","070,1,N,0026,1","99999,9,9,N","009999,1,9,9","+0310,1","+0220,1","99999,9","04,1,+01829,1,99,9",,"9,AGL   ,+99999,+99999","99,99,9,04,1,99,9,01829,1,99,9,99,9","10110,1,99999,9",,,,"MET051METAR SKSA 161900Z 07005KT 9999 SCT060 31/22 Q1011=",
"80222599999","2023-08-16T20:00:00","4","6.95","-71.85","213.0","LOS COLONIZADORES, CO","FM-15","99999","V020","070,1,N,0015,1","99999,9,9,N","009999,1,9,9","+0290,1","+0220,1","99999,9","04,1,+01829,1,99,9",,"9,AGL   ,+99999,+99999","99,99,9,04,1,99,9,01829,1,99,9,99,9","10100,1,99999,9",,,,"MET051METAR SKSA 162000Z 07003KT 9999 SCT060 29/22 Q1010=",
"80222599999","2023-08-16T21:00:00","4","6.95","-71.85","213.0","LOS COLONIZADORES, CO","FM-15","99999","V020","999,9,V,0010,1","99999,9,9,N","009999,1,9,9","+0300,1","+0220,1","99999,9","04,1,+01829,1,99,9",,"9,AGL   ,+99999,+99999","99,99,9,04,1,99,9,01829,1,99,9,99,9","10090,1,99999,9",,,,"MET051METAR SKSA 162100Z VRB02KT 9999 SCT060 30/22 Q1009=",
"80222599999","2023-08-17T12:00:00","4","6.95","-71.85","213.0","LOS COLONIZADORES, CO","FM-15","99999","V020","999,9,V,0010,1","22000,1,9,N","009999,1,9,9","+0250,1","+0220,1","99999,9",,,,"00,99,1,99,9,99,9,99999,9,99,9,99,9","10130,1,99999,9",,,,"MET048METAR SKSA 171200Z VRB02KT 9999 NSC 25/22 Q1013=",
"80222599999","2023-08-17T13:00:00","4","6.95","-71.85","213.0","LOS COLONIZADORES, CO","FM-15","99999","V020","360,1,N,0015,1","22000,1,9,N","009999,1,9,9","+0280,1","+0230,1","99999,9",,,,"00,99,1,99,9,99,9,99999,9,99,9,99,9","10130,1,99999,9",,,,"MET048METAR SKSA 171300Z 36003KT 9999 NSC 28/23 Q1013=",
"80222599999","2023-08-17T17:00:00","4","6.95","-71.85","213.0","LOS COLONIZADORES, CO","FM-15","99999","V020","999,9,V,0010,1","22000,1,9,N","009999,1,9,9","+0320,1","+0230,1","99999,9",,,,"00,99,1,99,9,99,9,99999,9,99,9,99,9","10110,1,99999,9",,,,"MET048METAR SKSA 171700Z VRB02KT 9999 SKC 32/23 Q1011=",
"80222599999","2023-08-17T20:00:00","4","6.95","-71.85","213.0","LOS COLONIZADORES, CO","FM-15","99999","V020","060,1,N,0015,1","22000,1,9,N","009999,1,9,9","+0320,1","+0220,1","99999,9",,,,"00,99,1,99,9,99,9,99999,9,99,9,99,9","10080,1,99999,9",,,,"MET048METAR SKSA 172000Z 06003KT 9999 NSC 32/22 Q1008=",
"80222599999","2023-08-17T21:00:00","4","6.95","-71.85","213.0","LOS COLONIZADORES, CO","FM-15","99999","V020","100,1,N,0015,1","22000,1,9,N","009999,1,9,9","+0330,1","+0210,1","99999,9",,,,"00,99,1,99,9,99,9,99999,9,99,9,99,9","10080,1,99999,9",,,,"MET048METAR SKSA 172100Z 10003KT 9999 NSC 33/21 Q1008=",
"80222599999","2023-08-17T23:00:00","4","6.95","-71.85","213.0","LOS COLONIZADORES, CO","FM-15","99999","V020","100,1,N,0015,1","22000,1,9,N","009999,1,9,9","+0290,1","+0210,1","99999,9",,,,"00,99,1,99,9,99,9,99999,9,99,9,99,9","10080,1,99999,9",,,,"MET048METAR SKSA 172300Z 10003KT 9999 NSC 29/21 Q1008=",
"80222599999","2023-08-18T11:00:00","4","6.95","-71.85","213.0","LOS COLONIZADORES, CO","FM-15","99999","V020","220,1,N,0046,1","01067,1,C,N","008000,1,9,9","+0230,1","+0230,1","99999,9","08,1,+01067,1,99,9",,"9,AGL   ,+99999,+99999","99,99,9,08,1,99,9,01067,1,99,9,99,9","10120,1,99999,9","63,1",,,"MET054METAR SKSA 181100Z 22009KT 8000 RA OVC035 23/23 Q1012=",
"80222599999","2023-08-18T12:00:00","4","6.95","-71.85","213.0","LOS COLONIZADORES, CO","FM-15","99999","V020","230,1,N,0015,1","02743,1,C,N","009000,1,9,9","+0240,1","+0230,1","99999,9","07,1,+02743,1,99,9",,"9,AGL   ,+99999,+99999","99,99,9,07,1,99,9,02743,1,99,9,99,9","10120,1,99999,9","16,1",,,"MET067METAR SKSA 181200Z 23003KT 9000 VCSH BKN090 24/23 Q1012 RMK VCSH W=",
"80222599999","2023-08-18T13:00:00","4","6.95","-71.85","213.0","LOS COLONIZADORES, CO","FM-15","99999","V020","360,1,N,0015,1","02743,1,C,N","009999,1,9,9","+0250,1","+0230,1","99999,9","07,1,+02743,1,99,9",,"9,AGL   ,+99999,+99999","99,99,9,07,1,99,9,02743,1,99,9,99,9","10120,1,99999,9",,,,"MET051METAR SKSA 181300Z 36003KT 9999 BKN090 25/23 Q1012=",
"80222599999","2023-08-18T14:00:00","4","6.95","-71.85","213.0","LOS COLONIZADORES, CO","FM-15","99999","V020","020,1,N,0015,1","22000,1,9,N","009999,1,9,9","+0260,1","+0230,1","99999,9",,,,"00,99,1,99,9,99,9,99999,9,99,9,99,9","10120,1,99999,9",,,,"MET048METAR SKSA 181400Z 02003KT 9999 NSC 26/23 Q1012=",
"80222599999","2023-08-18T15:00:00","4","6.95","-71.85","213.0","LOS COLONIZADORES, CO","FM-15","99999","V020","999,9,V,0010,1","22000,1,9,N","009999,1,9,9","+0290,1","+0220,1","99999,9",,,,"00,99,1,99,9,99,9,99999,9,99,9,99,9","10120,1,99999,9",,,,"MET048METAR SKSA 181500Z VRB02KT 9999 NSC 29/22 Q1012=",
"80222599999","2023-08-18T16:00:00","4","6.95","-71.85","213.0","LOS COLONIZADORES, CO","FM-15","99999","V020","350,1,N,0031,1","22000,1,9,N","009999,1,9,9","+0310,1","+0220,1","99999,9",,,,"00,99,1,99,9,99,9,99999,9,99,9,99,9","10110,1,99999,9",,,,"MET048METAR SKSA 181600Z 35006KT 9999 NSC 31/22 Q1011=",
"80222599999","2023-08-18T17:00:00","4","6.95","-71.85","213.0","LOS COLONIZADORES, CO","FM-15","99999","V020","340,1,N,0021,1","22000,1,9,N","009999,1,9,9","+0310,1","+0220,1","99999,9",,,,"00,99,1,99,9,99,9,99999,9,99,9,99,9","10100,1,99999,9",,,,"MET048METAR SKSA 181700Z 34004KT 9999 NSC 31/22 Q1010=",
"80222599999","2023-08-18T18:00:00","4","6.95","-71.85","213.0","LOS COLONIZADORES, CO","FM-15","99999","V020","310,1,N,0031,1","99999,9,9,N","009999,1,9,9","+0320,1","+0220,1","99999,9","04,1,+01829,1,99,9",,"9,AGL   ,+99999,+99999","99,99,9,04,1,99,9,01829,1,99,9,99,9","10090,1,99999,9",,,,"MET051METAR SKSA 181800Z 31006KT 9999 SCT060 32/22 Q1009=",
"80222599999","2023-08-18T19:00:00","4","6.95","-71.85","213.0","LOS COLONIZADORES, CO","FM-15","99999","V020","999,9,C,0000,1","99999,9,9,N","009999,1,9,9","+0330,1","+0230,1","99999,9","04,1,+01829,1,99,9",,"9,AGL   ,+99999,+99999","99,99,9,04,1,99,9,01829,1,99,9,99,9","10070,1,99999,9",,,,"MET051METAR SKSA 181900Z 00000KT 9999 SCT060 33/23 Q1007=",
"80222599999","2023-08-18T20:00:00","4","6.95","-71.85","213.0","LOS COLONIZADORES, CO","FM-15","99999","V020","999,9,V,0010,1","22000,1,9,N","009999,1,9,9","+0330,1","+0230,1","99999,9",,,,"00,99,1,99,9,99,9,99999,9,99,9,99,9","10070,1,99999,9",,,,"MET048METAR SKSA 182000Z VRB02KT 9999 NSC 33/23 Q1007=",
"80222599999","2023-08-18T21:00:00","4","6.95","-71.85","213.0","LOS COLONIZADORES, CO","FM-15","99999","V020","150,1,N,0021,1","22000,1,9,N","009999,1,9,9","+0320,1","+0220,1","99999,9",,,,"00,99,1,99,9,99,9,99999,9,99,9,99,9","10050,1,99999,9",,,,"MET048METAR SKSA 182100Z 15004KT 9999 NSC 32/22 Q1005=",
"80222599999","2023-08-18T22:00:00","4","6.95","-71.85","213.0","LOS COLONIZADORES, CO","FM-15","99999","V020","999,9,V,0010,1","22000,1,9,N","009999,1,9,9","+0320,1","+0230,1","99999,9",,,,"00,99,1,99,9,99,9,99999,9,99,9,99,9","10050,1,99999,9",,,,"MET048METAR SKSA 182200Z VRB02KT 9999 SKC 32/23 Q1005=",
"80222599999","2023-08-18T23:00:00","4","6.95","-71.85","213.0","LOS COLONIZADORES, CO","FM-15","99999","V020","350,1,N,0015,1","22000,1,9,N","009999,1,9,9","+0290,1","+0230,1","99999,9",,,,"00,99,1,99,9,99,9,99999,9,99,9,99,9","10050,1,99999,9",,,,"MET048METAR SKSA 182300Z 35003KT 9999 NSC 29/23 Q1005=",
"80222599999","2023-08-19T11:00:00","4","6.95","-71.85","213.0","LOS COLONIZADORES, CO","FM-15","99999","V020","999,9,V,0010,1","99999,9,9,N","009999,1,9,9","+0230,1","+0230,1","99999,9","04,1,+01829,1,99,9",,"9,AGL   ,+99999,+99999","99,99,9,04,1,99,9,01829,1,99,9,99,9","10090,1,99999,9",,,,"MET051METAR SKSA 191100Z VRB02KT 9999 SCT060 23/23 Q1009=",
"80222599999","2023-08-19T12:00:00","4","6.95","-71.85","213.0","LOS COLONIZADORES, CO","FM-15","99999","V020","999,9,V,0010,1","99999,9,9,N","009999,1,9,9","+0260,1","+0230,1","99999,9","02,1,+01829,1,99,9",,"9,AGL   ,+99999,+99999","99,99,9,02,1,99,9,01829,1,99,9,99,9","10090,1,99999,9",,,,"MET051METAR SKSA 191200Z VRB02KT 9999 FEW060 26/23 Q1009=",
"80222599999","2023-08-19T13:00:00","4","6.95","-71.85","213.0","LOS COLONIZADORES, CO","FM-15","99999","V020","300,1,N,0021,1","99999,9,9,N","009999,1,9,9","+0280,1","+0230,1","99999,9","04,1,+02743,1,99,9",,"9,AGL   ,+99999,+99999","99,99,9,04,1,99,9,02743,1,99,9,99,9","10100,1,99999,9",,,,"MET051METAR SKSA 191300Z 30004KT 9999 SCT090 28/23 Q1010=",
"80222599999","2023-08-19T14:00:00","4","6.95","-71.85","213.0","LOS COLONIZADORES, CO","FM-15","99999","V020","999,9,V,0010,1","02743,1,C,N","009999,1,9,9","+0280,1","+0240,1","99999,9","08,1,+02743,1,99,9",,"9,AGL   ,+99999,+99999","99,99,9,08,1,99,9,02743,1,99,9,99,9","10100,1,99999,9",,,,"MET051METAR SKSA 191400Z VRB02KT 9999 OVC090 28/24 Q1010=",
"80222599999","2023-08-19T15:00:00","4","6.95","-71.85","213.0","LOS COLONIZADORES, CO","FM-15","99999","V020","020,1,N,0026,1","22000,1,9,N","009999,1,9,9","+0290,1","+0240,1","99999,9",,,,"00,99,1,99,9,99,9,99999,9,99,9,99,9","10100,1,99999,9",,,,"MET048METAR SKSA 191500Z 02005KT 9999 NSC 29/24 Q1010=",
"80222599999","2023-08-19T16:00:00","4","6.95","-71.85","213.0","LOS COLONIZADORES, CO","FM-15","99999","V020","999,9,V,0010,1","99999,9,9,N","009999,1,9,9","+0300,1","+0230,1","99999,9","04,1,+02743,1,99,9",,"9,AGL   ,+99999,+99999","99,99,9,04,1,99,9,02743,1,99,9,99,9","10100,1,99999,9",,,,"MET051METAR SKSA 191600Z VRB02KT 9999 SCT090 30/23 Q1010=",
"80222599999","2023-08-19T17:00:00","4","6.95","-71.85","213.0","LOS COLONIZADORES, CO","FM-15","99999","V020","999,9,V,0010,1","99999,9,9,N","009999,1,9,9","+0310,1","+0240,1","99999,9","02,1,+02743,1,99,9",,"9,AGL   ,+99999,+99999","99,99,9,02,1,99,9,02743,1,99,9,99,9","10090,1,99999,9",,,,"MET051METAR SKSA 191700Z VRB02KT 9999 FEW090 31/24 Q1009=",
"80222599999","2023-08-19T18:00:00","4","6.95","-71.85","213.0","LOS COLONIZADORES, CO","FM-15","99999","V020","020,1,N,0031,1","99999,9,9,N","009999,1,9,9","+0320,1","+0250,1","99999,9","04,1,+00914,1,99,9",,"9,AGL   ,+99999,+99999","99,99,9,04,1,99,9,00914,1,99,9,99,9","10070,1,99999,9",,,,"MET051METAR SKSA 191800Z 02006KT 9999 SCT030 32/25 Q1007=",
"80222599999","2023-08-19T19:00:00","4","6.95","-71.85","213.0","LOS COLONIZADORES, CO","FM-15","99999","V020","360,1,N,0021,1","99999,9,9,N","009999,1,9,9","+0320,1","+0250,1","99999,9","04,1,+02743,1,99,9",,"9,AGL   ,+99999,+99999","99,99,9,04,1,99,9,02743,1,99,9,99,9","10060,1,99999,9",,,,"MET051METAR SKSA 191900Z 36004KT 9999 SCT090 32/25 Q1006=",
"80222599999","2023-08-19T20:00:00","4","6.95","-71.85","213.0","LOS COLONIZADORES, CO","FM-15","99999","V020","120,1,N,0015,1","99999,9,9,N","009999,1,9,9","+0300,1","+0260,1","99999,9","04,1,+02743,1,99,9",,"9,AGL   ,+99999,+99999","99,99,9,04,1,99,9,02743,1,99,9,99,9","10050,1,99999,9",,,,"MET051METAR SKSA 192000Z 12003KT 9999 SCT090 30/26 Q1005=",
"80222599999","2023-08-19T21:00:00","4","6.95","-71.85","213.0","LOS COLONIZADORES, CO","FM-15","99999","V020","999,9,V,0010,1","02743,1,C,N","009999,1,9,9","+0300,1","+0260,1","99999,9","07,1,+02743,1,99,9",,"9,AGL   ,+99999,+99999","99,99,9,07,1,99,9,02743,1,99,9,99,9","10050,1,99999,9",,,,"MET051METAR SKSA 192100Z VRB02KT 9999 BKN090 30/26 Q1005=",
"80222599999","2023-08-19T22:00:00","4","6.95","-71.85","213.0","LOS COLONIZADORES, CO","FM-15","99999","V020","999,9,V,0010,1","02743,1,C,N","009999,1,9,9","+0300,1","+0260,1","99999,9","07,1,+02743,1,99,9",,"9,AGL   ,+99999,+99999","99,99,9,07,1,99,9,02743,1,99,9,99,9","10050,1,99999,9",,,,"MET051METAR SKSA 192200Z VRB02KT 9999 BKN090 30/26 Q1005=",
"80222599999","2023-08-20T11:00:00","4","6.95","-71.85","213.0","LOS COLONIZADORES, CO","FM-15","99999","V020","260,1,N,0021,1","02134,1,C,N","009999,1,9,9","+0240,1","+0240,1","99999,9","07,1,+02134,1,99,9","08,1,+02743,1,99,9","9,AGL   ,+99999,+99999","99,99,9,07,1,99,9,02134,1,99,9,99,9","10080,1,99999,9","63,1",,,"MET061METAR SKSA 201100Z 26004KT 9999 RA BKN070 OVC090 24/24 Q1008=",
"80222599999","2023-08-20T12:00:00","4","6.95","-71.85","213.0","LOS COLONIZADORES, CO","FM-15","99999","V020","020,1,N,0026,1","02743,1,C,N","009999,1,9,9","+0240,1","+0240,1","99999,9","08,1,+02743,1,99,9",,"9,AGL   ,+99999,+99999","99,99,9,08,1,99,9,02743,1,99,9,99,9","10080,1,99999,9",,,,"MET051METAR SKSA 201200Z 02005KT 9999 OVC090 24/24 Q1008=",
"80222599999","2023-08-20T13:00:00","4","6.95","-71.85","213.0","LOS COLONIZADORES, CO","FM-15","99999","V020","350,1,N,0026,1","02743,1,C,N","009999,1,9,9","+0240,1","+0240,1","99999,9","08,1,+02743,1,99,9",,"9,AGL   ,+99999,+99999","99,99,9,08,1,99,9,02743,1,99,9,99,9","10100,1,99999,9",,,,"MET051METAR SKSA 201300Z 35005KT 9999 OVC090 24/24 Q1010=",
"80222599999","2023-08-20T14:00:00","4","6.95","-71.85","213.0","LOS COLONIZADORES, CO","FM-15","99999","V020","360,1,N,0015,1","02743,1,C,N","009999,1,9,9","+0240,1","+0230,1","99999,9","08,1,+02743,1,99,9",,"9,AGL   ,+99999,+99999","99,99,9,08,1,99,9,02743,1,99,9,99,9","10110,1,99999,9","16,1",,,"MET068METAR SKSA 201400Z 36003KT 9999 VCSH OVC090 24/23 Q1011 RMK VCSH NE=",
"80222599999","2023-08-20T15:00:00","4","6.95","-71.85","213.0","LOS COLONIZADORES, CO","FM-15","99999","V020","320,1,N,0015,1","02743,1,C,N","009999,1,9,9","+0270,1","+0230,1","99999,9","08,1,+02743,1,99,9",,"9,AGL   ,+99999,+99999","99,99,9,08,1,99,9,02743,1,99,9,99,9","10100,1,99999,9",,,,"MET051METAR SKSA 201500Z 32003KT 9999 OVC090 27/23 Q1010=",
"80222599999","2023-08-20T16:00:00","4","6.95","-71.85","213.0","LOS COLONIZADORES, CO","FM-15","99999","V020","080,1,N,0015,1","02743,1,C,N","009999,1,9,9","+0270,1","+0230,1","99999,9","08,1,+02743,1,99,9",,"9,AGL   ,+99999,+99999","99,99,9,08,1,99,9,02743,1,99,9,99,9","10110,1,99999,9",,,,"MET051METAR SKSA 201600Z 08003KT 9999 OVC090 27/23 Q1011=",
"80222599999","2023-08-20T17:00:00","4","6.95","-71.85","213.0","LOS COLONIZADORES, CO","FM-15","99999","V020","030,1,N,0015,1","02743,1,C,N","009999,1,9,9","+0260,1","+0240,1","99999,9","08,1,+02743,1,99,9",,"9,AGL   ,+99999,+99999","99,99,9,08,1,99,9,02743,1,99,9,99,9","10110,1,99999,9",,,,"MET051METAR SKSA 201700Z 03003KT 9999 OVC090 26/24 Q1011=",
"80222599999","2023-08-20T18:00:00","4","6.95","-71.85","213.0","LOS COLONIZADORES, CO","FM-15","99999","V020","350,1,N,0026,1","00457,1,C,N","009999,1,9,9","+0260,1","+0240,1","99999,9","07,1,+00457,1,99,9",,"9,AGL   ,+99999,+99999","99,99,9,07,1,99,9,00457,1,99,9,99,9","10100,1,99999,9",,,,"MET051METAR SKSA 201800Z 35005KT 9999 BKN015 26/24 Q1010=",
"80222599999","2023-08-20T19:00:00","4","6.95","-71.85","213.0","LOS COLONIZADORES, CO","FM-15","99999","V020","999,9,V,0010,1","02743,1,C,N","009999,1,9,9","+0270,1","+0240,1","99999,9","07,1,+02743,1,99,9",,"9,AGL   ,+99999,+99999","99,99,9,07,1,99,9,02743,1,99,9,99,9","10080,1,99999,9",,,,"MET051METAR SKSA 201900Z VRB02KT 9999 BKN090 27/24 Q1008=",
"80222599999","2023-08-20T21:00:00","4","6.95","-71.85","213.0","LOS COLONIZADORES, CO","FM-15","99999","V020","080,1,N,0026,1","02743,1,C,N","009999,1,9,9","+0280,1","+0240,1","99999,9","08,1,+02743,1,99,9",,"9,AGL   ,+99999,+99999","99,99,9,08,1,99,9,02743,1,99,9,99,9","10050,1,99999,9",,,,"MET051METAR SKSA 202100Z 08005KT 9999 OVC090 28/24 Q1005=",
"80222599999","2023-08-20T22:00:00","4","6.95","-71.85","213.0","LOS COLONIZADORES, CO","FM-15","99999","V020","050,1,N,0031,1","00610,1,C,N","009999,1,9,9","+0270,1","+0240,1","99999,9","07,1,+00610,1,99,9",,"9,AGL   ,+99999,+99999","99,99,9,07,1,99,9,00610,1,99,9,99,9","10050,1,99999,9",,,,"MET051METAR SKSA 202200Z 05006KT 9999 BKN020 27/24 Q1005=",
"80222599999","2023-08-20T23:00:00","4","6.95","-71.85","213.0","LOS COLONIZADORES, CO","FM-15","99999","V020","999,9,C,0000,1","02743,1,C,N","009999,1,9,9","+0260,1","+0240,1","99999,9","08,1,+02743,1,99,9",,"9,AGL   ,+99999,+99999","99,99,9,08,1,99,9,02743,1,99,9,99,9","10060,1,99999,9",,,,"MET051METAR SKSA 202300Z 00000KT 9999 OVC090 26/24 Q1006=",
"80222599999","2023-08-21T11:00:00","4","6.95","-71.85","213.0","LOS COLONIZADORES, CO","FM-15","99999","V020","999,9,V,0010,1","22000,1,9,N","009999,1,9,9","+0220,1","+0220,1","99999,9",,,,"00,99,1,99,9,99,9,99999,9,99,9,99,9","10080,1,99999,9",,,,"MET048METAR SKSA 211100Z VRB02KT 9999 NSC 22/22 Q1008=",
"80222599999","2023-08-21T12:00:00","4","6.95","-71.85","213.0","LOS COLONIZADORES, CO","FM-15","99999","V020","999,9,V,0010,1","22000,1,9,N","009999,1,9,9","+0240,1","+0220,1","99999,9",,,,"00,99,1,99,9,99,9,99999,9,99,9,99,9","10090,1,99999,9",,,,"MET048METAR SKSA 211200Z VRB02KT 9999 NSC 24/22 Q1009=",
"80222599999","2023-08-21T13:00:00","4","6.95","-71.85","213.0","LOS COLONIZADORES, CO","FM-15","99999","V020","999,9,V,0010,1","22000,1,9,N","009999,1,9,9","+0270,1","+0240,1","99999,9",,,,"00,99,1,99,9,99,9,99999,9,99,9,99,9","10090,1,99999,9",,,,"MET048METAR SKSA 211300Z VRB02KT 9999 NSC 27/24 Q1009=",
"80222599999","2023-08-21T14:00:00","4","6.95","-71.85","213.0","LOS COLONIZADORES, CO","FM-15","99999","V020","999,9,V,0010,1","22000,1,9,N","009999,1,9,9","+0290,1","+0240,1","99999,9",,,,"00,99,1,99,9,99,9,99999,9,99,9,99,9","10090,1,99999,9",,,,"MET048METAR SKSA 211400Z VRB02KT 9999 NSC 29/24 Q1009=",
"80222599999","2023-08-21T15:00:00","4","6.95","-71.85","213.0","LOS COLONIZADORES, CO","FM-15","99999","V020","050,1,N,0026,1","22000,1,9,N","009999,1,9,9","+0300,1","+0240,1","99999,9",,,,"00,99,1,99,9,99,9,99999,9,99,9,99,9","10090,1,99999,9",,,,"MET048METAR SKSA 211500Z 05005KT 9999 NSC 30/24 Q1009=",
"80222599999","2023-08-21T16:00:00","4","6.95","-71.85","213.0","LOS COLONIZADORES, CO","FM-15","99999","V020","110,1,N,0015,1","99999,9,9,N","009999,1,9,9","+0300,1","+0240,1","99999,9","04,1,+00914,1,99,9",,"9,AGL   ,+99999,+99999","99,99,9,04,1,99,9,00914,1,99,9,99,9","10090,1,99999,9",,,,"MET051METAR SKSA 211600Z 11003KT 9999 SCT030 30/24 Q1009=",
"80222599999","2023-08-21T17:00:00","4","6.95","-71.85","213.0","LOS COLONIZADORES, CO","FM-15","99999","V020","050,1,N,0036,1","99999,9,9,N","009999,1,9,9","+0310,1","+0240,1","99999,9","04,1,+01829,1,99,9",,"9,AGL   ,+99999,+99999","99,99,9,04,1,99,9,01829,1,99,9,99,9","10070,1,99999,9","16,1",,,"MET068METAR SKSA 211700Z 05007KT 9999 VCSH SCT060 31/24 Q1007 RMK VCSH SW=",
"80222599999","2023-08-21T18:00:00","4","6.95","-71.85","213.0","LOS COLONIZADORES, CO","FM-15","99999","V020","230,1,N,0051,1","00366,1,C,N","002000,1,9,9","+0250,1","+0240,1","99999,9","08,1,+00366,1,99,9",,"9,AGL   ,+99999,+99999","99,99,9,08,1,99,9,00366,1,99,9,99,9","10070,1,99999,9","17,1","65,1",,"MET065METAR SKSA 211800Z 23010KT 2000 TS +RA OVC012 25/24 Q1007 RMK TS=",
"80222599999","2023-08-21T19:00:00","4","6.95","-71.85","213.0","LOS COLONIZADORES, CO","FM-15","99999","V020","999,9,V,0010,1","01524,1,C,N","008000,1,9,9","+0230,1","+9999,9","99999,9","08,1,+01524,1,99,9",,"9,AGL   ,+99999,+99999","99,99,9,08,1,99,9,01524,1,99,9,99,9","10070,1,99999,9","16,1",,,"MET069METAR SKSA 211900Z VRB02KT 8000 VCSH OVC050 23/223 Q1007 RMK VCTS NE=",
"80222599999","2023-08-21T20:00:00","4","6.95","-71.85","213.0","LOS COLONIZADORES, CO","FM-15","99999","V020","999,9,V,0010,1","02134,1,C,N","009999,1,9,9","+0240,1","+0240,1","99999,9","07,1,+02134,1,99,9",,"9,AGL   ,+99999,+99999","99,99,9,07,1,99,9,02134,1,99,9,99,9","10060,1,99999,9",,,,"MET055METAR SKSA 212000Z VRB02KT 9999 BKN070 24/24 Q1006 RMK=",
"80222599999","2023-08-21T21:00:00","4","6.95","-71.85","213.0","LOS COLONIZADORES, CO","FM-15","99999","V020","320,1,N,0021,1","99999,9,9,N","009999,1,9,9","+0270,1","+0250,1","99999,9","04,1,+02743,1,99,9",,"9,AGL   ,+99999,+99999","99,99,9,04,1,99,9,02743,1,99,9,99,9","10050,1,99999,9",,,,"MET051METAR SKSA 212100Z 32004KT 9999 SCT090 27/25 Q1005=",
"80222599999","2023-08-21T22:00:00","4","6.95","-71.85","213.0","LOS COLONIZADORES, CO","FM-15","99999","V020","350,1,N,0015,1","02743,1,C,N","009999,1,9,9","+0270,1","+0250,1","99999,9","07,1,+02743,1,99,9",,"9,AGL   ,+99999,+99999","99,99,9,07,1,99,9,02743,1,99,9,99,9","10060,1,99999,9",,,,"MET051METAR SKSA 212200Z 35003KT 9999 BKN090 27/25 Q1006=",
"80222599999","2023-08-21T23:00:00","4","6.95","-71.85","213.0","LOS COLONIZADORES, CO","FM-15","99999","V020","999,9,C,0000,1","02743,1,C,N","009999,1,9,9","+0270,1","+0260,1","99999,9","07,1,+02743,1,99,9",,"9,AGL   ,+99999,+99999","99,99,9,07,1,99,9,02743,1,99,9,99,9","10060,1,99999,9",,,,"MET051METAR SKSA 212300Z 00000KT 9999 BKN090 27/26 Q1006=",
"80222599999","2023-08-22T11:00:00","4","6.95","-71.85","213.0","LOS COLONIZADORES, CO","FM-15","99999","V020","999,9,V,0010,1","22000,1,9,N","009999,1,9,9","+0220,1","+0220,1","99999,9",,,,"00,99,1,99,9,99,9,99999,9,99,9,99,9","10090,1,99999,9",,,,"MET048METAR SKSA 221100Z VRB02KT 9999 NSC 22/22 Q1009=",
"80222599999","2023-08-22T12:00:00","4","6.95","-71.85","213.0","LOS COLONIZADORES, CO","FM-15","99999","V020","999,9,V,0010,1","22000,1,9,N","009999,1,9,9","+0230,1","+0220,1","99999,9",,,,"00,99,1,99,9,99,9,99999,9,99,9,99,9","10090,1,99999,9",,,,"MET048METAR SKSA 221200Z VRB02KT 9999 NSC 23/22 Q1009=",
"80222599999","2023-08-22T13:00:00","4","6.95","-71.85","213.0","LOS COLONIZADORES, CO","FM-15","99999","V020","999,9,V,0010,1","22000,1,9,N","009999,1,9,9","+0250,1","+0230,1","99999,9",,,,"00,99,1,99,9,99,9,99999,9,99,9,99,9","10100,1,99999,9",,,,"MET048METAR SKSA 221300Z VRB02KT 9999 NSC 25/23 Q1010=",
"80222599999","2023-08-22T14:00:00","4","6.95","-71.85","213.0","LOS COLONIZADORES, CO","FM-15","99999","V020","999,9,V,0010,1","22000,1,9,N","009999,1,9,9","+0270,1","+0240,1","99999,9",,,,"00,99,1,99,9,99,9,99999,9,99,9,99,9","10100,1,99999,9",,,,"MET048METAR SKSA 221400Z VRB02KT 9999 NSC 27/24 Q1010=",
"80222599999","2023-08-22T15:00:00","4","6.95","-71.85","213.0","LOS COLONIZADORES, CO","FM-15","99999","V020","999,9,V,0010,1","22000,1,9,N","009999,1,9,9","+0280,1","+0240,1","99999,9",,,,"00,99,1,99,9,99,9,99999,9,99,9,99,9","10100,1,99999,9",,,,"MET048METAR SKSA 221500Z VRB02KT 9999 NSC 28/24 Q1010=",
"80222599999","2023-08-22T16:00:00","4","6.95","-71.85","213.0","LOS COLONIZADORES, CO","FM-15","99999","V020","999,9,V,0010,1","22000,1,9,N","009999,1,9,9","+0300,1","+0220,1","99999,9",,,,"00,99,1,99,9,99,9,99999,9,99,9,99,9","10100,1,99999,9",,,,"MET048METAR SKSA 221600Z VRB02KT 9999 NSC 30/22 Q1010=",
"80222599999","2023-08-22T17:00:00","4","6.95","-71.85","213.0","LOS COLONIZADORES, CO","FM-15","99999","V020","999,9,V,0010,1","22000,1,9,N","009999,1,9,9","+0300,1","+0200,1","99999,9",,,,"00,99,1,99,9,99,9,99999,9,99,9,99,9","10090,1,99999,9",,,,"MET048METAR SKSA 221700Z VRB02KT 9999 NSC 30/20 Q1009=",
"80222599999","2023-08-22T18:00:00","4","6.95","-71.85","213.0","LOS COLONIZADORES, CO","FM-15","99999","V020","010,1,N,0021,1","22000,1,9,N","009999,1,9,9","+0300,1","+0220,1","99999,9",,,,"00,99,1,99,9,99,9,99999,9,99,9,99,9","10080,1,99999,9",,,,"MET048METAR SKSA 221800Z 01004KT 9999 NSC 30/22 Q1008=",
"80222599999","2023-08-22T19:00:00","4","6.95","-71.85","213.0","LOS COLONIZADORES, CO","FM-15","99999","V020","999,9,V,0010,1","22000,1,9,N","009999,1,9,9","+0310,1","+0210,1","99999,9",,,,"00,99,1,99,9,99,9,99999,9,99,9,99,9","10070,1,99999,9",,,,"MET048METAR SKSA 221900Z VRB02KT 9999 NSC 31/21 Q1007=",
"80222599999","2023-08-22T20:00:00","4","6.95","-71.85","213.0","LOS COLONIZADORES, CO","FM-15","99999","V020","999,9,V,0010,1","99999,9,9,N","009999,1,9,9","+0310,1","+0210,1","99999,9","04,1,+02134,1,99,9",,"9,AGL   ,+99999,+99999","99,99,9,04,1,99,9,02134,1,99,9,99,9","10070,1,99999,9",,,,"MET051METAR SKSA 222000Z VRB02KT 9999 SCT070 31/21 Q1007=",
"80222599999","2023-08-22T21:00:00","4","6.95","-71.85","213.0","LOS COLONIZADORES, CO","FM-15","99999","V020","999,9,V,0010,1","99999,9,9,N","009999,1,9,9","+0310,1","+0230,1","99999,9","04,1,+00914,1,99,9",,"9,AGL   ,+99999,+99999","99,99,9,04,1,99,9,00914,1,99,9,99,9","10060,1,99999,9",,,,"MET051METAR SKSA 222100Z VRB02KT 9999 SCT030 31/23 Q1006=",
"80222599999","2023-08-22T22:00:00","4","6.95","-71.85","213.0","LOS COLONIZADORES, CO","FM-15","99999","V020","999,9,V,0010,1","99999,9,9,N","009999,1,9,9","+0300,1","+0240,1","99999,9","04,1,+00914,1,99,9",,"9,AGL   ,+99999,+99999","99,99,9,04,1,99,9,00914,1,99,9,99,9","10070,1,99999,9",,,,"MET051METAR SKSA 222200Z VRB02KT 9999 SCT030 30/24 Q1007=",
"80222599999","2023-08-22T23:00:00","4","6.95","-71.85","213.0","LOS COLONIZADORES, CO","FM-15","99999","V020","999,9,C,0000,1","99999,9,9,N","009999,1,9,9","+0270,1","+0250,1","99999,9","04,1,+00914,1,99,9",,"9,AGL   ,+99999,+99999","99,99,9,04,1,99,9,00914,1,99,9,99,9","10070,1,99999,9",,,,"MET051METAR SKSA 222300Z 00000KT 9999 SCT030 27/25 Q1007=",
"80222599999","2023-08-23T11:00:00","4","6.95","-71.85","213.0","LOS COLONIZADORES, CO","FM-15","99999","V020","999,9,V,0010,1","22000,1,9,N","009999,1,9,9","+0230,1","+0220,1","99999,9",,,,"00,99,1,99,9,99,9,99999,9,99,9,99,9","10090,1,99999,9",,,,"MET048METAR SKSA 231100Z VRB02KT 9999 NSC 23/22 Q1009=",
"80222599999","2023-08-23T12:00:00","4","6.95","-71.85","213.0","LOS COLONIZADORES, CO","FM-15","99999","V020","999,9,V,0010,1","99999,9,9,N","009999,1,9,9","+0250,1","+0230,1","99999,9","04,1,+01676,1,99,9",,"9,AGL   ,+99999,+99999","99,99,9,04,1,99,9,01676,1,99,9,99,9","10100,1,99999,9",,,,"MET051METAR SKSA 231200Z VRB02KT 9999 SCT055 25/23 Q1010=",
"80222599999","2023-08-23T13:00:00","4","6.95","-71.85","213.0","LOS COLONIZADORES, CO","FM-15","99999","V020","999,9,V,0010,1","22000,1,9,N","009999,1,9,9","+0280,1","+0220,1","99999,9",,,,"00,99,1,99,9,99,9,99999,9,99,9,99,9","10100,1,99999,9",,,,"MET048METAR SKSA 231300Z VRB02KT 9999 SKC 28/22 Q1010=",
"80222599999","2023-08-23T14:00:00","4","6.95","-71.85","213.0","LOS COLONIZADORES, CO","FM-15","99999","V020","320,1,N,0026,1","22000,1,9,N","009999,1,9,9","+0300,1","+0220,1","99999,9",,,,"00,99,1,99,9,99,9,99999,9,99,9,99,9","10110,1,99999,9",,,,"MET048METAR SKSA 231400Z 32005KT 9999 SKC 30/22 Q1011=",
"80222599999","2023-08-23T15:00:00","4","6.95","-71.85","213.0","LOS COLONIZADORES, CO","FM-15","99999","V020","310,1,N,0015,1","22000,1,9,N","009999,1,9,9","+0320,1","+0220,1","99999,9",,,,"00,99,1,99,9,99,9,99999,9,99,9,99,9","10110,1,99999,9",,,,"MET048METAR SKSA 231500Z 31003KT 9999 SKC 32/22 Q1011=",
"80222599999","2023-08-23T16:00:00","4","6.95","-71.85","213.0","LOS COLONIZADORES, CO","FM-15","99999","V020","050,1,N,0015,1","22000,1,9,N","009999,1,9,9","+0320,1","+0220,1","99999,9",,,,"00,99,1,99,9,99,9,99999,9,99,9,99,9","10110,1,99999,9",,,,"MET048METAR SKSA 231600Z 05003KT 9999 NSC 32/22 Q1011=",
"80222599999","2023-08-23T17:00:00","4","6.95","-71.85","213.0","LOS COLONIZADORES, CO","FM-15","99999","V020","080,1,N,0015,1","99999,9,9,N","009999,1,9,9","+0310,1","+0230,1","99999,9","04,1,+01372,1,99,9",,"9,AGL   ,+99999,+99999","99,99,9,04,1,99,9,01372,1,99,9,99,9","10100,1,99999,9",,,,"MET051METAR SKSA 231700Z 08003KT 9999 SCT045 31/23 Q1010=",
"80222599999","2023-08-23T18:00:00","4","6.95","-71.85","213.0","LOS COLONIZADORES, CO","FM-15","99999","V020","999,9,V,0010,1","99999,9,9,N","009999,1,9,9","+0330,1","+0220,1","99999,9","04,1,+01372,1,99,9",,"9,AGL   ,+99999,+99999","99,99,9,04,1,99,9,01372,1,99,9,99,9","10090,1,99999,9",,,,"MET051METAR SKSA 231800Z VRB02KT 9999 SCT045 33/22 Q1009=",
"80222599999","2023-08-23T19:00:00","4","6.95","-71.85","213.0","LOS COLONIZADORES, CO","FM-15","99999","V020","090,1,N,0015,1","99999,9,9,N","009999,1,9,9","+0320,1","+0230,1","99999,9","04,1,+02134,1,99,9",,"9,AGL   ,+99999,+99999","99,99,9,04,1,99,9,02134,1,99,9,99,9","10080,1,99999,9",,,,"MET051METAR SKSA 231900Z 09003KT 9999 SCT070 32/23 Q1008=",
"80222599999","2023-08-23T20:00:00","4","6.95","-71.85","213.0","LOS COLONIZADORES, CO","FM-15","99999","V020","250,1,N,0015,1","01372,1,C,N","009999,1,9,9","+0320,1","+0240,1","99999,9","07,1,+01372,1,99,9",,"9,AGL   ,+99999,+99999","99,99,9,07,1,99,9,01372,1,99,9,99,9","10070,1,99999,9",,,,"MET051METAR SKSA 232000Z 25003KT 9999 BKN045 32/24 Q1007=",
"80222599999","2023-08-23T22:00:00","4","6.95","-71.85","213.0","LOS COLONIZADORES, CO","FM-15","99999","V020","340,1,N,0057,1","00305,1,C,N","002000,1,9,9","+0230,1","+0230,1","99999,9","08,1,+00305,1,99,9",,"9,AGL   ,+99999,+99999","99,99,9,08,1,99,9,00305,1,99,9,99,9","10090,1,99999,9","17,1","65,1",,"MET058METAR SKSA 232200Z 34011KT 2000 TS +RA OVC010 23/23 Q1009=",
"80222599999","2023-08-23T23:00:00","4","6.95","-71.85","213.0","LOS COLONIZADORES, CO","FM-15","99999","V020","230,1,N,0021,1","01067,1,C,N","009999,1,9,9","+0250,1","+0230,1","99999,9","07,1,+01067,1,99,9",,"9,AGL   ,+99999,+99999","99,99,9,07,1,99,9,01067,1,99,9,99,9","10090,1,99999,9","13,1",,,"MET067METAR SKSA 232300Z 23004KT 9999 VCTS BKN035 25/23 Q1009 RMK VCTS N=",
"80222599999","2023-08-24T11:00:00","4","6.95","-71.85","213.0","LOS COLONIZADORES, CO","FM-15","99999","V020","330,1,N,0021,1","22000,1,9,N","009999,1,9,9","+0230,1","+0220,1","99999,9",,,,"00,99,1,99,9,99,9,99999,9,99,9,99,9","10110,1,99999,9",,,,"MET048METAR SKSA 241100Z 33004KT 9999 NSC 23/22 Q1011=",
"80222599999","2023-08-25T13:00:00","4","6.95","-71.85","213.0","LOS COLONIZADORES, CO","FM-15","99999","V020","999,9,C,0000,1","22000,1,9,N","009999,1,9,9","+0280,1","+0220,1","99999,9",,,,"00,99,1,99,9,99,9,99999,9,99,9,99,9","10130,1,99999,9",,,,"MET048METAR SKSA 251300Z 00000KT 9999 SKC 28/22 Q1013=",
"80222599999","2023-08-25T14:00:00","4","6.95","-71.85","213.0","LOS COLONIZADORES, CO","FM-15","99999","V020","999,9,V,0010,1","22000,1,9,N","009999,1,9,9","+0300,1","+0220,1","99999,9",,,,"00,99,1,99,9,99,9,99999,9,99,9,99,9","10130,1,99999,9",,,,"MET048METAR SKSA 251400Z VRB02KT 9999 SKC 30/22 Q1013=",
"80222599999","2023-08-25T15:00:00","4","6.95","-71.85","213.0","LOS COLONIZADORES, CO","FM-15","99999","V020","050,1,N,0015,1","22000,1,9,N","009999,1,9,9","+0310,1","+0220,1","99999,9",,,,"00,99,1,99,9,99,9,99999,9,99,9,99,9","10130,1,99999,9",,,,"MET048METAR SKSA 251500Z 05003KT 9999 SKC 31/22 Q1013=",
"80222599999","2023-08-25T16:00:00","4","6.95","-71.85","213.0","LOS COLONIZADORES, CO","FM-15","99999","V020","070,1,N,0026,1","22000,1,9,N","009999,1,9,9","+0320,1","+0230,1","99999,9",,,,"00,99,1,99,9,99,9,99999,9,99,9,99,9","10120,1,99999,9",,,,"MET048METAR SKSA 251600Z 07005KT 9999 SKC 32/23 Q1012=",
"80222599999","2023-08-25T17:00:00","4","6.95","-71.85","213.0","LOS COLONIZADORES, CO","FM-15","99999","V020","140,1,N,0031,1","22000,1,9,N","009999,1,9,9","+0320,1","+0220,1","99999,9",,,,"00,99,1,99,9,99,9,99999,9,99,9,99,9","10120,1,99999,9",,,,"MET048METAR SKSA 251700Z 14006KT 9999 NSC 32/22 Q1012=",
"80222599999","2023-08-25T18:00:00","4","6.95","-71.85","213.0","LOS COLONIZADORES, CO","FM-15","99999","V020","160,1,N,0026,1","99999,9,9,N","009999,1,9,9","+0330,1","+0230,1","99999,9","02,1,+01829,1,99,9",,"9,AGL   ,+99999,+99999","99,99,9,02,1,99,9,01829,1,99,9,99,9","10110,1,99999,9",,,,"MET051METAR SKSA 251800Z 16005KT 9999 FEW060 33/23 Q1011=",
"80222599999","2023-08-25T19:00:00","4","6.95","-71.85","213.0","LOS COLONIZADORES, CO","FM-15","99999","V020","150,1,N,0021,1","99999,9,9,N","009999,1,9,9","+0330,1","+0220,1","99999,9","02,1,+01829,1,99,9",,"9,AGL   ,+99999,+99999","99,99,9,02,1,99,9,01829,1,99,9,99,9","10100,1,99999,9",,,,"MET051METAR SKSA 251900Z 15004KT 9999 FEW060 33/22 Q1010=",
"80222599999","2023-08-25T21:00:00","4","6.95","-71.85","213.0","LOS COLONIZADORES, CO","FM-15","99999","V020","230,1,N,0031,1","99999,9,9,N","009999,1,9,9","+0330,1","+0220,1","99999,9","02,1,+01829,1,99,9",,"9,AGL   ,+99999,+99999","99,99,9,02,1,99,9,01829,1,99,9,99,9","10080,1,99999,9",,,,"MET051METAR SKSA 252100Z 23006KT 9999 FEW060 33/22 Q1008=",
"80222599999","2023-08-25T22:00:00","4","6.95","-71.85","213.0","LOS COLONIZADORES, CO","FM-15","99999","V020","240,1,N,0015,1","22000,1,9,N","009999,1,9,9","+0320,1","+0220,1","99999,9",,,,"00,99,1,99,9,99,9,99999,9,99,9,99,9","10080,1,99999,9",,,,"MET048METAR SKSA 252200Z 24003KT 9999 SKC 32/22 Q1008=",
"80222599999","2023-08-25T23:00:00","4","6.95","-71.85","213.0","LOS COLONIZADORES, CO","FM-15","99999","V020","300,1,N,0015,1","22000,1,9,N","009999,1,9,9","+0300,1","+0230,1","99999,9",,,,"00,99,1,99,9,99,9,99999,9,99,9,99,9","10090,1,99999,9",,,,"MET048METAR SKSA 252300Z 30003KT 9999 SKC 30/23 Q1009=",
"80222599999","2023-08-26T11:00:00","4","6.95","-71.85","213.0","LOS COLONIZADORES, CO","FM-15","99999","V020","999,9,V,0010,1","22000,1,9,N","009999,1,9,9","+0230,1","+0220,1","99999,9",,,,"00,99,1,99,9,99,9,99999,9,99,9,99,9","10120,1,99999,9",,,,"MET048METAR SKSA 261100Z VRB02KT 9999 NSC 23/22 Q1012=",
"80222599999","2023-08-26T12:00:00","4","6.95","-71.85","213.0","LOS COLONIZADORES, CO","FM-15","99999","V020","999,9,V,0010,1","22000,1,9,N","009999,1,9,9","+0240,1","+0230,1","99999,9",,,,"00,99,1,99,9,99,9,99999,9,99,9,99,9","10120,1,99999,9",,,,"MET048METAR SKSA 261200Z VRB02KT 9999 NSC 24/23 Q1012=",
"80222599999","2023-08-26T13:00:00","4","6.95","-71.85","213.0","LOS COLONIZADORES, CO","FM-15","99999","V020","280,1,N,0015,1","22000,1,9,N","009999,1,9,9","+0280,1","+0220,1","99999,9",,,,"00,99,1,99,9,99,9,99999,9,99,9,99,9","10120,1,99999,9",,,,"MET048METAR SKSA 261300Z 28003KT 9999 SKC 28/22 Q1012=",
"80222599999","2023-08-26T15:00:00","4","6.95","-71.85","213.0","LOS COLONIZADORES, CO","FM-15","99999","V020","280,1,N,0015,1","22000,1,9,N","009999,1,9,9","+0210,1","+9999,9","99999,9",,,,"00,99,1,99,9,99,9,99999,9,99,9,99,9","10130,1,99999,9",,,,"MET048METAR SKSA 261500Z 28003KT 9999 NSC 21/22 Q1013=","Q0122    2ATOD  "
"80222599999","2023-08-26T16:00:00","4","6.95","-71.85","213.0","LOS COLONIZADORES, CO","FM-15","99999","V020","999,9,V,0010,1","22000,1,9,N","009999,1,9,9","+0320,2","+0230,1","99999,9",,,,"00,99,1,99,9,99,9,99999,9,99,9,99,9","10120,1,99999,9",,,,"MET048METAR SKSA 261600Z VRB02KT 9999 NSC 32/23 Q1012=",
"80222599999","2023-08-26T17:00:00","4","6.95","-71.85","213.0","LOS COLONIZADORES, CO","FM-15","99999","V020","040,1,N,0031,1","99999,9,9,N","009999,1,9,9","+0320,1","+0240,1","99999,9","04,1,+02134,1,99,9",,"9,AGL   ,+99999,+99999","99,99,9,04,1,99,9,02134,1,99,9,99,9","10110,1,99999,9",,,,"MET051METAR SKSA 261700Z 04006KT 9999 SCT070 32/24 Q1011=",
"80222599999","2023-08-26T18:00:00","4","6.95","-71.85","213.0","LOS COLONIZADORES, CO","FM-15","99999","V020","100,1,N,0026,1","99999,9,9,N","009999,1,9,9","+9999,9","+0240,1","99999,9","04,1,+02134,1,99,9",,"9,AGL   ,+99999,+99999","99,99,9,04,1,99,9,02134,1,99,9,99,9","10090,1,99999,9","16,1",,,"MET067METAR SKSA 261800Z 10005KT 9999 VCSH SCT070 33/24 Q1009 RMK VCSH W=","Q01 +03303ATOT  "
"80222599999","2023-08-26T19:00:00","4","6.95","-71.85","213.0","LOS COLONIZADORES, CO","FM-15","99999","V020","270,1,N,0051,1","00610,1,C,N","009999,1,9,9","+0240,2","+0220,1","99999,9","07,1,+00610,1,99,9",,"9,AGL   ,+99999,+99999","99,99,9,07,1,99,9,00610,1,99,9,99,9","10100,1,99999,9","13,1",,,"MET070METAR SKSA 261900Z 27010KT 9999 VCTS BKN020 24/22 Q1010 RMK VCTS NW W=",
"80222599999","2023-08-26T20:00:00","4","6.95","-71.85","213.0","LOS COLONIZADORES, CO","FM-15","99999","V020","310,1,N,0051,1","99999,9,9,N","009999,1,9,9","+0260,1","+0220,1","99999,9","04,1,+00914,1,99,9",,"9,AGL   ,+99999,+99999","99,99,9,04,1,99,9,00914,1,99,9,99,9","10090,1,99999,9","13,1",,,"MET070METAR SKSA 262000Z 31010KT 9999 VCTS SCT030 26/22 Q1009 RMK VCTS NW W=",
"80222599999","2023-08-26T21:00:00","4","6.95","-71.85","213.0","LOS COLONIZADORES, CO","FM-15","99999","V020","310,1,N,0021,1","00914,1,C,N","009999,1,9,9","+0260,1","+0220,1","99999,9","07,1,+00914,1,99,9",,"9,AGL   ,+99999,+99999","99,99,9,07,1,99,9,00914,1,99,9,99,9","10090,1,99999,9","16,1",,,"MET068METAR SKSA 262100Z 31004KT 9999 VCSH BKN030 26/22 Q1009 RMK VCSH SW=",
"80222599999","2023-08-26T22:00:00","4","6.95","-71.85","213.0","LOS COLONIZADORES, CO","FM-15","99999","V020","310,1,N,0021,1","22000,1,9,N","009999,1,9,9","+0260,1","+0220,1","99999,9",,,,"00,99,1,99,9,99,9,99999,9,99,9,99,9","10090,1,99999,9",,,,"MET052METAR SKSA 262200Z 31004KT 9999 NSC 26/22 Q1009 RMK=",
"80222599999","2023-08-26T23:00:00","4","6.95","-71.85","213.0","LOS COLONIZADORES, CO","FM-15","99999","V020","999,9,C,0000,1","22000,1,9,N","009999,1,9,9","+0250,1","+0230,1","99999,9",,,,"00,99,1,99,9,99,9,99999,9,99,9,99,9","10090,1,99999,9",,,,"MET048METAR SKSA 262300Z 00000KT 9999 SKC 25/23 Q1009=",
"80222599999","2023-08-27T11:00:00","4","6.95","-71.85","213.0","LOS COLONIZADORES, CO","FM-15","99999","V020","999,9,V,0010,1","22000,1,9,N","009999,1,9,9","+0220,1","+0220,1","99999,9",,,,"00,99,1,99,9,99,9,99999,9,99,9,99,9","10110,1,99999,9",,,,"MET048METAR SKSA 271100Z VRB02KT 9999 SKC 22/22 Q1011=",
"80222599999","2023-08-27T12:00:00","4","6.95","-71.85","213.0","LOS COLONIZADORES, CO","FM-15","99999","V020","999,9,C,0000,1","22000,1,9,N","009999,1,9,9","+0260,1","+0220,1","99999,9",,,,"00,99,1,99,9,99,9,99999,9,99,9,99,9","10120,1,99999,9",,,,"MET048METAR SKSA 271200Z 00000KT 9999 SKC 26/22 Q1012=",
"80222599999","2023-08-27T13:00:00","4","6.95","-71.85","213.0","LOS COLONIZADORES, CO","FM-15","99999","V020","999,9,C,0000,1","99999,9,9,N","009999,1,9,9","+0270,1","+0220,1","99999,9","02,1,+01829,1,99,9",,"9,AGL   ,+99999,+99999","99,99,9,02,1,99,9,01829,1,99,9,99,9","10130,1,99999,9",,,,"MET051METAR SKSA 271300Z 00000KT 9999 FEW060 27/22 Q1013=",
"80222599999","2023-08-27T14:00:00","4","6.95","-71.85","213.0","LOS COLONIZADORES, CO","FM-15","99999","V020","310,1,N,0015,1","22000,1,9,N","009999,1,9,9","+0300,1","+0220,1","99999,9",,,,"00,99,1,99,9,99,9,99999,9,99,9,99,9","10130,1,99999,9",,,,"MET048METAR SKSA 271400Z 31003KT 9999 NSC 30/22 Q1013=",
"80222599999","2023-08-27T15:00:00","4","6.95","-71.85","213.0","LOS COLONIZADORES, CO","FM-15","99999","V020","090,1,N,0015,1","99999,9,9,N","009999,1,9,9","+0300,1","+0230,1","99999,9","02,1,+01829,1,99,9",,"9,AGL   ,+99999,+99999","99,99,9,02,1,99,9,01829,1,99,9,99,9","10140,1,99999,9",,,,"MET051METAR SKSA 271500Z 09003KT 9999 FEW060 30/23 Q1014=",
"80222599999","2023-08-27T16:00:00","4","6.95","-71.85","213.0","LOS COLONIZADORES, CO","FM-15","99999","V020","050,1,N,0015,1","99999,9,9,N","009999,1,9,9","+0320,1","+0220,1","99999,9","02,1,+01829,1,99,9",,"9,AGL   ,+99999,+99999","99,99,9,02,1,99,9,01829,1,99,9,99,9","10130,1,99999,9",,,,"MET051METAR SKSA 271600Z 05003KT 9999 FEW060 32/22 Q1013=",
"80222599999","2023-08-27T17:00:00","4","6.95","-71.85","213.0","LOS COLONIZADORES, CO","FM-15","99999","V020","999,9,V,0010,1","99999,9,9,N","009999,1,9,9","+0310,1","+0220,1","99999,9","04,1,+01372,1,99,9",,"9,AGL   ,+99999,+99999","99,99,9,04,1,99,9,01372,1,99,9,99,9","10120,1,99999,9",,,,"MET051METAR SKSA 271700Z VRB02KT 9999 SCT045 31/22 Q1012=",
"80222599999","2023-08-27T18:00:00","4","6.95","-71.85","213.0","LOS COLONIZADORES, CO","FM-15","99999","V020","220,1,N,0015,1","99999,9,9,N","009999,1,9,9","+0320,1","+0210,1","99999,9","04,1,+01372,1,99,9",,"9,AGL   ,+99999,+99999","99,99,9,04,1,99,9,01372,1,99,9,99,9","10110,1,99999,9","16,1",,,"MET068METAR SKSA 271800Z 22003KT 9999 VCSH SCT045 32/21 Q1011 RMK VCSH SW=",
"80222599999","2023-08-27T19:00:00","4","6.95","-71.85","213.0","LOS COLONIZADORES, CO","FM-15","99999","V020","210,1,N,0031,1","99999,9,9,N","009999,1,9,9","+0320,1","+0230,1","99999,9","02,1,+01372,1,99,9",,"9,AGL   ,+99999,+99999","99,99,9,02,1,99,9,01372,1,99,9,99,9","10100,1,99999,9","16,1",,,"MET068METAR SKSA 271900Z 21006KT 9999 VCSH FEW045 32/23 Q1010 RMK VCSH SW=",
"80222599999","2023-08-27T20:00:00","4","6.95","-71.85","213.0","LOS COLONIZADORES, CO","FM-15","99999","V020","210,1,N,0026,1","01829,1,C,N","009999,1,9,9","+0300,1","+0220,1","99999,9","07,1,+01829,1,99,9",,"9,AGL   ,+99999,+99999","99,99,9,07,1,99,9,01829,1,99,9,99,9","10100,1,99999,9","16,1",,,"MET071METAR SKSA 272000Z 21005KT 9999 VCSH BKN060 30/22 Q1010 RMK VCSH NE SW=",
"80222599999","2023-08-27T22:00:00","4","6.95","-71.85","213.0","LOS COLONIZADORES, CO","FM-15","99999","V020","999,9,V,0010,1","99999,9,9,N","009999,1,9,9","+0270,1","+0230,1","99999,9","04,1,+02743,1,99,9",,"9,AGL   ,+99999,+99999","99,99,9,04,1,99,9,02743,1,99,9,99,9","10090,1,99999,9",,,,"MET051METAR SKSA 272200Z VRB02KT 9999 SCT090 27/23 Q1009=",
"80222599999","2023-08-27T23:00:00","4","6.95","-71.85","213.0","LOS COLONIZADORES, CO","FM-15","99999","V020","999,9,V,0010,1","22000,1,9,N","009999,1,9,9","+0260,1","+0240,1","99999,9",,,,"00,99,1,99,9,99,9,99999,9,99,9,99,9","10100,1,99999,9",,,,"MET048METAR SKSA 272300Z VRB02KT 9999 NSC 26/24 Q1010=",
"80222599999","2023-08-28T11:00:00","4","6.95","-71.85","213.0","LOS COLONIZADORES, CO","FM-15","99999","V020","340,1,N,0015,1","22000,1,9,N","009999,1,9,9","+0210,1","+0210,1","99999,9",,,,"00,99,1,99,9,99,9,99999,9,99,9,99,9","10130,1,99999,9",,,,"MET048METAR SKSA 281100Z 34003KT 9999 SKC 21/21 Q1013=",
"80222599999","2023-08-28T12:00:00","4","6.95","-71.85","213.0","LOS COLONIZADORES, CO","FM-15","99999","V020","999,9,V,0010,1","99999,9,9,N","009999,1,9,9","+0240,1","+0230,1","99999,9","04,1,+02286,1,99,9",,"9,AGL   ,+99999,+99999","99,99,9,04,1,99,9,02286,1,99,9,99,9","10130,1,99999,9",,,,"MET051METAR SKSA 281200Z VRB02KT 9999 SCT075 24/23 Q1013=",
"80222599999","2023-08-28T13:00:00","4","6.95","-71.85","213.0","LOS COLONIZADORES, CO","FM-15","99999","V020","999,9,V,0010,1","99999,9,9,N","009999,1,9,9","+0250,1","+0220,1","99999,9","04,1,+02286,1,99,9",,"9,AGL   ,+99999,+99999","99,99,9,04,1,99,9,02286,1,99,9,99,9","10140,1,99999,9","16,1",,,"MET068METAR SKSA 281300Z VRB02KT 9999 VCSH SCT075 25/22 Q1014 RMK VCSH SE=",
"80222599999","2023-08-28T14:00:00","4","6.95","-71.85","213.0","LOS COLONIZADORES, CO","FM-15","99999","V020","210,1,N,0015,1","02286,1,C,N","009999,1,9,9","+0240,1","+0230,1","99999,9","07,1,+02286,1,99,9",,"9,AGL   ,+99999,+99999","99,99,9,07,1,99,9,02286,1,99,9,99,9","10150,1,99999,9",,,,"MET051METAR SKSA 281400Z 21003KT 9999 BKN075 24/23 Q1015=",
"80222599999","2023-08-28T15:00:00","4","6.95","-71.85","213.0","LOS COLONIZADORES, CO","FM-15","99999","V020","999,9,V,0010,1","00914,1,C,N","009999,1,9,9","+0240,1","+0240,1","99999,9","07,1,+00914,1,99,9",,"9,AGL   ,+99999,+99999","99,99,9,07,1,99,9,00914,1,99,9,99,9","10150,1,99999,9","63,1",,,"MET054METAR SKSA 281500Z VRB02KT 9999 RA BKN030 24/24 Q1015=",
"80222599999","2023-08-28T16:00:00","4","6.95","-71.85","213.0","LOS COLONIZADORES, CO","FM-15","99999","V020","060,1,N,0021,1","99999,9,9,N","009999,1,9,9","+0280,1","+0210,1","99999,9","04,1,+01829,1,99,9",,"9,AGL   ,+99999,+99999","99,99,9,04,1,99,9,01829,1,99,9,99,9","10140,1,99999,9",,,,"MET051METAR SKSA 281600Z 06004KT 9999 SCT060 28/21 Q1014=",
"80222599999","2023-08-28T17:00:00","4","6.95","-71.85","213.0","LOS COLONIZADORES, CO","FM-15","99999","V020","060,1,N,0021,1","99999,9,9,N","009999,1,9,9","+0270,1","+0230,1","99999,9","04,1,+01829,1,99,9",,"9,AGL   ,+99999,+99999","99,99,9,04,1,99,9,01829,1,99,9,99,9","10150,1,99999,9",,,,"MET051METAR SKSA 281700Z 06004KT 9999 SCT060 27/23 Q1015=",
"80222599999","2023-08-28T18:00:00","4","6.95","-71.85","213.0","LOS COLONIZADORES, CO","FM-15","99999","V020","360,1,N,0021,1","22000,1,9,N","009999,1,9,9","+0280,1","+0230,1","99999,9",,,,"00,99,1,99,9,99,9,99999,9,99,9,99,9","10130,1,99999,9",,,,"MET048METAR SKSA 281800Z 36004KT 9999 NSC 28/23 Q1013=",
"80222599999","2023-08-28T19:00:00","4","6.95","-71.85","213.0","LOS COLONIZADORES, CO","FM-15","99999","V020","340,1,N,0031,1","22000,1,9,N","009999,1,9,9","+0290,1","+0230,1","99999,9",,,,"00,99,1,99,9,99,9,99999,9,99,9,99,9","10120,1,99999,9",,,,"MET048METAR SKSA 281900Z 34006KT 9999 SKC 29/23 Q1012=",
"80222599999","2023-08-28T20:00:00","4","6.95","-71.85","213.0","LOS COLONIZADORES, CO","FM-15","99999","V020","310,1,N,0026,1","22000,1,9,N","009999,1,9,9","+0300,1","+0230,1","99999,9",,,,"00,99,1,99,9,99,9,99999,9,99,9,99,9","10110,1,99999,9",,,,"MET048METAR SKSA 282000Z 31005KT 9999 SKC 30/23 Q1011=",
"80222599999","2023-08-28T21:00:00","4","6.95","-71.85","213.0","LOS COLONIZADORES, CO","FM-15","99999","V020","360,1,N,0021,1","22000,1,9,N","009999,1,9,9","+0300,1","+0220,1","99999,9",,,,"00,99,1,99,9,99,9,99999,9,99,9,99,9","10100,1,99999,9",,,,"MET048METAR SKSA 282100Z 36004KT 9999 SKC 30/22 Q1010=",
"80222599999","2023-08-28T22:00:00","4","6.95","-71.85","213.0","LOS COLONIZADORES, CO","FM-15","99999","V020","999,9,V,0010,1","22000,1,9,N","009999,1,9,9","+0300,1","+0220,1","99999,9",,,,"00,99,1,99,9,99,9,99999,9,99,9,99,9","10110,1,99999,9",,,,"MET048METAR SKSA 282200Z VRB02KT 9999 SKC 30/22 Q1011=",
"80222599999","2023-08-28T23:00:00","4","6.95","-71.85","213.0","LOS COLONIZADORES, CO","FM-15","99999","V020","999,9,V,0010,1","22000,1,9,N","009999,1,9,9","+0270,1","+0250,1","99999,9",,,,"00,99,1,99,9,99,9,99999,9,99,9,99,9","10120,1,99999,9",,,,"MET048METAR SKSA 282300Z VRB02KT 9999 NSC 27/25 Q1012=",
"80222599999","2023-08-29T11:00:00","4","6.95","-71.85","213.0","LOS COLONIZADORES, CO","FM-15","99999","V020","999,9,V,0010,1","22000,1,9,N","009999,1,9,9","+0230,1","+0230,1","99999,9",,,,"00,99,1,99,9,99,9,99999,9,99,9,99,9","10140,1,99999,9",,,,"MET048METAR SKSA 291100Z VRB02KT 9999 NSC 23/23 Q1014=",
"80222599999","2023-08-29T12:00:00","4","6.95","-71.85","213.0","LOS COLONIZADORES, CO","FM-15","99999","V020","999,9,V,0010,1","22000,1,9,N","009999,1,9,9","+0240,1","+0240,1","99999,9",,,,"00,99,1,99,9,99,9,99999,9,99,9,99,9","10150,1,99999,9",,,,"MET048METAR SKSA 291200Z VRB02KT 9999 NSC 24/24 Q1015=",
"80222599999","2023-08-29T13:00:00","4","6.95","-71.85","213.0","LOS COLONIZADORES, CO","FM-15","99999","V020","999,9,V,0010,1","99999,9,9,N","009999,1,9,9","+0260,1","+0230,1","99999,9","04,1,+02743,1,99,9",,"9,AGL   ,+99999,+99999","99,99,9,04,1,99,9,02743,1,99,9,99,9","10150,1,99999,9",,,,"MET051METAR SKSA 291300Z VRB02KT 9999 SCT090 26/23 Q1015=",
"80222599999","2023-08-29T14:00:00","4","6.95","-71.85","213.0","LOS COLONIZADORES, CO","FM-15","99999","V020","999,9,V,0010,1","22000,1,9,N","009999,1,9,9","+0280,1","+0230,1","99999,9",,,,"00,99,1,99,9,99,9,99999,9,99,9,99,9","10160,1,99999,9",,,,"MET048METAR SKSA 291400Z VRB02KT 9999 NSC 28/23 Q1016=",
"80222599999","2023-08-29T15:00:00","4","6.95","-71.85","213.0","LOS COLONIZADORES, CO","FM-15","99999","V020","350,1,N,0021,1","22000,1,9,N","009999,1,9,9","+0300,1","+0220,1","99999,9",,,,"00,99,1,99,9,99,9,99999,9,99,9,99,9","10160,1,99999,9",,,,"MET048METAR SKSA 291500Z 35004KT 9999 SKC 30/22 Q1016=",
"80222599999","2023-08-29T21:00:00","4","6.95","-71.85","213.0","LOS COLONIZADORES, CO","FM-15","99999","V020","100,1,N,0015,1","99999,9,9,N","009999,1,9,9","+0320,1","+0220,1","99999,9","02,1,+01219,1,99,9",,"9,AGL   ,+99999,+99999","99,99,9,02,1,99,9,01219,1,99,9,99,9","10100,1,99999,9",,,,"MET051METAR SKSA 292100Z 10003KT 9999 FEW040 32/22 Q1010=",
"80222599999","2023-08-29T22:00:00","4","6.95","-71.85","213.0","LOS COLONIZADORES, CO","FM-15","99999","V020","090,1,N,0015,1","22000,1,9,N","009999,1,9,9","+0320,1","+0220,1","99999,9",,,,"00,99,1,99,9,99,9,99999,9,99,9,99,9","10090,1,99999,9",,,,"MET048METAR SKSA 292200Z 09003KT 9999 NSC 32/22 Q1009=",
"80222599999","2023-08-30T11:00:00","4","6.95","-71.85","213.0","LOS COLONIZADORES, CO","FM-15","99999","V020","999,9,C,0000,1","22000,1,9,N","009999,1,9,9","+0230,1","+0230,1","99999,9",,,,"00,99,1,99,9,99,9,99999,9,99,9,99,9","10140,1,99999,9",,,,"MET048METAR SKSA 301100Z 00000KT 9999 NSC 23/23 Q1014=",
"80222599999","2023-08-30T12:00:00","4","6.95","-71.85","213.0","LOS COLONIZADORES, CO","FM-15","99999","V020","999,9,C,0000,1","22000,1,9,N","009999,1,9,9","+0240,1","+0220,1","99999,9",,,,"00,99,1,99,9,99,9,99999,9,99,9,99,9","10120,1,99999,9",,,,"MET048METAR SKSA 301200Z 00000KT 9999 NSC 24/22 Q1012=",
"80222599999","2023-08-30T13:00:00","4","6.95","-71.85","213.0","LOS COLONIZADORES, CO","FM-15","99999","V020","999,9,C,0000,1","22000,1,9,N","009999,1,9,9","+0290,1","+0220,1","99999,9",,,,"00,99,1,99,9,99,9,99999,9,99,9,99,9","10150,1,99999,9",,,,"MET048METAR SKSA 301300Z 00000KT 9999 NSC 29/22 Q1015=",
"80222599999","2023-08-30T14:00:00","4","6.95","-71.85","213.0","LOS COLONIZADORES, CO","FM-15","99999","V020","999,9,C,0000,1","22000,1,9,N","009999,1,9,9","+0300,1","+0220,1","99999,9",,,,"00,99,1,99,9,99,9,99999,9,99,9,99,9","10150,1,99999,9",,,,"MET048METAR SKSA 301400Z 00000KT 9999 NSC 30/22 Q1015=",
"80222599999","2023-08-30T15:00:00","4","6.95","-71.85","213.0","LOS COLONIZADORES, CO","FM-15","99999","V020","999,9,V,0010,1","22000,1,9,N","009999,1,9,9","+0310,1","+0220,1","99999,9",,,,"00,99,1,99,9,99,9,99999,9,99,9,99,9","10150,1,99999,9",,,,"MET048METAR SKSA 301500Z VRB02KT 9999 NSC 31/22 Q1015=",
"80222599999","2023-08-30T16:00:00","4","6.95","-71.85","213.0","LOS COLONIZADORES, CO","FM-15","99999","V020","160,1,N,0036,1","22000,1,9,N","009999,1,9,9","+0320,1","+0230,1","99999,9",,,,"00,99,1,99,9,99,9,99999,9,99,9,99,9","10150,1,99999,9",,,,"MET048METAR SKSA 301600Z 16007KT 9999 NSC 32/23 Q1015=",
"80222599999","2023-08-30T17:00:00","4","6.95","-71.85","213.0","LOS COLONIZADORES, CO","FM-15","99999","V020","999,9,C,0000,1","99999,9,9,N","009999,1,9,9","+0310,1","+0230,1","99999,9","04,1,+01524,1,99,9",,"9,AGL   ,+99999,+99999","99,99,9,04,1,99,9,01524,1,99,9,99,9","10130,1,99999,9",,,,"MET051METAR SKSA 301700Z 00000KT 9999 SCT050 31/23 Q1013=",
"80222599999","2023-08-30T20:00:00","4","6.95","-71.85","213.0","LOS COLONIZADORES, CO","FM-15","99999","V020","350,1,N,0031,1","99999,9,9,N","006000,1,9,9","+0250,5","+0230,5","99999,9",,,,,"10110,5,99999,9",,,,"MET054METAR SKSA 302000Z 35006KT 6000 SH OVC070 25/23 Q1011=","D01      0ADE693D02      0ADE539"
"80222599999","2023-08-31T11:00:00","4","6.95","-71.85","213.0","LOS COLONIZADORES, CO","FM-15","99999","V020","999,9,C,0000,1","99999,9,9,N","009999,1,9,9","+0220,1","+0220,1","99999,9","04,1,+01219,1,99,9",,"9,AGL   ,+99999,+99999","99,99,9,04,1,99,9,01219,1,99,9,99,9","10120,1,99999,9",,,,"MET051METAR SKSA 311100Z 00000KT 9999 SCT040 22/22 Q1012=",
"80222599999","2023-08-31T14:00:00","4","6.95","-71.85","213.0","LOS COLONIZADORES, CO","FM-15","99999","V020","999,9,V,0010,1","22000,1,9,N","009999,1,9,9","+0290,1","+0230,1","99999,9",,,,"00,99,1,99,9,99,9,99999,9,99,9,99,9","10150,1,99999,9",,,,"MET048METAR SKSA 311400Z VRB02KT 9999 NSC 29/23 Q1015=",
"80222599999","2023-08-31T15:00:00","4","6.95","-71.85","213.0","LOS COLONIZADORES, CO","FM-15","99999","V020","160,1,N,0015,1","22000,1,9,N","009999,1,9,9","+0300,1","+0230,1","99999,9",,,,"00,99,1,99,9,99,9,99999,9,99,9,99,9","10150,1,99999,9",,,,"MET048METAR SKSA 311500Z 16003KT 9999 NSC 30/23 Q1015=",
"80222599999","2023-08-31T17:00:00","4","6.95","-71.85","213.0","LOS COLONIZADORES, CO","FM-15","99999","V020","090,1,N,0015,1","99999,9,9,N","009999,1,9,9","+0320,1","+0230,1","99999,9","02,1,+00914,1,99,9",,"9,AGL   ,+99999,+99999","99,99,9,02,1,99,9,00914,1,99,9,99,9","10140,1,99999,9",,,,"MET051METAR SKSA 311700Z 09003KT 9999 FEW030 32/23 Q1014=",
"80222599999","2023-08-31T19:00:00","4","6.95","-71.85","213.0","LOS COLONIZADORES, CO","FM-15","99999","V020","060,1,N,0026,1","99999,9,9,N","009999,1,9,9","+0320,1","+0230,1","99999,9","02,1,+00914,1,99,9",,"9,AGL   ,+99999,+99999","99,99,9,02,1,99,9,00914,1,99,9,99,9","10120,1,99999,9",,,,"MET051METAR SKSA 311900Z 06005KT 9999 FEW030 32/23 Q1012=",
"80222599999","2023-08-31T21:00:00","4","6.95","-71.85","213.0","LOS COLONIZADORES, CO","FM-15","99999","V020","230,1,N,0026,1","99999,9,9,N","009999,1,9,9","+0280,1","+0210,1","99999,9","02,1,+01219,1,99,9",,"9,AGL   ,+99999,+99999","99,99,9,02,1,99,9,01219,1,99,9,99,9","10100,1,99999,9",,,,"MET051METAR SKSA 312100Z 23005KT 9999 FEW040 28/21 Q1010=",
"80222599999","2023-08-31T22:00:00","4","6.95","-71.85","213.0","LOS COLONIZADORES, CO","FM-15","99999","V020","270,1,N,0026,1","22000,1,9,N","009999,1,9,9","+0270,1","+0230,1","99999,9",,,,"00,99,1,99,9,99,9,99999,9,99,9,99,9","10100,1,99999,9",,,,"MET048METAR SKSA 312200Z 27005KT 9999 NSC 27/23 Q1010=",
"80222599999","2023-08-31T23:00:00","4","6.95","-71.85","213.0","LOS COLONIZADORES, CO","FM-15","99999","V020","290,1,N,0015,1","22000,1,9,N","009999,1,9,9","+0270,1","+0230,1","99999,9",,,,"00,99,1,99,9,99,9,99999,9,99,9,99,9","10100,1,99999,9",,,,"MET048METAR SKSA 312300Z 29003KT 9999 NSC 27/23 Q1010=",
"80222599999","2023-09-01T11:00:00","4","6.95","-71.85","213.0","LOS COLONIZADORES, CO","FM-15","99999","V020","999,9,C,0000,1","22000,1,9,N","009999,1,9,9","+0210,1","+0210,1","99999,9",,,,"00,99,1,99,9,99,9,99999,9,99,9,99,9","10130,1,99999,9",,,,"MET048METAR SKSA 011100Z 00000KT 9999 NSC 21/21 Q1013=",
"80222599999","2023-09-01T12:00:00","4","6.95","-71.85","213.0","LOS COLONIZADORES, CO","FM-15","99999","V020","999,9,C,0000,1","22000,1,9,N","009999,1,9,9","+0250,1","+0210,1","99999,9",,,,"00,99,1,99,9,99,9,99999,9,99,9,99,9","10130,1,99999,9",,,,"MET048METAR SKSA 011200Z 00000KT 9999 NSC 25/21 Q1013=",
"80222599999","2023-09-01T13:00:00","4","6.95","-71.85","213.0","LOS COLONIZADORES, CO","FM-15","99999","V020","999,9,C,0000,1","22000,1,9,N","009999,1,9,9","+0270,1","+0210,1","99999,9",,,,"00,99,1,99,9,99,9,99999,9,99,9,99,9","10130,1,99999,9",,,,"MET048METAR SKSA 011300Z 00000KT 9999 NSC 27/21 Q1013=",
"80222599999","2023-09-01T16:00:00","4","6.95","-71.85","213.0","LOS COLONIZADORES, CO","FM-15","99999","V020","140,1,N,0015,1","99999,9,9,N","009999,1,9,9","+0310,1","+0240,1","99999,9","02,1,+01219,1,99,9",,"9,AGL   ,+99999,+99999","99,99,9,02,1,99,9,01219,1,99,9,99,9","10140,1,99999,9",,,,"MET051METAR SKSA 011600Z 14003KT 9999 FEW040 31/24 Q1014=",
"80222599999","2023-09-01T17:00:00","4","6.95","-71.85","213.0","LOS COLONIZADORES, CO","FM-15","99999","V020","130,1,N,0026,1","99999,9,9,N","009999,1,9,9","+0320,1","+0240,1","99999,9","02,1,+01219,1,99,9",,"9,AGL   ,+99999,+99999","99,99,9,02,1,99,9,01219,1,99,9,99,9","10140,1,99999,9",,,,"MET051METAR SKSA 011700Z 13005KT 9999 FEW040 32/24 Q1014=",
"80222599999","2023-09-01T18:00:00","4","6.95","-71.85","213.0","LOS COLONIZADORES, CO","FM-15","99999","V020","100,1,N,0021,1","99999,9,9,N","009999,1,9,9","+0340,1","+0240,1","99999,9","02,1,+01219,1,99,9",,"9,AGL   ,+99999,+99999","99,99,9,02,1,99,9,01219,1,99,9,99,9","10140,1,99999,9",,,,"MET051METAR SKSA 011800Z 10004KT 9999 FEW040 34/24 Q1014=",
"80222599999","2023-09-01T19:00:00","4","6.95","-71.85","213.0","LOS COLONIZADORES, CO","FM-15","99999","V020","150,1,N,0021,1","99999,9,9,N","009999,1,9,9","+0340,1","+0220,1","99999,9","02,1,+01219,1,99,9",,"9,AGL   ,+99999,+99999","99,99,9,02,1,99,9,01219,1,99,9,99,9","10100,1,99999,9",,,,"MET051METAR SKSA 011900Z 15004KT 9999 FEW040 34/22 Q1010=",
"80222599999","2023-09-01T20:00:00","4","6.95","-71.85","213.0","LOS COLONIZADORES, CO","FM-15","99999","V020","350,1,N,0015,1","01524,1,C,N","009999,1,9,9","+0320,1","+0240,1","99999,9","07,1,+01524,1,99,9",,"9,AGL   ,+99999,+99999","99,99,9,07,1,99,9,01524,1,99,9,99,9","10100,1,99999,9",,,,"MET051METAR SKSA 012000Z 35003KT 9999 BKN050 32/24 Q1010=",
"80222599999","2023-09-01T21:00:00","4","6.95","-71.85","213.0","LOS COLONIZADORES, CO","FM-15","99999","V020","070,1,N,0021,1","01524,1,C,N","002000,1,9,9","+0240,2","+0240,1","99999,9","08,1,+01524,1,99,9",,"9,AGL   ,+99999,+99999","99,99,9,08,1,99,9,01524,1,99,9,99,9","10100,1,99999,9","63,1",,,"MET054METAR SKSA 012100Z 07004KT 2000 RA OVC050 24/24 Q1010=",
"80222599999","2023-09-01T22:00:00","4","6.95","-71.85","213.0","LOS COLONIZADORES, CO","FM-15","99999","V020","280,1,N,0015,1","22000,1,9,N","009999,1,9,9","+0260,1","+0240,1","99999,9",,,,"00,99,1,99,9,99,9,99999,9,99,9,99,9","10090,1,99999,9",,,,"MET048METAR SKSA 012200Z 28003KT 9999 NSC 26/24 Q1009=",
"80222599999","2023-09-01T23:00:00","4","6.95","-71.85","213.0","LOS COLONIZADORES, CO","FM-15","99999","V020","010,1,N,0015,1","22000,1,9,N","009999,1,9,9","+0260,1","+0250,1","99999,9",,,,"00,99,1,99,9,99,9,99999,9,99,9,99,9","10090,1,99999,9",,,,"MET048METAR SKSA 012300Z 01003KT 9999 NSC 26/25 Q1009=",
"80222599999","2023-09-02T12:00:00","4","6.95","-71.85","213.0","LOS COLONIZADORES, CO","FM-15","99999","V020","999,9,C,0000,1","22000,1,9,N","009999,1,9,9","+0230,1","+0210,1","99999,9",,,,"00,99,1,99,9,99,9,99999,9,99,9,99,9","10110,1,99999,9",,,,"MET048METAR SKSA 021200Z 00000KT 9999 NSC 23/21 Q1011=",
"80222599999","2023-09-02T14:00:00","4","6.95","-71.85","213.0","LOS COLONIZADORES, CO","FM-15","99999","V020","999,9,C,0000,1","22000,1,9,N","009999,1,9,9","+0280,1","+0210,1","99999,9",,,,"00,99,1,99,9,99,9,99999,9,99,9,99,9","10110,1,99999,9",,,,"MET048METAR SKSA 021400Z 00000KT 9999 NSC 28/21 Q1011=",
"80222599999","2023-09-02T15:00:00","4","6.95","-71.85","213.0","LOS COLONIZADORES, CO","FM-15","99999","V020","030,1,N,0015,1","22000,1,9,N","009999,1,9,9","+0300,1","+0240,1","99999,9",,,,"00,99,1,99,9,99,9,99999,9,99,9,99,9","10120,1,99999,9",,,,"MET048METAR SKSA 021500Z 03003KT 9999 NSC 30/24 Q1012=",
"80222599999","2023-09-02T16:00:00","4","6.95","-71.85","213.0","LOS COLONIZADORES, CO","FM-15","99999","V020","320,1,N,0015,1","22000,1,9,N","009999,1,9,9","+0310,1","+0240,1","99999,9",,,,"00,99,1,99,9,99,9,99999,9,99,9,99,9","10120,1,99999,9",,,,"MET048METAR SKSA 021600Z 32003KT 9999 NSC 31/24 Q1012=",
"80222599999","2023-09-02T17:00:00","4","6.95","-71.85","213.0","LOS COLONIZADORES, CO","FM-15","99999","V020","050,1,N,0021,1","22000,1,9,N","009999,1,9,9","+0320,1","+0240,1","99999,9",,,,"00,99,1,99,9,99,9,99999,9,99,9,99,9","10120,1,99999,9",,,,"MET048METAR SKSA 021700Z 05004KT 9999 NSC 32/24 Q1012=",
"80222599999","2023-09-02T18:00:00","4","6.95","-71.85","213.0","LOS COLONIZADORES, CO","FM-15","99999","V020","190,1,N,0051,1","99999,9,9,N","009999,1,9,9","+0280,5","+0210,5","99999,9",,,,,"10100,5,99999,9",,,,"MET048METAR SKSA 021800Z 19010KT 9999 OVC 28/21 Q1010=","D01      0ADE693D02      0ADE539"
"80222599999","2023-09-02T19:00:00","4","6.95","-71.85","213.0","LOS COLONIZADORES, CO","FM-15","99999","V020","130,1,N,0031,1","01524,1,C,N","009999,1,9,9","+0260,1","+0220,1","99999,9","08,1,+01524,1,99,9",,"9,AGL   ,+99999,+99999","99,99,9,08,1,99,9,01524,1,99,9,99,9","10100,1,99999,9",,,,"MET051METAR SKSA 021900Z 13006KT 9999 OVC050 26/22 Q1010=",
"80222599999","2023-09-02T20:00:00","4","6.95","-71.85","213.0","LOS COLONIZADORES, CO","FM-15","99999","V020","250,1,N,0021,1","22000,1,9,N","009999,1,9,9","+0260,1","+0240,1","99999,9",,,,"00,99,1,99,9,99,9,99999,9,99,9,99,9","10090,1,99999,9",,,,"MET048METAR SKSA 022000Z 25004KT 9999 NSC 26/24 Q1009=",
"80222599999","2023-09-02T22:00:00","4","6.95","-71.85","213.0","LOS COLONIZADORES, CO","FM-15","99999","V020","320,1,N,0010,1","22000,1,9,N","009999,1,9,9","+0270,1","+0240,1","99999,9",,,,"00,99,1,99,9,99,9,99999,9,99,9,99,9","10090,1,99999,9",,,,"MET048METAR SKSA 022200Z 32002KT 9999 NSC 27/24 Q1009=",
"80222599999","2023-09-02T23:00:00","4","6.95","-71.85","213.0","LOS COLONIZADORES, CO","FM-15","99999","V020","999,9,C,0000,1","22000,1,9,N","009999,1,9,9","+0240,1","+0240,1","99999,9",,,,"00,99,1,99,9,99,9,99999,9,99,9,99,9","10090,1,99999,9",,,,"MET048METAR SKSA 022300Z 00000KT 9999 NSC 24/24 Q1009=",
"80222599999","2023-09-03T13:00:00","4","6.95","-71.85","213.0","LOS COLONIZADORES, CO","FM-15","99999","V020","300,1,N,0021,1","22000,1,9,N","009999,1,9,9","+0260,1","+0210,1","99999,9",,,,"00,99,1,99,9,99,9,99999,9,99,9,99,9","10130,1,99999,9",,,,"MET048METAR SKSA 031300Z 30004KT 9999 NSC 26/21 Q1013=",
"80222599999","2023-09-04T15:00:00","4","6.95","-71.85","213.0","LOS COLONIZADORES, CO","FM-15","99999","V020","999,9,N,9999,9","99999,9,9,N","999999,9,9,9","+0310,5","+0230,5","99999,9",,,,,"10140,5,99999,9",,,,"MET047METAR SKSA 041500Z 31004T 9999 NSC 31/23 Q1014=","D01      0ADE693D02      0ADE539"
"80222599999","2023-09-04T16:00:00","4","6.95","-71.85","213.0","LOS COLONIZADORES, CO","FM-15","99999","V020","340,1,N,0015,1","22000,1,9,N","009999,1,9,9","+0320,1","+0230,1","99999,9",,,,"00,99,1,99,9,99,9,99999,9,99,9,99,9","10140,1,99999,9",,,,"MET048METAR SKSA 041600Z 34003KT 9999 NSC 32/23 Q1014=",
"80222599999","2023-09-04T17:00:00","4","6.95","-71.85","213.0","LOS COLONIZADORES, CO","FM-15","99999","V020","999,9,C,0000,1","22000,1,9,N","009999,1,9,9","+0320,1","+0230,1","99999,9",,,,"00,99,1,99,9,99,9,99999,9,99,9,99,9","10130,1,99999,9",,,,"MET048METAR SKSA 041700Z 00000KT 9999 NSC 32/23 Q1013=",
"80222599999","2023-09-04T18:00:00","4","6.95","-71.85","213.0","LOS COLONIZADORES, CO","FM-15","99999","V020","999,9,C,0000,1","99999,9,9,N","009999,1,9,9","+0320,1","+0230,1","99999,9","02,1,+01219,1,99,9",,"9,AGL   ,+99999,+99999","99,99,9,02,1,99,9,01219,1,99,9,99,9","10130,1,99999,9",,,,"MET051METAR SKSA 041800Z 00000KT 9999 FEW040 32/23 Q1013=",
"80222599999","2023-09-04T19:00:00","4","6.95","-71.85","213.0","LOS COLONIZADORES, CO","FM-15","99999","V020","310,1,N,0041,1","99999,9,9,N","009999,1,9,9","+0320,1","+0230,1","99999,9","04,1,+01219,1,99,9",,"9,AGL   ,+99999,+99999","99,99,9,04,1,99,9,01219,1,99,9,99,9","10130,1,99999,9",,,,"MET051METAR SKSA 041900Z 31008KT 9999 SCT040 32/23 Q1013=",
"80222599999","2023-09-04T20:00:00","4","6.95","-71.85","213.0","LOS COLONIZADORES, CO","FM-15","99999","V020","290,1,N,0041,1","99999,9,9,N","009999,1,9,9","+0320,1","+0230,1","99999,9","02,1,+01219,1,99,9",,"9,AGL   ,+99999,+99999","99,99,9,02,1,99,9,01219,1,99,9,99,9","10100,1,99999,9",,,,"MET051METAR SKSA 042000Z 29008KT 9999 FEW040 32/23 Q1010=",
"80222599999","2023-09-04T23:00:00","4","6.95","-71.85","213.0","LOS COLONIZADORES, CO","FM-15","99999","V020","290,1,N,0041,1","22000,1,9,N","009999,1,9,9","+0270,1","+0230,1","99999,9",,,,"00,99,1,99,9,99,9,99999,9,99,9,99,9","10100,1,99999,9",,,,"MET048METAR SKSA 042300Z 29008KT 9999 NSC 27/23 Q1010=",
"80222599999","2023-09-05T11:00:00","4","6.95","-71.85","213.0","LOS COLONIZADORES, CO","FM-15","99999","V020","999,9,C,0000,1","22000,1,9,N","009999,1,9,9","+0240,1","+0230,1","99999,9",,,,"00,99,1,99,9,99,9,99999,9,99,9,99,9","10130,1,99999,9",,,,"MET048METAR SKSA 051100Z 00000KT 9999 NSC 24/23 Q1013=",
"80222599999","2023-09-05T13:00:00","4","6.95","-71.85","213.0","LOS COLONIZADORES, CO","FM-15","99999","V020","999,9,C,0000,1","22000,1,9,N","009999,1,9,9","+0270,1","+0230,1","99999,9",,,,"00,99,1,99,9,99,9,99999,9,99,9,99,9","10150,1,99999,9",,,,"MET048METAR SKSA 051300Z 00000KT 9999 NSC 27/23 Q1015=",
"80222599999","2023-09-05T15:00:00","4","6.95","-71.85","213.0","LOS COLONIZADORES, CO","FM-15","99999","V020","340,1,N,0015,1","22000,1,9,N","009999,1,9,9","+0300,1","+0230,1","99999,9",,,,"00,99,1,99,9,99,9,99999,9,99,9,99,9","10150,1,99999,9",,,,"MET048METAR SKSA 051500Z 34003KT 9999 NSC 30/23 Q1015=",
"80222599999","2023-09-05T16:00:00","4","6.95","-71.85","213.0","LOS COLONIZADORES, CO","FM-15","99999","V020","310,1,N,0036,1","99999,9,9,N","009999,1,9,9","+0310,1","+0230,1","99999,9","04,1,+01524,1,99,9",,"9,AGL   ,+99999,+99999","99,99,9,04,1,99,9,01524,1,99,9,99,9","10140,1,99999,9",,,,"MET051METAR SKSA 051600Z 31007KT 9999 SCT050 31/23 Q1014=",
"80222599999","2023-09-05T17:00:00","4","6.95","-71.85","213.0","LOS COLONIZADORES, CO","FM-15","99999","V020","200,1,N,0021,1","99999,9,9,N","009999,1,9,9","+0280,5","+0230,5","99999,9",,,,,"10140,5,99999,9","53,5",,,"MET061METAR SKSA 051700Z 20004KT 9999 4000 S DZ SCT050 28/23 Q1014=","D01      0ADE735"
"80222599999","2023-09-05T19:00:00","4","6.95","-71.85","213.0","LOS COLONIZADORES, CO","FM-15","99999","V020","010,1,N,0021,1","99999,9,9,N","009999,1,9,9","+0310,1","+0230,1","99999,9","04,1,+01524,1,99,9",,"9,AGL   ,+99999,+99999","99,99,9,04,1,99,9,01524,1,99,9,99,9","10140,1,99999,9",,,,"MET051METAR SKSA 051900Z 01004KT 9999 SCT050 31/23 Q1014=",
"80222599999","2023-09-05T20:00:00","4","6.95","-71.85","213.0","LOS COLONIZADORES, CO","FM-15","99999","V020","130,1,N,0026,1","99999,9,9,N","009999,1,9,9","+0300,1","+0230,1","99999,9","04,1,+01524,1,99,9",,"9,AGL   ,+99999,+99999","99,99,9,04,1,99,9,01524,1,99,9,99,9","10110,1,99999,9",,,,"MET051METAR SKSA 052000Z 13005KT 9999 SCT050 30/23 Q1011=",
"80222599999","2023-09-05T21:00:00","4","6.95","-71.85","213.0","LOS COLONIZADORES, CO","FM-15","99999","V020","050,1,N,0015,1","99999,9,9,N","009999,1,9,9","+0270,1","+0250,1","99999,9","04,1,+01524,1,99,9",,"9,AGL   ,+99999,+99999","99,99,9,04,1,99,9,01524,1,99,9,99,9","10110,1,99999,9",,,,"MET051METAR SKSA 052100Z 05003KT 9999 SCT050 27/25 Q1011=",
"80222599999","2023-09-05T22:00:00","4","6.95","-71.85","213.0","LOS COLONIZADORES, CO","FM-15","99999","V020","050,1,N,0015,1","99999,9,9,N","009999,1,9,9","+0270,1","+0250,1","99999,9","04,1,+01524,1,99,9",,"9,AGL   ,+99999,+99999","99,99,9,04,1,99,9,01524,1,99,9,99,9","10110,1,99999,9",,,,"MET051METAR SKSA 052200Z 05003KT 9999 SCT050 27/25 Q1011=",
"80222599999","2023-09-06T11:00:00","4","6.95","-71.85","213.0","LOS COLONIZADORES, CO","FM-15","99999","V020","999,9,C,0000,1","22000,1,9,N","009999,1,9,9","+0230,1","+0230,1","99999,9",,,,"00,99,1,99,9,99,9,99999,9,99,9,99,9","10130,1,99999,9",,,,"MET048METAR SKSA 061100Z 00000KT 9999 NSC 23/23 Q1013=",
"80222599999","2023-09-06T12:00:00","4","6.95","-71.85","213.0","LOS COLONIZADORES, CO","FM-15","99999","V020","999,9,C,0000,1","22000,1,9,N","009999,1,9,9","+0230,1","+0230,1","99999,9",,,,"00,99,1,99,9,99,9,99999,9,99,9,99,9","10130,1,99999,9",,,,"MET048METAR SKSA 061200Z 00000KT 9999 NSC 23/23 Q1013=",
"80222599999","2023-09-06T15:00:00","4","6.95","-71.85","213.0","LOS COLONIZADORES, CO","FM-15","99999","V020","999,9,C,0000,1","22000,1,9,N","009999,1,9,9","+0230,1","+0230,1","99999,9",,,,"00,99,1,99,9,99,9,99999,9,99,9,99,9","10130,1,99999,9",,,,"MET048METAR SKSA 061500Z 00000KT 9999 NSC 23/23 Q1013=",
"80222599999","2023-09-06T17:00:00","4","6.95","-71.85","213.0","LOS COLONIZADORES, CO","FM-15","99999","V020","060,1,N,0026,1","99999,9,9,N","009999,1,9,9","+0320,1","+0220,1","99999,9","04,1,+01524,1,99,9",,"9,AGL   ,+99999,+99999","99,99,9,04,1,99,9,01524,1,99,9,99,9","10120,1,99999,9",,,,"MET051METAR SKSA 061700Z 06005KT 9999 SCT050 32/22 Q1012=",
"80222599999","2023-09-06T18:00:00","4","6.95","-71.85","213.0","LOS COLONIZADORES, CO","FM-15","99999","V020","280,1,N,0015,1","01524,1,C,N","009999,1,9,9","+0300,1","+0220,1","99999,9","07,1,+01524,1,99,9",,"9,AGL   ,+99999,+99999","99,99,9,07,1,99,9,01524,1,99,9,99,9","10120,1,99999,9",,,,"MET051METAR SKSA 061800Z 28003KT 9999 BKN050 30/22 Q1012=",
"80222599999","2023-09-06T20:00:00","4","6.95","-71.85","213.0","LOS COLONIZADORES, CO","FM-15","99999","V020","240,1,N,0031,1","99999,9,9,N","009999,1,9,9","+0310,1","+0220,1","99999,9","02,1,+01219,1,99,9",,"9,AGL   ,+99999,+99999","99,99,9,02,1,99,9,01219,1,99,9,99,9","10120,1,99999,9",,,,"MET051METAR SKSA 062000Z 24006KT 9999 FEW040 31/22 Q1012=",
"80222599999","2023-09-06T21:00:00","4","6.95","-71.85","213.0","LOS COLONIZADORES, CO","FM-15","99999","V020","280,1,N,0026,1","22000,1,9,N","009999,1,9,9","+0330,1","+0220,1","99999,9",,,,"00,99,1,99,9,99,9,99999,9,99,9,99,9","10090,1,99999,9",,,,"MET048METAR SKSA 062100Z 28005KT 9999 NSC 33/22 Q1009=",
"80222599999","2023-09-06T22:00:00","4","6.95","-71.85","213.0","LOS COLONIZADORES, CO","FM-15","99999","V020","350,1,N,0015,1","22000,1,9,N","009999,1,9,9","+0320,1","+0220,1","99999,9",,,,"00,99,1,99,9,99,9,99999,9,99,9,99,9","10090,1,99999,9",,,,"MET048METAR SKSA 062200Z 35003KT 9999 NSC 32/22 Q1009=",
"80222599999","2023-09-06T23:00:00","4","6.95","-71.85","213.0","LOS COLONIZADORES, CO","FM-15","99999","V020","350,1,N,0015,1","22000,1,9,N","009999,1,9,9","+0320,1","+0220,1","99999,9",,,,"00,99,1,99,9,99,9,99999,9,99,9,99,9","10090,1,99999,9",,,,"MET048METAR SKSA 062300Z 35003KT 9999 NSC 32/22 Q1009=",
"80222599999","2023-09-07T11:00:00","4","6.95","-71.85","213.0","LOS COLONIZADORES, CO","FM-15","99999","V020","999,9,C,0000,1","22000,1,9,N","009999,1,9,9","+0220,1","+0220,1","99999,9",,,,"00,99,1,99,9,99,9,99999,9,99,9,99,9","10120,1,99999,9",,,,"MET048METAR SKSA 071100Z 00000KT 9999 NSC 22/22 Q1012=",
"80222599999","2023-09-07T15:00:00","4","6.95","-71.85","213.0","LOS COLONIZADORES, CO","FM-15","99999","V020","999,9,V,0010,1","22000,1,9,N","009999,1,9,9","+0300,1","+0220,1","99999,9",,,,"00,99,1,99,9,99,9,99999,9,99,9,99,9","10130,1,99999,9",,,,"MET048METAR SKSA 071500Z VRB02KT 9999 NSC 30/22 Q1013=",
"80222599999","2023-09-07T16:00:00","4","6.95","-71.85","213.0","LOS COLONIZADORES, CO","FM-15","99999","V020","330,1,N,0021,1","22000,1,9,N","009999,1,9,9","+0310,1","+0220,1","99999,9",,,,"00,99,1,99,9,99,9,99999,9,99,9,99,9","10120,1,99999,9",,,,"MET048METAR SKSA 071600Z 33004KT 9999 NSC 31/22 Q1012=",
"80222599999","2023-09-07T17:00:00","4","6.95","-71.85","213.0","LOS COLONIZADORES, CO","FM-15","99999","V020","999,9,C,0000,1","22000,1,9,N","009999,1,9,9","+0310,1","+0230,1","99999,9",,,,"00,99,1,99,9,99,9,99999,9,99,9,99,9","10120,1,99999,9",,,,"MET048METAR SKSA 071700Z 00000KT 9999 NSC 31/23 Q1012=",
"80222599999","2023-09-07T18:00:00","4","6.95","-71.85","213.0","LOS COLONIZADORES, CO","FM-15","99999","V020","060,1,N,0015,1","22000,1,9,N","009999,1,9,9","+0330,1","+0230,1","99999,9",,,,"00,99,1,99,9,99,9,99999,9,99,9,99,9","10120,1,99999,9",,,,"MET048METAR SKSA 071800Z 06003KT 9999 NSC 33/23 Q1012=",
"80222599999","2023-09-07T19:00:00","4","6.95","-71.85","213.0","LOS COLONIZADORES, CO","FM-15","99999","V020","130,1,N,0015,1","22000,1,9,N","009999,1,9,9","+0330,1","+0230,1","99999,9",,,,"00,99,1,99,9,99,9,99999,9,99,9,99,9","10120,1,99999,9",,,,"MET048METAR SKSA 071900Z 13003KT 9999 NSC 33/23 Q1012=",
"80222599999","2023-09-07T20:00:00","4","6.95","-71.85","213.0","LOS COLONIZADORES, CO","FM-15","99999","V020","250,1,N,0026,1","22000,1,9,N","009999,1,9,9","+0300,1","+0230,1","99999,9",,,,"00,99,1,99,9,99,9,99999,9,99,9,99,9","10080,2,99999,9",,,,"MET048METAR SKSA 072000Z 25005KT 9999 NSC 30/23 Q1008=",
"80222599999","2023-09-07T21:00:00","4","6.95","-71.85","213.0","LOS COLONIZADORES, CO","FM-15","99999","V020","250,1,N,0026,1","22000,1,9,N","009999,1,9,9","+0310,1","+0230,1","99999,9",,,,"00,99,1,99,9,99,9,99999,9,99,9,99,9","10080,1,99999,9",,,,"MET048METAR SKSA 072100Z 25005KT 9999 NSC 31/23 Q1008=",
"80222599999","2023-09-07T23:00:00","4","6.95","-71.85","213.0","LOS COLONIZADORES, CO","FM-15","99999","V020","999,9,C,0000,1","22000,1,9,N","009999,1,9,9","+0270,1","+0250,1","99999,9",,,,"00,99,1,99,9,99,9,99999,9,99,9,99,9","10080,1,99999,9",,,,"MET048METAR SKSA 072300Z 00000KT 9999 NSC 27/25 Q1008=",
"80222599999","2023-09-08T11:00:00","4","6.95","-71.85","213.0","LOS COLONIZADORES, CO","FM-15","99999","V020","999,9,C,0000,1","22000,1,9,N","009999,1,9,9","+0220,1","+0220,1","99999,9",,,,"00,99,1,99,9,99,9,99999,9,99,9,99,9","10110,1,99999,9",,,,"MET048METAR SKSA 081100Z 00000KT 9999 NSC 22/22 Q1011=",
"80222599999","2023-09-08T12:00:00","4","6.95","-71.85","213.0","LOS COLONIZADORES, CO","FM-15","99999","V020","260,1,N,0015,1","22000,1,9,N","009999,1,9,9","+0250,1","+0220,1","99999,9",,,,"00,99,1,99,9,99,9,99999,9,99,9,99,9","10120,1,99999,9",,,,"MET048METAR SKSA 081200Z 26003KT 9999 NSC 25/22 Q1012=",
"80222599999","2023-09-08T13:00:00","4","6.95","-71.85","213.0","LOS COLONIZADORES, CO","FM-15","99999","V020","310,1,N,0031,1","22000,1,9,N","009999,1,9,9","+0270,1","+0220,1","99999,9",,,,"00,99,1,99,9,99,9,99999,9,99,9,99,9","10120,1,99999,9",,,,"MET048METAR SKSA 081300Z 31006KT 9999 NSC 27/22 Q1012=",
"80222599999","2023-09-08T15:00:00","4","6.95","-71.85","213.0","LOS COLONIZADORES, CO","FM-15","99999","V020","340,1,N,0010,1","22000,1,9,N","009999,1,9,9","+0300,1","+0230,1","99999,9",,,,"00,99,1,99,9,99,9,99999,9,99,9,99,9","10130,1,99999,9",,,,"MET048METAR SKSA 081500Z 34002KT 9999 NSC 30/23 Q1013=",
"80222599999","2023-09-08T16:00:00","4","6.95","-71.85","213.0","LOS COLONIZADORES, CO","FM-15","99999","V020","090,1,N,0015,1","22000,1,9,N","009999,1,9,9","+0310,1","+0230,1","99999,9",,,,"00,99,1,99,9,99,9,99999,9,99,9,99,9","10120,1,99999,9",,,,"MET048METAR SKSA 081600Z 09003KT 9999 NSC 31/23 Q1012=",
"80222599999","2023-09-08T17:00:00","4","6.95","-71.85","213.0","LOS COLONIZADORES, CO","FM-15","99999","V020","140,1,N,0015,1","22000,1,9,N","009999,1,9,9","+0310,1","+0230,1","99999,9",,,,"00,99,1,99,9,99,9,99999,9,99,9,99,9","10120,1,99999,9",,,,"MET048METAR SKSA 081700Z 14003KT 9999 NSC 31/23 Q1012=",
"80222599999","2023-09-08T18:00:00","4","6.95","-71.85","213.0","LOS COLONIZADORES, CO","FM-15","99999","V020","190,1,N,0015,1","99999,9,9,N","009999,1,9,9","+0320,1","+0230,1","99999,9","02,1,+01524,1,99,9",,"9,AGL   ,+99999,+99999","99,99,9,02,1,99,9,01524,1,99,9,99,9","10100,1,99999,9",,,,"MET051METAR SKSA 081800Z 19003KT 9999 FEW050 32/23 Q1010=",
"80222599999","2023-09-08T19:00:00","4","6.95","-71.85","213.0","LOS COLONIZADORES, CO","FM-15","99999","V020","090,1,N,0021,1","99999,9,9,N","009999,1,9,9","+0330,1","+0230,1","99999,9","02,1,+01524,1,99,9",,"9,AGL   ,+99999,+99999","99,99,9,02,1,99,9,01524,1,99,9,99,9","10090,1,99999,9",,,,"MET051METAR SKSA 081900Z 09004KT 9999 FEW050 33/23 Q1009=",
"80222599999","2023-09-08T21:00:00","4","6.95","-71.85","213.0","LOS COLONIZADORES, CO","FM-15","99999","V020","040,1,N,0021,1","01219,1,C,N","002000,1,9,9","+0220,2","+0220,1","99999,9","08,1,+01219,1,99,9",,"9,AGL   ,+99999,+99999","99,99,9,08,1,99,9,01219,1,99,9,99,9","10090,1,99999,9","63,1",,,"MET054METAR SKSA 082100Z 04004KT 2000 RA OVC040 22/22 Q1009=",
"80222599999","2023-09-08T22:00:00","4","6.95","-71.85","213.0","LOS COLONIZADORES, CO","FM-15","99999","V020","300,1,N,0015,1","99999,9,9,N","007000,1,9,9","+0220,2","+0220,1","99999,9","04,1,+02134,1,99,9",,"9,AGL   ,+99999,+99999","99,99,9,04,1,99,9,02134,1,99,9,99,9","10090,1,99999,9",,,,"MET051METAR SKSA 082200Z 30003KT 7000 SCT070 22/22 Q1009=",
"80222599999","2023-09-08T23:00:00","4","6.95","-71.85","213.0","LOS COLONIZADORES, CO","FM-15","99999","V020","300,1,N,0015,1","99999,9,9,N","007000,1,9,9","+0220,1","+0220,1","99999,9","04,1,+02134,1,99,9",,"9,AGL   ,+99999,+99999","99,99,9,04,1,99,9,02134,1,99,9,99,9","10090,1,99999,9",,,,"MET051METAR SKSA 082300Z 30003KT 7000 SCT070 22/22 Q1009=",
"80222599999","2023-09-09T11:00:00","4","6.95","-71.85","213.0","LOS COLONIZADORES, CO","FM-15","99999","V020","999,9,C,0000,1","22000,1,9,N","009999,1,9,9","+0220,1","+0220,1","99999,9",,,,"00,99,1,99,9,99,9,99999,9,99,9,99,9","10110,1,99999,9",,,,"MET048METAR SKSA 091100Z 00000KT 9999 NSC 22/22 Q1011=",
"80222599999","2023-09-09T12:00:00","4","6.95","-71.85","213.0","LOS COLONIZADORES, CO","FM-15","99999","V020","999,9,C,0000,1","22000,1,9,N","009999,1,9,9","+0240,1","+0220,1","99999,9",,,,"00,99,1,99,9,99,9,99999,9,99,9,99,9","10110,1,99999,9",,,,"MET048METAR SKSA 091200Z 00000KT 9999 NSC 24/22 Q1011=",
"80222599999","2023-09-09T13:00:00","4","6.95","-71.85","213.0","LOS COLONIZADORES, CO","FM-15","99999","V020","999,9,C,0000,1","22000,1,9,N","009999,1,9,9","+0260,1","+0220,1","99999,9",,,,"00,99,1,99,9,99,9,99999,9,99,9,99,9","10110,1,99999,9",,,,"MET048METAR SKSA 091300Z 00000KT 9999 NSC 26/22 Q1011=",
"80222599999","2023-09-09T14:00:00","4","6.95","-71.85","213.0","LOS COLONIZADORES, CO","FM-15","99999","V020","999,9,C,0000,1","99999,9,9,N","009999,1,9,9","+0280,1","+0220,1","99999,9","04,1,+02134,1,99,9",,"9,AGL   ,+99999,+99999","99,99,9,04,1,99,9,02134,1,99,9,99,9","10110,1,99999,9",,,,"MET051METAR SKSA 091400Z 00000KT 9999 SCT070 28/22 Q1011=",
"80222599999","2023-09-09T15:00:00","4","6.95","-71.85","213.0","LOS COLONIZADORES, CO","FM-15","99999","V020","999,9,C,0000,1","02134,1,C,N","009999,1,9,9","+0290,1","+0220,1","99999,9","07,1,+02134,1,99,9",,"9,AGL   ,+99999,+99999","99,99,9,07,1,99,9,02134,1,99,9,99,9","10140,1,99999,9",,,,"MET051METAR SKSA 091500Z 00000KT 9999 BKN070 29/22 Q1014=",
"80222599999","2023-09-09T16:00:00","4","6.95","-71.85","213.0","LOS COLONIZADORES, CO","FM-15","99999","V020","999,9,C,0000,1","02134,1,C,N","009999,1,9,9","+0290,1","+0220,1","99999,9","07,1,+02134,1,99,9",,"9,AGL   ,+99999,+99999","99,99,9,07,1,99,9,02134,1,99,9,99,9","10130,1,99999,9",,,,"MET051METAR SKSA 091600Z 00000KT 9999 BKN070 29/22 Q1013=",
"80222599999","2023-09-09T17:00:00","4","6.95","-71.85","213.0","LOS COLONIZADORES, CO","FM-15","99999","V020","060,1,N,0015,1","02134,1,C,N","009999,1,9,9","+0300,1","+0220,1","99999,9","07,1,+02134,1,99,9",,"9,AGL   ,+99999,+99999","99,99,9,07,1,99,9,02134,1,99,9,99,9","10130,1,99999,9",,,,"MET051METAR SKSA 091700Z 06003KT 9999 BKN070 30/22 Q1013=",
"80222599999","2023-09-09T19:00:00","4","6.95","-71.85","213.0","LOS COLONIZADORES, CO","FM-15","99999","V020","060,1,N,0015,1","99999,9,9,N","009999,1,9,9","+0310,1","+0220,1","99999,9","04,1,+01219,1,99,9",,"9,AGL   ,+99999,+99999","99,99,9,04,1,99,9,01219,1,99,9,99,9","10110,1,99999,9",,,,"MET051METAR SKSA 091900Z 06003KT 9999 SCT040 31/22 Q1011=",
"80222599999","2023-09-09T20:00:00","4","6.95","-71.85","213.0","LOS COLONIZADORES, CO","FM-15","99999","V020","040,1,N,0015,1","99999,9,9,N","009999,1,9,9","+0300,1","+0230,1","99999,9","04,1,+01524,1,99,9",,"9,AGL   ,+99999,+99999","99,99,9,04,1,99,9,01524,1,99,9,99,9","10100,1,99999,9",,,,"MET051METAR SKSA 092000Z 04003KT 9999 SCT050 30/23 Q1010=",
"80222599999","2023-09-09T21:00:00","4","6.95","-71.85","213.0","LOS COLONIZADORES, CO","FM-15","99999","V020","260,1,N,0021,1","22000,1,9,N","009999,1,9,9","+0300,1","+0230,1","99999,9",,,,"00,99,1,99,9,99,9,99999,9,99,9,99,9","10100,1,99999,9",,,,"MET048METAR SKSA 092100Z 26004KT 9999 NSC 30/23 Q1010=",
"80222599999","2023-09-09T22:00:00","4","6.95","-71.85","213.0","LOS COLONIZADORES, CO","FM-15","99999","V020","280,1,N,0015,1","22000,1,9,N","009999,1,9,9","+0290,1","+0230,1","99999,9",,,,"00,99,1,99,9,99,9,99999,9,99,9,99,9","10090,1,99999,9",,,,"MET048METAR SKSA 092200Z 28003KT 9999 NSC 29/23 Q1009=",
"80222599999","2023-09-09T23:00:00","4","6.95","-71.85","213.0","LOS COLONIZADORES, CO","FM-15","99999","V020","240,1,N,0015,1","22000,1,9,N","009999,1,9,9","+0260,1","+0230,1","99999,9",,,,"00,99,1,99,9,99,9,99999,9,99,9,99,9","10090,1,99999,9",,,,"MET048METAR SKSA 092300Z 24003KT 9999 NSC 26/23 Q1009=",
"80222599999","2023-09-10T12:00:00","4","6.95","-71.85","213.0","LOS COLONIZADORES, CO","FM-15","99999","V020","999,9,C,0000,1","22000,1,9,N","009999,1,9,9","+0230,1","+0220,1","99999,9",,,,"00,99,1,99,9,99,9,99999,9,99,9,99,9","10110,1,99999,9",,,,"MET048METAR SKSA 101200Z 00000KT 9999 NSC 23/22 Q1011=",
"80222599999","2023-09-10T15:00:00","4","6.95","-71.85","213.0","LOS COLONIZADORES, CO","FM-15","99999","V020","999,9,C,0000,1","22000,1,9,N","009999,1,9,9","+0300,1","+0220,1","99999,9",,,,"00,99,1,99,9,99,9,99999,9,99,9,99,9","10140,1,99999,9",,,,"MET048METAR SKSA 101500Z 00000KT 9999 NSC 30/22 Q1014=",
"80222599999","2023-09-10T16:00:00","4","6.95","-71.85","213.0","LOS COLONIZADORES, CO","FM-15","99999","V020","999,9,V,0010,1","22000,1,9,N","009999,1,9,9","+0310,1","+0220,1","99999,9",,,,"00,99,1,99,9,99,9,99999,9,99,9,99,9","10140,1,99999,9",,,,"MET048METAR SKSA 101600Z VRB02KT 9999 NSC 31/22 Q1014=",
"80222599999","2023-09-10T17:00:00","4","6.95","-71.85","213.0","LOS COLONIZADORES, CO","FM-15","99999","V020","350,1,N,0015,1","22000,1,9,N","009999,1,9,9","+0300,1","+0220,1","99999,9",,,,"00,99,1,99,9,99,9,99999,9,99,9,99,9","10130,1,99999,9",,,,"MET048METAR SKSA 101700Z 35003KT 9999 NSC 30/22 Q1013=",
"80222599999","2023-09-10T19:00:00","4","6.95","-71.85","213.0","LOS COLONIZADORES, CO","FM-15","99999","V020","320,1,N,0021,1","22000,1,9,N","009999,1,9,9","+0320,1","+0220,1","99999,9",,,,"00,99,1,99,9,99,9,99999,9,99,9,99,9","10130,1,99999,9",,,,"MET048METAR SKSA 101900Z 32004KT 9999 NSC 32/22 Q1013=",
"80222599999","2023-09-10T20:00:00","4","6.95","-71.85","213.0","LOS COLONIZADORES, CO","FM-15","99999","V020","050,1,N,0015,1","22000,1,9,N","009999,1,9,9","+0320,1","+0230,1","99999,9",,,,"00,99,1,99,9,99,9,99999,9,99,9,99,9","10090,2,99999,9",,,,"MET048METAR SKSA 102000Z 05003KT 9999 NSC 32/23 Q1009=",
"80222599999","2023-09-10T21:00:00","4","6.95","-71.85","213.0","LOS COLONIZADORES, CO","FM-15","99999","V020","050,1,N,0015,1","22000,1,9,N","009999,1,9,9","+0320,1","+0230,1","99999,9",,,,"00,99,1,99,9,99,9,99999,9,99,9,99,9","10090,1,99999,9",,,,"MET048METAR SKSA 102100Z 05003KT 9999 NSC 32/23 Q1009=",
"80222599999","2023-09-10T22:00:00","4","6.95","-71.85","213.0","LOS COLONIZADORES, CO","FM-15","99999","V020","999,9,C,0000,1","22000,1,9,N","009999,1,9,9","+0310,1","+0230,1","99999,9",,,,"00,99,1,99,9,99,9,99999,9,99,9,99,9","10090,1,99999,9",,,,"MET048METAR SKSA 102200Z 00000KT 9999 NSC 31/23 Q1009=",
"80222599999","2023-09-10T23:00:00","4","6.95","-71.85","213.0","LOS COLONIZADORES, CO","FM-15","99999","V020","999,9,C,0000,1","22000,1,9,N","009999,1,9,9","+0260,1","+0240,1","99999,9",,,,"00,99,1,99,9,99,9,99999,9,99,9,99,9","10100,1,99999,9",,,,"MET048METAR SKSA 102300Z 00000KT 9999 NSC 26/24 Q1010=",
"80222599999","2023-09-11T11:00:00","4","6.95","-71.85","213.0","LOS COLONIZADORES, CO","FM-15","99999","V020","999,9,C,0000,1","22000,1,9,N","009999,1,9,9","+0220,1","+0220,1","99999,9",,,,"00,99,1,99,9,99,9,99999,9,99,9,99,9","10120,1,99999,9",,,,"MET048METAR SKSA 111100Z 00000KT 9999 NSC 22/22 Q1012=",
"80222599999","2023-09-11T12:00:00","4","6.95","-71.85","213.0","LOS COLONIZADORES, CO","FM-15","99999","V020","999,9,C,0000,1","22000,1,9,N","009999,1,9,9","+0220,1","+0220,1","99999,9",,,,"00,99,1,99,9,99,9,99999,9,99,9,99,9","10130,1,99999,9",,,,"MET048METAR SKSA 111200Z 00000KT 9999 NSC 22/22 Q1013=",
"80222599999","2023-09-11T13:00:00","4","6.95","-71.85","213.0","LOS COLONIZADORES, CO","FM-15","99999","V020","330,1,N,0015,1","22000,1,9,N","009999,1,9,9","+0270,1","+0230,1","99999,9",,,,"00,99,1,99,9,99,9,99999,9,99,9,99,9","10140,1,99999,9",,,,"MET048METAR SKSA 111300Z 33003KT 9999 NSC 27/23 Q1014=",
"80222599999","2023-09-11T15:00:00","4","6.95","-71.85","213.0","LOS COLONIZADORES, CO","FM-15","99999","V020","040,1,N,0021,1","22000,1,9,N","009999,1,9,9","+0310,1","+0230,1","99999,9",,,,"00,99,1,99,9,99,9,99999,9,99,9,99,9","10130,1,99999,9",,,,"MET048METAR SKSA 111500Z 04004KT 9999 NSC 31/23 Q1013=",
"80222599999","2023-09-11T16:00:00","4","6.95","-71.85","213.0","LOS COLONIZADORES, CO","FM-15","99999","V020","120,1,N,0015,1","22000,1,9,N","009999,1,9,9","+0320,1","+0230,1","99999,9",,,,"00,99,1,99,9,99,9,99999,9,99,9,99,9","10120,1,99999,9",,,,"MET048METAR SKSA 111600Z 12003KT 9999 NSC 32/23 Q1012=",
"80222599999","2023-09-11T18:00:00","4","6.95","-71.85","213.0","LOS COLONIZADORES, CO","FM-15","99999","V020","030,1,N,0021,1","22000,1,9,N","009999,1,9,9","+0330,1","+0230,1","99999,9",,,,"00,99,1,99,9,99,9,99999,9,99,9,99,9","10100,1,99999,9",,,,"MET048METAR SKSA 111800Z 03004KT 9999 NSC 33/23 Q1010=",
"80222599999","2023-09-11T20:00:00","4","6.95","-71.85","213.0","LOS COLONIZADORES, CO","FM-15","99999","V020","280,1,N,0031,1","22000,1,9,N","009999,1,9,9","+0260,1","+0230,1","99999,9",,,,"00,99,1,99,9,99,9,99999,9,99,9,99,9","10090,1,99999,9",,,,"MET048METAR SKSA 112000Z 28006KT 9999 NSC 26/23 Q1009=",
"80222599999","2023-09-11T21:00:00","4","6.95","-71.85","213.0","LOS COLONIZADORES, CO","FM-15","99999","V020","300,1,N,0015,1","22000,1,9,N","009999,1,9,9","+0310,1","+0250,1","99999,9",,,,"00,99,1,99,9,99,9,99999,9,99,9,99,9","10090,1,99999,9",,,,"MET048METAR SKSA 112100Z 30003KT 9999 NSC 31/25 Q1009=",
"80222599999","2023-09-11T22:00:00","4","6.95","-71.85","213.0","LOS COLONIZADORES, CO","FM-15","99999","V020","999,9,C,0000,1","22000,1,9,N","009999,1,9,9","+0310,1","+0250,1","99999,9",,,,"00,99,1,99,9,99,9,99999,9,99,9,99,9","10090,1,99999,9",,,,"MET048METAR SKSA 112200Z 00000KT 9999 NSC 31/25 Q1009=",
"80222599999","2023-09-12T16:00:00","4","6.95","-71.85","213.0","LOS COLONIZADORES, CO","FM-15","99999","V020","060,1,N,0031,1","22000,1,9,N","009999,1,9,9","+0320,1","+0230,1","99999,9",,,,"00,99,1,99,9,99,9,99999,9,99,9,99,9","10120,1,99999,9",,,,"MET048METAR SKSA 121600Z 06006KT 9999 NSC 32/23 Q1012=",
"80222599999","2023-09-12T17:00:00","4","6.95","-71.85","213.0","LOS COLONIZADORES, CO","FM-15","99999","V020","120,1,N,0041,1","01219,1,C,N","009999,1,9,9","+0320,1","+0240,1","99999,9","07,1,+01219,1,99,9",,"9,AGL   ,+99999,+99999","99,99,9,07,1,99,9,01219,1,99,9,99,9","10100,1,99999,9",,,"0072,1","MET066METAR SKSA 121700Z 12008G14KT 9999 BKN040 32/24 Q1010 RMK VCSH/SW=",
"80222599999","2023-09-12T18:00:00","4","6.95","-71.85","213.0","LOS COLONIZADORES, CO","FM-15","99999","V020","180,1,N,0072,1","01219,1,C,N","009999,1,9,9","+0280,1","+0230,1","99999,9","07,1,+01219,1,99,9",,"9,AGL   ,+99999,+99999","99,99,9,07,1,99,9,01219,1,99,9,99,9","10090,1,99999,9",,,,"MET062METAR SKSA 121800Z 18014KT 9999 BKN040 28/23 Q1009 RMK VCSH/W=",
"80222599999","2023-09-12T19:00:00","4","6.95","-71.85","213.0","LOS COLONIZADORES, CO","FM-15","99999","V020","130,1,N,0021,1","22000,1,9,N","009999,1,9,9","+0280,1","+0240,1","99999,9",,,,"00,99,1,99,9,99,9,99999,9,99,9,99,9","10100,1,99999,9",,,,"MET048METAR SKSA 121900Z 13004KT 9999 NSC 28/24 Q1010=",
"80222599999","2023-09-12T20:00:00","4","6.95","-71.85","213.0","LOS COLONIZADORES, CO","FM-15","99999","V020","160,1,N,0031,1","22000,1,9,N","009999,1,9,9","+0280,1","+0240,1","99999,9",,,,"00,99,1,99,9,99,9,99999,9,99,9,99,9","10080,1,99999,9",,,,"MET048METAR SKSA 122000Z 16006KT 9999 NSC 28/24 Q1008=",
"80222599999","2023-09-12T21:00:00","4","6.95","-71.85","213.0","LOS COLONIZADORES, CO","FM-15","99999","V020","160,1,N,0031,1","22000,1,9,N","009999,1,9,9","+0280,1","+0230,1","99999,9",,,,"00,99,1,99,9,99,9,99999,9,99,9,99,9","10080,1,99999,9",,,,"MET048METAR SKSA 122100Z 16006KT 9999 NSC 28/23 Q1008=",
"80222599999","2023-09-12T22:00:00","4","6.95","-71.85","213.0","LOS COLONIZADORES, CO","FM-15","99999","V020","110,1,N,0015,1","22000,1,9,N","009999,1,9,9","+0280,1","+0240,1","99999,9",,,,"00,99,1,99,9,99,9,99999,9,99,9,99,9","10090,1,99999,9",,,,"MET048METAR SKSA 122200Z 11003KT 9999 NSC 28/24 Q1009=",
"80222599999","2023-09-13T12:00:00","4","6.95","-71.85","213.0","LOS COLONIZADORES, CO","FM-15","99999","V020","310,1,N,0021,1","22000,1,9,N","009999,1,9,9","+0250,1","+0210,1","99999,9",,,,"00,99,1,99,9,99,9,99999,9,99,9,99,9","10130,1,99999,9",,,,"MET048METAR SKSA 131200Z 31004KT 9999 NSC 25/21 Q1013=",
"80222599999","2023-09-13T13:00:00","4","6.95","-71.85","213.0","LOS COLONIZADORES, CO","FM-15","99999","V020","320,1,N,0015,1","22000,1,9,N","009999,1,9,9","+0260,1","+0220,1","99999,9",,,,"00,99,1,99,9,99,9,99999,9,99,9,99,9","10140,1,99999,9",,,,"MET048METAR SKSA 131300Z 32003KT 9999 NSC 26/22 Q1014=",
"80222599999","2023-09-13T14:00:00","4","6.95","-71.85","213.0","LOS COLONIZADORES, CO","FM-15","99999","V020","999,9,V,0010,1","22000,1,9,N","009999,1,9,9","+0290,1","+0220,1","99999,9",,,,"00,99,1,99,9,99,9,99999,9,99,9,99,9","10140,1,99999,9",,,,"MET048METAR SKSA 131400Z VRB02KT 9999 NSC 29/22 Q1014=",
"80222599999","2023-09-13T15:00:00","4","6.95","-71.85","213.0","LOS COLONIZADORES, CO","FM-15","99999","V020","170,1,N,0021,1","99999,9,9,N","009999,1,9,9","+0310,5","+0230,5","99999,9",,,,,"10140,5,99999,9",,,,"MET048METAR SKSA 131500Z 17004KT 9999 SCK 31/23 Q1014=","D01      0ADE693D02      0ADE539"
"80222599999","2023-09-13T16:00:00","4","6.95","-71.85","213.0","LOS COLONIZADORES, CO","FM-15","99999","V020","999,9,V,0010,1","99999,9,9,N","009999,1,9,9","+0310,5","+0220,5","99999,9",,,,,"10140,5,99999,9",,,,"MET048METAR SKSA 131600Z VRB02KT 9999 SCK 31/22 Q1014=","D01      0ADE693D02      0ADE539"
"80222599999","2023-09-13T18:00:00","4","6.95","-71.85","213.0","LOS COLONIZADORES, CO","FM-15","99999","V020","999,9,V,0010,1","99999,9,9,N","009999,1,9,9","+0310,1","+0230,1","99999,9","04,1,+02743,1,99,9",,"9,AGL   ,+99999,+99999","99,99,9,04,1,99,9,02743,1,99,9,99,9","10110,1,99999,9",,,,"MET051METAR SKSA 131800Z VRB02KT 9999 SCT090 31/23 Q1011=",
"80222599999","2023-09-13T19:00:00","4","6.95","-71.85","213.0","LOS COLONIZADORES, CO","FM-15","99999","V020","999,9,V,0010,1","99999,9,9,N","009999,1,9,9","+0340,1","+0240,1","99999,9","04,1,+02743,1,99,9",,"9,AGL   ,+99999,+99999","99,99,9,04,1,99,9,02743,1,99,9,99,9","10090,1,99999,9",,,,"MET051METAR SKSA 131900Z VRB02KT 9999 SCT090 34/24 Q1009=",
"80222599999","2023-09-13T20:00:00","4","6.95","-71.85","213.0","LOS COLONIZADORES, CO","FM-15","99999","V020","999,9,V,0010,1","99999,9,9,N","009999,1,9,9","+0330,1","+0220,1","99999,9","04,1,+02134,1,99,9",,"9,AGL   ,+99999,+99999","99,99,9,04,1,99,9,02134,1,99,9,99,9","10080,1,99999,9",,,,"MET051METAR SKSA 132000Z VRB02KT 9999 SCT070 33/22 Q1008=",
"80222599999","2023-09-13T21:00:00","4","6.95","-71.85","213.0","LOS COLONIZADORES, CO","FM-15","99999","V020","999,9,V,0010,1","99999,9,9,N","009999,1,9,9","+0320,1","+0230,1","99999,9","04,1,+02134,1,99,9",,"9,AGL   ,+99999,+99999","99,99,9,04,1,99,9,02134,1,99,9,99,9","10080,1,99999,9",,,,"MET051METAR SKSA 132100Z VRB02KT 9999 SCT070 32/23 Q1008=",
"80222599999","2023-09-13T22:00:00","4","6.95","-71.85","213.0","LOS COLONIZADORES, CO","FM-15","99999","V020","999,9,V,0010,1","22000,1,9,N","009999,1,9,9","+0330,1","+0220,1","99999,9",,,,"00,99,1,99,9,99,9,99999,9,99,9,99,9","10070,1,99999,9",,,,"MET048METAR SKSA 132200Z VRB02KT 9999 NSC 33/22 Q1007=",
"80222599999","2023-09-13T23:00:00","4","6.95","-71.85","213.0","LOS COLONIZADORES, CO","FM-15","99999","V020","999,9,V,0010,1","22000,1,9,N","009999,1,9,9","+0280,1","+0220,1","99999,9",,,,"00,99,1,99,9,99,9,99999,9,99,9,99,9","10080,1,99999,9",,,,"MET048METAR SKSA 132300Z VRB02KT 9999 NSC 28/22 Q1008=",
"80222599999","2023-09-14T11:00:00","4","6.95","-71.85","213.0","LOS COLONIZADORES, CO","FM-15","99999","V020","999,9,V,0010,1","99999,9,9,N","009999,1,9,9","+0240,1","+0230,1","99999,9","04,1,+00914,1,99,9",,"9,AGL   ,+99999,+99999","99,99,9,04,1,99,9,00914,1,99,9,99,9","10120,1,99999,9",,,,"MET051METAR SKSA 141100Z VRB02KT 9999 SCT030 24/23 Q1012=",
"80222599999","2023-09-14T15:00:00","4","6.95","-71.85","213.0","LOS COLONIZADORES, CO","FM-15","99999","V020","280,1,N,0031,1","22000,1,9,N","009999,1,9,9","+0300,1","+0220,1","99999,9",,,,"00,99,1,99,9,99,9,99999,9,99,9,99,9","10140,1,99999,9",,,,"MET048METAR SKSA 141500Z 28006KT 9999 NSC 30/22 Q1014=",
"80222599999","2023-09-14T16:00:00","4","6.95","-71.85","213.0","LOS COLONIZADORES, CO","FM-15","99999","V020","310,1,N,0015,1","99999,9,9,N","009999,1,9,9","+0310,1","+0230,1","99999,9","02,1,+02743,1,99,9",,"9,AGL   ,+99999,+99999","99,99,9,02,1,99,9,02743,1,99,9,99,9","10130,1,99999,9","16,1",,,"MET067METAR SKSA 141600Z 31003KT 9999 VCSH FEW090 31/23 Q1013 RMK VCSH S=",
"80222599999","2023-09-14T17:00:00","4","6.95","-71.85","213.0","LOS COLONIZADORES, CO","FM-15","99999","V020","999,9,V,0010,1","99999,9,9,N","009999,1,9,9","+0310,1","+0240,1","99999,9","04,1,+01219,1,99,9",,"9,AGL   ,+99999,+99999","99,99,9,04,1,99,9,01219,1,99,9,99,9","10120,1,99999,9","16,1",,,"MET070METAR SKSA 141700Z VRB02KT 9999 VCSH SCT040 31/24 Q1012 RMK VCSH W SW=",
"80222599999","2023-09-14T18:00:00","4","6.95","-71.85","213.0","LOS COLONIZADORES, CO","FM-15","99999","V020","320,1,N,0021,1","22000,1,9,N","009999,1,9,9","+0310,1","+0220,1","99999,9",,,,"00,99,1,99,9,99,9,99999,9,99,9,99,9","10120,1,99999,9","16,1",,,"MET064METAR SKSA 141800Z 32004KT 9999 VCSH NSC 31/22 Q1012 RMK VCSH W=",
"80222599999","2023-09-14T19:00:00","4","6.95","-71.85","213.0","LOS COLONIZADORES, CO","FM-15","99999","V020","190,1,N,0050,1","22000,1,9,N","009999,1,9,9","+0320,1","+0210,1","99999,9",,,,"00,99,1,99,9,99,9,99999,9,99,9,99,9","10090,1,99999,9","16,1",,,"MET063METAR SKSA 141900Z 19005 9999 VCSH NSC 32/21 Q1009 RMK VCSH SW=",
"80222599999","2023-09-14T20:00:00","4","6.95","-71.85","213.0","LOS COLONIZADORES, CO","FM-15","99999","V020","120,1,N,0015,1","02743,1,C,N","009999,1,9,9","+0300,1","+0230,1","99999,9","07,1,+02743,1,99,9",,"9,AGL   ,+99999,+99999","99,99,9,07,1,99,9,02743,1,99,9,99,9","10090,1,99999,9","16,1",,,"MET070METAR SKSA 142000Z 12003KT 9999 VCSH BKN090 30/23 Q1009 RMK VCSH E SE=",
"80222599999","2023-09-14T21:00:00","4","6.95","-71.85","213.0","LOS COLONIZADORES, CO","FM-15","99999","V020","200,1,N,0026,1","02743,1,C,N","009999,1,9,9","+0260,1","+0230,1","99999,9","08,1,+02743,1,99,9",,"9,AGL   ,+99999,+99999","99,99,9,08,1,99,9,02743,1,99,9,99,9","10100,1,99999,9","16,1",,,"MET072METAR SKSA 142100Z 20005KT 9999 VCSH OVC090 26/23 Q1010 RMK VCSH E S SE=",
"80222599999","2023-09-14T22:00:00","4","6.95","-71.85","213.0","LOS COLONIZADORES, CO","FM-15","99999","V020","140,1,N,0031,1","02743,1,C,N","009999,1,9,9","+0250,1","+0220,1","99999,9","08,1,+02743,1,99,9",,"9,AGL   ,+99999,+99999","99,99,9,08,1,99,9,02743,1,99,9,99,9","10100,1,99999,9","61,1",,,"MET071METAR SKSA 142200Z 14006KT 9999 -RA OVC090 25/22 Q1010 RMK VCSH E S SE=",
"80222599999","2023-09-14T23:00:00","4","6.95","-71.85","213.0","LOS COLONIZADORES, CO","FM-15","99999","V020","140,1,N,0031,1","99999,9,9,N","009999,1,9,9","+0240,1","+0240,1","99999,9","04,1,+02743,1,99,9",,"9,AGL   ,+99999,+99999","99,99,9,04,1,99,9,02743,1,99,9,99,9","10100,1,99999,9",,,,"MET051METAR SKSA 142300Z 14006KT 9999 SCT090 24/24 Q1010=",
"80222599999","2023-09-15T11:00:00","4","6.95","-71.85","213.0","LOS COLONIZADORES, CO","FM-15","99999","V020","999,9,V,0010,1","22000,1,9,N","009999,1,9,9","+0220,1","+0220,1","99999,9",,,,"00,99,1,99,9,99,9,99999,9,99,9,99,9","10110,1,99999,9",,,,"MET048METAR SKSA 151100Z VRB02KT 9999 NSC 22/22 Q1011=",
"80222599999","2023-09-15T12:00:00","4","6.95","-71.85","213.0","LOS COLONIZADORES, CO","FM-15","99999","V020","999,9,V,0010,1","22000,1,9,N","009999,1,9,9","+0250,1","+0220,1","99999,9",,,,"00,99,1,99,9,99,9,99999,9,99,9,99,9","10120,1,99999,9",,,,"MET048METAR SKSA 151200Z VRB02KT 9999 NSC 25/22 Q1012=",
"80222599999","2023-09-15T13:00:00","4","6.95","-71.85","213.0","LOS COLONIZADORES, CO","FM-15","99999","V020","999,9,V,0010,1","22000,1,9,N","009999,1,9,9","+0250,1","+0230,1","99999,9",,,,"00,99,1,99,9,99,9,99999,9,99,9,99,9","10130,1,99999,9",,,,"MET048METAR SKSA 151300Z VRB02KT 9999 NSC 25/23 Q1013=",
"80222599999","2023-09-15T14:00:00","4","6.95","-71.85","213.0","LOS COLONIZADORES, CO","FM-15","99999","V020","999,9,V,0010,1","22000,1,9,N","009999,1,9,9","+0290,1","+0230,1","99999,9",,,,"00,99,1,99,9,99,9,99999,9,99,9,99,9","10130,1,99999,9",,,,"MET048METAR SKSA 151400Z VRB02KT 9999 NSC 29/23 Q1013=",
"80222599999","2023-09-15T15:00:00","4","6.95","-71.85","213.0","LOS COLONIZADORES, CO","FM-15","99999","V020","999,9,V,0010,1","22000,1,9,N","009999,1,9,9","+0310,1","+0230,1","99999,9",,,,"00,99,1,99,9,99,9,99999,9,99,9,99,9","10130,1,99999,9",,,,"MET048METAR SKSA 151500Z VRB02KT 9999 NSC 31/23 Q1013=",
"80222599999","2023-09-15T16:00:00","4","6.95","-71.85","213.0","LOS COLONIZADORES, CO","FM-15","99999","V020","040,1,N,0021,1","22000,1,9,N","009999,1,9,9","+0310,1","+0230,1","99999,9",,,,"00,99,1,99,9,99,9,99999,9,99,9,99,9","10130,1,99999,9",,,,"MET048METAR SKSA 151600Z 04004KT 9999 NSC 31/23 Q1013=",
"80222599999","2023-09-15T17:00:00","4","6.95","-71.85","213.0","LOS COLONIZADORES, CO","FM-15","99999","V020","999,9,V,0010,1","99999,9,9,N","009999,1,9,9","+0320,5","+0230,5","99999,9",,,,,"10120,5,99999,9",,,,"MET048METAR SKSA 151700Z VRB02KT 9999 SCK 32/23 Q1012=","D01      0ADE693D02      0ADE539"
"80222599999","2023-09-15T18:00:00","4","6.95","-71.85","213.0","LOS COLONIZADORES, CO","FM-15","99999","V020","060,1,N,0036,1","99999,9,9,N","009999,1,9,9","+0330,5","+0240,5","99999,9",,,,,"10100,5,99999,9",,,,"MET048METAR SKSA 151800Z 06007KT 9999 SCK 33/24 Q1010=","D01      0ADE693D02      0ADE539"
"80222599999","2023-09-15T19:00:00","4","6.95","-71.85","213.0","LOS COLONIZADORES, CO","FM-15","99999","V020","010,1,N,0015,1","99999,9,9,N","009999,1,9,9","+0330,5","+0230,5","99999,9",,,,,"10090,5,99999,9",,,,"MET048METAR SKSA 151900Z 01003KT 9999 SCK 33/23 Q1009=","D01      0ADE693D02      0ADE539"
"80222599999","2023-09-15T20:00:00","4","6.95","-71.85","213.0","LOS COLONIZADORES, CO","FM-15","99999","V020","280,1,N,0051,1","99999,9,9,N","009999,1,9,9","+0280,1","+0200,1","99999,9","04,1,+01219,1,99,9",,"9,AGL   ,+99999,+99999","99,99,9,04,1,99,9,01219,1,99,9,99,9","10090,1,99999,9","16,1",,,"MET067METAR SKSA 152000Z 28010KT 9999 VCSH SCT040 28/20 Q1009 RMK VCSH W=",
"80222599999","2023-09-15T21:00:00","4","6.95","-71.85","213.0","LOS COLONIZADORES, CO","FM-15","99999","V020","270,1,N,0036,1","22000,1,9,N","009999,1,9,9","+0270,1","+0210,1","99999,9",,,,"00,99,1,99,9,99,9,99999,9,99,9,99,9","10080,1,99999,9","16,1",,,"MET064METAR SKSA 152100Z 27007KT 9999 VCSH NSC 27/21 Q1008 RMK VCSH W=",
"80222599999","2023-09-15T22:00:00","4","6.95","-71.85","213.0","LOS COLONIZADORES, CO","FM-15","99999","V020","290,1,N,0015,1","22000,1,9,N","009999,1,9,9","+0280,1","+0230,1","99999,9",,,,"00,99,1,99,9,99,9,99999,9,99,9,99,9","10080,1,99999,9",,,,"MET048METAR SKSA 152200Z 29003KT 9999 NSC 28/23 Q1008=",
"80222599999","2023-09-15T23:00:00","4","6.95","-71.85","213.0","LOS COLONIZADORES, CO","FM-15","99999","V020","290,1,N,0015,1","99999,9,9,N","009999,1,9,9","+0270,1","+0230,1","99999,9","04,1,+01829,1,99,9",,"9,AGL   ,+99999,+99999","99,99,9,04,1,99,9,01829,1,99,9,99,9","10090,1,99999,9",,,,"MET051METAR SKSA 152300Z 29003KT 9999 SCT060 27/23 Q1009=",
"80222599999","2023-09-16T11:00:00","4","6.95","-71.85","213.0","LOS COLONIZADORES, CO","FM-15","99999","V020","999,9,V,0010,1","22000,1,9,N","009000,1,9,9","+0230,1","+0220,1","99999,9",,,,"00,99,1,99,9,99,9,99999,9,99,9,99,9","10120,1,99999,9","10,1",,,"MET051METAR SKSA 161100Z VRB02KT 9000 BR NSC 23/22 Q1012=",
"80222599999","2023-09-16T12:00:00","4","6.95","-71.85","213.0","LOS COLONIZADORES, CO","FM-15","99999","V020","999,9,V,0010,1","22000,1,9,N","009999,1,9,9","+0250,1","+0230,1","99999,9",,,,"00,99,1,99,9,99,9,99999,9,99,9,99,9","10120,1,99999,9",,,,"MET048METAR SKSA 161200Z VRB02KT 9999 NSC 25/23 Q1012=",
"80222599999","2023-09-16T13:00:00","4","6.95","-71.85","213.0","LOS COLONIZADORES, CO","FM-15","99999","V020","999,9,V,0010,1","22000,1,9,N","009999,1,9,9","+0260,1","+0220,1","99999,9",,,,"00,99,1,99,9,99,9,99999,9,99,9,99,9","10130,1,99999,9",,,,"MET048METAR SKSA 161300Z VRB02KT 9999 NSC 26/22 Q1013=",
"80222599999","2023-09-16T14:00:00","4","6.95","-71.85","213.0","LOS COLONIZADORES, CO","FM-15","99999","V020","999,9,V,0010,1","22000,1,9,N","009999,1,9,9","+0280,1","+0240,1","99999,9",,,,"00,99,1,99,9,99,9,99999,9,99,9,99,9","10130,1,99999,9",,,,"MET048METAR SKSA 161400Z VRB02KT 9999 NSC 28/24 Q1013=",
"80222599999","2023-09-16T15:00:00","4","6.95","-71.85","213.0","LOS COLONIZADORES, CO","FM-15","99999","V020","999,9,V,0010,1","22000,1,9,N","009999,1,9,9","+0310,1","+0230,1","99999,9",,,,"00,99,1,99,9,99,9,99999,9,99,9,99,9","10130,1,99999,9",,,,"MET048METAR SKSA 161500Z VRB02KT 9999 NSC 31/23 Q1013=",
"80222599999","2023-09-16T16:00:00","4","6.95","-71.85","213.0","LOS COLONIZADORES, CO","FM-15","99999","V020","999,9,V,0010,1","22000,1,9,N","009999,1,9,9","+0310,1","+0240,1","99999,9",,,,"00,99,1,99,9,99,9,99999,9,99,9,99,9","10120,1,99999,9",,,,"MET048METAR SKSA 161600Z VRB02KT 9999 SKC 31/24 Q1012=",
"80222599999","2023-09-16T18:00:00","4","6.95","-71.85","213.0","LOS COLONIZADORES, CO","FM-15","99999","V020","050,1,N,0021,1","22000,1,9,N","009999,1,9,9","+0330,1","+0230,1","99999,9",,,,"00,99,1,99,9,99,9,99999,9,99,9,99,9","10100,1,99999,9",,,,"MET048METAR SKSA 161800Z 05004KT 9999 SKC 33/23 Q1010=",
"80222599999","2023-09-16T19:00:00","4","6.95","-71.85","213.0","LOS COLONIZADORES, CO","FM-15","99999","V020","040,1,N,0015,1","22000,1,9,N","009999,1,9,9","+0330,1","+0220,1","99999,9",,,,"00,99,1,99,9,99,9,99999,9,99,9,99,9","10090,1,99999,9",,,,"MET048METAR SKSA 161900Z 04003KT 9999 NSC 33/22 Q1009=",
"80222599999","2023-09-16T20:00:00","4","6.95","-71.85","213.0","LOS COLONIZADORES, CO","FM-15","99999","V020","140,1,N,0021,1","22000,1,9,N","009999,1,9,9","+0330,1","+0230,1","99999,9",,,,"00,99,1,99,9,99,9,99999,9,99,9,99,9","10080,1,99999,9",,,,"MET048METAR SKSA 162000Z 14004KT 9999 NSC 33/23 Q1008=",
"80222599999","2023-09-16T21:00:00","4","6.95","-71.85","213.0","LOS COLONIZADORES, CO","FM-15","99999","V020","120,1,N,0026,1","22000,1,9,N","009999,1,9,9","+0330,1","+0230,1","99999,9",,,,"00,99,1,99,9,99,9,99999,9,99,9,99,9","10080,1,99999,9",,,,"MET048METAR SKSA 162100Z 12005KT 9999 SKC 33/23 Q1008=",
"80222599999","2023-09-16T22:00:00","4","6.95","-71.85","213.0","LOS COLONIZADORES, CO","FM-15","99999","V020","999,9,V,0010,1","22000,1,9,N","009999,1,9,9","+0330,1","+0230,1","99999,9",,,,"00,99,1,99,9,99,9,99999,9,99,9,99,9","10080,1,99999,9",,,,"MET048METAR SKSA 162200Z VRB02KT 9999 SKC 33/23 Q1008=",
"80222599999","2023-09-16T23:00:00","4","6.95","-71.85","213.0","LOS COLONIZADORES, CO","FM-15","99999","V020","999,9,C,0000,1","22000,1,9,N","009999,1,9,9","+0290,1","+0230,1","99999,9",,,,"00,99,1,99,9,99,9,99999,9,99,9,99,9","10080,1,99999,9",,,,"MET048METAR SKSA 162300Z 00000KT 9999 SKC 29/23 Q1008=",
"80222599999","2023-09-17T11:00:00","4","6.95","-71.85","213.0","LOS COLONIZADORES, CO","FM-15","99999","V020","999,9,V,0010,1","22000,1,9,N","009999,1,9,9","+0230,1","+0230,1","99999,9",,,,"00,99,1,99,9,99,9,99999,9,99,9,99,9","10120,1,99999,9",,,,"MET048METAR SKSA 171100Z VRB02KT 9999 NSC 23/23 Q1012=",
"80222599999","2023-09-17T12:00:00","4","6.95","-71.85","213.0","LOS COLONIZADORES, CO","FM-15","99999","V020","999,9,V,0010,1","22000,1,9,N","009999,1,9,9","+0260,1","+0230,1","99999,9",,,,"00,99,1,99,9,99,9,99999,9,99,9,99,9","10120,1,99999,9",,,,"MET048METAR SKSA 171200Z VRB02KT 9999 SKC 26/23 Q1012=",
"80222599999","2023-09-17T13:00:00","4","6.95","-71.85","213.0","LOS COLONIZADORES, CO","FM-15","99999","V020","999,9,V,0010,1","22000,1,9,N","009999,1,9,9","+0280,1","+0240,1","99999,9",,,,"00,99,1,99,9,99,9,99999,9,99,9,99,9","10130,1,99999,9",,,,"MET048METAR SKSA 171300Z VRB02KT 9999 SKC 28/24 Q1013=",
"80222599999","2023-09-17T14:00:00","4","6.95","-71.85","213.0","LOS COLONIZADORES, CO","FM-15","99999","V020","110,1,N,0015,1","22000,1,9,N","009999,1,9,9","+0300,1","+0230,1","99999,9",,,,"00,99,1,99,9,99,9,99999,9,99,9,99,9","10140,1,99999,9",,,,"MET048METAR SKSA 171400Z 11003KT 9999 NSC 30/23 Q1014=",
"80222599999","2023-09-17T16:00:00","4","6.95","-71.85","213.0","LOS COLONIZADORES, CO","FM-15","99999","V020","080,1,N,0031,1","02743,1,C,N","009999,1,9,9","+0310,1","+0240,1","99999,9","07,1,+02743,1,99,9",,"9,AGL   ,+99999,+99999","99,99,9,07,1,99,9,02743,1,99,9,99,9","10130,1,99999,9","16,1",,,"MET067METAR SKSA 171600Z 08006KT 9999 VCSH BKN090 31/24 Q1013 RMK VCSH E=",
"80222599999","2023-09-17T17:00:00","4","6.95","-71.85","213.0","LOS COLONIZADORES, CO","FM-15","99999","V020","140,1,N,0021,1","22000,1,9,N","009999,1,9,9","+0290,1","+0250,1","99999,9",,,,"00,99,1,99,9,99,9,99999,9,99,9,99,9","10120,1,99999,9",,,,"MET048METAR SKSA 171700Z 14004KT 9999 NSC 29/25 Q1012=",
"80222599999","2023-09-17T18:00:00","4","6.95","-71.85","213.0","LOS COLONIZADORES, CO","FM-15","99999","V020","130,1,N,0015,1","22000,1,9,N","009999,1,9,9","+0300,1","+0250,1","99999,9",,,,"00,99,1,99,9,99,9,99999,9,99,9,99,9","10110,1,99999,9",,,,"MET048METAR SKSA 171800Z 13003KT 9999 NSC 30/25 Q1011=",
"80222599999","2023-09-17T19:00:00","4","6.95","-71.85","213.0","LOS COLONIZADORES, CO","FM-15","99999","V020","010,1,N,0015,1","22000,1,9,N","009999,1,9,9","+0300,1","+0250,1","99999,9",,,,"00,99,1,99,9,99,9,99999,9,99,9,99,9","10100,1,99999,9",,,,"MET048METAR SKSA 171900Z 01003KT 9999 NSC 30/25 Q1010=",
"80222599999","2023-09-17T20:00:00","4","6.95","-71.85","213.0","LOS COLONIZADORES, CO","FM-15","99999","V020","010,1,N,0015,1","22000,1,9,N","009999,1,9,9","+0310,1","+0240,1","99999,9",,,,"00,99,1,99,9,99,9,99999,9,99,9,99,9","10100,1,99999,9",,,,"MET048METAR SKSA 172000Z 01003KT 9999 NSC 31/24 Q1010=",
"80222599999","2023-09-17T21:00:00","4","6.95","-71.85","213.0","LOS COLONIZADORES, CO","FM-15","99999","V020","030,1,N,0015,1","99999,9,9,N","009999,1,9,9","+0310,1","+0250,1","99999,9","04,1,+01067,1,99,9",,"9,AGL   ,+99999,+99999","99,99,9,04,1,99,9,01067,1,99,9,99,9","10110,1,99999,9",,,,"MET051METAR SKSA 172100Z 03003KT 9999 SCT035 31/25 Q1011=",
"80222599999","2023-09-17T22:00:00","4","6.95","-71.85","213.0","LOS COLONIZADORES, CO","FM-15","99999","V020","999,9,V,0010,1","22000,1,9,N","009999,1,9,9","+0290,1","+0250,1","99999,9",,,,"00,99,1,99,9,99,9,99999,9,99,9,99,9","10100,1,99999,9",,,,"MET048METAR SKSA 172200Z VRB02KT 9999 NSC 29/25 Q1010=",
"80222599999","2023-09-17T23:00:00","4","6.95","-71.85","213.0","LOS COLONIZADORES, CO","FM-15","99999","V020","999,9,V,0010,1","00610,1,C,N","009999,1,9,9","+0280,1","+0230,1","99999,9","07,1,+00610,1,99,9",,"9,AGL   ,+99999,+99999","99,99,9,07,1,99,9,00610,1,99,9,99,9","10100,1,99999,9","16,1",,,"MET067METAR SKSA 172300Z VRB02KT 9999 VCSH BKN020 28/23 Q1010 RMK VCSH E=",
"80222599999","2023-09-18T13:00:00","4","6.95","-71.85","213.0","LOS COLONIZADORES, CO","FM-15","99999","V020","999,9,V,0010,1","22000,1,9,N","009999,1,9,9","+0260,1","+0230,1","99999,9",,,,"00,99,1,99,9,99,9,99999,9,99,9,99,9","10130,1,99999,9",,,,"MET048METAR SKSA 181300Z VRB02KT 9999 NSC 26/23 Q1013=",
"80222599999","2023-09-18T14:00:00","4","6.95","-71.85","213.0","LOS COLONIZADORES, CO","FM-15","99999","V020","999,9,V,0010,1","22000,1,9,N","009999,1,9,9","+0270,1","+0230,1","99999,9",,,,"00,99,1,99,9,99,9,99999,9,99,9,99,9","10140,1,99999,9",,,,"MET048METAR SKSA 181400Z VRB02KT 9999 NSC 27/23 Q1014=",
"80222599999","2023-09-18T15:00:00","4","6.95","-71.85","213.0","LOS COLONIZADORES, CO","FM-15","99999","V020","999,9,V,0010,1","22000,1,9,N","009999,1,9,9","+0280,1","+0240,1","99999,9",,,,"00,99,1,99,9,99,9,99999,9,99,9,99,9","10140,1,99999,9",,,,"MET048METAR SKSA 181500Z VRB02KT 9999 NSC 28/24 Q1014=",
"80222599999","2023-09-18T16:00:00","4","6.95","-71.85","213.0","LOS COLONIZADORES, CO","FM-15","99999","V020","999,9,V,0010,1","22000,1,9,N","009999,1,9,9","+0290,1","+0240,1","99999,9",,,,"00,99,1,99,9,99,9,99999,9,99,9,99,9","10140,1,99999,9","10,1",,,"MET051METAR SKSA 181600Z VRB02KT 9999 BR NSC 29/24 Q1014=",
"80222599999","2023-09-18T17:00:00","4","6.95","-71.85","213.0","LOS COLONIZADORES, CO","FM-15","99999","V020","999,9,C,0000,1","22000,1,9,N","009999,1,9,9","+0300,1","+0230,1","99999,9",,,,"00,99,1,99,9,99,9,99999,9,99,9,99,9","10130,1,99999,9","10,1",,,"MET051METAR SKSA 181700Z 00000KT 9999 BR NSC 30/23 Q1013=",
"80222599999","2023-09-18T18:00:00","4","6.95","-71.85","213.0","LOS COLONIZADORES, CO","FM-15","99999","V020","050,1,N,0021,1","22000,1,9,N","009999,1,9,9","+0310,1","+0240,1","99999,9",,,,"00,99,1,99,9,99,9,99999,9,99,9,99,9","10120,1,99999,9",,,,"MET048METAR SKSA 181800Z 05004KT 9999 NSC 31/24 Q1012=",
"80222599999","2023-09-18T19:00:00","4","6.95","-71.85","213.0","LOS COLONIZADORES, CO","FM-15","99999","V020","999,9,V,0010,1","22000,1,9,N","009999,1,9,9","+0320,1","+0220,1","99999,9",,,,"00,99,1,99,9,99,9,99999,9,99,9,99,9","10100,1,99999,9",,,,"MET048METAR SKSA 181900Z VRB02KT 9999 NSC 32/22 Q1010=",
"80222599999","2023-09-18T20:00:00","4","6.95","-71.85","213.0","LOS COLONIZADORES, CO","FM-15","99999","V020","999,9,V,0010,1","22000,1,9,N","009999,1,9,9","+0320,1","+0220,1","99999,9",,,,"00,99,1,99,9,99,9,99999,9,99,9,99,9","10090,1,99999,9",,,,"MET048METAR SKSA 182000Z VRB02KT 9999 NSC 32/22 Q1009=",
"80222599999","2023-09-18T21:00:00","4","6.95","-71.85","213.0","LOS COLONIZADORES, CO","FM-15","99999","V020","999,9,V,0010,1","22000,1,9,N","009999,1,9,9","+0320,1","+0220,1","99999,9",,,,"00,99,1,99,9,99,9,99999,9,99,9,99,9","10090,1,99999,9",,,,"MET048METAR SKSA 182100Z VRB02KT 9999 NSC 32/22 Q1009=",
"80222599999","2023-09-18T22:00:00","4","6.95","-71.85","213.0","LOS COLONIZADORES, CO","FM-15","99999","V020","080,1,N,0051,1","99999,9,9,N","999999,9,9,9","+0290,5","+0230,5","99999,9",,,,,"10100,5,99999,9","16,1",,,"MET067METAR SKSA 182200Z 08010KT VCSH 9999 BKN030 29/23 Q1010 RMK VCSH W=","D01      0ADE693D02      0ADE539"
"80222599999","2023-09-19T11:00:00","4","6.95","-71.85","213.0","LOS COLONIZADORES, CO","FM-15","99999","V020","999,9,V,0010,1","22000,1,9,N","009999,1,9,9","+0220,1","+0220,1","99999,9",,,,"00,99,1,99,9,99,9,99999,9,99,9,99,9","10120,1,99999,9",,,,"MET048METAR SKSA 191100Z VRB02KT 9999 NSC 22/22 Q1012=",
"80222599999","2023-09-19T12:00:00","4","6.95","-71.85","213.0","LOS COLONIZADORES, CO","FM-15","99999","V020","999,9,V,0010,1","22000,1,9,N","009999,1,9,9","+0230,1","+0230,1","99999,9",,,,"00,99,1,99,9,99,9,99999,9,99,9,99,9","10130,1,99999,9",,,,"MET048METAR SKSA 191200Z VRB02KT 9999 NSC 23/23 Q1013=",
"80222599999","2023-09-19T13:00:00","4","6.95","-71.85","213.0","LOS COLONIZADORES, CO","FM-15","99999","V020","350,1,N,0015,1","22000,1,9,N","009999,1,9,9","+0260,1","+0210,1","99999,9",,,,"00,99,1,99,9,99,9,99999,9,99,9,99,9","10140,1,99999,9",,,,"MET048METAR SKSA 191300Z 35003KT 9999 NSC 26/21 Q1014=",
"80222599999","2023-09-23T15:00:00","4","6.95","-71.85","213.0","LOS COLONIZADORES, CO","FM-15","99999","V020","030,1,N,0015,1","22000,1,9,N","009999,1,9,9","+0290,1","+0220,1","99999,9",,,,"00,99,1,99,9,99,9,99999,9,99,9,99,9","10130,1,99999,9",,,,"MET048METAR SKSA 231500Z 03003KT 9999 NSC 29/22 Q1013=",
"80222599999","2023-09-23T18:00:00","4","6.95","-71.85","213.0","LOS COLONIZADORES, CO","FM-15","99999","V020","110,1,N,0021,1","99999,9,9,N","009999,1,9,9","+0310,1","+0210,1","99999,9","04,1,+01829,1,99,9",,"9,AGL   ,+99999,+99999","99,99,9,04,1,99,9,01829,1,99,9,99,9","10110,1,99999,9",,,,"MET051METAR SKSA 231800Z 11004KT 9999 SCT060 31/21 Q1011=",
"80222599999","2023-09-25T17:00:00","4","6.95","-71.85","213.0","LOS COLONIZADORES, CO","FM-15","99999","V020","060,1,N,0015,1","99999,9,9,N","009999,1,9,9","+0310,1","+0240,1","99999,9","02,1,+01219,1,99,9",,"9,AGL   ,+99999,+99999","99,99,9,02,1,99,9,01219,1,99,9,99,9","10130,1,99999,9",,,,"MET051METAR SKSA 251700Z 06003KT 9999 FEW040 31/24 Q1013=",
"80222599999","2023-09-25T18:00:00","4","6.95","-71.85","213.0","LOS COLONIZADORES, CO","FM-15","99999","V020","140,1,N,0015,1","99999,9,9,N","009999,1,9,9","+0310,1","+0240,1","99999,9","04,1,+01219,1,99,9",,"9,AGL   ,+99999,+99999","99,99,9,04,1,99,9,01219,1,99,9,99,9","10120,1,99999,9",,,,"MET051METAR SKSA 251800Z 14003KT 9999 SCT040 31/24 Q1012=",
"80222599999","2023-09-26T18:00:00","4","6.95","-71.85","213.0","LOS COLONIZADORES, CO","FM-15","99999","V020","140,1,N,0021,1","22000,1,9,N","009999,1,9,9","+0330,1","+0230,1","99999,9",,,,"00,99,1,99,9,99,9,99999,9,99,9,99,9","10100,1,99999,9",,,,"MET048METAR SKSA 261800Z 14004KT 9999 NSC 33/23 Q1010=",
"80222599999","2023-09-26T19:00:00","4","6.95","-71.85","213.0","LOS COLONIZADORES, CO","FM-15","99999","V020","060,1,N,0015,1","22000,1,9,N","009999,1,9,9","+0340,1","+0230,1","99999,9",,,,"00,99,1,99,9,99,9,99999,9,99,9,99,9","10090,1,99999,9",,,,"MET048METAR SKSA 261900Z 06003KT 9999 NSC 34/23 Q1009=",
"80222599999","2023-09-26T20:00:00","4","6.95","-71.85","213.0","LOS COLONIZADORES, CO","FM-15","99999","V020","999,9,C,0000,1","22000,1,9,N","009999,1,9,9","+0340,1","+0230,1","99999,9",,,,"00,99,1,99,9,99,9,99999,9,99,9,99,9","10090,1,99999,9",,,,"MET048METAR SKSA 262000Z 00000KT 9999 NSC 34/23 Q1009=",
"80222599999","2023-09-26T21:00:00","4","6.95","-71.85","213.0","LOS COLONIZADORES, CO","FM-15","99999","V020","999,9,N,9999,9","99999,9,9,N","011265,5,9,9","+0330,5","+0230,5","99999,9",,,,,"10080,5,99999,9",,,,"MET047METAR SKSA 262100Z 2004KT 9999 NSC 33/23 Q1008=","D01      0ADE693D02      0ADE539"
"80222599999","2023-09-26T22:00:00","4","6.95","-71.85","213.0","LOS COLONIZADORES, CO","FM-15","99999","V020","210,1,N,0015,1","22000,1,9,N","009999,1,9,9","+0330,1","+0230,1","99999,9",,,,"00,99,1,99,9,99,9,99999,9,99,9,99,9","10080,1,99999,9",,,,"MET048METAR SKSA 262200Z 21003KT 9999 NSC 33/23 Q1008=",
"80222599999","2023-09-26T23:00:00","4","6.95","-71.85","213.0","LOS COLONIZADORES, CO","FM-15","99999","V020","240,1,N,0021,1","22000,1,9,N","009999,1,9,9","+0280,1","+0230,1","99999,9",,,,"00,99,1,99,9,99,9,99999,9,99,9,99,9","10080,1,99999,9",,,,"MET048METAR SKSA 262300Z 24004KT 9999 NSC 28/23 Q1008=",
"80222599999","2023-09-27T11:00:00","4","6.95","-71.85","213.0","LOS COLONIZADORES, CO","FM-15","99999","V020","040,1,N,0015,1","22000,1,9,N","009999,1,9,9","+0240,1","+0230,1","99999,9",,,,"00,99,1,99,9,99,9,99999,9,99,9,99,9","10100,1,99999,9",,,,"MET048METAR SKSA 271100Z 04003KT 9999 NSC 24/23 Q1010=",
"80222599999","2023-09-27T12:00:00","4","6.95","-71.85","213.0","LOS COLONIZADORES, CO","FM-15","99999","V020","040,1,N,0015,1","22000,1,9,N","009999,1,9,9","+0260,1","+0230,1","99999,9",,,,"00,99,1,99,9,99,9,99999,9,99,9,99,9","10100,1,99999,9",,,,"MET048METAR SKSA 271200Z 04003KT 9999 NSC 26/23 Q1010=",
"80222599999","2023-09-27T13:00:00","4","6.95","-71.85","213.0","LOS COLONIZADORES, CO","FM-15","99999","V020","999,9,C,0000,1","22000,1,9,N","009999,1,9,9","+0270,1","+0230,1","99999,9",,,,"00,99,1,99,9,99,9,99999,9,99,9,99,9","10100,1,99999,9",,,,"MET048METAR SKSA 271300Z 00000KT 9999 NSC 27/23 Q1010=",
"80222599999","2023-09-27T14:00:00","4","6.95","-71.85","213.0","LOS COLONIZADORES, CO","FM-15","99999","V020","020,1,N,0015,1","22000,1,9,N","009999,1,9,9","+0280,1","+0250,1","99999,9",,,,"00,99,1,99,9,99,9,99999,9,99,9,99,9","10120,1,99999,9",,,,"MET048METAR SKSA 271400Z 02003KT 9999 NSC 28/25 Q1012=",
"80222599999","2023-09-27T15:00:00","4","6.95","-71.85","213.0","LOS COLONIZADORES, CO","FM-15","99999","V020","360,1,N,0015,1","22000,1,9,N","009999,1,9,9","+0290,1","+0250,1","99999,9",,,,"00,99,1,99,9,99,9,99999,9,99,9,99,9","10120,1,99999,9",,,,"MET048METAR SKSA 271500Z 36003KT 9999 NSC 29/25 Q1012=",
"80222599999","2023-09-27T16:00:00","4","6.95","-71.85","213.0","LOS COLONIZADORES, CO","FM-15","99999","V020","999,9,C,0000,1","22000,1,9,N","009999,1,9,9","+0300,1","+0250,1","99999,9",,,,"00,99,1,99,9,99,9,99999,9,99,9,99,9","10120,1,99999,9",,,,"MET048METAR SKSA 271600Z 00000KT 9999 NSC 30/25 Q1012=",
"80222599999","2023-09-27T17:00:00","4","6.95","-71.85","213.0","LOS COLONIZADORES, CO","FM-15","99999","V020","999,9,C,0000,1","22000,1,9,N","009999,1,9,9","+0320,1","+0250,1","99999,9",,,,"00,99,1,99,9,99,9,99999,9,99,9,99,9","10120,1,99999,9",,,,"MET048METAR SKSA 271700Z 00000KT 9999 NSC 32/25 Q1012=",
"80222599999","2023-09-27T18:00:00","4","6.95","-71.85","213.0","LOS COLONIZADORES, CO","FM-15","99999","V020","290,1,N,0015,1","22000,1,9,N","009999,1,9,9","+0320,1","+0240,1","99999,9",,,,"00,99,1,99,9,99,9,99999,9,99,9,99,9","10090,1,99999,9",,,,"MET048METAR SKSA 271800Z 29003KT 9999 NSC 32/24 Q1009=",
"80222599999","2023-09-27T19:00:00","4","6.95","-71.85","213.0","LOS COLONIZADORES, CO","FM-15","99999","V020","999,9,C,0000,1","22000,1,9,N","009999,1,9,9","+0320,1","+0240,1","99999,9",,,,"00,99,1,99,9,99,9,99999,9,99,9,99,9","10090,1,99999,9",,,,"MET048METAR SKSA 271900Z 00000KT 9999 NSC 32/24 Q1009=",
"80222599999","2023-09-27T20:00:00","4","6.95","-71.85","213.0","LOS COLONIZADORES, CO","FM-15","99999","V020","999,9,C,0000,1","22000,1,9,N","009999,1,9,9","+0320,1","+0240,1","99999,9",,,,"00,99,1,99,9,99,9,99999,9,99,9,99,9","10090,1,99999,9",,,,"MET048METAR SKSA 272000Z 00000KT 9999 NSC 32/24 Q1009=",
"80222599999","2023-09-27T22:00:00","4","6.95","-71.85","213.0","LOS COLONIZADORES, CO","FM-15","99999","V020","360,1,N,0015,1","22000,1,9,N","009999,1,9,9","+0310,1","+0250,1","99999,9",,,,"00,99,1,99,9,99,9,99999,9,99,9,99,9","10060,1,99999,9",,,,"MET048METAR SKSA 272200Z 36003KT 9999 NSC 31/25 Q1006=",
"80222599999","2023-09-27T23:00:00","4","6.95","-71.85","213.0","LOS COLONIZADORES, CO","FM-15","99999","V020","270,1,N,0015,1","22000,1,9,N","009999,1,9,9","+0270,1","+0250,1","99999,9",,,,"00,99,1,99,9,99,9,99999,9,99,9,99,9","10060,1,99999,9",,,,"MET048METAR SKSA 272300Z 27003KT 9999 NSC 27/25 Q1006=",
"80222599999","2023-09-28T11:00:00","4","6.95","-71.85","213.0","LOS COLONIZADORES, CO","FM-15","99999","V020","300,1,N,0015,1","99999,9,9,N","009999,1,9,9","+0220,1","+0220,1","99999,9","04,1,+02438,1,99,9",,"9,AGL   ,+99999,+99999","99,99,9,04,1,99,9,02438,1,99,9,99,9","10110,1,99999,9",,,,"MET051METAR SKSA 281100Z 30003KT 9999 SCT080 22/22 Q1011=",
"80222599999","2023-09-28T13:00:00","4","6.95","-71.85","213.0","LOS COLONIZADORES, CO","FM-15","99999","V020","999,9,C,0000,1","99999,9,9,N","009999,1,9,9","+0260,1","+0220,1","99999,9","04,1,+02438,1,99,9",,"9,AGL   ,+99999,+99999","99,99,9,04,1,99,9,02438,1,99,9,99,9","10100,1,99999,9",,,,"MET051METAR SKSA 281300Z 00000KT 9999 SCT080 26/22 Q1010=",
"80222599999","2023-09-28T14:00:00","4","6.95","-71.85","213.0","LOS COLONIZADORES, CO","FM-15","99999","V020","330,1,N,0021,1","99999,9,9,N","009999,1,9,9","+0300,1","+0230,1","99999,9","04,1,+02134,1,99,9",,"9,AGL   ,+99999,+99999","99,99,9,04,1,99,9,02134,1,99,9,99,9","10090,1,99999,9",,,,"MET051METAR SKSA 281400Z 33004KT 9999 SCT070 30/23 Q1009=",
"80222599999","2023-09-28T18:00:00","4","6.95","-71.85","213.0","LOS COLONIZADORES, CO","FM-15","99999","V020","010,1,N,0021,1","22000,1,9,N","009999,1,9,9","+0320,1","+0220,1","99999,9",,,,"00,99,1,99,9,99,9,99999,9,99,9,99,9","10080,1,99999,9",,,,"MET048METAR SKSA 281800Z 01004KT 9999 NSC 32/22 Q1008=",
"80222599999","2023-09-28T19:00:00","4","6.95","-71.85","213.0","LOS COLONIZADORES, CO","FM-15","99999","V020","080,1,N,0015,1","22000,1,9,N","009999,1,9,9","+0320,1","+0240,1","99999,9",,,,"00,99,1,99,9,99,9,99999,9,99,9,99,9","10070,1,99999,9",,,,"MET048METAR SKSA 281900Z 08003KT 9999 NSC 32/24 Q1007=",
"80222599999","2023-09-28T20:00:00","4","6.95","-71.85","213.0","LOS COLONIZADORES, CO","FM-15","99999","V020","210,1,N,0015,1","22000,1,9,N","009999,1,9,9","+0330,1","+0240,1","99999,9",,,,"00,99,1,99,9,99,9,99999,9,99,9,99,9","10070,1,99999,9",,,,"MET048METAR SKSA 282000Z 21003KT 9999 NSC 33/24 Q1007=",
"80222599999","2023-09-28T21:00:00","4","6.95","-71.85","213.0","LOS COLONIZADORES, CO","FM-15","99999","V020","060,1,N,0015,1","22000,1,9,N","009999,1,9,9","+0330,1","+0240,1","99999,9",,,,"00,99,1,99,9,99,9,99999,9,99,9,99,9","10070,1,99999,9",,,,"MET048METAR SKSA 282100Z 06003KT 9999 NSC 33/24 Q1007=",
"80222599999","2023-09-29T11:00:00","4","6.95","-71.85","213.0","LOS COLONIZADORES, CO","FM-15","99999","V020","300,1,N,0015,1","22000,1,9,N","009999,1,9,9","+0230,1","+0230,1","99999,9",,,,"00,99,1,99,9,99,9,99999,9,99,9,99,9","10100,1,99999,9",,,,"MET048METAR SKSA 291100Z 30003KT 9999 NSC 23/23 Q1010=",
"80222599999","2023-09-29T14:00:00","4","6.95","-71.85","213.0","LOS COLONIZADORES, CO","FM-15","99999","V020","350,1,N,0021,1","22000,1,9,N","009999,1,9,9","+0290,1","+0230,1","99999,9",,,,"00,99,1,99,9,99,9,99999,9,99,9,99,9","10110,1,99999,9",,,,"MET048METAR SKSA 291400Z 35004KT 9999 NSC 29/23 Q1011=",
"80222599999","2023-09-29T16:00:00","4","6.95","-71.85","213.0","LOS COLONIZADORES, CO","FM-15","99999","V020","999,9,C,0000,1","22000,1,9,N","009999,1,9,9","+0300,1","+0230,1","99999,9",,,,"00,99,1,99,9,99,9,99999,9,99,9,99,9","10110,1,99999,9",,,,"MET048METAR SKSA 291600Z 00000KT 9999 NSC 30/23 Q1011=",
"80222599999","2023-09-29T17:00:00","4","6.95","-71.85","213.0","LOS COLONIZADORES, CO","FM-15","99999","V020","140,1,N,0015,1","22000,1,9,N","009999,1,9,9","+0320,1","+0230,1","99999,9",,,,"00,99,1,99,9,99,9,99999,9,99,9,99,9","10100,1,99999,9",,,,"MET048METAR SKSA 291700Z 14003KT 9999 NSC 32/23 Q1010=",
"80222599999","2023-09-29T18:00:00","4","6.95","-71.85","213.0","LOS COLONIZADORES, CO","FM-15","99999","V020","030,1,N,0036,1","22000,1,9,N","009999,1,9,9","+0330,1","+0230,1","99999,9",,,,"00,99,1,99,9,99,9,99999,9,99,9,99,9","10090,1,99999,9",,,,"MET048METAR SKSA 291800Z 03007KT 9999 NSC 33/23 Q1009=",
"80222599999","2023-09-29T21:00:00","4","6.95","-71.85","213.0","LOS COLONIZADORES, CO","FM-15","99999","V020","280,1,N,0026,1","22000,1,9,N","009999,1,9,9","+0280,1","+0230,1","99999,9",,,,"00,99,1,99,9,99,9,99999,9,99,9,99,9","10090,1,99999,9",,,,"MET048METAR SKSA 292100Z 28005KT 9999 NSC 28/23 Q1009=",
"80222599999","2023-09-29T22:00:00","4","6.95","-71.85","213.0","LOS COLONIZADORES, CO","FM-15","99999","V020","280,1,N,0031,1","22000,1,9,N","009999,1,9,9","+0280,1","+0230,1","99999,9",,,,"00,99,1,99,9,99,9,99999,9,99,9,99,9","10070,1,99999,9",,,,"MET048METAR SKSA 292200Z 28006KT 9999 NSC 28/23 Q1007=",
"80222599999","2023-09-29T23:00:00","4","6.95","-71.85","213.0","LOS COLONIZADORES, CO","FM-15","99999","V020","260,1,N,0036,1","99999,9,9,N","009999,1,9,9","+0270,1","+0230,1","99999,9","04,1,+01219,1,99,9",,"9,AGL   ,+99999,+99999","99,99,9,04,1,99,9,01219,1,99,9,99,9","10080,1,99999,9",,,,"MET051METAR SKSA 292300Z 26007KT 9999 SCT040 27/23 Q1008=",
"80222599999","2023-09-30T13:00:00","4","6.95","-71.85","213.0","LOS COLONIZADORES, CO","FM-15","99999","V020","350,1,N,0015,1","22000,1,9,N","009999,1,9,9","+0290,1","+0230,1","99999,9",,,,"00,99,1,99,9,99,9,99999,9,99,9,99,9","10110,1,99999,9",,,,"MET048METAR SKSA 301300Z 35003KT 9999 NSC 29/23 Q1011=",
"80222599999","2023-09-30T14:00:00","4","6.95","-71.85","213.0","LOS COLONIZADORES, CO","FM-15","99999","V020","020,1,N,0015,1","22000,1,9,N","009999,1,9,9","+0300,1","+0240,1","99999,9",,,,"00,99,1,99,9,99,9,99999,9,99,9,99,9","10120,1,99999,9",,,,"MET048METAR SKSA 301400Z 02003KT 9999 NSC 30/24 Q1012=",
"80222599999","2023-09-30T15:00:00","4","6.95","-71.85","213.0","LOS COLONIZADORES, CO","FM-15","99999","V020","040,1,N,0021,1","22000,1,9,N","009999,1,9,9","+0320,1","+0230,1","99999,9",,,,"00,99,1,99,9,99,9,99999,9,99,9,99,9","10120,1,99999,9",,,,"MET048METAR SKSA 301500Z 04004KT 9999 NSC 32/23 Q1012=",
"80222599999","2023-09-30T16:00:00","4","6.95","-71.85","213.0","LOS COLONIZADORES, CO","FM-15","99999","V020","010,1,N,0015,1","22000,1,9,N","009999,1,9,9","+0330,1","+0240,1","99999,9",,,,"00,99,1,99,9,99,9,99999,9,99,9,99,9","10120,1,99999,9",,,,"MET048METAR SKSA 301600Z 01003KT 9999 NSC 33/24 Q1012=",
"80222599999","2023-09-30T17:00:00","4","6.95","-71.85","213.0","LOS COLONIZADORES, CO","FM-15","99999","V020","080,1,N,0015,1","99999,9,9,N","009999,1,9,9","+0320,1","+0230,1","99999,9","04,1,+01219,1,99,9",,"9,AGL   ,+99999,+99999","99,99,9,04,1,99,9,01219,1,99,9,99,9","10090,1,99999,9",,,,"MET051METAR SKSA 301700Z 08003KT 9999 SCT040 32/23 Q1009=",
"80222599999","2023-09-30T19:00:00","4","6.95","-71.85","213.0","LOS COLONIZADORES, CO","FM-15","99999","V020","999,9,C,0000,1","99999,9,9,N","009999,1,9,9","+0320,1","+0230,1","99999,9","04,1,+01219,1,99,9",,"9,AGL   ,+99999,+99999","99,99,9,04,1,99,9,01219,1,99,9,99,9","10090,1,99999,9",,,,"MET051METAR SKSA 301900Z 00000KT 9999 SCT040 32/23 Q1009=",
"80222599999","2023-09-30T20:00:00","4","6.95","-71.85","213.0","LOS COLONIZADORES, CO","FM-15","99999","V020","250,1,N,0015,1","22000,1,9,N","009999,1,9,9","+0340,1","+0230,1","99999,9",,,,"00,99,1,99,9,99,9,99999,9,99,9,99,9","10070,1,99999,9",,,,"MET048METAR SKSA 302000Z 25003KT 9999 NSC 34/23 Q1007=",
"80222599999","2023-09-30T21:00:00","4","6.95","-71.85","213.0","LOS COLONIZADORES, CO","FM-15","99999","V020","270,1,N,0015,1","22000,1,9,N","009999,1,9,9","+0340,1","+0230,1","99999,9",,,,"00,99,1,99,9,99,9,99999,9,99,9,99,9","10060,1,99999,9",,,,"MET048METAR SKSA 302100Z 27003KT 9999 NSC 34/23 Q1006=",
"80222599999","2023-09-30T22:00:00","4","6.95","-71.85","213.0","LOS COLONIZADORES, CO","FM-15","99999","V020","999,9,C,0000,1","22000,1,9,N","009999,1,9,9","+0310,1","+0230,1","99999,9",,,,"00,99,1,99,9,99,9,99999,9,99,9,99,9","10060,1,99999,9",,,,"MET048METAR SKSA 302200Z 00000KT 9999 NSC 31/23 Q1006=",
"80222599999","2023-09-30T23:00:00","4","6.95","-71.85","213.0","LOS COLONIZADORES, CO","FM-15","99999","V020","999,9,C,0000,1","22000,1,9,N","009999,1,9,9","+0270,1","+0230,1","99999,9",,,,"00,99,1,99,9,99,9,99999,9,99,9,99,9","10060,1,99999,9",,,,"MET048METAR SKSA 302300Z 00000KT 9999 NSC 27/23 Q1006=",
"80222599999","2023-10-01T12:00:00","4","6.95","-71.85","213.0","LOS COLONIZADORES, CO","FM-15","99999","V020","999,9,C,0000,1","22000,1,9,N","009999,1,9,9","+0240,1","+0240,1","99999,9",,,,"00,99,1,99,9,99,9,99999,9,99,9,99,9","10110,1,99999,9",,,,"MET048METAR SKSA 011200Z 00000KT 9999 NSC 24/24 Q1011=",
"80222599999","2023-10-01T14:00:00","4","6.95","-71.85","213.0","LOS COLONIZADORES, CO","FM-15","99999","V020","999,9,C,0000,1","22000,1,9,N","009999,1,9,9","+0270,1","+0240,1","99999,9",,,,"00,99,1,99,9,99,9,99999,9,99,9,99,9","10120,1,99999,9",,,,"MET048METAR SKSA 011400Z 00000KT 9999 NSC 27/24 Q1012=",
"80222599999","2023-10-01T15:00:00","4","6.95","-71.85","213.0","LOS COLONIZADORES, CO","FM-15","99999","V020","999,9,C,0000,1","22000,1,9,N","009999,1,9,9","+0270,1","+0240,1","99999,9",,,,"00,99,1,99,9,99,9,99999,9,99,9,99,9","10120,1,99999,9",,,,"MET048METAR SKSA 011500Z 00000KT 9999 NSC 27/24 Q1012=",
"80222599999","2023-10-01T16:00:00","4","6.95","-71.85","213.0","LOS COLONIZADORES, CO","FM-15","99999","V020","999,9,V,0010,1","22000,1,9,N","009999,1,9,9","+0300,1","+0240,1","99999,9",,,,"00,99,1,99,9,99,9,99999,9,99,9,99,9","10110,1,99999,9",,,,"MET048METAR SKSA 011600Z VRB02KT 9999 NSC 30/24 Q1011=",
"80222599999","2023-10-01T18:00:00","4","6.95","-71.85","213.0","LOS COLONIZADORES, CO","FM-15","99999","V020","999,9,C,0000,1","22000,1,9,N","009999,1,9,9","+0320,1","+0240,1","99999,9",,,,"00,99,1,99,9,99,9,99999,9,99,9,99,9","10090,1,99999,9",,,,"MET048METAR SKSA 011800Z 00000KT 9999 NSC 32/24 Q1009=",
"80222599999","2023-10-01T19:00:00","4","6.95","-71.85","213.0","LOS COLONIZADORES, CO","FM-15","99999","V020","120,1,N,0026,1","22000,1,9,N","009999,1,9,9","+0330,1","+0220,1","99999,9",,,,"00,99,1,99,9,99,9,99999,9,99,9,99,9","10080,1,99999,9",,,,"MET048METAR SKSA 011900Z 12005KT 9999 NSC 33/22 Q1008=",
"80222599999","2023-10-01T20:00:00","4","6.95","-71.85","213.0","LOS COLONIZADORES, CO","FM-15","99999","V020","100,1,N,0036,1","22000,1,9,N","009999,1,9,9","+0330,1","+0220,1","99999,9",,,,"00,99,1,99,9,99,9,99999,9,99,9,99,9","10070,1,99999,9",,,,"MET048METAR SKSA 012000Z 10007KT 9999 NSC 33/22 Q1007=",
"80222599999","2023-10-01T21:00:00","4","6.95","-71.85","213.0","LOS COLONIZADORES, CO","FM-15","99999","V020","120,1,N,0015,1","22000,1,9,N","009999,1,9,9","+0330,1","+0220,1","99999,9",,,,"00,99,1,99,9,99,9,99999,9,99,9,99,9","10070,1,99999,9",,,,"MET048METAR SKSA 012100Z 12003KT 9999 NSC 33/22 Q1007=",
"80222599999","2023-10-01T22:00:00","4","6.95","-71.85","213.0","LOS COLONIZADORES, CO","FM-15","99999","V020","110,1,N,0026,1","22000,1,9,N","009999,1,9,9","+0330,1","+0220,1","99999,9",,,,"00,99,1,99,9,99,9,99999,9,99,9,99,9","10070,1,99999,9",,,,"MET048METAR SKSA 012200Z 11005KT 9999 NSC 33/22 Q1007=",
"80222599999","2023-10-02T11:00:00","4","6.95","-71.85","213.0","LOS COLONIZADORES, CO","FM-15","99999","V020","999,9,C,0000,1","22000,1,9,N","009999,1,9,9","+0240,1","+0240,1","99999,9",,,,"00,99,1,99,9,99,9,99999,9,99,9,99,9","10090,1,99999,9",,,,"MET048METAR SKSA 021100Z 00000KT 9999 NSC 24/24 Q1009=",
"80222599999","2023-10-02T12:00:00","4","6.95","-71.85","213.0","LOS COLONIZADORES, CO","FM-15","99999","V020","999,9,C,0000,1","22000,1,9,N","009999,1,9,9","+0270,1","+0240,1","99999,9",,,,"00,99,1,99,9,99,9,99999,9,99,9,99,9","10090,1,99999,9",,,,"MET048METAR SKSA 021200Z 00000KT 9999 NSC 27/24 Q1009=",
"80222599999","2023-10-02T13:00:00","4","6.95","-71.85","213.0","LOS COLONIZADORES, CO","FM-15","99999","V020","999,9,C,0000,1","22000,1,9,N","009999,1,9,9","+0290,1","+0240,1","99999,9",,,,"00,99,1,99,9,99,9,99999,9,99,9,99,9","10100,1,99999,9",,,,"MET048METAR SKSA 021300Z 00000KT 9999 NSC 29/24 Q1010=",
"80222599999","2023-10-02T14:00:00","4","6.95","-71.85","213.0","LOS COLONIZADORES, CO","FM-15","99999","V020","330,1,N,0015,1","22000,1,9,N","009999,1,9,9","+0300,1","+0240,1","99999,9",,,,"00,99,1,99,9,99,9,99999,9,99,9,99,9","10100,1,99999,9",,,,"MET048METAR SKSA 021400Z 33003KT 9999 NSC 30/24 Q1010=",
"80222599999","2023-10-02T15:00:00","4","6.95","-71.85","213.0","LOS COLONIZADORES, CO","FM-15","99999","V020","120,1,N,0015,1","22000,1,9,N","009999,1,9,9","+0310,1","+0240,1","99999,9",,,,"00,99,1,99,9,99,9,99999,9,99,9,99,9","10100,1,99999,9",,,,"MET048METAR SKSA 021500Z 12003KT 9999 NSC 31/24 Q1010=",
"80222599999","2023-10-02T16:00:00","4","6.95","-71.85","213.0","LOS COLONIZADORES, CO","FM-15","99999","V020","150,1,N,0015,1","22000,1,9,N","009999,1,9,9","+0320,1","+0240,1","99999,9",,,,"00,99,1,99,9,99,9,99999,9,99,9,99,9","10100,1,99999,9",,,,"MET048METAR SKSA 021600Z 15003KT 9999 NSC 32/24 Q1010=",
"80222599999","2023-10-02T17:00:00","4","6.95","-71.85","213.0","LOS COLONIZADORES, CO","FM-15","99999","V020","120,1,N,0015,1","22000,1,9,N","009999,1,9,9","+0310,1","+0240,1","99999,9",,,,"00,99,1,99,9,99,9,99999,9,99,9,99,9","10100,1,99999,9",,,,"MET048METAR SKSA 021700Z 12003KT 9999 NSC 31/24 Q1010=",
"80222599999","2023-10-02T18:00:00","4","6.95","-71.85","213.0","LOS COLONIZADORES, CO","FM-15","99999","V020","999,9,C,0000,1","22000,1,9,N","009999,1,9,9","+0320,1","+0240,1","99999,9",,,,"00,99,1,99,9,99,9,99999,9,99,9,99,9","10100,1,99999,9",,,,"MET048METAR SKSA 021800Z 00000KT 9999 NSC 32/24 Q1010=",
"80222599999","2023-10-03T11:00:00","4","6.95","-71.85","213.0","LOS COLONIZADORES, CO","FM-15","99999","V020","180,1,N,0015,1","22000,1,9,N","009999,1,9,9","+0250,1","+0230,1","99999,9",,,,"00,99,1,99,9,99,9,99999,9,99,9,99,9","10080,1,99999,9",,,,"MET048METAR SKSA 031100Z 18003KT 9999 NSC 25/23 Q1008=",
"80222599999","2023-10-03T13:00:00","4","6.95","-71.85","213.0","LOS COLONIZADORES, CO","FM-15","99999","V020","999,9,C,0000,1","22000,1,9,N","009999,1,9,9","+0270,1","+0230,1","99999,9",,,,"00,99,1,99,9,99,9,99999,9,99,9,99,9","10080,1,99999,9",,,,"MET048METAR SKSA 031300Z 00000KT 9999 NSC 27/23 Q1008=",
"80222599999","2023-10-03T14:00:00","4","6.95","-71.85","213.0","LOS COLONIZADORES, CO","FM-15","99999","V020","999,9,C,0000,1","22000,1,9,N","009999,1,9,9","+0300,1","+0230,1","99999,9",,,,"00,99,1,99,9,99,9,99999,9,99,9,99,9","10080,1,99999,9",,,,"MET048METAR SKSA 031400Z 00000KT 9999 NSC 30/23 Q1008=",
"80222599999","2023-10-03T16:00:00","4","6.95","-71.85","213.0","LOS COLONIZADORES, CO","FM-15","99999","V020","010,1,N,0026,1","22000,1,9,N","009999,1,9,9","+0310,1","+0230,1","99999,9",,,,"00,99,1,99,9,99,9,99999,9,99,9,99,9","10100,1,99999,9",,,,"MET048METAR SKSA 031600Z 01005KT 9999 NSC 31/23 Q1010=",
"80222599999","2023-10-03T17:00:00","4","6.95","-71.85","213.0","LOS COLONIZADORES, CO","FM-15","99999","V020","999,9,C,0000,1","22000,1,9,N","009999,1,9,9","+0330,1","+0230,1","99999,9",,,,"00,99,1,99,9,99,9,99999,9,99,9,99,9","10100,1,99999,9",,,,"MET048METAR SKSA 031700Z 00000KT 9999 NSC 33/23 Q1010=",
"80222599999","2023-10-03T18:00:00","4","6.95","-71.85","213.0","LOS COLONIZADORES, CO","FM-15","99999","V020","170,1,N,0057,1","01219,1,C,N","009999,1,9,9","+0280,1","+0230,1","99999,9","08,1,+01219,1,99,9",,"9,AGL   ,+99999,+99999","99,99,9,08,1,99,9,01219,1,99,9,99,9","10070,1,99999,9","16,1",,,"MET062METAR SKSA 031800Z 17011KT 9999 4000S VCSH OVC040 28/23 Q1007=",
"80222599999","2023-10-03T19:00:00","4","6.95","-71.85","213.0","LOS COLONIZADORES, CO","FM-15","99999","V020","240,1,N,0015,1","02134,1,C,N","009999,1,9,9","+0260,1","+0230,1","99999,9","07,1,+02134,1,99,9",,"9,AGL   ,+99999,+99999","99,99,9,07,1,99,9,02134,1,99,9,99,9","10070,1,99999,9",,,,"MET051METAR SKSA 031900Z 24003KT 9999 BKN070 26/23 Q1007=",
"80222599999","2023-10-03T20:00:00","4","6.95","-71.85","213.0","LOS COLONIZADORES, CO","FM-15","99999","V020","060,1,N,0021,1","02134,1,C,N","009999,1,9,9","+0270,1","+0230,1","99999,9","07,1,+02134,1,99,9",,"9,AGL   ,+99999,+99999","99,99,9,07,1,99,9,02134,1,99,9,99,9","10070,1,99999,9",,,,"MET051METAR SKSA 032000Z 06004KT 9999 BKN070 27/23 Q1007=",
"80222599999","2023-10-03T21:00:00","4","6.95","-71.85","213.0","LOS COLONIZADORES, CO","FM-15","99999","V020","060,1,N,0015,1","02438,1,C,N","009999,1,9,9","+0260,1","+0230,1","99999,9","07,1,+02438,1,99,9",,"9,AGL   ,+99999,+99999","99,99,9,07,1,99,9,02438,1,99,9,99,9","10070,1,99999,9",,,,"MET051METAR SKSA 032100Z 06003KT 9999 BKN080 26/23 Q1007=",
"80222599999","2023-10-03T22:00:00","4","6.95","-71.85","213.0","LOS COLONIZADORES, CO","FM-15","99999","V020","999,9,C,0000,1","02438,1,C,N","009999,1,9,9","+0250,1","+0230,1","99999,9","08,1,+02438,1,99,9",,"9,AGL   ,+99999,+99999","99,99,9,08,1,99,9,02438,1,99,9,99,9","10070,1,99999,9",,,,"MET051METAR SKSA 032200Z 00000KT 9999 OVC080 25/23 Q1007=",
"80222599999","2023-10-03T23:00:00","4","6.95","-71.85","213.0","LOS COLONIZADORES, CO","FM-15","99999","V020","999,9,C,0000,1","02438,1,C,N","009999,1,9,9","+0250,1","+0230,1","99999,9","08,1,+02438,1,99,9",,"9,AGL   ,+99999,+99999","99,99,9,08,1,99,9,02438,1,99,9,99,9","10070,1,99999,9",,,,"MET051METAR SKSA 032300Z 00000KT 9999 OVC080 25/23 Q1007=",
"80222599999","2023-10-04T11:00:00","4","6.95","-71.85","213.0","LOS COLONIZADORES, CO","FM-15","99999","V020","999,9,C,0000,1","22000,1,9,N","009999,1,9,9","+0240,1","+0230,1","99999,9",,,,"00,99,1,99,9,99,9,99999,9,99,9,99,9","10100,1,99999,9",,,,"MET048METAR SKSA 041100Z 00000KT 9999 NSC 24/23 Q1010=",
"80222599999","2023-10-04T12:00:00","4","6.95","-71.85","213.0","LOS COLONIZADORES, CO","FM-15","99999","V020","110,1,N,0015,1","22000,1,9,N","009999,1,9,9","+0250,1","+0230,1","99999,9",,,,"00,99,1,99,9,99,9,99999,9,99,9,99,9","10100,1,99999,9",,,,"MET048METAR SKSA 041200Z 11003KT 9999 NSC 25/23 Q1010=",
"80222599999","2023-10-04T13:00:00","4","6.95","-71.85","213.0","LOS COLONIZADORES, CO","FM-15","99999","V020","340,1,N,0021,1","22000,1,9,N","009999,1,9,9","+0280,1","+0220,1","99999,9",,,,"00,99,1,99,9,99,9,99999,9,99,9,99,9","10110,1,99999,9",,,,"MET048METAR SKSA 041300Z 34004KT 9999 NSC 28/22 Q1011=",
"80222599999","2023-10-04T15:00:00","4","6.95","-71.85","213.0","LOS COLONIZADORES, CO","FM-15","99999","V020","030,1,N,0015,1","22000,1,9,N","009999,1,9,9","+0320,1","+0240,1","99999,9",,,,"00,99,1,99,9,99,9,99999,9,99,9,99,9","10110,1,99999,9",,,,"MET048METAR SKSA 041500Z 03003KT 9999 NSC 32/24 Q1011=",
"80222599999","2023-10-04T16:00:00","4","6.95","-71.85","213.0","LOS COLONIZADORES, CO","FM-15","99999","V020","070,1,N,0015,1","22000,1,9,N","009999,1,9,9","+0330,1","+0240,1","99999,9",,,,"00,99,1,99,9,99,9,99999,9,99,9,99,9","10110,1,99999,9",,,,"MET048METAR SKSA 041600Z 07003KT 9999 NSC 33/24 Q1011=",
"80222599999","2023-10-04T17:00:00","4","6.95","-71.85","213.0","LOS COLONIZADORES, CO","FM-15","99999","V020","999,9,N,9999,9","99999,9,9,N","011265,5,9,9","+0330,5","+0240,5","99999,9",,,,,"10110,5,99999,9",,,,"MET047METAR SKSA 041700Z 0000KT 9999 NSC 33/24 Q1011=","D01      0ADE693D02      0ADE539"
"80222599999","2023-10-04T19:00:00","4","6.95","-71.85","213.0","LOS COLONIZADORES, CO","FM-15","99999","V020","999,9,C,0000,1","22000,1,9,N","009999,1,9,9","+0330,1","+0240,1","99999,9",,,,"00,99,1,99,9,99,9,99999,9,99,9,99,9","10110,1,99999,9",,,,"MET048METAR SKSA 041900Z 00000KT 9999 NSC 33/24 Q1011=",
"80222599999","2023-10-04T21:00:00","4","6.95","-71.85","213.0","LOS COLONIZADORES, CO","FM-15","99999","V020","999,9,C,0000,1","22000,1,9,N","009999,1,9,9","+0300,1","+0240,1","99999,9",,,,"00,99,1,99,9,99,9,99999,9,99,9,99,9","10110,1,99999,9",,,,"MET048METAR SKSA 042100Z 00000KT 9999 NSC 30/24 Q1011=",
"80222599999","2023-10-04T22:00:00","4","6.95","-71.85","213.0","LOS COLONIZADORES, CO","FM-15","99999","V020","999,9,V,0010,1","22000,1,9,N","009999,1,9,9","+0310,1","+0240,1","99999,9",,,,"00,99,1,99,9,99,9,99999,9,99,9,99,9","10110,1,99999,9",,,,"MET048METAR SKSA 042200Z VRB02KT 9999 NSC 31/24 Q1011=",
"80222599999","2023-10-04T23:00:00","4","6.95","-71.85","213.0","LOS COLONIZADORES, CO","FM-15","99999","V020","999,9,C,0000,1","22000,1,9,N","009999,1,9,9","+0270,1","+0240,1","99999,9",,,,"00,99,1,99,9,99,9,99999,9,99,9,99,9","10070,2,99999,9",,,,"MET048METAR SKSA 042300Z 00000KT 9999 NSC 27/24 Q1007=",
"80222599999","2023-10-05T12:00:00","4","6.95","-71.85","213.0","LOS COLONIZADORES, CO","FM-15","99999","V020","999,9,C,0000,1","22000,1,9,N","009999,1,9,9","+0270,1","+0220,1","99999,9",,,,"00,99,1,99,9,99,9,99999,9,99,9,99,9","10110,1,99999,9",,,,"MET048METAR SKSA 051200Z 00000KT 9999 NSC 27/22 Q1011=",
"80222599999","2023-10-05T13:00:00","4","6.95","-71.85","213.0","LOS COLONIZADORES, CO","FM-15","99999","V020","330,1,N,0015,1","22000,1,9,N","009999,1,9,9","+0290,1","+0240,1","99999,9",,,,"00,99,1,99,9,99,9,99999,9,99,9,99,9","10130,1,99999,9",,,,"MET048METAR SKSA 051300Z 33003KT 9999 NSC 29/24 Q1013=",
"80222599999","2023-10-05T14:00:00","4","6.95","-71.85","213.0","LOS COLONIZADORES, CO","FM-15","99999","V020","010,1,N,0026,1","22000,1,9,N","009999,1,9,9","+0300,1","+0240,1","99999,9",,,,"00,99,1,99,9,99,9,99999,9,99,9,99,9","10130,1,99999,9",,,,"MET048METAR SKSA 051400Z 01005KT 9999 NSC 30/24 Q1013=",
"80222599999","2023-10-05T15:00:00","4","6.95","-71.85","213.0","LOS COLONIZADORES, CO","FM-15","99999","V020","300,1,N,0015,1","22000,1,9,N","009999,1,9,9","+0300,1","+0250,1","99999,9",,,,"00,99,1,99,9,99,9,99999,9,99,9,99,9","10130,1,99999,9",,,,"MET048METAR SKSA 051500Z 30003KT 9999 NSC 30/25 Q1013=",
"80222599999","2023-10-05T16:00:00","4","6.95","-71.85","213.0","LOS COLONIZADORES, CO","FM-15","99999","V020","300,1,N,0015,1","22000,1,9,N","009999,1,9,9","+0300,1","+0250,1","99999,9",,,,"00,99,1,99,9,99,9,99999,9,99,9,99,9","10130,1,99999,9",,,,"MET048METAR SKSA 051600Z 30003KT 9999 NSC 30/25 Q1013=",
"80222599999","2023-10-05T17:00:00","4","6.95","-71.85","213.0","LOS COLONIZADORES, CO","FM-15","99999","V020","999,9,C,0000,1","22000,1,9,N","009999,1,9,9","+0320,1","+0250,1","99999,9",,,,"00,99,1,99,9,99,9,99999,9,99,9,99,9","10130,1,99999,9",,,,"MET048METAR SKSA 051700Z 00000KT 9999 NSC 32/25 Q1013=",
"80222599999","2023-10-05T20:00:00","4","6.95","-71.85","213.0","LOS COLONIZADORES, CO","FM-15","99999","V020","140,1,N,0015,1","99999,9,9,N","009999,1,9,9","+0330,1","+0250,1","99999,9","02,1,+00914,1,99,9",,"9,AGL   ,+99999,+99999","99,99,9,02,1,99,9,00914,1,99,9,99,9","10090,1,99999,9",,,,"MET051METAR SKSA 052000Z 14003KT 9999 FEW030 33/25 Q1009=",
"80222599999","2023-10-05T22:00:00","4","6.95","-71.85","213.0","LOS COLONIZADORES, CO","FM-15","99999","V020","999,9,C,0000,1","99999,9,9,N","009999,1,9,9","+0320,1","+0250,1","99999,9","02,1,+00914,1,99,9",,"9,AGL   ,+99999,+99999","99,99,9,02,1,99,9,00914,1,99,9,99,9","10070,1,99999,9",,,,"MET051METAR SKSA 052200Z 00000KT 9999 FEW030 32/25 Q1007=",
"80222599999","2023-10-06T11:00:00","4","6.95","-71.85","213.0","LOS COLONIZADORES, CO","FM-15","99999","V020","310,1,N,0041,1","22000,1,9,N","009999,1,9,9","+0240,1","+0240,1","99999,9",,,,"00,99,1,99,9,99,9,99999,9,99,9,99,9","10120,1,99999,9",,,,"MET048METAR SKSA 061100Z 31008KT 9999 NSC 24/24 Q1012=",
"80222599999","2023-10-06T12:00:00","4","6.95","-71.85","213.0","LOS COLONIZADORES, CO","FM-15","99999","V020","320,1,N,0026,1","22000,1,9,N","009999,1,9,9","+0240,1","+0240,1","99999,9",,,,"00,99,1,99,9,99,9,99999,9,99,9,99,9","10120,1,99999,9",,,,"MET048METAR SKSA 061200Z 32005KT 9999 NSC 24/24 Q1012=",
"80222599999","2023-10-06T14:00:00","4","6.95","-71.85","213.0","LOS COLONIZADORES, CO","FM-15","99999","V020","340,1,N,0026,1","22000,1,9,N","009999,1,9,9","+0240,1","+0240,1","99999,9",,,,"00,99,1,99,9,99,9,99999,9,99,9,99,9","10120,1,99999,9",,,,"MET048METAR SKSA 061400Z 34005KT 9999 NSC 24/24 Q1012=",
"80222599999","2023-10-06T15:00:00","4","6.95","-71.85","213.0","LOS COLONIZADORES, CO","FM-15","99999","V020","280,1,N,0021,1","22000,1,9,N","009999,1,9,9","+0300,1","+0240,1","99999,9",,,,"00,99,1,99,9,99,9,99999,9,99,9,99,9","10130,1,99999,9",,,,"MET048METAR SKSA 061500Z 28004KT 9999 NSC 30/24 Q1013=",
"80222599999","2023-10-06T16:00:00","4","6.95","-71.85","213.0","LOS COLONIZADORES, CO","FM-15","99999","V020","010,1,N,0026,1","22000,1,9,N","009999,1,9,9","+0330,1","+0240,1","99999,9",,,,"00,99,1,99,9,99,9,99999,9,99,9,99,9","10130,1,99999,9",,,,"MET048METAR SKSA 061600Z 01005KT 9999 NSC 33/24 Q1013=",
"80222599999","2023-10-06T19:00:00","4","6.95","-71.85","213.0","LOS COLONIZADORES, CO","FM-15","99999","V020","090,1,N,0015,1","22000,1,9,N","009999,1,9,9","+0330,1","+0240,1","99999,9",,,,"00,99,1,99,9,99,9,99999,9,99,9,99,9","10090,1,99999,9",,,,"MET048METAR SKSA 061900Z 09003KT 9999 NSC 33/24 Q1009=",
"80222599999","2023-10-06T21:00:00","4","6.95","-71.85","213.0","LOS COLONIZADORES, CO","FM-15","99999","V020","999,9,C,0000,1","22000,1,9,N","009999,1,9,9","+0330,1","+0240,1","99999,9",,,,"00,99,1,99,9,99,9,99999,9,99,9,99,9","10080,1,99999,9",,,,"MET048METAR SKSA 062100Z 00000KT 9999 NSC 33/24 Q1008=",
"80222599999","2023-10-06T23:00:00","4","6.95","-71.85","213.0","LOS COLONIZADORES, CO","FM-15","99999","V020","999,9,C,0000,1","22000,1,9,N","009999,1,9,9","+0270,1","+0250,1","99999,9",,,,"00,99,1,99,9,99,9,99999,9,99,9,99,9","10090,1,99999,9",,,,"MET048METAR SKSA 062300Z 00000KT 9999 NSC 27/25 Q1009=",
"80222599999","2023-10-07T11:00:00","4","6.95","-71.85","213.0","LOS COLONIZADORES, CO","FM-15","99999","V020","030,1,N,0021,1","99999,9,9,N","009999,1,9,9","+0240,1","+0240,1","99999,9","04,1,+01524,1,99,9",,"9,AGL   ,+99999,+99999","99,99,9,04,1,99,9,01524,1,99,9,99,9","10130,1,99999,9",,,,"MET051METAR SKSA 071100Z 03004KT 9999 SCT050 24/24 Q1013=",
"80222599999","2023-10-07T13:00:00","4","6.95","-71.85","213.0","LOS COLONIZADORES, CO","FM-15","99999","V020","999,9,C,0000,1","99999,9,9,N","009999,1,9,9","+0250,1","+0230,1","99999,9","04,1,+01524,1,99,9",,"9,AGL   ,+99999,+99999","99,99,9,04,1,99,9,01524,1,99,9,99,9","10140,1,99999,9",,,,"MET051METAR SKSA 071300Z 00000KT 9999 SCT050 25/23 Q1014=",
"80222599999","2023-10-07T14:00:00","4","6.95","-71.85","213.0","LOS COLONIZADORES, CO","FM-15","99999","V020","320,1,N,0021,1","99999,9,9,N","009999,1,9,9","+0270,1","+0230,1","99999,9","04,1,+02134,1,99,9",,"9,AGL   ,+99999,+99999","99,99,9,04,1,99,9,02134,1,99,9,99,9","10150,1,99999,9",,,,"MET051METAR SKSA 071400Z 32004KT 9999 SCT070 27/23 Q1015=",
"80222599999","2023-10-07T15:00:00","4","6.95","-71.85","213.0","LOS COLONIZADORES, CO","FM-15","99999","V020","280,1,N,0031,1","99999,9,9,N","009999,1,9,9","+0280,1","+0230,1","99999,9","04,1,+02134,1,99,9",,"9,AGL   ,+99999,+99999","99,99,9,04,1,99,9,02134,1,99,9,99,9","10150,1,99999,9",,,,"MET051METAR SKSA 071500Z 28006KT 9999 SCT070 28/23 Q1015=",
"80222599999","2023-10-07T16:00:00","4","6.95","-71.85","213.0","LOS COLONIZADORES, CO","FM-15","99999","V020","010,1,N,0026,1","22000,1,9,N","009999,1,9,9","+0300,1","+0230,1","99999,9",,,,"00,99,1,99,9,99,9,99999,9,99,9,99,9","10140,1,99999,9",,,,"MET048METAR SKSA 071600Z 01005KT 9999 NSC 30/23 Q1014=",
"80222599999","2023-10-07T17:00:00","4","6.95","-71.85","213.0","LOS COLONIZADORES, CO","FM-15","99999","V020","340,1,N,0031,1","22000,1,9,N","009999,1,9,9","+0310,1","+0230,1","99999,9",,,,"00,99,1,99,9,99,9,99999,9,99,9,99,9","10120,1,99999,9",,,,"MET048METAR SKSA 071700Z 34006KT 9999 NSC 31/23 Q1012=",
"80222599999","2023-10-07T18:00:00","4","6.95","-71.85","213.0","LOS COLONIZADORES, CO","FM-15","99999","V020","350,1,N,0015,1","22000,1,9,N","009999,1,9,9","+0310,1","+0230,1","99999,9",,,,"00,99,1,99,9,99,9,99999,9,99,9,99,9","10120,1,99999,9",,,,"MET048METAR SKSA 071800Z 35003KT 9999 NSC 31/23 Q1012=",
"80222599999","2023-10-07T19:00:00","4","6.95","-71.85","213.0","LOS COLONIZADORES, CO","FM-15","99999","V020","340,1,N,0021,1","22000,1,9,N","009999,1,9,9","+0330,1","+0230,1","99999,9",,,,"00,99,1,99,9,99,9,99999,9,99,9,99,9","10100,1,99999,9",,,,"MET048METAR SKSA 071900Z 34004KT 9999 NSC 33/23 Q1010=",
"80222599999","2023-10-07T20:00:00","4","6.95","-71.85","213.0","LOS COLONIZADORES, CO","FM-15","99999","V020","050,1,N,0015,1","22000,1,9,N","009999,1,9,9","+0320,1","+0230,1","99999,9",,,,"00,99,1,99,9,99,9,99999,9,99,9,99,9","10100,1,99999,9",,,,"MET048METAR SKSA 072000Z 05003KT 9999 NSC 32/23 Q1010=",
"80222599999","2023-10-07T21:00:00","4","6.95","-71.85","213.0","LOS COLONIZADORES, CO","FM-15","99999","V020","010,1,N,0015,1","22000,1,9,N","009999,1,9,9","+0300,1","+0240,1","99999,9",,,,"00,99,1,99,9,99,9,99999,9,99,9,99,9","10090,1,99999,9",,,,"MET048METAR SKSA 072100Z 01003KT 9999 NSC 30/24 Q1009=",
"80222599999","2023-10-07T22:00:00","4","6.95","-71.85","213.0","LOS COLONIZADORES, CO","FM-15","99999","V020","999,9,C,0000,1","22000,1,9,N","009999,1,9,9","+0290,1","+0240,1","99999,9",,,,"00,99,1,99,9,99,9,99999,9,99,9,99,9","10090,1,99999,9",,,,"MET048METAR SKSA 072200Z 00000KT 9999 NSC 29/24 Q1009=",
"80222599999","2023-10-07T23:00:00","4","6.95","-71.85","213.0","LOS COLONIZADORES, CO","FM-15","99999","V020","240,1,N,0026,1","22000,1,9,N","009999,1,9,9","+0270,1","+0240,1","99999,9",,,,"00,99,1,99,9,99,9,99999,9,99,9,99,9","10090,1,99999,9",,,,"MET048METAR SKSA 072300Z 24005KT 9999 NSC 27/24 Q1009=",
"80222599999","2023-10-08T11:00:00","4","6.95","-71.85","213.0","LOS COLONIZADORES, CO","FM-15","99999","V020","060,1,N,0015,1","22000,1,9,N","009999,1,9,9","+0220,1","+0220,1","99999,9",,,,"00,99,1,99,9,99,9,99999,9,99,9,99,9","10120,1,99999,9",,,,"MET048METAR SKSA 081100Z 06003KT 9999 NSC 22/22 Q1012=",
"80222599999","2023-10-08T14:00:00","4","6.95","-71.85","213.0","LOS COLONIZADORES, CO","FM-15","99999","V020","999,9,C,0000,1","22000,1,9,N","009999,1,9,9","+0290,1","+0220,1","99999,9",,,,"00,99,1,99,9,99,9,99999,9,99,9,99,9","10120,1,99999,9",,,,"MET048METAR SKSA 081400Z 00000KT 9999 NSC 29/22 Q1012=",
"80222599999","2023-10-08T15:00:00","4","6.95","-71.85","213.0","LOS COLONIZADORES, CO","FM-15","99999","V020","030,1,N,0015,1","22000,1,9,N","009999,1,9,9","+0280,1","+0240,1","99999,9",,,,"00,99,1,99,9,99,9,99999,9,99,9,99,9","10140,1,99999,9",,,,"MET048METAR SKSA 081500Z 03003KT 9999 NSC 28/24 Q1014=",
"80222599999","2023-10-08T18:00:00","4","6.95","-71.85","213.0","LOS COLONIZADORES, CO","FM-15","99999","V020","080,1,N,0015,1","22000,1,9,N","009999,1,9,9","+0320,1","+0230,1","99999,9",,,,"00,99,1,99,9,99,9,99999,9,99,9,99,9","10110,1,99999,9",,,,"MET048METAR SKSA 081800Z 08003KT 9999 NSC 32/23 Q1011=",
"80222599999","2023-10-08T19:00:00","4","6.95","-71.85","213.0","LOS COLONIZADORES, CO","FM-15","99999","V020","040,1,N,0015,1","22000,1,9,N","009999,1,9,9","+0330,1","+0210,1","99999,9",,,,"00,99,1,99,9,99,9,99999,9,99,9,99,9","10090,1,99999,9",,,,"MET048METAR SKSA 081900Z 04003KT 9999 NSC 33/21 Q1009=",
"80222599999","2023-10-08T20:00:00","4","6.95","-71.85","213.0","LOS COLONIZADORES, CO","FM-15","99999","V020","360,1,N,0026,1","22000,1,9,N","009999,1,9,9","+0320,1","+0210,1","99999,9",,,,"00,99,1,99,9,99,9,99999,9,99,9,99,9","10090,1,99999,9",,,,"MET048METAR SKSA 082000Z 36005KT 9999 NSC 32/21 Q1009=",
"80222599999","2023-10-08T21:00:00","4","6.95","-71.85","213.0","LOS COLONIZADORES, CO","FM-15","99999","V020","040,1,N,0015,1","22000,1,9,N","009999,1,9,9","+0320,1","+0210,1","99999,9",,,,"00,99,1,99,9,99,9,99999,9,99,9,99,9","10090,1,99999,9",,,,"MET048METAR SKSA 082100Z 04003KT 9999 NSC 32/21 Q1009=",
"80222599999","2023-10-08T22:00:00","4","6.95","-71.85","213.0","LOS COLONIZADORES, CO","FM-15","99999","V020","999,9,C,0000,1","22000,1,9,N","009999,1,9,9","+0300,1","+0230,1","99999,9",,,,"00,99,1,99,9,99,9,99999,9,99,9,99,9","10090,1,99999,9",,,,"MET048METAR SKSA 082200Z 00000KT 9999 NSC 30/23 Q1009=",
"80222599999","2023-10-09T11:00:00","4","6.95","-71.85","213.0","LOS COLONIZADORES, CO","FM-15","99999","V020","999,9,N,9999,9","99999,9,9,N","999999,9,9,9","+0220,5","+0220,5","99999,9",,,,,"10120,5,99999,9",,,,"MET047METAR SKSA 091100Z 00000T 9999 NSC 22/22 Q1012=","D01      0ADE693D02      0ADE539"
"80222599999","2023-10-09T13:00:00","4","6.95","-71.85","213.0","LOS COLONIZADORES, CO","FM-15","99999","V020","320,1,N,0015,1","22000,1,9,N","009999,1,9,9","+0280,1","+0220,1","99999,9",,,,"00,99,1,99,9,99,9,99999,9,99,9,99,9","10120,1,99999,9",,,,"MET048METAR SKSA 091300Z 32003KT 9999 NSC 28/22 Q1012=",
"80222599999","2023-10-09T14:00:00","4","6.95","-71.85","213.0","LOS COLONIZADORES, CO","FM-15","99999","V020","999,9,N,9999,9","99999,9,9,N","999999,9,9,9","+0300,5","+0220,5","99999,9",,,,,"10120,5,99999,9",,,,"MET047METAR SKSA 091400Z 00000T 9999 NSC 30/22 Q1012=","D01      0ADE693D02      0ADE539"
"80222599999","2023-10-09T15:00:00","4","6.95","-71.85","213.0","LOS COLONIZADORES, CO","FM-15","99999","V020","040,1,N,0015,1","22000,1,9,N","009999,1,9,9","+0320,1","+0220,1","99999,9",,,,"00,99,1,99,9,99,9,99999,9,99,9,99,9","10130,1,99999,9",,,,"MET048METAR SKSA 091500Z 04003KT 9999 NSC 32/22 Q1013=",
"80222599999","2023-10-09T16:00:00","4","6.95","-71.85","213.0","LOS COLONIZADORES, CO","FM-15","99999","V020","120,1,N,0015,1","22000,1,9,N","009999,1,9,9","+0320,1","+0220,1","99999,9",,,,"00,99,1,99,9,99,9,99999,9,99,9,99,9","10130,1,99999,9",,,,"MET048METAR SKSA 091600Z 12003KT 9999 NSC 32/22 Q1013=",
"80222599999","2023-10-09T17:00:00","4","6.95","-71.85","213.0","LOS COLONIZADORES, CO","FM-15","99999","V020","999,9,C,0000,1","22000,1,9,N","009999,1,9,9","+0330,1","+0250,1","99999,9",,,,"00,99,1,99,9,99,9,99999,9,99,9,99,9","10120,1,99999,9",,,,"MET048METAR SKSA 091700Z 00000KT 9999 NSC 33/25 Q1012=",
"80222599999","2023-10-09T18:00:00","4","6.95","-71.85","213.0","LOS COLONIZADORES, CO","FM-15","99999","V020","120,1,N,0015,1","22000,1,9,N","009999,1,9,9","+0310,1","+0250,1","99999,9",,,,"00,99,1,99,9,99,9,99999,9,99,9,99,9","10100,1,99999,9",,,,"MET048METAR SKSA 091800Z 12003KT 9999 NSC 31/25 Q1010=",
"80222599999","2023-10-09T19:00:00","4","6.95","-71.85","213.0","LOS COLONIZADORES, CO","FM-15","99999","V020","260,1,N,0021,1","22000,1,9,N","009999,1,9,9","+0300,1","+0250,1","99999,9",,,,"00,99,1,99,9,99,9,99999,9,99,9,99,9","10100,1,99999,9",,,,"MET048METAR SKSA 091900Z 26004KT 9999 NSC 30/25 Q1010=",
"80222599999","2023-10-09T20:00:00","4","6.95","-71.85","213.0","LOS COLONIZADORES, CO","FM-15","99999","V020","220,1,N,0041,1","99999,9,9,N","009999,1,9,9","+0300,1","+0230,1","99999,9","04,1,+01219,1,99,9",,"9,AGL   ,+99999,+99999","99,99,9,04,1,99,9,01219,1,99,9,99,9","10090,1,99999,9",,,,"MET051METAR SKSA 092000Z 22008KT 9999 SCT040 30/23 Q1009=",
"80222599999","2023-10-09T21:00:00","4","6.95","-71.85","213.0","LOS COLONIZADORES, CO","FM-15","99999","V020","270,1,N,0026,1","99999,9,9,N","009999,1,9,9","+0300,1","+0230,1","99999,9","04,1,+01219,1,99,9",,"9,AGL   ,+99999,+99999","99,99,9,04,1,99,9,01219,1,99,9,99,9","10080,1,99999,9",,,,"MET051METAR SKSA 092100Z 27005KT 9999 SCT040 30/23 Q1008=",
"80222599999","2023-10-09T22:00:00","4","6.95","-71.85","213.0","LOS COLONIZADORES, CO","FM-15","99999","V020","200,1,N,0015,1","99999,9,9,N","009999,1,9,9","+0290,1","+0240,1","99999,9","04,1,+02134,1,99,9",,"9,AGL   ,+99999,+99999","99,99,9,04,1,99,9,02134,1,99,9,99,9","10090,1,99999,9",,,,"MET051METAR SKSA 092200Z 20003KT 9999 SCT070 29/24 Q1009=",
"80222599999","2023-10-09T23:00:00","4","6.95","-71.85","213.0","LOS COLONIZADORES, CO","FM-15","99999","V020","999,9,C,0000,1","99999,9,9,N","009999,1,9,9","+0260,1","+0240,1","99999,9","04,1,+02134,1,99,9",,"9,AGL   ,+99999,+99999","99,99,9,04,1,99,9,02134,1,99,9,99,9","10090,1,99999,9",,,,"MET051METAR SKSA 092300Z 00000KT 9999 SCT070 26/24 Q1009=",
"80222599999","2023-10-10T11:00:00","4","6.95","-71.85","213.0","LOS COLONIZADORES, CO","FM-15","99999","V020","020,1,N,0015,1","02743,1,C,N","009999,1,9,9","+0230,1","+0230,1","99999,9","07,1,+02743,1,99,9",,"9,AGL   ,+99999,+99999","99,99,9,07,1,99,9,02743,1,99,9,99,9","10120,1,99999,9",,,,"MET051METAR SKSA 101100Z 02003KT 9999 BKN090 23/23 Q1012=",
"80222599999","2023-10-10T13:00:00","4","6.95","-71.85","213.0","LOS COLONIZADORES, CO","FM-15","99999","V020","340,1,N,0015,1","02438,1,C,N","009999,1,9,9","+0260,1","+0230,1","99999,9","07,1,+02438,1,99,9",,"9,AGL   ,+99999,+99999","99,99,9,07,1,99,9,02438,1,99,9,99,9","10140,1,99999,9",,,,"MET051METAR SKSA 101300Z 34003KT 9999 BKN080 26/23 Q1014=",
"80222599999","2023-10-10T14:00:00","4","6.95","-71.85","213.0","LOS COLONIZADORES, CO","FM-15","99999","V020","310,1,N,0026,1","02438,1,C,N","009999,1,9,9","+0280,1","+0230,1","99999,9","07,1,+02438,1,99,9",,"9,AGL   ,+99999,+99999","99,99,9,07,1,99,9,02438,1,99,9,99,9","10140,1,99999,9",,,,"MET051METAR SKSA 101400Z 31005KT 9999 BKN080 28/23 Q1014=",
"80222599999","2023-10-10T15:00:00","4","6.95","-71.85","213.0","LOS COLONIZADORES, CO","FM-15","99999","V020","300,1,N,0041,1","99999,9,9,N","009999,1,9,9","+0210,1","+9999,9","99999,9","04,1,+02438,1,99,9",,"9,AGL   ,+99999,+99999","99,99,9,04,1,99,9,02438,1,99,9,99,9","10140,1,99999,9",,,,"MET051METAR SKSA 101500Z 30008KT 9999 SCT080 21/23 Q1014=","Q0123    2ATOD  "
"80222599999","2023-10-10T19:00:00","4","6.95","-71.85","213.0","LOS COLONIZADORES, CO","FM-15","99999","V020","330,1,N,0051,1","99999,9,9,N","009999,1,9,9","+0330,1","+0230,1","99999,9","04,1,+02438,1,99,9",,"9,AGL   ,+99999,+99999","99,99,9,04,1,99,9,02438,1,99,9,99,9","10090,1,99999,9",,,,"MET051METAR SKSA 101900Z 33010KT 9999 SCT080 33/23 Q1009=",
"80222599999","2023-10-10T21:00:00","4","6.95","-71.85","213.0","LOS COLONIZADORES, CO","FM-15","99999","V020","180,1,N,0026,1","99999,9,9,N","009999,1,9,9","+0270,1","+0230,1","99999,9","04,1,+02438,1,99,9",,"9,AGL   ,+99999,+99999","99,99,9,04,1,99,9,02438,1,99,9,99,9","10090,1,99999,9",,,,"MET051METAR SKSA 102100Z 18005KT 9999 SCT080 27/23 Q1009=",
"80222599999","2023-10-10T22:00:00","4","6.95","-71.85","213.0","LOS COLONIZADORES, CO","FM-15","99999","V020","360,1,N,0015,1","99999,9,9,N","009999,1,9,9","+0280,1","+0230,1","99999,9","04,1,+02438,1,99,9",,"9,AGL   ,+99999,+99999","99,99,9,04,1,99,9,02438,1,99,9,99,9","10090,1,99999,9",,,,"MET051METAR SKSA 102200Z 36003KT 9999 SCT080 28/23 Q1009=",
"80222599999","2023-10-10T23:00:00","4","6.95","-71.85","213.0","LOS COLONIZADORES, CO","FM-15","99999","V020","320,1,N,0021,1","22000,1,9,N","009999,1,9,9","+0250,1","+0230,1","99999,9",,,,"00,99,1,99,9,99,9,99999,9,99,9,99,9","10090,1,99999,9",,,,"MET048METAR SKSA 102300Z 32004KT 9999 NSC 25/23 Q1009=",
"80222599999","2023-10-11T11:00:00","4","6.95","-71.85","213.0","LOS COLONIZADORES, CO","FM-15","99999","V020","999,9,C,0000,1","22000,1,9,N","009999,1,9,9","+0230,1","+0230,1","99999,9",,,,"00,99,1,99,9,99,9,99999,9,99,9,99,9","10110,1,99999,9",,,,"MET048METAR SKSA 111100Z 00000KT 9999 NSC 23/23 Q1011=",
"80222599999","2023-10-11T14:00:00","4","6.95","-71.85","213.0","LOS COLONIZADORES, CO","FM-15","99999","V020","310,1,N,0015,1","22000,1,9,N","009999,1,9,9","+0310,1","+0220,1","99999,9",,,,"00,99,1,99,9,99,9,99999,9,99,9,99,9","10130,1,99999,9",,,,"MET048METAR SKSA 111400Z 31003KT 9999 NSC 31/22 Q1013=",
"80222599999","2023-10-11T15:00:00","4","6.95","-71.85","213.0","LOS COLONIZADORES, CO","FM-15","99999","V020","010,1,N,0015,1","22000,1,9,N","009999,1,9,9","+0310,1","+0220,1","99999,9",,,,"00,99,1,99,9,99,9,99999,9,99,9,99,9","10130,1,99999,9",,,,"MET048METAR SKSA 111500Z 01003KT 9999 NSC 31/22 Q1013=",
"80222599999","2023-10-11T16:00:00","4","6.95","-71.85","213.0","LOS COLONIZADORES, CO","FM-15","99999","V020","040,1,N,0021,1","22000,1,9,N","009999,1,9,9","+0320,1","+0230,1","99999,9",,,,"00,99,1,99,9,99,9,99999,9,99,9,99,9","10120,1,99999,9",,,,"MET048METAR SKSA 111600Z 04004KT 9999 NSC 32/23 Q1012=",
"80222599999","2023-10-11T20:00:00","4","6.95","-71.85","213.0","LOS COLONIZADORES, CO","FM-15","99999","V020","280,1,N,0021,1","22000,1,9,N","009999,1,9,9","+0300,1","+0220,1","99999,9",,,,"00,99,1,99,9,99,9,99999,9,99,9,99,9","10090,1,99999,9",,,,"MET048METAR SKSA 112000Z 28004KT 9999 NSC 30/22 Q1009=",
"80222599999","2023-10-12T11:00:00","4","6.95","-71.85","213.0","LOS COLONIZADORES, CO","FM-15","99999","V020","999,9,C,0000,1","22000,1,9,N","009999,1,9,9","+0220,1","+0220,1","99999,9",,,,"00,99,1,99,9,99,9,99999,9,99,9,99,9","10110,1,99999,9",,,,"MET048METAR SKSA 121100Z 00000KT 9999 NSC 22/22 Q1011=",
"80222599999","2023-10-12T13:00:00","4","6.95","-71.85","213.0","LOS COLONIZADORES, CO","FM-15","99999","V020","300,1,N,0015,1","22000,1,9,N","009999,1,9,9","+0290,1","+0220,1","99999,9",,,,"00,99,1,99,9,99,9,99999,9,99,9,99,9","10120,1,99999,9",,,,"MET048METAR SKSA 121300Z 30003KT 9999 NSC 29/22 Q1012=",
"80222599999","2023-10-12T15:00:00","4","6.95","-71.85","213.0","LOS COLONIZADORES, CO","FM-15","99999","V020","350,1,N,0015,1","22000,1,9,N","009999,1,9,9","+0320,1","+0240,1","99999,9",,,,"00,99,1,99,9,99,9,99999,9,99,9,99,9","10120,1,99999,9",,,,"MET048METAR SKSA 121500Z 35003KT 9999 NSC 32/24 Q1012=",
"80222599999","2023-10-12T16:00:00","4","6.95","-71.85","213.0","LOS COLONIZADORES, CO","FM-15","99999","V020","110,1,N,0015,1","99999,9,9,N","009999,1,9,9","+0330,1","+0220,1","99999,9","02,1,+01219,1,99,9",,"9,AGL   ,+99999,+99999","99,99,9,02,1,99,9,01219,1,99,9,99,9","10120,1,99999,9",,,,"MET051METAR SKSA 121600Z 11003KT 9999 FEW040 33/22 Q1012=",
"80222599999","2023-10-12T18:00:00","4","6.95","-71.85","213.0","LOS COLONIZADORES, CO","FM-15","99999","V020","190,1,N,0057,1","99999,9,9,N","009999,1,9,9","+0320,1","+0230,1","99999,9","04,1,+01524,1,99,9",,"9,AGL   ,+99999,+99999","99,99,9,04,1,99,9,01524,1,99,9,99,9","10100,1,99999,9",,,,"MET051METAR SKSA 121800Z 19011KT 9999 SCT050 32/23 Q1010=",
"80222599999","2023-10-12T19:00:00","4","6.95","-71.85","213.0","LOS COLONIZADORES, CO","FM-15","99999","V020","270,1,N,0015,1","99999,9,9,N","009999,1,9,9","+0340,1","+9999,9","99999,9","02,1,+01524,1,99,9",,"9,AGL   ,+99999,+99999","99,99,9,02,1,99,9,01524,1,99,9,99,9","10080,1,99999,9",,,,"MET052METAR SKSA 121900Z 27003KT 9999 FEW050 34/234 Q1008=",
"80222599999","2023-10-12T22:00:00","4","6.95","-71.85","213.0","LOS COLONIZADORES, CO","FM-15","99999","V020","260,1,N,0015,1","99999,9,9,N","009999,1,9,9","+0320,1","+0220,1","99999,9","02,1,+01524,1,99,9",,"9,AGL   ,+99999,+99999","99,99,9,02,1,99,9,01524,1,99,9,99,9","10080,1,99999,9",,,,"MET051METAR SKSA 122200Z 26003KT 9999 FEW050 32/22 Q1008=",
"80222599999","2023-10-12T23:00:00","4","6.95","-71.85","213.0","LOS COLONIZADORES, CO","FM-15","99999","V020","999,9,V,0010,1","22000,1,9,N","009999,1,9,9","+0290,1","+0240,1","99999,9",,,,"00,99,1,99,9,99,9,99999,9,99,9,99,9","10070,1,99999,9",,,,"MET048METAR SKSA 122300Z VRB02KT 9999 NSC 29/24 Q1007=",
"80222599999","2023-10-13T11:00:00","4","6.95","-71.85","213.0","LOS COLONIZADORES, CO","FM-15","99999","V020","999,9,V,0010,1","22000,1,9,N","009999,1,9,9","+0220,1","+0220,1","99999,9",,,,"00,99,1,99,9,99,9,99999,9,99,9,99,9","10110,1,99999,9",,,,"MET048METAR SKSA 131100Z VRB02KT 9999 NSC 22/22 Q1011=",
"80222599999","2023-10-13T12:00:00","4","6.95","-71.85","213.0","LOS COLONIZADORES, CO","FM-15","99999","V020","999,9,V,0010,1","22000,1,9,N","009999,1,9,9","+0260,1","+0220,1","99999,9",,,,"00,99,1,99,9,99,9,99999,9,99,9,99,9","10120,1,99999,9",,,,"MET048METAR SKSA 131200Z VRB02KT 9999 NSC 26/22 Q1012=",
"80222599999","2023-10-13T13:00:00","4","6.95","-71.85","213.0","LOS COLONIZADORES, CO","FM-15","99999","V020","999,9,V,0010,1","22000,1,9,N","009999,1,9,9","+0290,1","+0220,1","99999,9",,,,"00,99,1,99,9,99,9,99999,9,99,9,99,9","10130,1,99999,9",,,,"MET048METAR SKSA 131300Z VRB02KT 9999 NSC 29/22 Q1013=",
"80222599999","2023-10-13T14:00:00","4","6.95","-71.85","213.0","LOS COLONIZADORES, CO","FM-15","99999","V020","350,1,N,0031,1","22000,1,9,N","009999,1,9,9","+0300,1","+0220,1","99999,9",,,,"00,99,1,99,9,99,9,99999,9,99,9,99,9","10130,1,99999,9",,,,"MET048METAR SKSA 131400Z 35006KT 9999 NSC 30/22 Q1013=",
"80222599999","2023-10-13T15:00:00","4","6.95","-71.85","213.0","LOS COLONIZADORES, CO","FM-15","99999","V020","030,1,N,0021,1","22000,1,9,N","009999,1,9,9","+0330,1","+0210,1","99999,9",,,,"00,99,1,99,9,99,9,99999,9,99,9,99,9","10130,1,99999,9",,,,"MET048METAR SKSA 131500Z 03004KT 9999 NSC 33/21 Q1013=",
"80222599999","2023-10-13T16:00:00","4","6.95","-71.85","213.0","LOS COLONIZADORES, CO","FM-15","99999","V020","230,1,N,0021,1","22000,1,9,N","009999,1,9,9","+0310,1","+0220,1","99999,9",,,,"00,99,1,99,9,99,9,99999,9,99,9,99,9","10120,1,99999,9",,,,"MET048METAR SKSA 131600Z 23004KT 9999 NSC 31/22 Q1012=",
"80222599999","2023-10-13T18:00:00","4","6.95","-71.85","213.0","LOS COLONIZADORES, CO","FM-15","99999","V020","030,1,N,0021,1","99999,9,9,N","009999,1,9,9","+0330,1","+0220,1","99999,9","04,1,+01524,1,99,9",,"9,AGL   ,+99999,+99999","99,99,9,04,1,99,9,01524,1,99,9,99,9","10090,1,99999,9",,,,"MET051METAR SKSA 131800Z 03004KT 9999 SCT050 33/22 Q1009=",
"80222599999","2023-10-13T20:00:00","4","6.95","-71.85","213.0","LOS COLONIZADORES, CO","FM-15","99999","V020","130,1,N,0015,1","99999,9,9,N","009999,1,9,9","+0340,1","+0230,1","99999,9","02,1,+01524,1,99,9",,"9,AGL   ,+99999,+99999","99,99,9,02,1,99,9,01524,1,99,9,99,9","10070,1,99999,9",,,,"MET051METAR SKSA 132000Z 13003KT 9999 FEW050 34/23 Q1007=",
"80222599999","2023-10-13T21:00:00","4","6.95","-71.85","213.0","LOS COLONIZADORES, CO","FM-15","99999","V020","999,9,V,0010,1","99999,9,9,N","009999,1,9,9","+0330,1","+0240,1","99999,9","02,1,+01524,1,99,9",,"9,AGL   ,+99999,+99999","99,99,9,02,1,99,9,01524,1,99,9,99,9","10070,1,99999,9",,,,"MET051METAR SKSA 132100Z VRB02KT 9999 FEW050 33/24 Q1007=",
"80222599999","2023-10-13T22:00:00","4","6.95","-71.85","213.0","LOS COLONIZADORES, CO","FM-15","99999","V020","999,9,V,0010,1","99999,9,9,N","009999,1,9,9","+0310,1","+0240,1","99999,9","02,1,+01524,1,99,9",,"9,AGL   ,+99999,+99999","99,99,9,02,1,99,9,01524,1,99,9,99,9","10080,1,99999,9",,,,"MET051METAR SKSA 132200Z VRB02KT 9999 FEW050 31/24 Q1008=",
"80222599999","2023-10-13T23:00:00","4","6.95","-71.85","213.0","LOS COLONIZADORES, CO","FM-15","99999","V020","999,9,V,0010,1","99999,9,9,N","009999,1,9,9","+0280,1","+0250,1","99999,9","02,1,+01524,1,99,9",,"9,AGL   ,+99999,+99999","99,99,9,02,1,99,9,01524,1,99,9,99,9","10080,1,99999,9",,,,"MET051METAR SKSA 132300Z VRB02KT 9999 FEW050 28/25 Q1008=",
"80222599999","2023-10-14T16:00:00","4","6.95","-71.85","213.0","LOS COLONIZADORES, CO","FM-15","99999","V020","010,1,N,0021,1","22000,1,9,N","009999,1,9,9","+0320,1","+0240,1","99999,9",,,,"00,99,1,99,9,99,9,99999,9,99,9,99,9","10120,1,99999,9",,,,"MET048METAR SKSA 141600Z 01004KT 9999 NSC 32/24 Q1012=",
"80222599999","2023-10-14T18:00:00","4","6.95","-71.85","213.0","LOS COLONIZADORES, CO","FM-15","99999","V020","040,1,N,0015,1","99999,9,9,N","009999,1,9,9","+0320,1","+0240,1","99999,9","04,1,+01524,1,99,9",,"9,AGL   ,+99999,+99999","99,99,9,04,1,99,9,01524,1,99,9,99,9","10100,1,99999,9",,,,"MET051METAR SKSA 141800Z 04003KT 9999 SCT050 32/24 Q1010=",
"80222599999","2023-10-14T19:00:00","4","6.95","-71.85","213.0","LOS COLONIZADORES, CO","FM-15","99999","V020","110,1,N,0015,1","99999,9,9,N","009999,1,9,9","+0300,1","+0260,1","99999,9","04,1,+01524,1,99,9",,"9,AGL   ,+99999,+99999","99,99,9,04,1,99,9,01524,1,99,9,99,9","10090,1,99999,9","16,1",,,"MET070METAR SKSA 141900Z 11003KT 9999 VCSH SCT050 30/26 Q1009 RMK VCSH W SW=",
"80222599999","2023-10-14T20:00:00","4","6.95","-71.85","213.0","LOS COLONIZADORES, CO","FM-15","99999","V020","210,1,N,0036,1","01219,1,C,N","009999,1,9,9","+0280,1","+0210,1","99999,9","08,1,+01219,1,99,9",,"9,AGL   ,+99999,+99999","99,99,9,08,1,99,9,01219,1,99,9,99,9","10090,1,99999,9","61,1",,,"MET072METAR SKSA 142000Z 21007KT 9999 -RA OVC040 28/21 Q1009 RMK VCSH W SW SE=",
"80222599999","2023-10-14T21:00:00","4","6.95","-71.85","213.0","LOS COLONIZADORES, CO","FM-15","99999","V020","270,1,N,0021,1","01219,1,C,N","008000,1,9,9","+0240,1","+0220,1","99999,9","08,1,+01219,1,99,9",,"9,AGL   ,+99999,+99999","99,99,9,08,1,99,9,01219,1,99,9,99,9","10090,1,99999,9","17,1","81,1",,"MET063METAR SKSA 142100Z 27004KT 8000 TS SHRA OVC040 24/22 Q1009 RMK=",
"80222599999","2023-10-14T22:00:00","4","6.95","-71.85","213.0","LOS COLONIZADORES, CO","FM-15","99999","V020","290,1,N,0026,1","22000,1,9,N","009999,1,9,9","+0240,1","+0220,1","99999,9",,,,"00,99,1,99,9,99,9,99999,9,99,9,99,9","10100,1,99999,9",,,,"MET048METAR SKSA 142200Z 29005KT 9999 NSC 24/22 Q1010=",
"80222599999","2023-10-14T23:00:00","4","6.95","-71.85","213.0","LOS COLONIZADORES, CO","FM-15","99999","V020","300,1,N,0021,1","22000,1,9,N","009999,1,9,9","+0240,1","+0240,1","99999,9",,,,"00,99,1,99,9,99,9,99999,9,99,9,99,9","10100,1,99999,9",,,,"MET048METAR SKSA 142300Z 30004KT 9999 NSC 24/24 Q1010=",
"80222599999","2023-10-15T11:00:00","4","6.95","-71.85","213.0","LOS COLONIZADORES, CO","FM-15","99999","V020","999,9,V,0010,1","99999,9,9,N","009999,1,9,9","+0220,5","+0220,5","99999,9",,,,,"10130,5,99999,9","16,1",,,"MET067METAR SKSA 151100Z VRB02KT 9999 VCSH FE070 22/22 Q1013 RMK VCSH NE=","D01      0ADE693D02      0ADE539"
"80222599999","2023-10-15T12:00:00","4","6.95","-71.85","213.0","LOS COLONIZADORES, CO","FM-15","99999","V020","330,1,N,0015,1","99999,9,9,N","009999,1,9,9","+0240,1","+0230,1","99999,9","02,1,+02134,1,99,9",,"9,AGL   ,+99999,+99999","99,99,9,02,1,99,9,02134,1,99,9,99,9","10130,1,99999,9","16,1",,,"MET068METAR SKSA 151200Z 33003KT 9999 VCSH FEW070 24/23 Q1013 RMK VCSH NE=",
"80222599999","2023-10-15T13:00:00","4","6.95","-71.85","213.0","LOS COLONIZADORES, CO","FM-15","99999","V020","330,1,N,0015,1","99999,9,9,N","009999,1,9,9","+0240,1","+0230,1","99999,9","02,1,+02134,1,99,9",,"9,AGL   ,+99999,+99999","99,99,9,02,1,99,9,02134,1,99,9,99,9","10150,1,99999,9","16,1",,,"MET068METAR SKSA 151300Z 33003KT 9999 VCSH FEW070 24/23 Q1015 RMK VCSH NE=",
"80222599999","2023-10-15T14:00:00","4","6.95","-71.85","213.0","LOS COLONIZADORES, CO","FM-15","99999","V020","020,1,N,0015,1","00671,1,C,N","009999,1,9,9","+0250,1","+0230,1","99999,9","07,1,+00671,1,99,9",,"9,AGL   ,+99999,+99999","99,99,9,07,1,99,9,00671,1,99,9,99,9","10160,1,99999,9",,,,"MET051METAR SKSA 151400Z 02003KT 9999 BKN022 25/23 Q1016=",
"80222599999","2023-10-15T15:00:00","4","6.95","-71.85","213.0","LOS COLONIZADORES, CO","FM-15","99999","V020","010,1,N,0015,1","00610,1,C,N","009999,1,9,9","+0270,1","+0240,1","99999,9","08,1,+00610,1,99,9",,"9,AGL   ,+99999,+99999","99,99,9,08,1,99,9,00610,1,99,9,99,9","10160,1,99999,9",,,,"MET051METAR SKSA 151500Z 01003KT 9999 OVC020 27/24 Q1016=",
"80222599999","2023-10-15T16:00:00","4","6.95","-71.85","213.0","LOS COLONIZADORES, CO","FM-15","99999","V020","260,1,N,0015,1","99999,9,9,N","009999,1,9,9","+0280,1","+0230,1","99999,9","04,1,+00610,1,99,9",,"9,AGL   ,+99999,+99999","99,99,9,04,1,99,9,00610,1,99,9,99,9","10150,1,99999,9",,,,"MET051METAR SKSA 151600Z 26003KT 9999 SCT020 28/23 Q1015=",
"80222599999","2023-10-15T17:00:00","4","6.95","-71.85","213.0","LOS COLONIZADORES, CO","FM-15","99999","V020","230,1,N,0015,1","99999,9,9,N","009999,1,9,9","+0290,1","+0230,1","99999,9","04,1,+02743,1,99,9",,"9,AGL   ,+99999,+99999","99,99,9,04,1,99,9,02743,1,99,9,99,9","10130,1,99999,9",,,,"MET051METAR SKSA 151700Z 23003KT 9999 SCT090 29/23 Q1013=",
"80222599999","2023-10-15T18:00:00","4","6.95","-71.85","213.0","LOS COLONIZADORES, CO","FM-15","99999","V020","230,1,N,0015,1","99999,9,9,N","009999,1,9,9","+0300,1","+0230,1","99999,9","04,1,+02743,1,99,9",,"9,AGL   ,+99999,+99999","99,99,9,04,1,99,9,02743,1,99,9,99,9","10120,1,99999,9",,,,"MET051METAR SKSA 151800Z 23003KT 9999 SCT090 30/23 Q1012=",
"80222599999","2023-10-15T19:00:00","4","6.95","-71.85","213.0","LOS COLONIZADORES, CO","FM-15","99999","V020","160,1,N,0031,1","99999,9,9,N","009999,1,9,9","+0300,1","+0240,1","99999,9","04,1,+00914,1,99,9",,"9,AGL   ,+99999,+99999","99,99,9,04,1,99,9,00914,1,99,9,99,9","10110,1,99999,9",,,,"MET051METAR SKSA 151900Z 16006KT 9999 SCT030 30/24 Q1011=",
"80222599999","2023-10-15T20:00:00","4","6.95","-71.85","213.0","LOS COLONIZADORES, CO","FM-15","99999","V020","160,1,N,0031,1","99999,9,9,N","009999,1,9,9","+0290,1","+0240,1","99999,9","04,1,+00914,1,99,9",,"9,AGL   ,+99999,+99999","99,99,9,04,1,99,9,00914,1,99,9,99,9","10110,1,99999,9",,,,"MET051METAR SKSA 152000Z 16006KT 9999 SCT030 29/24 Q1011=",
"80222599999","2023-10-15T21:00:00","4","6.95","-71.85","213.0","LOS COLONIZADORES, CO","FM-15","99999","V020","160,1,N,0031,1","99999,9,9,N","009999,1,9,9","+0290,1","+0230,1","99999,9","02,1,+00914,1,99,9",,"9,AGL   ,+99999,+99999","99,99,9,02,1,99,9,00914,1,99,9,99,9","10110,1,99999,9",,,,"MET051METAR SKSA 152100Z 16006KT 9999 FEW030 29/23 Q1011=",
"80222599999","2023-10-15T22:00:00","4","6.95","-71.85","213.0","LOS COLONIZADORES, CO","FM-15","99999","V020","200,1,N,0015,1","22000,1,9,N","009999,1,9,9","+0290,1","+0230,1","99999,9",,,,"00,99,1,99,9,99,9,99999,9,99,9,99,9","10100,1,99999,9",,,,"MET048METAR SKSA 152200Z 20003KT 9999 NSC 29/23 Q1010=",
"80222599999","2023-10-15T23:00:00","4","6.95","-71.85","213.0","LOS COLONIZADORES, CO","FM-15","99999","V020","280,1,N,0015,1","22000,1,9,N","009999,1,9,9","+0270,1","+0240,1","99999,9",,,,"00,99,1,99,9,99,9,99999,9,99,9,99,9","10100,1,99999,9",,,,"MET048METAR SKSA 152300Z 28003KT 9999 NSC 27/24 Q1010=",
"80222599999","2023-10-16T11:00:00","4","6.95","-71.85","213.0","LOS COLONIZADORES, CO","FM-15","99999","V020","999,9,V,0010,1","22000,1,9,N","009999,1,9,9","+0210,1","+0210,1","99999,9",,,,"00,99,1,99,9,99,9,99999,9,99,9,99,9","10130,1,99999,9",,,,"MET048METAR SKSA 161100Z VRB02KT 9999 NSC 21/21 Q1013=",
"80222599999","2023-10-16T12:00:00","4","6.95","-71.85","213.0","LOS COLONIZADORES, CO","FM-15","99999","V020","999,9,V,0010,1","22000,1,9,N","009999,1,9,9","+0240,1","+0230,1","99999,9",,,,"00,99,1,99,9,99,9,99999,9,99,9,99,9","10140,1,99999,9",,,,"MET048METAR SKSA 161200Z VRB02KT 9999 NSC 24/23 Q1014=",
"80222599999","2023-10-16T13:00:00","4","6.95","-71.85","213.0","LOS COLONIZADORES, CO","FM-15","99999","V020","999,9,V,0010,1","22000,1,9,N","009999,1,9,9","+0270,1","+0230,1","99999,9",,,,"00,99,1,99,9,99,9,99999,9,99,9,99,9","10150,1,99999,9",,,,"MET048METAR SKSA 161300Z VRB02KT 9999 NSC 27/23 Q1015=",
"80222599999","2023-10-16T14:00:00","4","6.95","-71.85","213.0","LOS COLONIZADORES, CO","FM-15","99999","V020","310,1,N,0015,1","22000,1,9,N","009999,1,9,9","+0280,1","+0240,1","99999,9",,,,"00,99,1,99,9,99,9,99999,9,99,9,99,9","10150,1,99999,9",,,,"MET048METAR SKSA 161400Z 31003KT 9999 NSC 28/24 Q1015=",
"80222599999","2023-10-16T15:00:00","4","6.95","-71.85","213.0","LOS COLONIZADORES, CO","FM-15","99999","V020","310,1,N,0015,1","22000,1,9,N","009999,1,9,9","+0300,1","+0220,1","99999,9",,,,"00,99,1,99,9,99,9,99999,9,99,9,99,9","10140,1,99999,9",,,,"MET048METAR SKSA 161500Z 31003KT 9999 NSC 30/22 Q1014=",
"80222599999","2023-10-16T17:00:00","4","6.95","-71.85","213.0","LOS COLONIZADORES, CO","FM-15","99999","V020","350,1,N,0015,1","22000,1,9,N","009999,1,9,9","+0300,5","+0220,5","99999,9",,,,"00,99,1,99,9,99,9,99999,9,99,9,99,9","10130,5,99999,9",,,,"MET051METAR SKSA 161700Z 35003KT 9999 SKC050 30/22 Q1013=","D01      0ADE693D02      0ADE539"
"80222599999","2023-10-16T18:00:00","4","6.95","-71.85","213.0","LOS COLONIZADORES, CO","FM-15","99999","V020","230,1,N,0015,1","99999,9,9,N","009999,1,9,9","+0330,1","+0220,1","99999,9","04,1,+01524,1,99,9",,"9,AGL   ,+99999,+99999","99,99,9,04,1,99,9,01524,1,99,9,99,9","10110,1,99999,9",,,,"MET051METAR SKSA 161800Z 23003KT 9999 SCT050 33/22 Q1011=",
"80222599999","2023-10-16T20:00:00","4","6.95","-71.85","213.0","LOS COLONIZADORES, CO","FM-15","99999","V020","210,1,N,0015,1","99999,9,9,N","009999,1,9,9","+0330,1","+0220,1","99999,9","04,1,+01524,1,99,9",,"9,AGL   ,+99999,+99999","99,99,9,04,1,99,9,01524,1,99,9,99,9","10090,1,99999,9",,,,"MET051METAR SKSA 162000Z 21003KT 9999 SCT050 33/22 Q1009=",
"80222599999","2023-10-16T21:00:00","4","6.95","-71.85","213.0","LOS COLONIZADORES, CO","FM-15","99999","V020","150,1,N,0026,1","99999,9,9,N","009999,1,9,9","+0310,1","+0240,1","99999,9","04,1,+02134,1,99,9",,"9,AGL   ,+99999,+99999","99,99,9,04,1,99,9,02134,1,99,9,99,9","10090,1,99999,9","16,1",,,"MET067METAR SKSA 162100Z 15005KT 9999 VCSH SCT070 31/24 Q1009 RMK VCSH S=",
"80222599999","2023-10-16T22:00:00","4","6.95","-71.85","213.0","LOS COLONIZADORES, CO","FM-15","99999","V020","150,1,N,0026,1","22000,1,9,N","009999,1,9,9","+0300,1","+0220,1","99999,9",,,,"00,99,1,99,9,99,9,99999,9,99,9,99,9","10090,1,99999,9",,,,"MET048METAR SKSA 162200Z 15005KT 9999 NSC 30/22 Q1009=",
"80222599999","2023-10-16T23:00:00","4","6.95","-71.85","213.0","LOS COLONIZADORES, CO","FM-15","99999","V020","150,1,N,0026,1","22000,1,9,N","009999,1,9,9","+0270,1","+0230,1","99999,9",,,,"00,99,1,99,9,99,9,99999,9,99,9,99,9","10100,1,99999,9",,,,"MET048METAR SKSA 162300Z 15005KT 9999 NSC 27/23 Q1010=",
"80222599999","2023-10-17T11:00:00","4","6.95","-71.85","213.0","LOS COLONIZADORES, CO","FM-15","99999","V020","999,9,C,0000,1","22000,1,9,N","009999,1,9,9","+0220,1","+0220,1","99999,9",,,,"00,99,1,99,9,99,9,99999,9,99,9,99,9","10120,1,99999,9",,,,"MET048METAR SKSA 171100Z 00000KT 9999 NSC 22/22 Q1012=",
"80222599999","2023-10-17T12:00:00","4","6.95","-71.85","213.0","LOS COLONIZADORES, CO","FM-15","99999","V020","999,9,C,0000,1","22000,1,9,N","009999,1,9,9","+0250,1","+0220,1","99999,9",,,,"00,99,1,99,9,99,9,99999,9,99,9,99,9","10130,1,99999,9",,,,"MET048METAR SKSA 171200Z 00000KT 9999 NSC 25/22 Q1013=",
"80222599999","2023-10-17T13:00:00","4","6.95","-71.85","213.0","LOS COLONIZADORES, CO","FM-15","99999","V020","999,9,V,0010,1","22000,1,9,N","009999,1,9,9","+0280,1","+0210,1","99999,9",,,,"00,99,1,99,9,99,9,99999,9,99,9,99,9","10130,1,99999,9",,,,"MET048METAR SKSA 171300Z VRB02KT 9999 NSC 28/21 Q1013=",
"80222599999","2023-10-17T14:00:00","4","6.95","-71.85","213.0","LOS COLONIZADORES, CO","FM-15","99999","V020","350,1,N,0015,1","22000,1,9,N","009999,1,9,9","+0300,1","+0220,1","99999,9",,,,"00,99,1,99,9,99,9,99999,9,99,9,99,9","10130,1,99999,9",,,,"MET048METAR SKSA 171400Z 35003KT 9999 NSC 30/22 Q1013=",
"80222599999","2023-10-17T15:00:00","4","6.95","-71.85","213.0","LOS COLONIZADORES, CO","FM-15","99999","V020","350,1,N,0015,1","22000,1,9,N","009999,1,9,9","+0300,1","+0220,1","99999,9",,,,"00,99,1,99,9,99,9,99999,9,99,9,99,9","10130,1,99999,9",,,,"MET048METAR SKSA 171500Z 35003KT 9999 NSC 30/22 Q1013=",
"80222599999","2023-10-17T16:00:00","4","6.95","-71.85","213.0","LOS COLONIZADORES, CO","FM-15","99999","V020","160,1,N,0015,1","22000,1,9,N","009999,1,9,9","+0330,1","+0230,1","99999,9",,,,"00,99,1,99,9,99,9,99999,9,99,9,99,9","10120,1,99999,9",,,,"MET048METAR SKSA 171600Z 16003KT 9999 NSC 33/23 Q1012=",
"80222599999","2023-10-17T17:00:00","4","6.95","-71.85","213.0","LOS COLONIZADORES, CO","FM-15","99999","V020","060,1,N,0021,1","22000,1,9,N","009999,1,9,9","+0320,1","+0230,1","99999,9",,,,"00,99,1,99,9,99,9,99999,9,99,9,99,9","10110,1,99999,9",,,,"MET048METAR SKSA 171700Z 06004KT 9999 NSC 32/23 Q1011=",
"80222599999","2023-10-17T18:00:00","4","6.95","-71.85","213.0","LOS COLONIZADORES, CO","FM-15","99999","V020","140,1,N,0021,1","22000,1,9,N","009999,1,9,9","+0330,1","+0220,1","99999,9",,,,"00,99,1,99,9,99,9,99999,9,99,9,99,9","10100,1,99999,9",,,,"MET048METAR SKSA 171800Z 14004KT 9999 NSC 33/22 Q1010=",
"80222599999","2023-10-17T21:00:00","4","6.95","-71.85","213.0","LOS COLONIZADORES, CO","FM-15","99999","V020","150,1,N,0015,1","99999,9,9,N","009999,1,9,9","+0330,1","+0210,1","99999,9","02,1,+01524,1,99,9",,"9,AGL   ,+99999,+99999","99,99,9,02,1,99,9,01524,1,99,9,99,9","10080,1,99999,9",,,,"MET051METAR SKSA 172100Z 15003KT 9999 FEW050 33/21 Q1008=",
"80222599999","2023-10-17T22:00:00","4","6.95","-71.85","213.0","LOS COLONIZADORES, CO","FM-15","99999","V020","150,1,N,0015,1","22000,1,9,N","009999,1,9,9","+0320,1","+0240,1","99999,9",,,,"00,99,1,99,9,99,9,99999,9,99,9,99,9","10080,1,99999,9",,,,"MET048METAR SKSA 172200Z 15003KT 9999 NSC 32/24 Q1008=",
"80222599999","2023-10-17T23:00:00","4","6.95","-71.85","213.0","LOS COLONIZADORES, CO","FM-15","99999","V020","999,9,V,0010,1","22000,1,9,N","009999,1,9,9","+0270,1","+0250,1","99999,9",,,,"00,99,1,99,9,99,9,99999,9,99,9,99,9","10080,1,99999,9",,,,"MET048METAR SKSA 172300Z VRB02KT 9999 NSC 27/25 Q1008=",
"80222599999","2023-10-18T11:00:00","4","6.95","-71.85","213.0","LOS COLONIZADORES, CO","FM-15","99999","V020","999,9,C,0000,1","99999,9,9,N","009999,1,9,9","+0230,1","+0220,1","99999,9","02,1,+02743,1,99,9",,"9,AGL   ,+99999,+99999","99,99,9,02,1,99,9,02743,1,99,9,99,9","10110,1,99999,9",,,,"MET051METAR SKSA 181100Z 00000KT 9999 FEW090 23/22 Q1011=",
"80222599999","2023-10-18T14:00:00","4","6.95","-71.85","213.0","LOS COLONIZADORES, CO","FM-15","99999","V020","999,9,C,0000,1","99999,9,9,N","009999,1,9,9","+0300,1","+0220,1","99999,9","02,1,+02743,1,99,9",,"9,AGL   ,+99999,+99999","99,99,9,02,1,99,9,02743,1,99,9,99,9","10130,1,99999,9",,,,"MET051METAR SKSA 181400Z 00000KT 9999 FEW090 30/22 Q1013=",
"80222599999","2023-10-18T15:00:00","4","6.95","-71.85","213.0","LOS COLONIZADORES, CO","FM-15","99999","V020","090,1,N,0015,1","22000,1,9,N","009999,1,9,9","+0310,1","+0230,1","99999,9",,,,"00,99,1,99,9,99,9,99999,9,99,9,99,9","10130,1,99999,9",,,,"MET048METAR SKSA 181500Z 09003KT 9999 NSC 31/23 Q1013=",
"80222599999","2023-10-18T16:00:00","4","6.95","-71.85","213.0","LOS COLONIZADORES, CO","FM-15","99999","V020","200,1,N,0021,1","22000,1,9,N","009999,1,9,9","+0320,1","+0220,1","99999,9",,,,"00,99,1,99,9,99,9,99999,9,99,9,99,9","10130,1,99999,9",,,,"MET048METAR SKSA 181600Z 20004KT 9999 NSC 32/22 Q1013=",
"80222599999","2023-10-18T17:00:00","4","6.95","-71.85","213.0","LOS COLONIZADORES, CO","FM-15","99999","V020","050,1,N,0026,1","22000,1,9,N","009999,1,9,9","+0330,1","+0230,1","99999,9",,,,"00,99,1,99,9,99,9,99999,9,99,9,99,9","10110,1,99999,9",,,,"MET048METAR SKSA 181700Z 05005KT 9999 NSC 33/23 Q1011=",
"80222599999","2023-10-18T18:00:00","4","6.95","-71.85","213.0","LOS COLONIZADORES, CO","FM-15","99999","V020","310,1,N,0015,1","22000,1,9,N","009999,1,9,9","+0330,1","+0220,1","99999,9",,,,"00,99,1,99,9,99,9,99999,9,99,9,99,9","10090,1,99999,9",,,,"MET048METAR SKSA 181800Z 31003KT 9999 NSC 33/22 Q1009=",
"80222599999","2023-10-18T19:00:00","4","6.95","-71.85","213.0","LOS COLONIZADORES, CO","FM-15","99999","V020","230,1,N,0036,1","99999,9,9,N","009999,1,9,9","+0270,1","+0240,1","99999,9","04,1,+01524,1,99,9",,"9,AGL   ,+99999,+99999","99,99,9,04,1,99,9,01524,1,99,9,99,9","10080,1,99999,9",,,,"MET051METAR SKSA 181900Z 23007KT 9999 SCT050 27/24 Q1008=",
"80222599999","2023-10-18T20:00:00","4","6.95","-71.85","213.0","LOS COLONIZADORES, CO","FM-15","99999","V020","230,1,N,0036,1","99999,9,9,N","009999,1,9,9","+0270,1","+0240,1","99999,9","04,1,+01524,1,99,9",,"9,AGL   ,+99999,+99999","99,99,9,04,1,99,9,01524,1,99,9,99,9","10080,1,99999,9",,,,"MET051METAR SKSA 182000Z 23007KT 9999 SCT050 27/24 Q1008=",
"80222599999","2023-10-18T21:00:00","4","6.95","-71.85","213.0","LOS COLONIZADORES, CO","FM-15","99999","V020","250,1,N,0026,1","99999,9,9,N","009999,1,9,9","+0310,1","+0240,1","99999,9","02,1,+01524,1,99,9",,"9,AGL   ,+99999,+99999","99,99,9,02,1,99,9,01524,1,99,9,99,9","10080,1,99999,9",,,,"MET051METAR SKSA 182100Z 25005KT 9999 FEW050 31/24 Q1008=",
"80222599999","2023-10-18T22:00:00","4","6.95","-71.85","213.0","LOS COLONIZADORES, CO","FM-15","99999","V020","280,1,N,0015,1","99999,9,9,N","009999,1,9,9","+0300,1","+0230,1","99999,9","02,1,+02438,1,99,9",,"9,AGL   ,+99999,+99999","99,99,9,02,1,99,9,02438,1,99,9,99,9","10080,1,99999,9","16,1",,,"MET067METAR SKSA 182200Z 28003KT 9999 VCSH FEW080 30/23 Q1008 RMK VCSH S=",
"80222599999","2023-10-18T23:00:00","4","6.95","-71.85","213.0","LOS COLONIZADORES, CO","FM-15","99999","V020","280,1,N,0015,1","99999,9,9,N","009999,1,9,9","+0270,1","+0230,1","99999,9","04,1,+02438,1,99,9",,"9,AGL   ,+99999,+99999","99,99,9,04,1,99,9,02438,1,99,9,99,9","10080,1,99999,9","16,1",,,"MET067METAR SKSA 182300Z 28003KT 9999 VCSH SCT080 27/23 Q1008 RMK VCSH S=",
"80222599999","2023-10-19T20:00:00","4","6.95","-71.85","213.0","LOS COLONIZADORES, CO","FM-15","99999","V020","200,1,N,0026,1","99999,9,9,N","009999,1,9,9","+0290,1","+0230,1","99999,9","04,1,+01524,1,99,9",,"9,AGL   ,+99999,+99999","99,99,9,04,1,99,9,01524,1,99,9,99,9","10080,1,99999,9",,,,"MET051METAR SKSA 192000Z 20005KT 9999 SCT050 29/23 Q1008=",
"80222599999","2023-10-19T21:00:00","4","6.95","-71.85","213.0","LOS COLONIZADORES, CO","FM-15","99999","V020","230,1,N,0021,1","99999,9,9,N","009999,1,9,9","+0290,1","+0220,1","99999,9","04,1,+01524,1,99,9",,"9,AGL   ,+99999,+99999","99,99,9,04,1,99,9,01524,1,99,9,99,9","10080,1,99999,9",,,,"MET051METAR SKSA 192100Z 23004KT 9999 SCT050 29/22 Q1008=",
"80222599999","2023-10-19T22:00:00","4","6.95","-71.85","213.0","LOS COLONIZADORES, CO","FM-15","99999","V020","230,1,N,0015,1","99999,9,9,N","009999,1,9,9","+0280,1","+0210,1","99999,9","04,1,+01524,1,99,9",,"9,AGL   ,+99999,+99999","99,99,9,04,1,99,9,01524,1,99,9,99,9","10080,1,99999,9",,,,"MET051METAR SKSA 192200Z 23003KT 9999 SCT050 28/21 Q1008=",
"80222599999","2023-10-19T23:00:00","4","6.95","-71.85","213.0","LOS COLONIZADORES, CO","FM-15","99999","V020","290,1,N,0021,1","99999,9,9,N","009999,1,9,9","+0270,1","+0220,1","99999,9","04,1,+01524,1,99,9",,"9,AGL   ,+99999,+99999","99,99,9,04,1,99,9,01524,1,99,9,99,9","10090,1,99999,9",,,,"MET051METAR SKSA 192300Z 29004KT 9999 SCT050 27/22 Q1009=",
"80222599999","2023-10-20T11:00:00","4","6.95","-71.85","213.0","LOS COLONIZADORES, CO","FM-15","99999","V020","999,9,V,0010,1","02743,1,C,N","009999,1,9,9","+0230,1","+0230,1","99999,9","07,1,+02743,1,99,9",,"9,AGL   ,+99999,+99999","99,99,9,07,1,99,9,02743,1,99,9,99,9","10120,1,99999,9",,,,"MET051METAR SKSA 201100Z VRB02KT 9999 BKN090 23/23 Q1012=",
"80222599999","2023-10-20T12:00:00","4","6.95","-71.85","213.0","LOS COLONIZADORES, CO","FM-15","99999","V020","999,9,V,0010,1","02743,1,C,N","009999,1,9,9","+0240,1","+0240,1","99999,9","07,1,+02743,1,99,9",,"9,AGL   ,+99999,+99999","99,99,9,07,1,99,9,02743,1,99,9,99,9","10120,1,99999,9",,,,"MET051METAR SKSA 201200Z VRB02KT 9999 BKN090 24/24 Q1012=",
"80222599999","2023-10-20T13:00:00","4","6.95","-71.85","213.0","LOS COLONIZADORES, CO","FM-15","99999","V020","310,1,N,0021,1","02743,1,C,N","009999,1,9,9","+0270,1","+0230,1","99999,9","07,1,+02743,1,99,9",,"9,AGL   ,+99999,+99999","99,99,9,07,1,99,9,02743,1,99,9,99,9","10130,1,99999,9",,,,"MET051METAR SKSA 201300Z 31004KT 9999 BKN090 27/23 Q1013=",
"80222599999","2023-10-20T14:00:00","4","6.95","-71.85","213.0","LOS COLONIZADORES, CO","FM-15","99999","V020","350,1,N,0015,1","22000,1,9,N","009999,1,9,9","+0280,1","+0240,1","99999,9",,,,"00,99,1,99,9,99,9,99999,9,99,9,99,9","10130,1,99999,9","10,1",,,"MET051METAR SKSA 201400Z 35003KT 9999 BR NSC 28/24 Q1013=",
"80222599999","2023-10-20T15:00:00","4","6.95","-71.85","213.0","LOS COLONIZADORES, CO","FM-15","99999","V020","300,1,N,0015,1","22000,1,9,N","009999,1,9,9","+0300,1","+0230,1","99999,9",,,,"00,99,1,99,9,99,9,99999,9,99,9,99,9","10120,1,99999,9",,,,"MET048METAR SKSA 201500Z 30003KT 9999 NSC 30/23 Q1012=",
"80222599999","2023-10-20T16:00:00","4","6.95","-71.85","213.0","LOS COLONIZADORES, CO","FM-15","99999","V020","999,9,V,0010,1","22000,1,9,N","009999,1,9,9","+0300,1","+0240,1","99999,9",,,,"00,99,1,99,9,99,9,99999,9,99,9,99,9","10120,1,99999,9",,,,"MET048METAR SKSA 201600Z VRB02KT 9999 NSC 30/24 Q1012=",
"80222599999","2023-10-20T17:00:00","4","6.95","-71.85","213.0","LOS COLONIZADORES, CO","FM-15","99999","V020","070,1,N,0026,1","99999,9,9,N","009999,1,9,9","+0310,1","+0240,1","99999,9","04,1,+02134,1,99,9",,"9,AGL   ,+99999,+99999","99,99,9,04,1,99,9,02134,1,99,9,99,9","10110,1,99999,9","16,1",,,"MET070METAR SKSA 201700Z 07005KT 9999 VCSH SCT070 31/24 Q1011 RMK VCSH W SW=",
"80222599999","2023-10-20T18:00:00","4","6.95","-71.85","213.0","LOS COLONIZADORES, CO","FM-15","99999","V020","210,1,N,0046,1","99999,9,9,N","008000,1,9,9","+0300,1","+0240,1","99999,9","04,1,+01067,1,99,9",,"9,AGL   ,+99999,+99999","99,99,9,04,1,99,9,01067,1,99,9,99,9","10100,1,99999,9","13,1",,,"MET067METAR SKSA 201800Z 21009KT 8000 VCTS SCT035 30/24 Q1010 RMK VCTS S=",
"80222599999","2023-10-20T19:00:00","4","6.95","-71.85","213.0","LOS COLONIZADORES, CO","FM-15","99999","V020","210,1,N,0036,1","00914,1,C,N","008000,1,9,9","+0260,1","+0250,1","99999,9","08,1,+00914,1,99,9",,"9,AGL   ,+99999,+99999","99,99,9,08,1,99,9,00914,1,99,9,99,9","10090,1,99999,9","13,1",,,"MET067METAR SKSA 201900Z 21007KT 8000 VCTS OVC030 26/25 Q1009 RMK VCTS S=",
"80222599999","2023-10-20T20:00:00","4","6.95","-71.85","213.0","LOS COLONIZADORES, CO","FM-15","99999","V020","180,1,N,0026,1","01219,1,C,N","005000,1,9,9","+0250,1","+0240,1","99999,9","08,1,+01219,1,99,9",,"9,AGL   ,+99999,+99999","99,99,9,08,1,99,9,01219,1,99,9,99,9","10090,1,99999,9","95,1",,,"MET073METAR SKSA 202000Z 18005KT 5000 TSRA OVC040 25/24 Q1009 RMK VCTS S SE NE=",
"80222599999","2023-10-21T11:00:00","4","6.95","-71.85","213.0","LOS COLONIZADORES, CO","FM-15","99999","V020","999,9,V,0010,1","00244,1,C,N","002000,1,9,9","+0220,1","+0220,1","99999,9","08,1,+00244,1,99,9",,"9,AGL   ,+99999,+99999","99,99,9,08,1,99,9,00244,1,99,9,99,9","10130,1,99999,9","63,1",,,"MET054METAR SKSA 211100Z VRB02KT 2000 RA OVC008 22/22 Q1013=",
"80222599999","2023-10-21T12:00:00","4","6.95","-71.85","213.0","LOS COLONIZADORES, CO","FM-15","99999","V020","020,1,N,0015,1","00305,1,C,N","002000,1,9,9","+0220,1","+0220,1","99999,9","08,1,+00305,1,99,9",,"9,AGL   ,+99999,+99999","99,99,9,08,1,99,9,00305,1,99,9,99,9","10140,1,99999,9","63,1",,,"MET058METAR COR SKSA 211200Z 02003KT 2000 RA OVC010 22/22 Q1014=",
"80222599999","2023-10-21T13:00:00","4","6.95","-71.85","213.0","LOS COLONIZADORES, CO","FM-15","99999","V020","270,1,N,0015,1","00305,1,C,N","003000,1,9,9","+0230,1","+0230,1","99999,9","08,1,+00305,1,99,9",,"9,AGL   ,+99999,+99999","99,99,9,08,1,99,9,00305,1,99,9,99,9","10140,1,99999,9","63,1",,,"MET054METAR SKSA 211300Z 27003KT 3000 RA OVC010 23/23 Q1014=",
"80222599999","2023-10-21T14:00:00","4","6.95","-71.85","213.0","LOS COLONIZADORES, CO","FM-15","99999","V020","310,1,N,0036,1","00244,1,C,N","008000,1,9,9","+0230,1","+0230,1","99999,9","07,1,+00244,1,99,9","08,1,+00914,1,99,9","9,AGL   ,+99999,+99999","99,99,9,07,1,99,9,00244,1,99,9,99,9","10140,1,99999,9",,,,"MET058METAR SKSA 211400Z 31007KT 8000 BKN008 OVC030 23/23 Q1014=",
"80222599999","2023-10-21T15:00:00","4","6.95","-71.85","213.0","LOS COLONIZADORES, CO","FM-15","99999","V020","330,1,N,0036,1","00183,1,C,N","009999,1,9,9","+0230,1","+0230,1","99999,9","07,1,+00183,1,99,9","08,1,+01524,1,99,9","9,AGL   ,+99999,+99999","99,99,9,07,1,99,9,00183,1,99,9,99,9","10140,1,99999,9",,,,"MET058METAR SKSA 211500Z 33007KT 9999 BKN006 OVC050 23/23 Q1014=",
"80222599999","2023-10-21T16:00:00","4","6.95","-71.85","213.0","LOS COLONIZADORES, CO","FM-15","99999","V020","320,1,N,0026,1","02743,1,C,N","009999,1,9,9","+0240,1","+0240,1","99999,9","08,1,+02743,1,99,9",,"9,AGL   ,+99999,+99999","99,99,9,08,1,99,9,02743,1,99,9,99,9","10130,1,99999,9",,,,"MET051METAR SKSA 211600Z 32005KT 9999 OVC090 24/24 Q1013=",
"80222599999","2023-10-21T17:00:00","4","6.95","-71.85","213.0","LOS COLONIZADORES, CO","FM-15","99999","V020","340,1,N,0015,1","02743,1,C,N","009999,1,9,9","+0260,1","+0240,1","99999,9","08,1,+02743,1,99,9",,"9,AGL   ,+99999,+99999","99,99,9,08,1,99,9,02743,1,99,9,99,9","10120,1,99999,9",,,,"MET051METAR SKSA 211700Z 34003KT 9999 OVC090 26/24 Q1012=",
"80222599999","2023-10-21T18:00:00","4","6.95","-71.85","213.0","LOS COLONIZADORES, CO","FM-15","99999","V020","999,9,C,0000,1","22000,1,9,N","009999,1,9,9","+0270,1","+0240,1","99999,9",,,,"00,99,1,99,9,99,9,99999,9,99,9,99,9","10100,1,99999,9",,,,"MET048METAR SKSA 211800Z 00000KT 9999 NSC 27/24 Q1010=",
"80222599999","2023-10-21T19:00:00","4","6.95","-71.85","213.0","LOS COLONIZADORES, CO","FM-15","99999","V020","110,1,N,0015,1","22000,1,9,N","009999,1,9,9","+0290,1","+0230,1","99999,9",,,,"00,99,1,99,9,99,9,99999,9,99,9,99,9","10080,1,99999,9",,,,"MET048METAR SKSA 211900Z 11003KT 9999 NSC 29/23 Q1008=",
"80222599999","2023-10-21T20:00:00","4","6.95","-71.85","213.0","LOS COLONIZADORES, CO","FM-15","99999","V020","150,1,N,0021,1","22000,1,9,N","009999,1,9,9","+0290,1","+0230,1","99999,9",,,,"00,99,1,99,9,99,9,99999,9,99,9,99,9","10080,1,99999,9",,,,"MET048METAR SKSA 212000Z 15004KT 9999 NSC 29/23 Q1008=",
"80222599999","2023-10-21T21:00:00","4","6.95","-71.85","213.0","LOS COLONIZADORES, CO","FM-15","99999","V020","999,9,V,0010,1","22000,1,9,N","009999,1,9,9","+0300,1","+0220,1","99999,9",,,,"00,99,1,99,9,99,9,99999,9,99,9,99,9","10080,1,99999,9",,,,"MET048METAR SKSA 212100Z VRB02KT 9999 NSC 30/22 Q1008=",
"80222599999","2023-10-21T22:00:00","4","6.95","-71.85","213.0","LOS COLONIZADORES, CO","FM-15","99999","V020","999,9,V,0010,1","22000,1,9,N","009999,1,9,9","+0280,1","+0230,1","99999,9",,,,"00,99,1,99,9,99,9,99999,9,99,9,99,9","10080,1,99999,9",,,,"MET048METAR SKSA 212200Z VRB02KT 9999 NSC 28/23 Q1008=",
"80222599999","2023-10-21T23:00:00","4","6.95","-71.85","213.0","LOS COLONIZADORES, CO","FM-15","99999","V020","999,9,C,0000,1","22000,1,9,N","009999,1,9,9","+0250,1","+0240,1","99999,9",,,,"00,99,1,99,9,99,9,99999,9,99,9,99,9","10080,1,99999,9",,,,"MET048METAR SKSA 212300Z 00000KT 9999 NSC 25/24 Q1008=",
"80222599999","2023-10-22T11:00:00","4","6.95","-71.85","213.0","LOS COLONIZADORES, CO","FM-15","99999","V020","150,1,N,0021,1","01219,1,C,N","005000,1,9,9","+0230,1","+0230,1","99999,9","08,1,+01219,1,99,9",,"9,AGL   ,+99999,+99999","99,99,9,08,1,99,9,01219,1,99,9,99,9","10130,1,99999,9","63,1",,,"MET054METAR SKSA 221100Z 15004KT 5000 RA OVC040 23/23 Q1013=",
"80222599999","2023-10-22T12:00:00","4","6.95","-71.85","213.0","LOS COLONIZADORES, CO","FM-15","99999","V020","999,9,V,0010,1","00183,1,C,N","005000,1,9,9","+0240,1","+0240,1","99999,9","07,1,+00183,1,99,9","08,1,+01219,1,99,9","9,AGL   ,+99999,+99999","99,99,9,07,1,99,9,00183,1,99,9,99,9","10140,1,99999,9","63,1",,,"MET061METAR SKSA 221200Z VRB02KT 5000 RA BKN006 OVC040 24/24 Q1014=",
"80222599999","2023-10-22T13:00:00","4","6.95","-71.85","213.0","LOS COLONIZADORES, CO","FM-15","99999","V020","200,1,N,0015,1","01219,1,C,N","006000,1,9,9","+0230,1","+0230,1","99999,9","08,1,+01219,1,99,9",,"9,AGL   ,+99999,+99999","99,99,9,08,1,99,9,01219,1,99,9,99,9","10150,1,99999,9","81,1",,,"MET056METAR SKSA 221300Z 20003KT 6000 SHRA OVC040 23/23 Q1015=",
"80222599999","2023-10-22T14:00:00","4","6.95","-71.85","213.0","LOS COLONIZADORES, CO","FM-15","99999","V020","220,1,N,0015,1","00914,1,C,N","008000,1,9,9","+0240,1","+0240,1","99999,9","07,1,+00914,1,99,9","08,1,+01219,1,99,9","9,AGL   ,+99999,+99999","99,99,9,07,1,99,9,00914,1,99,9,99,9","10150,1,99999,9","81,1",,,"MET063METAR SKSA 221400Z 22003KT 8000 SHRA BKN030 OVC040 24/24 Q1015=",
"80222599999","2023-10-22T15:00:00","4","6.95","-71.85","213.0","LOS COLONIZADORES, CO","FM-15","99999","V020","340,1,N,0015,1","00183,1,C,N","008000,1,9,9","+0250,1","+0250,1","99999,9","07,1,+00183,1,99,9","08,1,+01219,1,99,9","9,AGL   ,+99999,+99999","99,99,9,07,1,99,9,00183,1,99,9,99,9","10150,1,99999,9",,,,"MET058METAR SKSA 221500Z 34003KT 8000 BKN006 OVC040 25/25 Q1015=",
"80222599999","2023-10-22T16:00:00","4","6.95","-71.85","213.0","LOS COLONIZADORES, CO","FM-15","99999","V020","010,1,N,0015,1","00305,1,C,N","009999,1,9,9","+0260,1","+0240,1","99999,9","08,1,+00305,1,99,9",,"9,AGL   ,+99999,+99999","99,99,9,08,1,99,9,00305,1,99,9,99,9","10140,1,99999,9",,,,"MET051METAR SKSA 221600Z 01003KT 9999 OVC010 26/24 Q1014=",
"80222599999","2023-10-22T17:00:00","4","6.95","-71.85","213.0","LOS COLONIZADORES, CO","FM-15","99999","V020","350,1,N,0036,1","00457,1,C,N","009999,1,9,9","+0270,1","+0240,1","99999,9","08,1,+00457,1,99,9",,"9,AGL   ,+99999,+99999","99,99,9,08,1,99,9,00457,1,99,9,99,9","10130,1,99999,9",,,,"MET051METAR SKSA 221700Z 35007KT 9999 OVC015 27/24 Q1013=",
"80222599999","2023-10-22T18:00:00","4","6.95","-71.85","213.0","LOS COLONIZADORES, CO","FM-15","99999","V020","320,1,N,0036,1","00457,1,C,N","009999,1,9,9","+0280,1","+0240,1","99999,9","07,1,+00457,1,99,9",,"9,AGL   ,+99999,+99999","99,99,9,07,1,99,9,00457,1,99,9,99,9","10120,1,99999,9",,,,"MET051METAR SKSA 221800Z 32007KT 9999 BKN015 28/24 Q1012=",
"80222599999","2023-10-22T19:00:00","4","6.95","-71.85","213.0","LOS COLONIZADORES, CO","FM-15","99999","V020","350,1,N,0026,1","99999,9,9,N","009999,1,9,9","+0290,1","+0230,1","99999,9","04,1,+00457,1,99,9",,"9,AGL   ,+99999,+99999","99,99,9,04,1,99,9,00457,1,99,9,99,9","10100,1,99999,9",,,,"MET051METAR SKSA 221900Z 35005KT 9999 SCT015 29/23 Q1010=",
"80222599999","2023-10-22T20:00:00","4","6.95","-71.85","213.0","LOS COLONIZADORES, CO","FM-15","99999","V020","200,1,N,0015,1","99999,9,9,N","009999,1,9,9","+0290,1","+0220,1","99999,9","04,1,+00762,1,99,9",,"9,AGL   ,+99999,+99999","99,99,9,04,1,99,9,00762,1,99,9,99,9","10100,1,99999,9",,,,"MET051METAR SKSA 222000Z 20003KT 9999 SCT025 29/22 Q1010=",
"80222599999","2023-10-22T21:00:00","4","6.95","-71.85","213.0","LOS COLONIZADORES, CO","FM-15","99999","V020","130,1,N,0015,1","99999,9,9,N","009999,1,9,9","+0270,1","+0240,1","99999,9","02,1,+01219,1,99,9",,"9,AGL   ,+99999,+99999","99,99,9,02,1,99,9,01219,1,99,9,99,9","10100,1,99999,9",,,,"MET051METAR SKSA 222100Z 13003KT 9999 FEW040 27/24 Q1010=",
"80222599999","2023-10-22T22:00:00","4","6.95","-71.85","213.0","LOS COLONIZADORES, CO","FM-15","99999","V020","140,1,N,0021,1","99999,9,9,N","009999,1,9,9","+0270,1","+0240,1","99999,9","02,1,+01219,1,99,9",,"9,AGL   ,+99999,+99999","99,99,9,02,1,99,9,01219,1,99,9,99,9","10100,1,99999,9",,,,"MET051METAR SKSA 222200Z 14004KT 9999 FEW040 27/24 Q1010=",
"80222599999","2023-10-22T23:00:00","4","6.95","-71.85","213.0","LOS COLONIZADORES, CO","FM-15","99999","V020","999,9,V,0010,1","99999,9,9,N","009999,1,9,9","+0250,1","+0240,1","99999,9","02,1,+02134,1,99,9",,"9,AGL   ,+99999,+99999","99,99,9,02,1,99,9,02134,1,99,9,99,9","10100,1,99999,9",,,,"MET051METAR SKSA 222300Z VRB02KT 9999 FEW070 25/24 Q1010=",
"80222599999","2023-10-23T11:00:00","4","6.95","-71.85","213.0","LOS COLONIZADORES, CO","FM-15","99999","V020","999,9,C,0000,1","22000,1,9,N","009999,1,9,9","+0230,1","+0230,1","99999,9",,,,"00,99,1,99,9,99,9,99999,9,99,9,99,9","10120,1,99999,9",,,,"MET048METAR SKSA 231100Z 00000KT 9999 NSC 23/23 Q1012=",
"80222599999","2023-10-23T12:00:00","4","6.95","-71.85","213.0","LOS COLONIZADORES, CO","FM-15","99999","V020","999,9,V,0010,1","22000,1,9,N","009999,1,9,9","+0250,1","+0240,1","99999,9",,,,"00,99,1,99,9,99,9,99999,9,99,9,99,9","10120,1,99999,9",,,,"MET048METAR SKSA 231200Z VRB02KT 9999 NSC 25/24 Q1012=",
"80222599999","2023-10-23T18:00:00","4","6.95","-71.85","213.0","LOS COLONIZADORES, CO","FM-15","99999","V020","110,1,N,0026,1","02438,1,C,N","009999,1,9,9","+0300,1","+0240,1","99999,9","07,1,+02438,1,99,9",,"9,AGL   ,+99999,+99999","99,99,9,07,1,99,9,02438,1,99,9,99,9","10100,1,99999,9","16,1",,,"MET068METAR SKSA 231800Z 11005KT 9999 VCSH BKN080 30/24 Q1010 RMK VCSH SW=",
"80222599999","2023-10-23T19:00:00","4","6.95","-71.85","213.0","LOS COLONIZADORES, CO","FM-15","99999","V020","090,1,N,0021,1","02134,1,C,N","009999,1,9,9","+0310,1","+0220,1","99999,9","07,1,+02134,1,99,9",,"9,AGL   ,+99999,+99999","99,99,9,07,1,99,9,02134,1,99,9,99,9","10090,1,99999,9","16,1",,,"MET068METAR SKSA 231900Z 09004KT 9999 VCSH BKN070 31/22 Q1009 RMK VCSH SW=",
"80222599999","2023-10-23T20:00:00","4","6.95","-71.85","213.0","LOS COLONIZADORES, CO","FM-15","99999","V020","210,1,N,0026,1","02134,1,C,N","009999,1,9,9","+0270,1","+0240,1","99999,9","07,1,+02134,1,99,9",,"9,AGL   ,+99999,+99999","99,99,9,07,1,99,9,02134,1,99,9,99,9","10090,1,99999,9","16,1",,,"MET070METAR SKSA 232000Z 21005KT 9999 VCSH BKN070 27/24 Q1009 RMK VCSH S SW=",
"80222599999","2023-10-23T21:00:00","4","6.95","-71.85","213.0","LOS COLONIZADORES, CO","FM-15","99999","V020","999,9,V,0010,1","02134,1,C,N","009999,1,9,9","+0260,1","+0230,1","99999,9","07,1,+02134,1,99,9",,"9,AGL   ,+99999,+99999","99,99,9,07,1,99,9,02134,1,99,9,99,9","10090,1,99999,9","16,1",,,"MET070METAR SKSA 232100Z VRB02KT 9999 VCSH BKN070 26/23 Q1009 RMK VCSH S SW=",
"80222599999","2023-10-23T22:00:00","4","6.95","-71.85","213.0","LOS COLONIZADORES, CO","FM-15","99999","V020","140,1,N,0031,1","02134,1,C,N","009999,1,9,9","+0260,1","+0240,1","99999,9","07,1,+02134,1,99,9",,"9,AGL   ,+99999,+99999","99,99,9,07,1,99,9,02134,1,99,9,99,9","10090,1,99999,9","16,1",,,"MET071METAR SKSA 232200Z 14006KT 9999 VCSH BKN070 26/24 Q1009 RMK VCSH SE SW=",
"80222599999","2023-10-23T23:00:00","4","6.95","-71.85","213.0","LOS COLONIZADORES, CO","FM-15","99999","V020","999,9,V,0010,1","01829,1,C,N","009999,1,9,9","+0250,1","+0240,1","99999,9","07,1,+01829,1,99,9",,"9,AGL   ,+99999,+99999","99,99,9,07,1,99,9,01829,1,99,9,99,9","10090,1,99999,9","16,1",,,"MET068METAR SKSA 232300Z VRB02KT 9999 VCSH BKN060 25/24 Q1009 RMK VCSH SE=",
"80222599999","2023-10-24T11:00:00","4","6.95","-71.85","213.0","LOS COLONIZADORES, CO","FM-15","99999","V020","300,1,N,0015,1","99999,9,9,N","009999,1,9,9","+0240,1","+0240,1","99999,9","04,1,+01524,1,99,9",,"9,AGL   ,+99999,+99999","99,99,9,04,1,99,9,01524,1,99,9,99,9","10120,1,99999,9","80,1",,,"MET057METAR SKSA 241100Z 30003KT 9999 -SHRA SCT050 24/24 Q1012=",
"80222599999","2023-10-24T12:00:00","4","6.95","-71.85","213.0","LOS COLONIZADORES, CO","FM-15","99999","V020","280,1,N,0026,1","99999,9,9,N","009999,1,9,9","+0240,1","+0240,1","99999,9","04,1,+01219,1,99,9",,"9,AGL   ,+99999,+99999","99,99,9,04,1,99,9,01219,1,99,9,99,9","10120,1,99999,9",,,,"MET051METAR SKSA 241200Z 28005KT 9999 SCT040 24/24 Q1012=",
"80222599999","2023-10-24T13:00:00","4","6.95","-71.85","213.0","LOS COLONIZADORES, CO","FM-15","99999","V020","280,1,N,0021,1","22000,1,9,N","009999,1,9,9","+0270,1","+0240,1","99999,9",,,,"00,99,1,99,9,99,9,99999,9,99,9,99,9","10120,1,99999,9",,,,"MET048METAR SKSA 241300Z 28004KT 9999 NSC 27/24 Q1012=",
"80222599999","2023-10-24T14:00:00","4","6.95","-71.85","213.0","LOS COLONIZADORES, CO","FM-15","99999","V020","999,9,V,0010,1","22000,1,9,N","009999,1,9,9","+0300,1","+0240,1","99999,9",,,,"00,99,1,99,9,99,9,99999,9,99,9,99,9","10120,1,99999,9",,,,"MET048METAR SKSA 241400Z VRB02KT 9999 NSC 30/24 Q1012=",
"80222599999","2023-10-24T15:00:00","4","6.95","-71.85","213.0","LOS COLONIZADORES, CO","FM-15","99999","V020","050,1,N,0015,1","99999,9,9,N","009999,1,9,9","+0310,1","+0240,1","99999,9","04,1,+01219,1,99,9",,"9,AGL   ,+99999,+99999","99,99,9,04,1,99,9,01219,1,99,9,99,9","10130,1,99999,9",,,,"MET051METAR SKSA 241500Z 05003KT 9999 SCT040 31/24 Q1013=",
"80222599999","2023-10-24T16:00:00","4","6.95","-71.85","213.0","LOS COLONIZADORES, CO","FM-15","99999","V020","999,9,V,0010,1","99999,9,9,N","009999,1,9,9","+0310,1","+0240,1","99999,9","04,1,+01219,1,99,9",,"9,AGL   ,+99999,+99999","99,99,9,04,1,99,9,01219,1,99,9,99,9","10110,1,99999,9",,,,"MET051METAR SKSA 241600Z VRB02KT 9999 SCT040 31/24 Q1011=",
"80222599999","2023-10-24T17:00:00","4","6.95","-71.85","213.0","LOS COLONIZADORES, CO","FM-15","99999","V020","999,9,V,0010,1","99999,9,9,N","009999,1,9,9","+0320,1","+0230,1","99999,9","04,1,+01219,1,99,9",,"9,AGL   ,+99999,+99999","99,99,9,04,1,99,9,01219,1,99,9,99,9","10100,1,99999,9","16,1",,,"MET068METAR SKSA 241700Z VRB02KT 9999 VCSH SCT040 32/23 Q1010 RMK VCSH SW=",
"80222599999","2023-10-24T18:00:00","4","6.95","-71.85","213.0","LOS COLONIZADORES, CO","FM-15","99999","V020","999,9,N,9999,9","99999,9,9,N","003000,5,9,9","+0250,5","+0240,5","99999,9",,,,,"10100,5,99999,9","63,5","81,5",,"MET062METAR SKSA 241800Z 2008KT 3000 SHRA BKN040 OVC070 25/24 Q1010=","D01      0ADE735"
"80222599999","2023-10-24T19:00:00","4","6.95","-71.85","213.0","LOS COLONIZADORES, CO","FM-15","99999","V020","190,1,N,0026,1","99999,9,9,N","009999,1,9,9","+0290,1","+0250,1","99999,9","04,1,+01219,1,99,9",,"9,AGL   ,+99999,+99999","99,99,9,04,1,99,9,01219,1,99,9,99,9","10100,1,99999,9","16,1",,,"MET067METAR SKSA 241900Z 19005KT 9999 VCSH SCT040 29/25 Q1010 RMK VCSH E=",
"80222599999","2023-10-24T20:00:00","4","6.95","-71.85","213.0","LOS COLONIZADORES, CO","FM-15","99999","V020","220,1,N,0021,1","99999,9,9,N","009999,1,9,9","+0310,1","+0230,1","99999,9","04,1,+01219,1,99,9",,"9,AGL   ,+99999,+99999","99,99,9,04,1,99,9,01219,1,99,9,99,9","10080,1,99999,9","16,1",,,"MET068METAR SKSA 242000Z 22004KT 9999 VCSH SCT040 31/23 Q1008 RMK VCSH SW=",
"80222599999","2023-10-24T21:00:00","4","6.95","-71.85","213.0","LOS COLONIZADORES, CO","FM-15","99999","V020","999,9,V,0010,1","99999,9,9,N","009999,1,9,9","+0300,1","+0250,1","99999,9","02,1,+01219,1,99,9",,"9,AGL   ,+99999,+99999","99,99,9,02,1,99,9,01219,1,99,9,99,9","10070,1,99999,9",,,,"MET051METAR SKSA 242100Z VRB02KT 9999 FEW040 30/25 Q1007=",
"80222599999","2023-10-24T22:00:00","4","6.95","-71.85","213.0","LOS COLONIZADORES, CO","FM-15","99999","V020","160,1,N,0015,1","99999,9,9,N","009999,1,9,9","+0290,1","+0260,1","99999,9","02,1,+01219,1,99,9",,"9,AGL   ,+99999,+99999","99,99,9,02,1,99,9,01219,1,99,9,99,9","10070,1,99999,9",,,,"MET051METAR SKSA 242200Z 16003KT 9999 FEW040 29/26 Q1007=",
"80222599999","2023-10-24T23:00:00","4","6.95","-71.85","213.0","LOS COLONIZADORES, CO","FM-15","99999","V020","999,9,V,0010,1","22000,1,9,N","009999,1,9,9","+0270,1","+0260,1","99999,9",,,,"00,99,1,99,9,99,9,99999,9,99,9,99,9","10070,1,99999,9",,,,"MET048METAR SKSA 242300Z VRB02KT 9999 NSC 27/26 Q1007=",
"80222599999","2023-10-25T11:00:00","4","6.95","-71.85","213.0","LOS COLONIZADORES, CO","FM-15","99999","V020","340,1,N,0015,1","22000,1,9,N","009999,1,9,9","+0230,1","+0230,1","99999,9",,,,"00,99,1,99,9,99,9,99999,9,99,9,99,9","10120,1,99999,9","16,1",,,"MET064METAR SKSA 251100Z 34003KT 9999 VCSH NSC 23/23 Q1012 RMK VCSH S=",
"80222599999","2023-10-25T12:00:00","4","6.95","-71.85","213.0","LOS COLONIZADORES, CO","FM-15","99999","V020","999,9,V,0010,1","01219,1,C,N","009999,1,9,9","+0240,1","+0240,1","99999,9","07,1,+01219,1,99,9",,"9,AGL   ,+99999,+99999","99,99,9,07,1,99,9,01219,1,99,9,99,9","10110,1,99999,9","16,1",,,"MET068METAR SKSA 251200Z VRB02KT 9999 VCSH BKN040 24/24 Q1011 RMK VCSH SE=",
"80222599999","2023-10-25T13:00:00","4","6.95","-71.85","213.0","LOS COLONIZADORES, CO","FM-15","99999","V020","020,1,N,0015,1","00914,1,C,N","009999,1,9,9","+0240,1","+0230,1","99999,9","08,1,+00914,1,99,9",,"9,AGL   ,+99999,+99999","99,99,9,08,1,99,9,00914,1,99,9,99,9","10120,1,99999,9","16,1",,,"MET072METAR SKSA 251300Z 02003KT 9999 VCSH OVC030 24/23 Q1012 RMK VCSH N NE S=",
"80222599999","2023-10-25T14:00:00","4","6.95","-71.85","213.0","LOS COLONIZADORES, CO","FM-15","99999","V020","999,9,V,0010,1","00914,1,C,N","005000,1,9,9","+0230,1","+0230,1","99999,9","08,1,+00914,1,99,9",,"9,AGL   ,+99999,+99999","99,99,9,08,1,99,9,00914,1,99,9,99,9","10130,1,99999,9","95,1",,,"MET056METAR SKSA 251400Z VRB02KT 5000 TSRA OVC030 23/23 Q1013=",
"80222599999","2023-10-25T15:00:00","4","6.95","-71.85","213.0","LOS COLONIZADORES, CO","FM-15","99999","V020","230,1,N,0015,1","01067,1,C,N","009999,1,9,9","+0240,1","+0240,1","99999,9","08,1,+01067,1,99,9",,"9,AGL   ,+99999,+99999","99,99,9,08,1,99,9,01067,1,99,9,99,9","10130,1,99999,9","16,1",,,"MET056METAR SKSA 251500Z 23003KT 9999 VCSH OVC035 24/24 Q1013=",
"80222599999","2023-10-25T16:00:00","4","6.95","-71.85","213.0","LOS COLONIZADORES, CO","FM-15","99999","V020","999,9,V,0010,1","00305,1,C,N","009999,1,9,9","+0260,1","+0240,1","99999,9","08,1,+00305,1,99,9",,"9,AGL   ,+99999,+99999","99,99,9,08,1,99,9,00305,1,99,9,99,9","10120,1,99999,9",,,,"MET051METAR SKSA 251600Z VRB02KT 9999 OVC010 26/24 Q1012=",
"80222599999","2023-10-25T17:00:00","4","6.95","-71.85","213.0","LOS COLONIZADORES, CO","FM-15","99999","V020","200,1,N,0015,1","00610,1,C,N","009999,1,9,9","+0290,1","+0240,1","99999,9","07,1,+00610,1,99,9",,"9,AGL   ,+99999,+99999","99,99,9,07,1,99,9,00610,1,99,9,99,9","10090,1,99999,9",,,,"MET051METAR SKSA 251700Z 20003KT 9999 BKN020 29/24 Q1009=",
"80222599999","2023-10-25T18:00:00","4","6.95","-71.85","213.0","LOS COLONIZADORES, CO","FM-15","99999","V020","210,1,N,0026,1","00610,1,C,N","009999,1,9,9","+0290,1","+0240,1","99999,9","07,1,+00610,1,99,9",,"9,AGL   ,+99999,+99999","99,99,9,07,1,99,9,00610,1,99,9,99,9","10100,1,99999,9",,,,"MET051METAR SKSA 251800Z 21005KT 9999 BKN020 29/24 Q1010=",
"80222599999","2023-10-25T19:00:00","4","6.95","-71.85","213.0","LOS COLONIZADORES, CO","FM-15","99999","V020","999,9,V,0010,1","22000,1,9,N","009999,1,9,9","+0310,1","+0240,1","99999,9",,,,"00,99,1,99,9,99,9,99999,9,99,9,99,9","10070,1,99999,9",,,,"MET048METAR SKSA 251900Z VRB02KT 9999 NSC 31/24 Q1007=",
"80222599999","2023-10-25T20:00:00","4","6.95","-71.85","213.0","LOS COLONIZADORES, CO","FM-15","99999","V020","100,1,N,0015,1","99999,9,9,N","009999,1,9,9","+0290,1","+0250,1","99999,9","02,1,+00914,1,99,9",,"9,AGL   ,+99999,+99999","99,99,9,02,1,99,9,00914,1,99,9,99,9","10050,1,99999,9",,,,"MET051METAR SKSA 252000Z 10003KT 9999 FEW030 29/25 Q1005=",
"80222599999","2023-10-25T21:00:00","4","6.95","-71.85","213.0","LOS COLONIZADORES, CO","FM-15","99999","V020","999,9,V,0010,1","22000,1,9,N","009999,1,9,9","+0280,1","+0250,1","99999,9",,,,"00,99,1,99,9,99,9,99999,9,99,9,99,9","10050,1,99999,9",,,,"MET048METAR SKSA 252100Z VRB02KT 9999 NSC 28/25 Q1005=",
"80222599999","2023-10-25T22:00:00","4","6.95","-71.85","213.0","LOS COLONIZADORES, CO","FM-15","99999","V020","999,9,V,0010,1","22000,1,9,N","009999,1,9,9","+0290,1","+0260,1","99999,9",,,,"00,99,1,99,9,99,9,99999,9,99,9,99,9","10060,1,99999,9",,,,"MET048METAR SKSA 252200Z VRB02KT 9999 NSC 29/26 Q1006=",
"80222599999","2023-10-25T23:00:00","4","6.95","-71.85","213.0","LOS COLONIZADORES, CO","FM-15","99999","V020","999,9,V,0010,1","22000,1,9,N","009999,1,9,9","+0260,1","+0260,1","99999,9",,,,"00,99,1,99,9,99,9,99999,9,99,9,99,9","10070,1,99999,9",,,,"MET048METAR SKSA 252300Z VRB02KT 9999 NSC 26/26 Q1007=",
"80222599999","2023-10-26T11:00:00","4","6.95","-71.85","213.0","LOS COLONIZADORES, CO","FM-15","99999","V020","999,9,V,0010,1","22000,1,9,N","009999,1,9,9","+0230,1","+0230,1","99999,9",,,,"00,99,1,99,9,99,9,99999,9,99,9,99,9","10090,1,99999,9",,,,"MET048METAR SKSA 261100Z VRB02KT 9999 NSC 23/23 Q1009=",
"80222599999","2023-10-26T12:00:00","4","6.95","-71.85","213.0","LOS COLONIZADORES, CO","FM-15","99999","V020","999,9,V,0010,1","22000,1,9,N","009999,1,9,9","+0250,1","+0240,1","99999,9",,,,"00,99,1,99,9,99,9,99999,9,99,9,99,9","10100,1,99999,9",,,,"MET048METAR SKSA 261200Z VRB02KT 9999 NSC 25/24 Q1010=",
"80222599999","2023-10-26T13:00:00","4","6.95","-71.85","213.0","LOS COLONIZADORES, CO","FM-15","99999","V020","999,9,V,0010,1","22000,1,9,N","009999,1,9,9","+0280,1","+0230,1","99999,9",,,,"00,99,1,99,9,99,9,99999,9,99,9,99,9","10110,1,99999,9",,,,"MET048METAR SKSA 261300Z VRB02KT 9999 NSC 28/23 Q1011=",
"80222599999","2023-10-26T14:00:00","4","6.95","-71.85","213.0","LOS COLONIZADORES, CO","FM-15","99999","V020","999,9,V,0010,1","22000,1,9,N","009999,1,9,9","+0290,1","+0240,1","99999,9",,,,"00,99,1,99,9,99,9,99999,9,99,9,99,9","10120,1,99999,9",,,,"MET048METAR SKSA 261400Z VRB02KT 9999 NSC 29/24 Q1012=",
"80222599999","2023-10-26T15:00:00","4","6.95","-71.85","213.0","LOS COLONIZADORES, CO","FM-15","99999","V020","040,1,N,0015,1","22000,1,9,N","009999,1,9,9","+0300,1","+0240,1","99999,9",,,,"00,99,1,99,9,99,9,99999,9,99,9,99,9","10120,1,99999,9",,,,"MET048METAR SKSA 261500Z 04003KT 9999 NSC 30/24 Q1012=",
"80222599999","2023-10-26T16:00:00","4","6.95","-71.85","213.0","LOS COLONIZADORES, CO","FM-15","99999","V020","040,1,N,0026,1","00914,1,C,N","009999,1,9,9","+0290,1","+0230,1","99999,9","07,1,+00914,1,99,9",,"9,AGL   ,+99999,+99999","99,99,9,07,1,99,9,00914,1,99,9,99,9","10100,1,99999,9",,,,"MET051METAR SKSA 261600Z 04005KT 9999 BKN030 29/23 Q1010=",
"80222599999","2023-10-26T17:00:00","4","6.95","-71.85","213.0","LOS COLONIZADORES, CO","FM-15","99999","V020","210,1,N,0015,1","01524,1,C,N","008000,1,9,9","+0250,1","+0240,1","99999,9","08,1,+01524,1,99,9",,"9,AGL   ,+99999,+99999","99,99,9,08,1,99,9,01524,1,99,9,99,9","10090,1,99999,9","81,1",,,"MET056METAR SKSA 261700Z 21003KT 8000 SHRA OVC050 25/24 Q1009=",
"80222599999","2023-10-26T18:00:00","4","6.95","-71.85","213.0","LOS COLONIZADORES, CO","FM-15","99999","V020","310,1,N,0041,1","01524,1,C,N","008000,1,9,9","+0240,1","+0240,1","99999,9","08,1,+01524,1,99,9",,"9,AGL   ,+99999,+99999","99,99,9,08,1,99,9,01524,1,99,9,99,9","10090,1,99999,9","81,1",,,"MET056METAR SKSA 261800Z 31008KT 8000 SHRA OVC050 24/24 Q1009=",
"80222599999","2023-10-26T19:00:00","4","6.95","-71.85","213.0","LOS COLONIZADORES, CO","FM-15","99999","V020","310,1,N,0041,1","02743,1,C,N","009999,1,9,9","+0240,1","+0230,1","99999,9","08,1,+02743,1,99,9",,"9,AGL   ,+99999,+99999","99,99,9,08,1,99,9,02743,1,99,9,99,9","10070,1,99999,9",,,,"MET051METAR SKSA 261900Z 31008KT 9999 OVC090 24/23 Q1007=",
"80222599999","2023-10-26T20:00:00","4","6.95","-71.85","213.0","LOS COLONIZADORES, CO","FM-15","99999","V020","999,9,V,0010,1","22000,1,9,N","009999,1,9,9","+0280,1","+0240,1","99999,9",,,,"00,99,1,99,9,99,9,99999,9,99,9,99,9","10060,1,99999,9","16,1",,,"MET065METAR SKSA 262000Z VRB02KT 9999 VCSH NSC 28/24 Q1006 RMK VCSH SE=",
"80222599999","2023-10-26T21:00:00","4","6.95","-71.85","213.0","LOS COLONIZADORES, CO","FM-15","99999","V020","320,1,N,0026,1","22000,1,9,N","009999,1,9,9","+0280,1","+0230,1","99999,9",,,,"00,99,1,99,9,99,9,99999,9,99,9,99,9","10050,1,99999,9",,,,"MET048METAR SKSA 262100Z 32005KT 9999 NSC 28/23 Q1005=",
"80222599999","2023-10-26T22:00:00","4","6.95","-71.85","213.0","LOS COLONIZADORES, CO","FM-15","99999","V020","999,9,V,0010,1","22000,1,9,N","009999,1,9,9","+0270,1","+0260,1","99999,9",,,,"00,99,1,99,9,99,9,99999,9,99,9,99,9","10050,1,99999,9",,,,"MET048METAR SKSA 262200Z VRB02KT 9999 NSC 27/26 Q1005=",
"80222599999","2023-10-26T23:00:00","4","6.95","-71.85","213.0","LOS COLONIZADORES, CO","FM-15","99999","V020","999,9,V,0010,1","22000,1,9,N","009999,1,9,9","+0270,1","+0250,1","99999,9",,,,"00,99,1,99,9,99,9,99999,9,99,9,99,9","10050,1,99999,9",,,,"MET048METAR SKSA 262300Z VRB02KT 9999 NSC 27/25 Q1005=",
"80222599999","2023-10-27T11:00:00","4","6.95","-71.85","213.0","LOS COLONIZADORES, CO","FM-15","99999","V020","240,1,N,0015,1","02743,1,C,N","009999,1,9,9","+0220,1","+0220,1","99999,9","08,1,+02743,1,99,9",,"9,AGL   ,+99999,+99999","99,99,9,08,1,99,9,02743,1,99,9,99,9","10100,1,99999,9","80,1",,,"MET057METAR SKSA 271100Z 24003KT 9999 -SHRA OVC090 22/22 Q1010=",
"80222599999","2023-10-27T12:00:00","4","6.95","-71.85","213.0","LOS COLONIZADORES, CO","FM-15","99999","V020","250,1,N,0015,1","02743,1,C,N","009999,1,9,9","+0230,1","+0230,1","99999,9","08,1,+02743,1,99,9",,"9,AGL   ,+99999,+99999","99,99,9,08,1,99,9,02743,1,99,9,99,9","10100,1,99999,9",,,,"MET051METAR SKSA 271200Z 25003KT 9999 OVC090 23/23 Q1010=",
"80222599999","2023-10-27T13:00:00","4","6.95","-71.85","213.0","LOS COLONIZADORES, CO","FM-15","99999","V020","250,1,N,0015,1","02743,1,C,N","009999,1,9,9","+0230,1","+0230,1","99999,9","08,1,+02743,1,99,9",,"9,AGL   ,+99999,+99999","99,99,9,08,1,99,9,02743,1,99,9,99,9","10100,1,99999,9",,,,"MET051METAR SKSA 271300Z 25003KT 9999 OVC090 23/23 Q1010=",
"80222599999","2023-10-27T14:00:00","4","6.95","-71.85","213.0","LOS COLONIZADORES, CO","FM-15","99999","V020","320,1,N,0015,1","99999,9,9,N","009999,1,9,9","+0270,1","+0240,1","99999,9","02,1,+02743,1,99,9",,"9,AGL   ,+99999,+99999","99,99,9,02,1,99,9,02743,1,99,9,99,9","10110,1,99999,9",,,,"MET051METAR SKSA 271400Z 32003KT 9999 FEW090 27/24 Q1011=",
"80222599999","2023-10-27T15:00:00","4","6.95","-71.85","213.0","LOS COLONIZADORES, CO","FM-15","99999","V020","040,1,N,0021,1","22000,1,9,N","009999,1,9,9","+0290,1","+0230,1","99999,9",,,,"00,99,1,99,9,99,9,99999,9,99,9,99,9","10110,1,99999,9",,,,"MET048METAR SKSA 271500Z 04004KT 9999 NSC 29/23 Q1011=",
"80222599999","2023-10-27T16:00:00","4","6.95","-71.85","213.0","LOS COLONIZADORES, CO","FM-15","99999","V020","040,1,N,0015,1","22000,1,9,N","009999,1,9,9","+0310,1","+0210,1","99999,9",,,,"00,99,1,99,9,99,9,99999,9,99,9,99,9","10100,1,99999,9",,,,"MET048METAR SKSA 271600Z 04003KT 9999 NSC 31/21 Q1010=",
"80222599999","2023-10-27T17:00:00","4","6.95","-71.85","213.0","LOS COLONIZADORES, CO","FM-15","99999","V020","010,1,N,0015,1","22000,1,9,N","009999,1,9,9","+0320,1","+0220,1","99999,9",,,,"00,99,1,99,9,99,9,99999,9,99,9,99,9","10090,1,99999,9",,,,"MET048METAR SKSA 271700Z 01003KT 9999 NSC 32/22 Q1009=",
"80222599999","2023-10-27T18:00:00","4","6.95","-71.85","213.0","LOS COLONIZADORES, CO","FM-15","99999","V020","140,1,N,0021,1","22000,1,9,N","009999,1,9,9","+0320,1","+0220,1","99999,9",,,,"00,99,1,99,9,99,9,99999,9,99,9,99,9","10080,1,99999,9",,,,"MET048METAR SKSA 271800Z 14004KT 9999 NSC 32/22 Q1008=",
"80222599999","2023-10-27T19:00:00","4","6.95","-71.85","213.0","LOS COLONIZADORES, CO","FM-15","99999","V020","999,9,V,0010,1","22000,1,9,N","009999,1,9,9","+0330,1","+0200,1","99999,9",,,,"00,99,1,99,9,99,9,99999,9,99,9,99,9","10060,1,99999,9",,,,"MET048METAR SKSA 271900Z VRB02KT 9999 NSC 33/20 Q1006=",
"80222599999","2023-10-27T20:00:00","4","6.95","-71.85","213.0","LOS COLONIZADORES, CO","FM-15","99999","V020","999,9,V,0010,1","22000,1,9,N","009999,1,9,9","+0310,1","+0220,1","99999,9",,,,"00,99,1,99,9,99,9,99999,9,99,9,99,9","10050,1,99999,9",,,,"MET048METAR SKSA 272000Z VRB02KT 9999 NSC 31/22 Q1005=",
"80222599999","2023-10-27T21:00:00","4","6.95","-71.85","213.0","LOS COLONIZADORES, CO","FM-15","99999","V020","999,9,V,0010,1","22000,1,9,N","009999,1,9,9","+0320,1","+0220,1","99999,9",,,,"00,99,1,99,9,99,9,99999,9,99,9,99,9","10050,1,99999,9",,,,"MET048METAR SKSA 272100Z VRB02KT 9999 NSC 32/22 Q1005=",
"80222599999","2023-10-27T22:00:00","4","6.95","-71.85","213.0","LOS COLONIZADORES, CO","FM-15","99999","V020","290,1,N,0026,1","22000,1,9,N","009999,1,9,9","+0300,1","+0230,1","99999,9",,,,"00,99,1,99,9,99,9,99999,9,99,9,99,9","10050,1,99999,9",,,,"MET048METAR SKSA 272200Z 29005KT 9999 NSC 30/23 Q1005=",
"80222599999","2023-10-27T23:00:00","4","6.95","-71.85","213.0","LOS COLONIZADORES, CO","FM-15","99999","V020","999,9,V,0010,1","22000,1,9,N","009999,1,9,9","+0280,1","+0230,1","99999,9",,,,"00,99,1,99,9,99,9,99999,9,99,9,99,9","10050,1,99999,9",,,,"MET048METAR SKSA 272300Z VRB02KT 9999 NSC 28/23 Q1005=",
"80222599999","2023-10-28T11:00:00","4","6.95","-71.85","213.0","LOS COLONIZADORES, CO","FM-15","99999","V020","310,1,N,0015,1","99999,9,9,N","009999,1,9,9","+0230,1","+0230,1","99999,9","02,1,+02743,1,99,9",,"9,AGL   ,+99999,+99999","99,99,9,02,1,99,9,02743,1,99,9,99,9","10080,1,99999,9",,,,"MET051METAR SKSA 281100Z 31003KT 9999 FEW090 23/23 Q1008=",
"80222599999","2023-10-28T13:00:00","4","6.95","-71.85","213.0","LOS COLONIZADORES, CO","FM-15","99999","V020","310,1,N,0015,1","22000,1,9,N","009999,1,9,9","+0280,1","+0230,1","99999,9",,,,"00,99,1,99,9,99,9,99999,9,99,9,99,9","10100,1,99999,9",,,,"MET048METAR SKSA 281300Z 31003KT 9999 NSC 28/23 Q1010=",
"80222599999","2023-10-28T14:00:00","4","6.95","-71.85","213.0","LOS COLONIZADORES, CO","FM-15","99999","V020","340,1,N,0021,1","22000,1,9,N","009999,1,9,9","+0290,1","+0250,1","99999,9",,,,"00,99,1,99,9,99,9,99999,9,99,9,99,9","10100,1,99999,9",,,,"MET048METAR SKSA 281400Z 34004KT 9999 NSC 29/25 Q1010=",
"80222599999","2023-10-28T15:00:00","4","6.95","-71.85","213.0","LOS COLONIZADORES, CO","FM-15","99999","V020","010,1,N,0015,1","22000,1,9,N","009999,1,9,9","+0300,1","+0240,1","99999,9",,,,"00,99,1,99,9,99,9,99999,9,99,9,99,9","10100,1,99999,9",,,,"MET048METAR SKSA 281500Z 01003KT 9999 NSC 30/24 Q1010=",
"80222599999","2023-10-28T16:00:00","4","6.95","-71.85","213.0","LOS COLONIZADORES, CO","FM-15","99999","V020","999,9,V,0010,1","22000,1,9,N","009999,1,9,9","+0320,1","+0230,1","99999,9",,,,"00,99,1,99,9,99,9,99999,9,99,9,99,9","10100,1,99999,9",,,,"MET048METAR SKSA 281600Z VRB02KT 9999 NSC 32/23 Q1010=",
"80222599999","2023-10-28T17:00:00","4","6.95","-71.85","213.0","LOS COLONIZADORES, CO","FM-15","99999","V020","080,1,N,0026,1","99999,9,9,N","009999,1,9,9","+0320,1","+0230,1","99999,9","04,1,+02134,1,99,9",,"9,AGL   ,+99999,+99999","99,99,9,04,1,99,9,02134,1,99,9,99,9","10090,1,99999,9",,,,"MET051METAR SKSA 281700Z 08005KT 9999 SCT070 32/23 Q1009=",
"80222599999","2023-10-28T18:00:00","4","6.95","-71.85","213.0","LOS COLONIZADORES, CO","FM-15","99999","V020","050,1,N,0021,1","99999,9,9,N","009999,1,9,9","+0320,1","+0240,1","99999,9","04,1,+01524,1,99,9",,"9,AGL   ,+99999,+99999","99,99,9,04,1,99,9,01524,1,99,9,99,9","10080,1,99999,9",,,,"MET051METAR SKSA 281800Z 05004KT 9999 SCT050 32/24 Q1008=",
"80222599999","2023-10-28T19:00:00","4","6.95","-71.85","213.0","LOS COLONIZADORES, CO","FM-15","99999","V020","090,1,N,0015,1","01524,1,C,N","009999,1,9,9","+0310,1","+0230,1","99999,9","07,1,+01524,1,99,9",,"9,AGL   ,+99999,+99999","99,99,9,07,1,99,9,01524,1,99,9,99,9","10070,1,99999,9",,,,"MET051METAR SKSA 281900Z 09003KT 9999 BKN050 31/23 Q1007=",
"80222599999","2023-10-28T20:00:00","4","6.95","-71.85","213.0","LOS COLONIZADORES, CO","FM-15","99999","V020","280,1,N,0026,1","01067,1,C,N","009999,1,9,9","+0280,1","+0240,1","99999,9","07,1,+01067,1,99,9",,"9,AGL   ,+99999,+99999","99,99,9,07,1,99,9,01067,1,99,9,99,9","10060,1,99999,9","81,1",,,"MET056METAR SKSA 282000Z 28005KT 9999 SHRA BKN035 28/24 Q1006=",
"80222599999","2023-10-28T21:00:00","4","6.95","-71.85","213.0","LOS COLONIZADORES, CO","FM-15","99999","V020","330,1,N,0046,1","01524,1,C,N","004000,1,9,9","+0240,1","+0240,1","99999,9","08,1,+01524,1,99,9",,"9,AGL   ,+99999,+99999","99,99,9,08,1,99,9,01524,1,99,9,99,9","10070,1,99999,9","97,1",,,"MET057METAR SKSA 282100Z 33009KT 4000 +TSRA OVC050 24/24 Q1007=",
"80222599999","2023-10-28T22:00:00","4","6.95","-71.85","213.0","LOS COLONIZADORES, CO","FM-15","99999","V020","250,1,N,0021,1","99999,9,9,N","009999,1,9,9","+0240,5","+0240,5","99999,9",,,,,"10060,5,99999,9",,,,"MET050METAR SKSA 282200Z 25004KT 9999 FE090 24/24 Q1006=","D01      0ADE693D02      0ADE539"
"80222599999","2023-10-28T23:00:00","4","6.95","-71.85","213.0","LOS COLONIZADORES, CO","FM-15","99999","V020","270,1,N,0026,1","99999,9,9,N","009999,1,9,9","+0240,1","+0240,1","99999,9","02,1,+02743,1,99,9",,"9,AGL   ,+99999,+99999","99,99,9,02,1,99,9,02743,1,99,9,99,9","10070,1,99999,9",,,,"MET051METAR SKSA 282300Z 27005KT 9999 FEW090 24/24 Q1007=",
"80222599999","2023-10-29T11:00:00","4","6.95","-71.85","213.0","LOS COLONIZADORES, CO","FM-15","99999","V020","130,1,N,0015,1","01524,1,C,N","007000,1,9,9","+0230,1","+0230,1","99999,9","08,1,+01524,1,99,9",,"9,AGL   ,+99999,+99999","99,99,9,08,1,99,9,01524,1,99,9,99,9","10110,1,99999,9","81,1",,,"MET056METAR SKSA 291100Z 13003KT 7000 SHRA OVC050 23/23 Q1011=",
"80222599999","2023-10-29T12:00:00","4","6.95","-71.85","213.0","LOS COLONIZADORES, CO","FM-15","99999","V020","130,1,N,0015,1","00914,1,C,N","004000,1,9,9","+0230,1","+0230,1","99999,9","08,1,+00914,1,99,9",,"9,AGL   ,+99999,+99999","99,99,9,08,1,99,9,00914,1,99,9,99,9","10120,1,99999,9","63,1",,,"MET054METAR SKSA 291200Z 13003KT 4000 RA OVC030 23/23 Q1012=",
"80222599999","2023-10-29T13:00:00","4","6.95","-71.85","213.0","LOS COLONIZADORES, CO","FM-15","99999","V020","170,1,N,0026,1","00762,1,C,N","002200,1,9,9","+0230,1","+0230,1","99999,9","08,1,+00762,1,99,9",,"9,AGL   ,+99999,+99999","99,99,9,08,1,99,9,00762,1,99,9,99,9","10140,1,99999,9","65,1",,,"MET055METAR SKSA 291300Z 17005KT 2200 +RA OVC025 23/23 Q1014=",
"80222599999","2023-10-29T14:00:00","4","6.95","-71.85","213.0","LOS COLONIZADORES, CO","FM-15","99999","V020","999,9,V,0010,1","00914,1,C,N","002500,1,9,9","+0230,1","+0230,1","99999,9","08,1,+00914,1,99,9",,"9,AGL   ,+99999,+99999","99,99,9,08,1,99,9,00914,1,99,9,99,9","10150,1,99999,9","63,1",,,"MET054METAR SKSA 291400Z VRB02KT 2500 RA OVC030 23/23 Q1015=",
"80222599999","2023-10-29T15:00:00","4","6.95","-71.85","213.0","LOS COLONIZADORES, CO","FM-15","99999","V020","230,1,N,0015,1","00914,1,C,N","003000,1,9,9","+0230,1","+0230,1","99999,9","08,1,+00914,1,99,9",,"9,AGL   ,+99999,+99999","99,99,9,08,1,99,9,00914,1,99,9,99,9","10140,1,99999,9","63,1",,,"MET054METAR SKSA 291500Z 23003KT 3000 RA OVC030 23/23 Q1014=",
"80222599999","2023-10-29T16:00:00","4","6.95","-71.85","213.0","LOS COLONIZADORES, CO","FM-15","99999","V020","310,1,N,0031,1","01219,1,C,N","005000,1,9,9","+0230,1","+0230,1","99999,9","08,1,+01219,1,99,9",,"9,AGL   ,+99999,+99999","99,99,9,08,1,99,9,01219,1,99,9,99,9","10130,1,99999,9","61,1",,,"MET055METAR SKSA 291600Z 31006KT 5000 -RA OVC040 23/23 Q1013=",
"80222599999","2023-10-29T17:00:00","4","6.95","-71.85","213.0","LOS COLONIZADORES, CO","FM-15","99999","V020","300,1,N,0036,1","22000,1,9,N","009999,1,9,9","+0240,1","+0240,1","99999,9",,,,"00,99,1,99,9,99,9,99999,9,99,9,99,9","10120,1,99999,9","16,1",,,"MET065METAR SKSA 291700Z 30007KT 9999 VCSH NSC 24/24 Q1012 RMK VCSH NW=",
"80222599999","2023-10-29T18:00:00","4","6.95","-71.85","213.0","LOS COLONIZADORES, CO","FM-15","99999","V020","320,1,N,0026,1","22000,1,9,N","009999,1,9,9","+0240,1","+0230,1","99999,9",,,,"00,99,1,99,9,99,9,99999,9,99,9,99,9","10100,1,99999,9","16,1",,,"MET065METAR SKSA 291800Z 32005KT 9999 VCSH NSC 24/23 Q1010 RMK VCSH NW=",
"80222599999","2023-10-29T19:00:00","4","6.95","-71.85","213.0","LOS COLONIZADORES, CO","FM-15","99999","V020","999,9,V,0010,1","02743,1,C,N","009999,1,9,9","+0270,1","+0230,1","99999,9","08,1,+02743,1,99,9",,"9,AGL   ,+99999,+99999","99,99,9,08,1,99,9,02743,1,99,9,99,9","10090,1,99999,9",,,,"MET055METAR SKSA 291900Z VRB02KT 9999 OVC090 27/23 Q1009 RMK=",
"80222599999","2023-10-29T20:00:00","4","6.95","-71.85","213.0","LOS COLONIZADORES, CO","FM-15","99999","V020","999,9,V,0010,1","99999,9,9,N","009999,1,9,9","+0270,1","+0230,1","99999,9","04,1,+00610,1,99,9",,"9,AGL   ,+99999,+99999","99,99,9,04,1,99,9,00610,1,99,9,99,9","10080,1,99999,9",,,,"MET051METAR SKSA 292000Z VRB02KT 9999 SCT020 27/23 Q1008=",
"80222599999","2023-10-29T21:00:00","4","6.95","-71.85","213.0","LOS COLONIZADORES, CO","FM-15","99999","V020","999,9,V,0010,1","99999,9,9,N","009999,1,9,9","+0270,1","+0240,1","99999,9","04,1,+00610,1,99,9",,"9,AGL   ,+99999,+99999","99,99,9,04,1,99,9,00610,1,99,9,99,9","10070,1,99999,9",,,,"MET051METAR SKSA 292100Z VRB02KT 9999 SCT020 27/24 Q1007=",
"80222599999","2023-10-29T22:00:00","4","6.95","-71.85","213.0","LOS COLONIZADORES, CO","FM-15","99999","V020","999,9,V,0010,1","22000,1,9,N","009999,1,9,9","+0260,1","+0240,1","99999,9",,,,"00,99,1,99,9,99,9,99999,9,99,9,99,9","10070,1,99999,9",,,,"MET048METAR SKSA 292200Z VRB02KT 9999 NSC 26/24 Q1007=",
"80222599999","2023-10-30T11:00:00","4","6.95","-71.85","213.0","LOS COLONIZADORES, CO","FM-15","99999","V020","999,9,C,0000,1","22000,1,9,N","009999,1,9,9","+0200,1","+0200,1","99999,9",,,,"00,99,1,99,9,99,9,99999,9,99,9,99,9","10100,1,99999,9",,,,"MET048METAR SKSA 301100Z 00000KT 9999 NSC 20/20 Q1010=",
"80222599999","2023-10-30T12:00:00","4","6.95","-71.85","213.0","LOS COLONIZADORES, CO","FM-15","99999","V020","999,9,C,0000,1","22000,1,9,N","009999,1,9,9","+0240,1","+0210,1","99999,9",,,,"00,99,1,99,9,99,9,99999,9,99,9,99,9","10110,1,99999,9",,,,"MET048METAR SKSA 301200Z 00000KT 9999 NSC 24/21 Q1011=",
"80222599999","2023-10-30T13:00:00","4","6.95","-71.85","213.0","LOS COLONIZADORES, CO","FM-15","99999","V020","360,1,N,0015,1","22000,1,9,N","009999,1,9,9","+0270,1","+0220,1","99999,9",,,,"00,99,1,99,9,99,9,99999,9,99,9,99,9","10120,1,99999,9",,,,"MET048METAR SKSA 301300Z 36003KT 9999 NSC 27/22 Q1012=",
"80222599999","2023-10-30T14:00:00","4","6.95","-71.85","213.0","LOS COLONIZADORES, CO","FM-15","99999","V020","330,1,N,0026,1","22000,1,9,N","009999,1,9,9","+0290,1","+0210,1","99999,9",,,,"00,99,1,99,9,99,9,99999,9,99,9,99,9","10120,1,99999,9",,,,"MET048METAR SKSA 301400Z 33005KT 9999 NSC 29/21 Q1012=",
"80222599999","2023-10-30T15:00:00","4","6.95","-71.85","213.0","LOS COLONIZADORES, CO","FM-15","99999","V020","340,1,N,0031,1","22000,1,9,N","009999,1,9,9","+9999,9","+9999,9","99999,9",,,,"00,99,1,99,9,99,9,99999,9,99,9,99,9","10120,1,99999,9",,,,"MET048METAR SKSA 301500Z 34006KT 9999 NSC 21/22 Q1012=","Q0122    2ATOD  Q0221    3ATOT  "
"80222599999","2023-10-30T16:00:00","4","6.95","-71.85","213.0","LOS COLONIZADORES, CO","FM-15","99999","V020","999,9,C,0000,1","22000,1,9,N","009999,1,9,9","+0320,1","+0210,1","99999,9",,,,"00,99,1,99,9,99,9,99999,9,99,9,99,9","10110,1,99999,9",,,,"MET048METAR SKSA 301600Z 00000KT 9999 NSC 32/21 Q1011=",
"80222599999","2023-10-30T17:00:00","4","6.95","-71.85","213.0","LOS COLONIZADORES, CO","FM-15","99999","V020","999,9,V,0010,1","22000,1,9,N","009999,1,9,9","+0320,1","+0210,1","99999,9",,,,"00,99,1,99,9,99,9,99999,9,99,9,99,9","10100,1,99999,9",,,,"MET048METAR SKSA 301700Z VRB02KT 9999 NSC 32/21 Q1010=",
"80222599999","2023-10-30T18:00:00","4","6.95","-71.85","213.0","LOS COLONIZADORES, CO","FM-15","99999","V020","999,9,V,0010,1","22000,1,9,N","009999,1,9,9","+0320,1","+0220,1","99999,9",,,,"00,99,1,99,9,99,9,99999,9,99,9,99,9","10090,1,99999,9",,,,"MET048METAR SKSA 301800Z VRB02KT 9999 NSC 32/22 Q1009=",
"80222599999","2023-10-30T19:00:00","4","6.95","-71.85","213.0","LOS COLONIZADORES, CO","FM-15","99999","V020","999,9,V,0010,1","22000,1,9,N","009999,1,9,9","+0330,1","+0220,1","99999,9",,,,"00,99,1,99,9,99,9,99999,9,99,9,99,9","10080,1,99999,9",,,,"MET048METAR SKSA 301900Z VRB02KT 9999 NSC 33/22 Q1008=",
"80222599999","2023-10-30T20:00:00","4","6.95","-71.85","213.0","LOS COLONIZADORES, CO","FM-15","99999","V020","999,9,V,0010,1","22000,1,9,N","009999,1,9,9","+0330,1","+0220,1","99999,9",,,,"00,99,1,99,9,99,9,99999,9,99,9,99,9","10070,1,99999,9",,,,"MET048METAR SKSA 302000Z VRB02KT 9999 NSC 33/22 Q1007=",
"80222599999","2023-10-30T21:00:00","4","6.95","-71.85","213.0","LOS COLONIZADORES, CO","FM-15","99999","V020","999,9,V,0010,1","22000,1,9,N","009999,1,9,9","+0330,1","+0220,1","99999,9",,,,"00,99,1,99,9,99,9,99999,9,99,9,99,9","10070,1,99999,9",,,,"MET048METAR SKSA 302100Z VRB02KT 9999 NSC 33/22 Q1007=",
"80222599999","2023-10-30T22:00:00","4","6.95","-71.85","213.0","LOS COLONIZADORES, CO","FM-15","99999","V020","999,9,V,0010,1","22000,1,9,N","009999,1,9,9","+0280,1","+0240,1","99999,9",,,,"00,99,1,99,9,99,9,99999,9,99,9,99,9","10070,1,99999,9",,,,"MET048METAR SKSA 302200Z VRB02KT 9999 NSC 28/24 Q1007=",
"80222599999","2023-10-31T11:00:00","4","6.95","-71.85","213.0","LOS COLONIZADORES, CO","FM-15","99999","V020","999,9,V,0010,1","22000,1,9,N","009999,1,9,9","+0230,1","+0210,1","99999,9",,,,"00,99,1,99,9,99,9,99999,9,99,9,99,9","10100,1,99999,9",,,,"MET048METAR SKSA 311100Z VRB02KT 9999 NSC 23/21 Q1010=",
"80222599999","2023-10-31T12:00:00","4","6.95","-71.85","213.0","LOS COLONIZADORES, CO","FM-15","99999","V020","320,1,N,0021,1","22000,1,9,N","009999,1,9,9","+0250,1","+0220,1","99999,9",,,,"00,99,1,99,9,99,9,99999,9,99,9,99,9","10110,1,99999,9",,,,"MET048METAR SKSA 311200Z 32004KT 9999 NSC 25/22 Q1011=",
"80222599999","2023-10-31T13:00:00","4","6.95","-71.85","213.0","LOS COLONIZADORES, CO","FM-15","99999","V020","350,1,N,0021,1","22000,1,9,N","009999,1,9,9","+0250,1","+0220,1","99999,9",,,,"00,99,1,99,9,99,9,99999,9,99,9,99,9","10110,1,99999,9",,,,"MET048METAR SKSA 311300Z 35004KT 9999 NSC 25/22 Q1011=",
"80222599999","2023-10-31T14:00:00","4","6.95","-71.85","213.0","LOS COLONIZADORES, CO","FM-15","99999","V020","330,1,N,0031,1","22000,1,9,N","009999,1,9,9","+0310,1","+0230,1","99999,9",,,,"00,99,1,99,9,99,9,99999,9,99,9,99,9","10120,1,99999,9",,,,"MET048METAR SKSA 311400Z 33006KT 9999 NSC 31/23 Q1012=",
"80222599999","2023-10-31T15:00:00","4","6.95","-71.85","213.0","LOS COLONIZADORES, CO","FM-15","99999","V020","020,1,N,0021,1","22000,1,9,N","009999,1,9,9","+0310,1","+0220,1","99999,9",,,,"00,99,1,99,9,99,9,99999,9,99,9,99,9","10120,1,99999,9",,,,"MET048METAR SKSA 311500Z 02004KT 9999 NSC 31/22 Q1012=",
"80222599999","2023-10-31T16:00:00","4","6.95","-71.85","213.0","LOS COLONIZADORES, CO","FM-15","99999","V020","040,1,N,0031,1","22000,1,9,N","009999,1,9,9","+0320,1","+0230,1","99999,9",,,,"00,99,1,99,9,99,9,99999,9,99,9,99,9","10120,1,99999,9",,,,"MET048METAR SKSA 311600Z 04006KT 9999 NSC 32/23 Q1012=",
"80222599999","2023-10-31T17:00:00","4","6.95","-71.85","213.0","LOS COLONIZADORES, CO","FM-15","99999","V020","999,9,V,0010,1","99999,9,9,N","009999,1,9,9","+0320,1","+0230,1","99999,9","04,1,+01524,1,99,9",,"9,AGL   ,+99999,+99999","99,99,9,04,1,99,9,01524,1,99,9,99,9","10100,1,99999,9",,,,"MET051METAR SKSA 311700Z VRB02KT 9999 SCT050 32/23 Q1010=",
"80222599999","2023-10-31T18:00:00","4","6.95","-71.85","213.0","LOS COLONIZADORES, CO","FM-15","99999","V020","999,9,V,0010,1","99999,9,9,N","009999,1,9,9","+0320,1","+0230,1","99999,9","04,1,+01524,1,99,9",,"9,AGL   ,+99999,+99999","99,99,9,04,1,99,9,01524,1,99,9,99,9","10080,1,99999,9",,,,"MET051METAR SKSA 311800Z VRB02KT 9999 SCT050 32/23 Q1008=",
"80222599999","2023-10-31T20:00:00","4","6.95","-71.85","213.0","LOS COLONIZADORES, CO","FM-15","99999","V020","999,9,V,0010,1","99999,9,9,N","009999,1,9,9","+0330,1","+0230,1","99999,9","04,1,+01524,1,99,9",,"9,AGL   ,+99999,+99999","99,99,9,04,1,99,9,01524,1,99,9,99,9","10060,1,99999,9",,,,"MET051METAR SKSA 312000Z VRB02KT 9999 SCT050 33/23 Q1006=",
"80222599999","2023-10-31T21:00:00","4","6.95","-71.85","213.0","LOS COLONIZADORES, CO","FM-15","99999","V020","080,1,N,0015,1","99999,9,9,N","009999,1,9,9","+0320,1","+0240,1","99999,9","02,1,+01524,1,99,9",,"9,AGL   ,+99999,+99999","99,99,9,02,1,99,9,01524,1,99,9,99,9","10060,1,99999,9",,,,"MET051METAR SKSA 312100Z 08003KT 9999 FEW050 32/24 Q1006=",
"80222599999","2023-10-31T22:00:00","4","6.95","-71.85","213.0","LOS COLONIZADORES, CO","FM-15","99999","V020","999,9,V,0010,1","22000,1,9,N","009999,1,9,9","+0300,1","+0240,1","99999,9",,,,"00,99,1,99,9,99,9,99999,9,99,9,99,9","10060,1,99999,9",,,,"MET048METAR SKSA 312200Z VRB02KT 9999 NSC 30/24 Q1006=",
"80222599999","2023-10-31T23:00:00","4","6.95","-71.85","213.0","LOS COLONIZADORES, CO","FM-15","99999","V020","999,9,V,0010,1","22000,1,9,N","009999,1,9,9","+0280,1","+0250,1","99999,9",,,,"00,99,1,99,9,99,9,99999,9,99,9,99,9","10060,1,99999,9",,,,"MET048METAR SKSA 312300Z VRB02KT 9999 NSC 28/25 Q1006=",
"80222599999","2023-11-01T11:00:00","4","6.95","-71.85","213.0","LOS COLONIZADORES, CO","FM-15","99999","V020","240,1,N,0036,1","22000,1,9,N","009999,1,9,9","+0260,1","+0220,1","99999,9",,,,"00,99,1,99,9,99,9,99999,9,99,9,99,9","10100,1,99999,9",,,,"MET048METAR SKSA 011100Z 24007KT 9999 NSC 26/22 Q1010=",
"80222599999","2023-11-01T13:00:00","4","6.95","-71.85","213.0","LOS COLONIZADORES, CO","FM-15","99999","V020","330,1,N,0031,1","22000,1,9,N","009999,1,9,9","+0290,1","+0230,1","99999,9",,,,"00,99,1,99,9,99,9,99999,9,99,9,99,9","10110,1,99999,9",,,,"MET048METAR SKSA 011300Z 33006KT 9999 NSC 29/23 Q1011=",
"80222599999","2023-11-01T14:00:00","4","6.95","-71.85","213.0","LOS COLONIZADORES, CO","FM-15","99999","V020","310,1,N,0036,1","22000,1,9,N","009999,1,9,9","+0310,1","+0240,1","99999,9",,,,"00,99,1,99,9,99,9,99999,9,99,9,99,9","10120,1,99999,9",,,,"MET048METAR SKSA 011400Z 31007KT 9999 NSC 31/24 Q1012=",
"80222599999","2023-11-01T15:00:00","4","6.95","-71.85","213.0","LOS COLONIZADORES, CO","FM-15","99999","V020","300,1,N,0036,1","07925,1,C,N","009999,1,9,9","+0300,1","+0240,1","99999,9","07,1,+07925,1,99,9",,"9,AGL   ,+99999,+99999","99,99,9,07,1,99,9,07925,1,99,9,99,9","10110,1,99999,9",,,,"MET051METAR SKSA 011500Z 30007KT 9999 BKN260 30/24 Q1011=",
"80222599999","2023-11-01T16:00:00","4","6.95","-71.85","213.0","LOS COLONIZADORES, CO","FM-15","99999","V020","300,1,N,0041,1","01372,1,C,N","009999,1,9,9","+0300,1","+0230,1","99999,9","07,1,+01372,1,99,9",,"9,AGL   ,+99999,+99999","99,99,9,07,1,99,9,01372,1,99,9,99,9","10100,1,99999,9",,,,"MET051METAR SKSA 011600Z 30008KT 9999 BKN045 30/23 Q1010=",
"80222599999","2023-11-01T17:00:00","4","6.95","-71.85","213.0","LOS COLONIZADORES, CO","FM-15","99999","V020","320,1,N,0046,1","01372,1,C,N","009999,1,9,9","+0320,1","+0230,1","99999,9","07,1,+01372,1,99,9",,"9,AGL   ,+99999,+99999","99,99,9,07,1,99,9,01372,1,99,9,99,9","10090,1,99999,9",,,,"MET051METAR SKSA 011700Z 32009KT 9999 BKN045 32/23 Q1009=",
"80222599999","2023-11-01T18:00:00","4","6.95","-71.85","213.0","LOS COLONIZADORES, CO","FM-15","99999","V020","350,1,N,0031,1","01524,1,C,N","009999,1,9,9","+0300,1","+0230,1","99999,9","07,1,+01524,1,99,9",,"9,AGL   ,+99999,+99999","99,99,9,07,1,99,9,01524,1,99,9,99,9","10090,1,99999,9",,,,"MET051METAR SKSA 011800Z 35006KT 9999 BKN050 30/23 Q1009=",
"80222599999","2023-11-01T19:00:00","4","6.95","-71.85","213.0","LOS COLONIZADORES, CO","FM-15","99999","V020","350,1,N,0026,1","00914,1,C,N","009999,1,9,9","+0290,1","+0230,1","99999,9","07,1,+00914,1,99,9",,"9,AGL   ,+99999,+99999","99,99,9,07,1,99,9,00914,1,99,9,99,9","10080,1,99999,9","16,1",,,"MET067METAR SKSA 011900Z 35005KT 9999 VCSH BKN030 29/23 Q1008 RMK VCSH W=",
"80222599999","2023-11-01T20:00:00","4","6.95","-71.85","213.0","LOS COLONIZADORES, CO","FM-15","99999","V020","360,1,N,0021,1","00914,1,C,N","009999,1,9,9","+0270,1","+0230,1","99999,9","07,1,+00914,1,99,9",,"9,AGL   ,+99999,+99999","99,99,9,07,1,99,9,00914,1,99,9,99,9","10080,1,99999,9","16,1",,,"MET070METAR SKSA 012000Z 36004KT 9999 VCSH BKN030 27/23 Q1008 RMK VCSH E SE=",
"80222599999","2023-11-01T21:00:00","4","6.95","-71.85","213.0","LOS COLONIZADORES, CO","FM-15","99999","V020","050,1,N,0015,1","99999,9,9,N","009999,1,9,9","+0270,1","+0240,1","99999,9","04,1,+02134,1,99,9",,"9,AGL   ,+99999,+99999","99,99,9,04,1,99,9,02134,1,99,9,99,9","10080,1,99999,9","16,1",,,"MET068METAR SKSA 012100Z 05003KT 9999 VCSH SCT070 27/24 Q1008 RMK VCSH SE=",
"80222599999","2023-11-01T22:00:00","4","6.95","-71.85","213.0","LOS COLONIZADORES, CO","FM-15","99999","V020","999,9,V,0010,1","22000,1,9,N","009999,1,9,9","+0260,1","+0240,1","99999,9",,,,"00,99,1,99,9,99,9,99999,9,99,9,99,9","10080,1,99999,9","16,1",,,"MET065METAR SKSA 012200Z VRB02KT 9999 VCSH NSC 26/24 Q1008 RMK VCSH SW=",
"80222599999","2023-11-01T23:00:00","4","6.95","-71.85","213.0","LOS COLONIZADORES, CO","FM-15","99999","V020","999,9,C,0000,1","22000,1,9,N","009999,1,9,9","+0250,1","+0240,1","99999,9",,,,"00,99,1,99,9,99,9,99999,9,99,9,99,9","10080,1,99999,9",,,,"MET048METAR SKSA 012300Z 00000KT 9999 NSC 25/24 Q1008=",
"80222599999","2023-11-02T11:00:00","4","6.95","-71.85","213.0","LOS COLONIZADORES, CO","FM-15","99999","V020","999,9,C,0000,1","22000,1,9,N","009999,1,9,9","+0240,1","+0240,1","99999,9",,,,"00,99,1,99,9,99,9,99999,9,99,9,99,9","10100,1,99999,9",,,,"MET048METAR SKSA 021100Z 00000KT 9999 NSC 24/24 Q1010=",
"80222599999","2023-11-02T13:00:00","4","6.95","-71.85","213.0","LOS COLONIZADORES, CO","FM-15","99999","V020","999,9,C,0000,1","22000,1,9,N","009999,1,9,9","+0260,1","+0240,1","99999,9",,,,"00,99,1,99,9,99,9,99999,9,99,9,99,9","10120,1,99999,9",,,,"MET048METAR SKSA 021300Z 00000KT 9999 NSC 26/24 Q1012=",
"80222599999","2023-11-02T14:00:00","4","6.95","-71.85","213.0","LOS COLONIZADORES, CO","FM-15","99999","V020","999,9,C,0000,1","99999,9,9,N","009999,1,9,9","+0270,1","+0240,1","99999,9","02,1,+00914,1,99,9",,"9,AGL   ,+99999,+99999","99,99,9,02,1,99,9,00914,1,99,9,99,9","10120,1,99999,9",,,,"MET051METAR SKSA 021400Z 00000KT 9999 FEW030 27/24 Q1012=",
"80222599999","2023-11-02T15:00:00","4","6.95","-71.85","213.0","LOS COLONIZADORES, CO","FM-15","99999","V020","020,1,N,0015,1","99999,9,9,N","009999,1,9,9","+0290,1","+0240,1","99999,9","04,1,+00914,1,99,9",,"9,AGL   ,+99999,+99999","99,99,9,04,1,99,9,00914,1,99,9,99,9","10120,1,99999,9",,,,"MET051METAR SKSA 021500Z 02003KT 9999 SCT030 29/24 Q1012=",
"80222599999","2023-11-02T16:00:00","4","6.95","-71.85","213.0","LOS COLONIZADORES, CO","FM-15","99999","V020","060,1,N,0015,1","99999,9,9,N","009999,1,9,9","+0300,1","+0240,1","99999,9","04,1,+00914,1,99,9",,"9,AGL   ,+99999,+99999","99,99,9,04,1,99,9,00914,1,99,9,99,9","10120,1,99999,9",,,,"MET051METAR SKSA 021600Z 06003KT 9999 SCT030 30/24 Q1012=",
"80222599999","2023-11-02T18:00:00","4","6.95","-71.85","213.0","LOS COLONIZADORES, CO","FM-15","99999","V020","130,1,N,0015,1","01219,1,C,N","009999,1,9,9","+0300,1","+0240,1","99999,9","07,1,+01219,1,99,9",,"9,AGL   ,+99999,+99999","99,99,9,07,1,99,9,01219,1,99,9,99,9","10090,1,99999,9",,,,"MET051METAR SKSA 021800Z 13003KT 9999 BKN040 30/24 Q1009=",
"80222599999","2023-11-02T19:00:00","4","6.95","-71.85","213.0","LOS COLONIZADORES, CO","FM-15","99999","V020","130,1,N,0015,1","01219,1,C,N","009999,1,9,9","+0290,1","+0240,1","99999,9","07,1,+01219,1,99,9",,"9,AGL   ,+99999,+99999","99,99,9,07,1,99,9,01219,1,99,9,99,9","10080,1,99999,9",,,,"MET051METAR SKSA 021900Z 13003KT 9999 BKN040 29/24 Q1008=",
"80222599999","2023-11-02T20:00:00","4","6.95","-71.85","213.0","LOS COLONIZADORES, CO","FM-15","99999","V020","130,1,N,0015,1","99999,9,9,N","009999,1,9,9","+0290,1","+0240,1","99999,9","02,1,+01219,1,99,9",,"9,AGL   ,+99999,+99999","99,99,9,02,1,99,9,01219,1,99,9,99,9","10070,1,99999,9",,,,"MET051METAR SKSA 022000Z 13003KT 9999 FEW040 29/24 Q1007=",
"80222599999","2023-11-02T21:00:00","4","6.95","-71.85","213.0","LOS COLONIZADORES, CO","FM-15","99999","V020","290,1,N,0026,1","99999,9,9,N","009999,1,9,9","+0270,1","+0240,1","99999,9","02,1,+01219,1,99,9",,"9,AGL   ,+99999,+99999","99,99,9,02,1,99,9,01219,1,99,9,99,9","10070,1,99999,9",,,,"MET051METAR SKSA 022100Z 29005KT 9999 FEW040 27/24 Q1007=",
"80222599999","2023-11-02T22:00:00","4","6.95","-71.85","213.0","LOS COLONIZADORES, CO","FM-15","99999","V020","050,1,N,0041,1","00610,1,C,N","009999,1,9,9","+0250,1","+0240,1","99999,9","08,1,+00610,1,99,9",,"9,AGL   ,+99999,+99999","99,99,9,08,1,99,9,00610,1,99,9,99,9","10080,1,99999,9",,,,"MET051METAR SKSA 022200Z 05008KT 9999 OVC020 25/24 Q1008=",
"80222599999","2023-11-02T23:00:00","4","6.95","-71.85","213.0","LOS COLONIZADORES, CO","FM-15","99999","V020","340,1,N,0021,1","00610,1,C,N","009999,1,9,9","+0240,1","+0240,1","99999,9","08,1,+00610,1,99,9",,"9,AGL   ,+99999,+99999","99,99,9,08,1,99,9,00610,1,99,9,99,9","10080,1,99999,9",,,,"MET051METAR SKSA 022300Z 34004KT 9999 OVC020 24/24 Q1008=",
"80222599999","2023-11-03T11:00:00","4","6.95","-71.85","213.0","LOS COLONIZADORES, CO","FM-15","99999","V020","270,1,N,0015,1","22000,1,9,N","009999,1,9,9","+0230,1","+0230,1","99999,9",,,,"00,99,1,99,9,99,9,99999,9,99,9,99,9","10100,1,99999,9",,,,"MET048METAR SKSA 031100Z 27003KT 9999 NSC 23/23 Q1010=",
"80222599999","2023-11-03T13:00:00","4","6.95","-71.85","213.0","LOS COLONIZADORES, CO","FM-15","99999","V020","060,1,N,0015,1","02134,1,C,N","009999,1,9,9","+0240,1","+0240,1","99999,9","08,1,+02134,1,99,9",,"9,AGL   ,+99999,+99999","99,99,9,08,1,99,9,02134,1,99,9,99,9","10120,1,99999,9",,,,"MET051METAR SKSA 031300Z 06003KT 9999 OVC070 24/24 Q1012=",
"80222599999","2023-11-03T14:00:00","4","6.95","-71.85","213.0","LOS COLONIZADORES, CO","FM-15","99999","V020","350,1,N,0015,1","02134,1,C,N","009999,1,9,9","+0260,1","+0250,1","99999,9","08,1,+02134,1,99,9",,"9,AGL   ,+99999,+99999","99,99,9,08,1,99,9,02134,1,99,9,99,9","10120,1,99999,9",,,,"MET051METAR SKSA 031400Z 35003KT 9999 OVC070 26/25 Q1012=",
"80222599999","2023-11-03T15:00:00","4","6.95","-71.85","213.0","LOS COLONIZADORES, CO","FM-15","99999","V020","020,1,N,0015,1","02134,1,C,N","009999,1,9,9","+0280,1","+0240,1","99999,9","08,1,+02134,1,99,9",,"9,AGL   ,+99999,+99999","99,99,9,08,1,99,9,02134,1,99,9,99,9","10120,1,99999,9",,,,"MET051METAR SKSA 031500Z 02003KT 9999 OVC070 28/24 Q1012=",
"80222599999","2023-11-03T16:00:00","4","6.95","-71.85","213.0","LOS COLONIZADORES, CO","FM-15","99999","V020","050,1,N,0026,1","99999,9,9,N","009999,1,9,9","+0270,1","+0240,1","99999,9","02,1,+01219,1,99,9",,"9,AGL   ,+99999,+99999","99,99,9,02,1,99,9,01219,1,99,9,99,9","10120,1,99999,9",,,,"MET051METAR SKSA 031600Z 05005KT 9999 FEW040 27/24 Q1012=",
"80222599999","2023-11-03T17:00:00","4","6.95","-71.85","213.0","LOS COLONIZADORES, CO","FM-15","99999","V020","050,1,N,0015,1","99999,9,9,N","009999,1,9,9","+0280,1","+0240,1","99999,9","02,1,+01219,1,99,9",,"9,AGL   ,+99999,+99999","99,99,9,02,1,99,9,01219,1,99,9,99,9","10100,1,99999,9",,,,"MET051METAR SKSA 031700Z 05003KT 9999 FEW040 28/24 Q1010=",
"80222599999","2023-11-03T18:00:00","4","6.95","-71.85","213.0","LOS COLONIZADORES, CO","FM-15","99999","V020","999,9,C,0000,1","01829,1,C,N","009999,1,9,9","+0270,1","+0240,1","99999,9","07,1,+01829,1,99,9",,"9,AGL   ,+99999,+99999","99,99,9,07,1,99,9,01829,1,99,9,99,9","10100,1,99999,9",,,,"MET051METAR SKSA 031800Z 00000KT 9999 BKN060 27/24 Q1010=",
"80222599999","2023-11-03T19:00:00","4","6.95","-71.85","213.0","LOS COLONIZADORES, CO","FM-15","99999","V020","240,1,N,0026,1","99999,9,9,N","009999,1,9,9","+0280,1","+0240,1","99999,9","02,1,+01829,1,99,9",,"9,AGL   ,+99999,+99999","99,99,9,02,1,99,9,01829,1,99,9,99,9","10090,1,99999,9",,,,"MET051METAR SKSA 031900Z 24005KT 9999 FEW060 28/24 Q1009=",
"80222599999","2023-11-03T20:00:00","4","6.95","-71.85","213.0","LOS COLONIZADORES, CO","FM-15","99999","V020","290,1,N,0026,1","99999,9,9,N","009999,1,9,9","+0290,1","+0240,1","99999,9","02,1,+01829,1,99,9",,"9,AGL   ,+99999,+99999","99,99,9,02,1,99,9,01829,1,99,9,99,9","10080,1,99999,9",,,,"MET051METAR SKSA 032000Z 29005KT 9999 FEW060 29/24 Q1008=",
"80222599999","2023-11-03T21:00:00","4","6.95","-71.85","213.0","LOS COLONIZADORES, CO","FM-15","99999","V020","360,1,N,0036,1","22000,1,9,N","009999,1,9,9","+0270,1","+0240,1","99999,9",,,,"00,99,1,99,9,99,9,99999,9,99,9,99,9","10080,1,99999,9",,,,"MET048METAR SKSA 032100Z 36007KT 9999 NSC 27/24 Q1008=",
"80222599999","2023-11-03T22:00:00","4","6.95","-71.85","213.0","LOS COLONIZADORES, CO","FM-15","99999","V020","300,1,N,0026,1","22000,1,9,N","009999,1,9,9","+0260,1","+0230,1","99999,9",,,,"00,99,1,99,9,99,9,99999,9,99,9,99,9","10080,1,99999,9",,,,"MET048METAR SKSA 032200Z 30005KT 9999 NSC 26/23 Q1008=",
"80222599999","2023-11-03T23:00:00","4","6.95","-71.85","213.0","LOS COLONIZADORES, CO","FM-15","99999","V020","310,1,N,0015,1","22000,1,9,N","009999,1,9,9","+0240,1","+0230,1","99999,9",,,,"00,99,1,99,9,99,9,99999,9,99,9,99,9","10080,1,99999,9",,,,"MET048METAR SKSA 032300Z 31003KT 9999 NSC 24/23 Q1008=",
"80222599999","2023-11-04T11:00:00","4","6.95","-71.85","213.0","LOS COLONIZADORES, CO","FM-15","99999","V020","999,9,C,0000,1","02438,1,C,N","009999,1,9,9","+0230,1","+0220,1","99999,9","08,1,+02438,1,99,9",,"9,AGL   ,+99999,+99999","99,99,9,08,1,99,9,02438,1,99,9,99,9","10120,1,99999,9",,,,"MET051METAR SKSA 041100Z 00000KT 9999 OVC080 23/22 Q1012=",
"80222599999","2023-11-04T12:00:00","4","6.95","-71.85","213.0","LOS COLONIZADORES, CO","FM-15","99999","V020","050,1,N,0015,1","02438,1,C,N","009999,1,9,9","+0240,1","+0230,1","99999,9","08,1,+02438,1,99,9",,"9,AGL   ,+99999,+99999","99,99,9,08,1,99,9,02438,1,99,9,99,9","10130,1,99999,9",,,,"MET051METAR SKSA 041200Z 05003KT 9999 OVC080 24/23 Q1013=",
"80222599999","2023-11-04T13:00:00","4","6.95","-71.85","213.0","LOS COLONIZADORES, CO","FM-15","99999","V020","999,9,C,0000,1","02438,1,C,N","009999,1,9,9","+0240,1","+0230,1","99999,9","08,1,+02438,1,99,9",,"9,AGL   ,+99999,+99999","99,99,9,08,1,99,9,02438,1,99,9,99,9","10130,1,99999,9",,,,"MET051METAR SKSA 041300Z 00000KT 9999 OVC080 24/23 Q1013=",
"80222599999","2023-11-04T14:00:00","4","6.95","-71.85","213.0","LOS COLONIZADORES, CO","FM-15","99999","V020","340,1,N,0026,1","02438,1,C,N","009999,1,9,9","+0260,1","+0230,1","99999,9","08,1,+02438,1,99,9",,"9,AGL   ,+99999,+99999","99,99,9,08,1,99,9,02438,1,99,9,99,9","10130,1,99999,9",,,,"MET051METAR SKSA 041400Z 34005KT 9999 OVC080 26/23 Q1013=",
"80222599999","2023-11-04T15:00:00","4","6.95","-71.85","213.0","LOS COLONIZADORES, CO","FM-15","99999","V020","340,1,N,0026,1","02438,1,C,N","009999,1,9,9","+0290,1","+0230,1","99999,9","08,1,+02438,1,99,9",,"9,AGL   ,+99999,+99999","99,99,9,08,1,99,9,02438,1,99,9,99,9","10120,1,99999,9",,,,"MET051METAR SKSA 041500Z 34005KT 9999 OVC080 29/23 Q1012=",
"80222599999","2023-11-04T16:00:00","4","6.95","-71.85","213.0","LOS COLONIZADORES, CO","FM-15","99999","V020","360,1,N,0021,1","99999,9,9,N","009999,1,9,9","+0300,1","+0230,1","99999,9","04,1,+02438,1,99,9",,"9,AGL   ,+99999,+99999","99,99,9,04,1,99,9,02438,1,99,9,99,9","10110,1,99999,9",,,,"MET051METAR SKSA 041600Z 36004KT 9999 SCT080 30/23 Q1011=",
"80222599999","2023-11-04T17:00:00","4","6.95","-71.85","213.0","LOS COLONIZADORES, CO","FM-15","99999","V020","330,1,N,0026,1","99999,9,9,N","009999,1,9,9","+0320,1","+0220,1","99999,9","04,1,+02438,1,99,9",,"9,AGL   ,+99999,+99999","99,99,9,04,1,99,9,02438,1,99,9,99,9","10100,1,99999,9",,,,"MET051METAR SKSA 041700Z 33005KT 9999 SCT080 32/22 Q1010=",
"80222599999","2023-11-04T20:00:00","4","6.95","-71.85","213.0","LOS COLONIZADORES, CO","FM-15","99999","V020","350,1,N,0015,1","99999,9,9,N","009999,1,9,9","+0280,1","+0220,1","99999,9","04,1,+02438,1,99,9",,"9,AGL   ,+99999,+99999","99,99,9,04,1,99,9,02438,1,99,9,99,9","10080,1,99999,9",,,,"MET051METAR SKSA 042000Z 35003KT 9999 SCT080 28/22 Q1008=",
"80222599999","2023-11-04T21:00:00","4","6.95","-71.85","213.0","LOS COLONIZADORES, CO","FM-15","99999","V020","260,1,N,0031,1","02438,1,C,N","009999,1,9,9","+0280,1","+0220,1","99999,9","07,1,+02438,1,99,9",,"9,AGL   ,+99999,+99999","99,99,9,07,1,99,9,02438,1,99,9,99,9","10080,1,99999,9",,,,"MET051METAR SKSA 042100Z 26006KT 9999 BKN080 28/22 Q1008=",
"80222599999","2023-11-05T11:00:00","4","6.95","-71.85","213.0","LOS COLONIZADORES, CO","FM-15","99999","V020","280,1,N,0015,1","22000,1,9,N","009999,1,9,9","+0230,1","+0230,1","99999,9",,,,"00,99,1,99,9,99,9,99999,9,99,9,99,9","10100,1,99999,9",,,,"MET048METAR SKSA 051100Z 28003KT 9999 NSC 23/23 Q1010=",
"80222599999","2023-11-05T15:00:00","4","6.95","-71.85","213.0","LOS COLONIZADORES, CO","FM-15","99999","V020","340,1,N,0015,1","22000,1,9,N","009999,1,9,9","+0290,1","+0220,1","99999,9",,,,"00,99,1,99,9,99,9,99999,9,99,9,99,9","10120,1,99999,9",,,,"MET048METAR SKSA 051500Z 34003KT 9999 NSC 29/22 Q1012=",
"80222599999","2023-11-05T16:00:00","4","6.95","-71.85","213.0","LOS COLONIZADORES, CO","FM-15","99999","V020","010,1,N,0015,1","22000,1,9,N","009999,1,9,9","+0310,1","+0220,1","99999,9",,,,"00,99,1,99,9,99,9,99999,9,99,9,99,9","10110,1,99999,9",,,,"MET048METAR SKSA 051600Z 01003KT 9999 NSC 31/22 Q1011=",
"80222599999","2023-11-05T17:00:00","4","6.95","-71.85","213.0","LOS COLONIZADORES, CO","FM-15","99999","V020","999,9,C,0000,1","22000,1,9,N","009999,1,9,9","+0320,1","+0220,1","99999,9",,,,"00,99,1,99,9,99,9,99999,9,99,9,99,9","10110,1,99999,9",,,,"MET048METAR SKSA 051700Z 00000KT 9999 NSC 32/22 Q1011=",
"80222599999","2023-11-05T18:00:00","4","6.95","-71.85","213.0","LOS COLONIZADORES, CO","FM-15","99999","V020","999,9,C,0000,1","22000,1,9,N","009999,1,9,9","+0320,1","+0220,1","99999,9",,,,"00,99,1,99,9,99,9,99999,9,99,9,99,9","10110,1,99999,9",,,,"MET048METAR SKSA 051800Z 00000KT 9999 NSC 32/22 Q1011=",
"80222599999","2023-11-05T20:00:00","4","6.95","-71.85","213.0","LOS COLONIZADORES, CO","FM-15","99999","V020","090,1,N,0015,1","22000,1,9,N","009999,1,9,9","+0320,1","+0220,1","99999,9",,,,"00,99,1,99,9,99,9,99999,9,99,9,99,9","10060,1,99999,9",,,,"MET048METAR SKSA 052000Z 09003KT 9999 NSC 32/22 Q1006=",
"80222599999","2023-11-05T21:00:00","4","6.95","-71.85","213.0","LOS COLONIZADORES, CO","FM-15","99999","V020","090,1,N,0036,1","22000,1,9,N","009999,1,9,9","+0310,1","+0220,1","99999,9",,,,"00,99,1,99,9,99,9,99999,9,99,9,99,9","10060,1,99999,9",,,,"MET048METAR SKSA 052100Z 09007KT 9999 NSC 31/22 Q1006=",
"80222599999","2023-11-05T23:00:00","4","6.95","-71.85","213.0","LOS COLONIZADORES, CO","FM-15","99999","V020","090,1,N,0036,1","22000,1,9,N","009999,1,9,9","+0260,1","+0240,1","99999,9",,,,"00,99,1,99,9,99,9,99999,9,99,9,99,9","10070,1,99999,9",,,,"MET048METAR SKSA 052300Z 09007KT 9999 NSC 26/24 Q1007=",
"80222599999","2023-11-06T11:00:00","4","6.95","-71.85","213.0","LOS COLONIZADORES, CO","FM-15","99999","V020","090,1,N,0015,1","02743,1,C,N","009999,1,9,9","+0240,1","+0240,1","99999,9","08,1,+02743,1,99,9",,"9,AGL   ,+99999,+99999","99,99,9,08,1,99,9,02743,1,99,9,99,9","10100,1,99999,9",,,,"MET051METAR SKSA 061100Z 09003KT 9999 OVC090 24/24 Q1010=",
"80222599999","2023-11-06T12:00:00","4","6.95","-71.85","213.0","LOS COLONIZADORES, CO","FM-15","99999","V020","999,9,C,0000,1","02743,1,C,N","009999,1,9,9","+0240,1","+0240,1","99999,9","08,1,+02743,1,99,9",,"9,AGL   ,+99999,+99999","99,99,9,08,1,99,9,02743,1,99,9,99,9","10100,1,99999,9",,,,"MET051METAR SKSA 061200Z 00000KT 9999 OVC090 24/24 Q1010=",
"80222599999","2023-11-06T13:00:00","4","6.95","-71.85","213.0","LOS COLONIZADORES, CO","FM-15","99999","V020","999,9,C,0000,1","02743,1,C,N","009999,1,9,9","+0250,1","+0240,1","99999,9","08,1,+02743,1,99,9",,"9,AGL   ,+99999,+99999","99,99,9,08,1,99,9,02743,1,99,9,99,9","10120,1,99999,9",,,,"MET051METAR SKSA 061300Z 00000KT 9999 OVC090 25/24 Q1012=",
"80222599999","2023-11-06T15:00:00","4","6.95","-71.85","213.0","LOS COLONIZADORES, CO","FM-15","99999","V020","240,1,N,0031,1","00914,1,C,N","009999,1,9,9","+0270,1","+0240,1","99999,9","08,1,+00914,1,99,9",,"9,AGL   ,+99999,+99999","99,99,9,08,1,99,9,00914,1,99,9,99,9","10130,1,99999,9",,,,"MET051METAR SKSA 061500Z 24006KT 9999 OVC030 27/24 Q1013=",
"80222599999","2023-11-06T16:00:00","4","6.95","-71.85","213.0","LOS COLONIZADORES, CO","FM-15","99999","V020","999,9,C,0000,1","02438,1,C,N","009999,1,9,9","+0260,1","+0240,1","99999,9","08,1,+02438,1,99,9",,"9,AGL   ,+99999,+99999","99,99,9,08,1,99,9,02438,1,99,9,99,9","10120,1,99999,9",,,,"MET051METAR SKSA 061600Z 00000KT 9999 OVC080 26/24 Q1012=",
"80222599999","2023-11-06T21:00:00","4","6.95","-71.85","213.0","LOS COLONIZADORES, CO","FM-15","99999","V020","100,1,N,0026,1","99999,9,9,N","009999,1,9,9","+0270,1","+0230,1","99999,9","02,1,+00914,1,99,9",,"9,AGL   ,+99999,+99999","99,99,9,02,1,99,9,00914,1,99,9,99,9","10080,1,99999,9",,,,"MET051METAR SKSA 062100Z 10005KT 9999 FEW030 27/23 Q1008=",
"80222599999","2023-11-06T23:00:00","4","6.95","-71.85","213.0","LOS COLONIZADORES, CO","FM-15","99999","V020","150,1,N,0036,1","99999,9,9,N","009999,1,9,9","+0260,1","+0230,1","99999,9","02,1,+00914,1,99,9",,"9,AGL   ,+99999,+99999","99,99,9,02,1,99,9,00914,1,99,9,99,9","10080,1,99999,9",,,,"MET051METAR SKSA 062300Z 15007KT 9999 FEW030 26/23 Q1008=",
"80222599999","2023-11-07T11:00:00","4","6.95","-71.85","213.0","LOS COLONIZADORES, CO","FM-15","99999","V020","999,9,C,0000,1","02743,1,C,N","009999,1,9,9","+0230,1","+0230,1","99999,9","08,1,+02743,1,99,9",,"9,AGL   ,+99999,+99999","99,99,9,08,1,99,9,02743,1,99,9,99,9","10120,1,99999,9",,,,"MET051METAR SKSA 071100Z 00000KT 9999 OVC090 23/23 Q1012=",
"80222599999","2023-11-07T13:00:00","4","6.95","-71.85","213.0","LOS COLONIZADORES, CO","FM-15","99999","V020","999,9,C,0000,1","02743,1,C,N","009999,1,9,9","+0250,1","+0240,1","99999,9","08,1,+02743,1,99,9",,"9,AGL   ,+99999,+99999","99,99,9,08,1,99,9,02743,1,99,9,99,9","10140,1,99999,9",,,,"MET051METAR SKSA 071300Z 00000KT 9999 OVC090 25/24 Q1014=",
"80222599999","2023-11-07T15:00:00","4","6.95","-71.85","213.0","LOS COLONIZADORES, CO","FM-15","99999","V020","999,9,C,0000,1","02743,1,C,N","009999,1,9,9","+0280,1","+0240,1","99999,9","08,1,+02743,1,99,9",,"9,AGL   ,+99999,+99999","99,99,9,08,1,99,9,02743,1,99,9,99,9","10140,1,99999,9",,,,"MET051METAR SKSA 071500Z 00000KT 9999 OVC090 28/24 Q1014=",
"80222599999","2023-11-07T16:00:00","4","6.95","-71.85","213.0","LOS COLONIZADORES, CO","FM-15","99999","V020","999,9,C,0000,1","01524,1,C,N","009999,1,9,9","+0280,1","+0240,1","99999,9","07,1,+01524,1,99,9",,"9,AGL   ,+99999,+99999","99,99,9,07,1,99,9,01524,1,99,9,99,9","10140,1,99999,9",,,,"MET051METAR SKSA 071600Z 00000KT 9999 BKN050 28/24 Q1014=",
"80222599999","2023-11-07T19:00:00","4","6.95","-71.85","213.0","LOS COLONIZADORES, CO","FM-15","99999","V020","999,9,C,0000,1","01524,1,C,N","009999,1,9,9","+0300,1","+0240,1","99999,9","07,1,+01524,1,99,9",,"9,AGL   ,+99999,+99999","99,99,9,07,1,99,9,01524,1,99,9,99,9","10140,1,99999,9",,,,"MET051METAR SKSA 071900Z 00000KT 9999 BKN050 30/24 Q1014=",
"80222599999","2023-11-07T20:00:00","4","6.95","-71.85","213.0","LOS COLONIZADORES, CO","FM-15","99999","V020","999,9,C,0000,1","01219,1,C,N","009999,1,9,9","+0300,1","+0240,1","99999,9","07,1,+01219,1,99,9",,"9,AGL   ,+99999,+99999","99,99,9,07,1,99,9,01219,1,99,9,99,9","10090,2,99999,9",,,,"MET051METAR SKSA 072000Z 00000KT 9999 BKN040 30/24 Q1009=",
"80222599999","2023-11-07T21:00:00","4","6.95","-71.85","213.0","LOS COLONIZADORES, CO","FM-15","99999","V020","290,1,N,0015,1","01219,1,C,N","009999,1,9,9","+0260,1","+0240,1","99999,9","07,1,+01219,1,99,9",,"9,AGL   ,+99999,+99999","99,99,9,07,1,99,9,01219,1,99,9,99,9","10090,1,99999,9",,,,"MET051METAR SKSA 072100Z 29003KT 9999 BKN040 26/24 Q1009=",
"80222599999","2023-11-07T22:00:00","4","6.95","-71.85","213.0","LOS COLONIZADORES, CO","FM-15","99999","V020","240,1,N,0021,1","99999,9,9,N","009999,1,9,9","+0270,1","+0240,1","99999,9","02,1,+01219,1,99,9",,"9,AGL   ,+99999,+99999","99,99,9,02,1,99,9,01219,1,99,9,99,9","10100,1,99999,9",,,,"MET051METAR SKSA 072200Z 24004KT 9999 FEW040 27/24 Q1010=",
"80222599999","2023-11-08T12:00:00","4","6.95","-71.85","213.0","LOS COLONIZADORES, CO","FM-15","99999","V020","230,1,N,0021,1","00914,1,C,N","009999,1,9,9","+0240,1","+0240,1","99999,9","08,1,+00914,1,99,9",,"9,AGL   ,+99999,+99999","99,99,9,08,1,99,9,00914,1,99,9,99,9","10130,1,99999,9",,,,"MET051METAR SKSA 081200Z 23004KT 9999 OVC030 24/24 Q1013=",
"80222599999","2023-11-08T13:00:00","4","6.95","-71.85","213.0","LOS COLONIZADORES, CO","FM-15","99999","V020","280,1,N,0031,1","00914,1,C,N","009999,1,9,9","+0250,1","+0240,1","99999,9","08,1,+00914,1,99,9",,"9,AGL   ,+99999,+99999","99,99,9,08,1,99,9,00914,1,99,9,99,9","10130,1,99999,9",,,,"MET051METAR SKSA 081300Z 28006KT 9999 OVC030 25/24 Q1013=",
"80222599999","2023-11-08T14:00:00","4","6.95","-71.85","213.0","LOS COLONIZADORES, CO","FM-15","99999","V020","270,1,N,0026,1","00914,1,C,N","009999,1,9,9","+0260,1","+0240,1","99999,9","08,1,+00914,1,99,9",,"9,AGL   ,+99999,+99999","99,99,9,08,1,99,9,00914,1,99,9,99,9","10150,1,99999,9",,,,"MET051METAR SKSA 081400Z 27005KT 9999 OVC030 26/24 Q1015=",
"80222599999","2023-11-08T15:00:00","4","6.95","-71.85","213.0","LOS COLONIZADORES, CO","FM-15","99999","V020","320,1,N,0036,1","99999,9,9,N","009999,1,9,9","+0280,1","+0240,1","99999,9","02,1,+02438,1,99,9",,"9,AGL   ,+99999,+99999","99,99,9,02,1,99,9,02438,1,99,9,99,9","10140,1,99999,9",,,,"MET051METAR SKSA 081500Z 32007KT 9999 FEW080 28/24 Q1014=",
"80222599999","2023-11-08T16:00:00","4","6.95","-71.85","213.0","LOS COLONIZADORES, CO","FM-15","99999","V020","320,1,N,0041,1","99999,9,9,N","009999,1,9,9","+0300,1","+0240,1","99999,9","02,1,+02438,1,99,9",,"9,AGL   ,+99999,+99999","99,99,9,02,1,99,9,02438,1,99,9,99,9","10130,1,99999,9",,,,"MET051METAR SKSA 081600Z 32008KT 9999 FEW080 30/24 Q1013=",
"80222599999","2023-11-08T17:00:00","4","6.95","-71.85","213.0","LOS COLONIZADORES, CO","FM-15","99999","V020","290,1,N,0026,1","99999,9,9,N","009999,1,9,9","+0320,1","+0240,1","99999,9","04,1,+01219,1,99,9",,"9,AGL   ,+99999,+99999","99,99,9,04,1,99,9,01219,1,99,9,99,9","10100,1,99999,9",,,,"MET051METAR SKSA 081700Z 29005KT 9999 SCT040 32/24 Q1010=",
"80222599999","2023-11-08T19:00:00","4","6.95","-71.85","213.0","LOS COLONIZADORES, CO","FM-15","99999","V020","050,1,N,0015,1","99999,9,9,N","009999,1,9,9","+0320,1","+0240,1","99999,9","04,1,+01219,1,99,9",,"9,AGL   ,+99999,+99999","99,99,9,04,1,99,9,01219,1,99,9,99,9","10100,1,99999,9",,,,"MET051METAR SKSA 081900Z 05003KT 9999 SCT040 32/24 Q1010=",
"80222599999","2023-11-08T20:00:00","4","6.95","-71.85","213.0","LOS COLONIZADORES, CO","FM-15","99999","V020","050,1,N,0015,1","99999,9,9,N","009999,1,9,9","+0310,1","+0240,1","99999,9","04,1,+01219,1,99,9",,"9,AGL   ,+99999,+99999","99,99,9,04,1,99,9,01219,1,99,9,99,9","10100,1,99999,9",,,,"MET051METAR SKSA 082000Z 05003KT 9999 SCT040 31/24 Q1010=",
"80222599999","2023-11-08T21:00:00","4","6.95","-71.85","213.0","LOS COLONIZADORES, CO","FM-15","99999","V020","170,1,N,0015,1","99999,9,9,N","009999,1,9,9","+0320,1","+0240,1","99999,9","04,1,+01219,1,99,9",,"9,AGL   ,+99999,+99999","99,99,9,04,1,99,9,01219,1,99,9,99,9","10070,1,99999,9",,,,"MET051METAR SKSA 082100Z 17003KT 9999 SCT040 32/24 Q1007=",
"80222599999","2023-11-08T23:00:00","4","6.95","-71.85","213.0","LOS COLONIZADORES, CO","FM-15","99999","V020","170,1,N,0015,1","99999,9,9,N","009999,1,9,9","+0270,1","+0240,1","99999,9","04,1,+01219,1,99,9",,"9,AGL   ,+99999,+99999","99,99,9,04,1,99,9,01219,1,99,9,99,9","10070,1,99999,9",,,,"MET051METAR SKSA 082300Z 17003KT 9999 SCT040 27/24 Q1007=",
"80222599999","2023-11-09T12:00:00","4","6.95","-71.85","213.0","LOS COLONIZADORES, CO","FM-15","99999","V020","999,9,C,0000,1","22000,1,9,N","009999,1,9,9","+0270,1","+0240,1","99999,9",,,,"00,99,1,99,9,99,9,99999,9,99,9,99,9","10120,1,99999,9",,,,"MET048METAR SKSA 091200Z 00000KT 9999 NSC 27/24 Q1012=",
"80222599999","2023-11-09T13:00:00","4","6.95","-71.85","213.0","LOS COLONIZADORES, CO","FM-15","99999","V020","999,9,C,0000,1","22000,1,9,N","009999,1,9,9","+0270,1","+0240,1","99999,9",,,,"00,99,1,99,9,99,9,99999,9,99,9,99,9","10120,1,99999,9",,,,"MET048METAR SKSA 091300Z 00000KT 9999 NSC 27/24 Q1012=",
"80222599999","2023-11-09T14:00:00","4","6.95","-71.85","213.0","LOS COLONIZADORES, CO","FM-15","99999","V020","999,9,C,0000,1","22000,1,9,N","009999,1,9,9","+0290,1","+0240,1","99999,9",,,,"00,99,1,99,9,99,9,99999,9,99,9,99,9","10130,1,99999,9",,,,"MET048METAR SKSA 091400Z 00000KT 9999 NSC 29/24 Q1013=",
"80222599999","2023-11-09T15:00:00","4","6.95","-71.85","213.0","LOS COLONIZADORES, CO","FM-15","99999","V020","360,1,N,0015,1","22000,1,9,N","009999,1,9,9","+0310,1","+0240,1","99999,9",,,,"00,99,1,99,9,99,9,99999,9,99,9,99,9","10130,1,99999,9",,,,"MET048METAR SKSA 091500Z 36003KT 9999 NSC 31/24 Q1013=",
"80222599999","2023-11-09T16:00:00","4","6.95","-71.85","213.0","LOS COLONIZADORES, CO","FM-15","99999","V020","030,1,N,0015,1","22000,1,9,N","009999,1,9,9","+0310,1","+0240,1","99999,9",,,,"00,99,1,99,9,99,9,99999,9,99,9,99,9","10130,1,99999,9",,,,"MET048METAR SKSA 091600Z 03003KT 9999 NSC 31/24 Q1013=",
"80222599999","2023-11-09T17:00:00","4","6.95","-71.85","213.0","LOS COLONIZADORES, CO","FM-15","99999","V020","140,1,N,0015,1","99999,9,9,N","009999,1,9,9","+0320,1","+0240,1","99999,9","02,1,+01219,1,99,9",,"9,AGL   ,+99999,+99999","99,99,9,02,1,99,9,01219,1,99,9,99,9","10100,1,99999,9",,,,"MET051METAR SKSA 091700Z 14003KT 9999 FEW040 32/24 Q1010=",
"80222599999","2023-11-09T18:00:00","4","6.95","-71.85","213.0","LOS COLONIZADORES, CO","FM-15","99999","V020","070,1,N,0051,1","99999,9,9,N","009999,1,9,9","+0280,1","+0240,1","99999,9","02,1,+01219,1,99,9",,"9,AGL   ,+99999,+99999","99,99,9,02,1,99,9,01219,1,99,9,99,9","10100,1,99999,9",,,,"MET051METAR SKSA 091800Z 07010KT 9999 FEW040 28/24 Q1010=",
"80222599999","2023-11-09T19:00:00","4","6.95","-71.85","213.0","LOS COLONIZADORES, CO","FM-15","99999","V020","360,1,N,0015,1","22000,1,9,N","009999,1,9,9","+0300,1","+0240,1","99999,9",,,,"00,99,1,99,9,99,9,99999,9,99,9,99,9","10100,1,99999,9",,,,"MET048METAR SKSA 091900Z 36003KT 9999 NSC 30/24 Q1010=",
"80222599999","2023-11-09T20:00:00","4","6.95","-71.85","213.0","LOS COLONIZADORES, CO","FM-15","99999","V020","020,1,N,0015,1","22000,1,9,N","009999,1,9,9","+0300,1","+0240,1","99999,9",,,,"00,99,1,99,9,99,9,99999,9,99,9,99,9","10100,1,99999,9",,,,"MET048METAR SKSA 092000Z 02003KT 9999 NSC 30/24 Q1010=",
"80222599999","2023-11-09T21:00:00","4","6.95","-71.85","213.0","LOS COLONIZADORES, CO","FM-15","99999","V020","220,1,N,0021,1","99999,9,9,N","009999,1,9,9","+0300,1","+0240,1","99999,9","04,1,+01219,1,99,9",,"9,AGL   ,+99999,+99999","99,99,9,04,1,99,9,01219,1,99,9,99,9","10100,1,99999,9",,,,"MET051METAR SKSA 092100Z 22004KT 9999 SCT040 30/24 Q1010=",
"80222599999","2023-11-09T22:00:00","4","6.95","-71.85","213.0","LOS COLONIZADORES, CO","FM-15","99999","V020","250,1,N,0026,1","01219,1,C,N","009999,1,9,9","+0290,1","+0240,1","99999,9","07,1,+01219,1,99,9",,"9,AGL   ,+99999,+99999","99,99,9,07,1,99,9,01219,1,99,9,99,9","10080,1,99999,9",,,,"MET051METAR SKSA 092200Z 25005KT 9999 BKN040 29/24 Q1008=",
"80222599999","2023-11-09T23:00:00","4","6.95","-71.85","213.0","LOS COLONIZADORES, CO","FM-15","99999","V020","270,1,N,0015,1","01219,1,C,N","009999,1,9,9","+0270,1","+0240,1","99999,9","07,1,+01219,1,99,9",,"9,AGL   ,+99999,+99999","99,99,9,07,1,99,9,01219,1,99,9,99,9","10080,1,99999,9",,,,"MET051METAR SKSA 092300Z 27003KT 9999 BKN040 27/24 Q1008=",
"80222599999","2023-11-10T11:00:00","4","6.95","-71.85","213.0","LOS COLONIZADORES, CO","FM-15","99999","V020","999,9,C,0000,1","22000,1,9,N","009999,1,9,9","+0230,1","+0230,1","99999,9",,,,"00,99,1,99,9,99,9,99999,9,99,9,99,9","10110,1,99999,9",,,,"MET048METAR SKSA 101100Z 00000KT 9999 NSC 23/23 Q1011=",
"80222599999","2023-11-10T12:00:00","4","6.95","-71.85","213.0","LOS COLONIZADORES, CO","FM-15","99999","V020","340,1,N,0015,1","22000,1,9,N","009999,1,9,9","+0260,1","+0230,1","99999,9",,,,"00,99,1,99,9,99,9,99999,9,99,9,99,9","10120,1,99999,9",,,,"MET048METAR SKSA 101200Z 34003KT 9999 NSC 26/23 Q1012=",
"80222599999","2023-11-10T13:00:00","4","6.95","-71.85","213.0","LOS COLONIZADORES, CO","FM-15","99999","V020","999,9,C,0000,1","22000,1,9,N","009999,1,9,9","+0270,1","+0230,1","99999,9",,,,"00,99,1,99,9,99,9,99999,9,99,9,99,9","10120,1,99999,9",,,,"MET048METAR SKSA 101300Z 00000KT 9999 NSC 27/23 Q1012=",
"80222599999","2023-11-10T14:00:00","4","6.95","-71.85","213.0","LOS COLONIZADORES, CO","FM-15","99999","V020","999,9,C,0000,1","22000,1,9,N","009999,1,9,9","+0300,1","+0230,1","99999,9",,,,"00,99,1,99,9,99,9,99999,9,99,9,99,9","10130,1,99999,9",,,,"MET048METAR SKSA 101400Z 00000KT 9999 NSC 30/23 Q1013=",
"80222599999","2023-11-10T15:00:00","4","6.95","-71.85","213.0","LOS COLONIZADORES, CO","FM-15","99999","V020","300,1,N,0021,1","22000,1,9,N","009999,1,9,9","+0320,1","+0220,1","99999,9",,,,"00,99,1,99,9,99,9,99999,9,99,9,99,9","10130,1,99999,9",,,,"MET048METAR SKSA 101500Z 30004KT 9999 NSC 32/22 Q1013=",
"80222599999","2023-11-10T16:00:00","4","6.95","-71.85","213.0","LOS COLONIZADORES, CO","FM-15","99999","V020","020,1,N,0015,1","99999,9,9,N","009999,1,9,9","+0320,1","+0220,1","99999,9","02,1,+00914,1,99,9",,"9,AGL   ,+99999,+99999","99,99,9,02,1,99,9,00914,1,99,9,99,9","10130,1,99999,9",,,,"MET051METAR SKSA 101600Z 02003KT 9999 FEW030 32/22 Q1013=",
"80222599999","2023-11-10T18:00:00","4","6.95","-71.85","213.0","LOS COLONIZADORES, CO","FM-15","99999","V020","290,1,N,0021,1","99999,9,9,N","009999,1,9,9","+0280,1","+0250,1","99999,9","02,1,+00914,1,99,9",,"9,AGL   ,+99999,+99999","99,99,9,02,1,99,9,00914,1,99,9,99,9","10100,1,99999,9",,,,"MET051METAR SKSA 101800Z 29004KT 9999 FEW030 28/25 Q1010=",
"80222599999","2023-11-10T19:00:00","4","6.95","-71.85","213.0","LOS COLONIZADORES, CO","FM-15","99999","V020","999,9,N,9999,9","99999,9,9,N","011265,5,9,9","+0270,5","+0250,5","99999,9",,,,,"10090,5,99999,9",,,,"MET050METAR SKSA 101900Z 1857KT 9999 FEW030 27/25 Q1009=","D01      0ADE693D02      0ADE539D03      0ADE592"
"80222599999","2023-11-10T20:00:00","4","6.95","-71.85","213.0","LOS COLONIZADORES, CO","FM-15","99999","V020","260,1,N,0015,1","01524,1,C,N","009999,1,9,9","+0280,1","+0230,1","99999,9","07,1,+01524,1,99,9",,"9,AGL   ,+99999,+99999","99,99,9,07,1,99,9,01524,1,99,9,99,9","10080,1,99999,9",,,,"MET051METAR SKSA 102000Z 26003KT 9999 BKN050 28/23 Q1008=",
"80222599999","2023-11-10T21:00:00","4","6.95","-71.85","213.0","LOS COLONIZADORES, CO","FM-15","99999","V020","210,1,N,0021,1","22000,1,9,N","009999,1,9,9","+0280,1","+0230,1","99999,9",,,,"00,99,1,99,9,99,9,99999,9,99,9,99,9","10080,1,99999,9",,,,"MET048METAR SKSA 102100Z 21004KT 9999 NSC 28/23 Q1008=",
"80222599999","2023-11-10T22:00:00","4","6.95","-71.85","213.0","LOS COLONIZADORES, CO","FM-15","99999","V020","999,9,C,0000,1","22000,1,9,N","009999,1,9,9","+0270,1","+0230,1","99999,9",,,,"00,99,1,99,9,99,9,99999,9,99,9,99,9","10080,1,99999,9",,,,"MET048METAR SKSA 102200Z 00000KT 9999 NSC 27/23 Q1008=",
"80222599999","2023-11-10T23:00:00","4","6.95","-71.85","213.0","LOS COLONIZADORES, CO","FM-15","99999","V020","999,9,C,0000,1","22000,1,9,N","009999,1,9,9","+0250,1","+0230,1","99999,9",,,,"00,99,1,99,9,99,9,99999,9,99,9,99,9","10080,1,99999,9",,,,"MET048METAR SKSA 102300Z 00000KT 9999 NSC 25/23 Q1008=",
"80222599999","2023-11-11T11:00:00","4","6.95","-71.85","213.0","LOS COLONIZADORES, CO","FM-15","99999","V020","999,9,C,0000,1","02743,1,C,N","009999,1,9,9","+0220,1","+0220,1","99999,9","08,1,+02743,1,99,9",,"9,AGL   ,+99999,+99999","99,99,9,08,1,99,9,02743,1,99,9,99,9","10110,1,99999,9",,,,"MET051METAR SKSA 111100Z 00000KT 9999 OVC090 22/22 Q1011=",
"80222599999","2023-11-11T13:00:00","4","6.95","-71.85","213.0","LOS COLONIZADORES, CO","FM-15","99999","V020","999,9,C,0000,1","02438,1,C,N","009999,1,9,9","+0240,1","+0230,1","99999,9","08,1,+02438,1,99,9",,"9,AGL   ,+99999,+99999","99,99,9,08,1,99,9,02438,1,99,9,99,9","10110,1,99999,9",,,,"MET051METAR SKSA 111300Z 00000KT 9999 OVC080 24/23 Q1011=",
"80222599999","2023-11-11T14:00:00","4","6.95","-71.85","213.0","LOS COLONIZADORES, CO","FM-15","99999","V020","050,1,N,0031,1","01219,1,9,N","009999,1,9,9","+0220,1","+0220,1","99999,9","04,1,+00122,1,99,9","08,1,+01219,1,99,9","9,AGL   ,+99999,+99999","99,99,9,04,1,99,9,00122,1,99,9,99,9","10140,1,99999,9",,,,"MET058METAR SKSA 111400Z 05006KT 9999 SCT004 OVC040 22/22 Q1014=",
"80222599999","2023-11-11T15:00:00","4","6.95","-71.85","213.0","LOS COLONIZADORES, CO","FM-15","99999","V020","320,1,N,0026,1","01219,1,9,N","009999,1,9,9","+0230,1","+0230,1","99999,9","04,1,+00122,1,99,9","08,1,+01219,1,99,9","9,AGL   ,+99999,+99999","99,99,9,04,1,99,9,00122,1,99,9,99,9","10150,1,99999,9",,,,"MET058METAR SKSA 111500Z 32005KT 9999 SCT004 OVC040 23/23 Q1015=",
"80222599999","2023-11-11T16:00:00","4","6.95","-71.85","213.0","LOS COLONIZADORES, CO","FM-15","99999","V020","320,1,N,0026,1","01219,1,C,N","009999,1,9,9","+0240,1","+0230,1","99999,9","08,1,+01219,1,99,9",,"9,AGL   ,+99999,+99999","99,99,9,08,1,99,9,01219,1,99,9,99,9","10140,1,99999,9",,,,"MET051METAR SKSA 111600Z 32005KT 9999 OVC040 24/23 Q1014=",
"80222599999","2023-11-11T17:00:00","4","6.95","-71.85","213.0","LOS COLONIZADORES, CO","FM-15","99999","V020","320,1,N,0026,1","99999,9,9,N","009999,1,9,9","+0250,1","+0230,1","99999,9","04,1,+00914,1,99,9",,"9,AGL   ,+99999,+99999","99,99,9,04,1,99,9,00914,1,99,9,99,9","10140,1,99999,9",,,,"MET051METAR SKSA 111700Z 32005KT 9999 SCT030 25/23 Q1014=",
"80222599999","2023-11-11T18:00:00","4","6.95","-71.85","213.0","LOS COLONIZADORES, CO","FM-15","99999","V020","320,1,N,0026,1","02743,1,9,N","009999,1,9,9","+0260,1","+0230,1","99999,9","02,1,+01219,1,99,9","08,1,+02743,1,99,9","9,AGL   ,+99999,+99999","99,99,9,02,1,99,9,01219,1,99,9,99,9","10100,2,99999,9",,,,"MET058METAR SKSA 111800Z 32005KT 9999 FEW040 OVC090 26/23 Q1010=",
"80222599999","2023-11-11T19:00:00","4","6.95","-71.85","213.0","LOS COLONIZADORES, CO","FM-15","99999","V020","320,1,N,0026,1","02743,1,9,N","009999,1,9,9","+0260,1","+0230,1","99999,9","02,1,+01219,1,99,9","08,1,+02743,1,99,9","9,AGL   ,+99999,+99999","99,99,9,02,1,99,9,01219,1,99,9,99,9","10100,1,99999,9",,,,"MET058METAR SKSA 111900Z 32005KT 9999 FEW040 OVC090 26/23 Q1010=",
"80222599999","2023-11-11T20:00:00","4","6.95","-71.85","213.0","LOS COLONIZADORES, CO","FM-15","99999","V020","320,1,N,0026,1","02743,1,9,N","009999,1,9,9","+0260,1","+0230,1","99999,9","02,1,+01219,1,99,9","08,1,+02743,1,99,9","9,AGL   ,+99999,+99999","99,99,9,02,1,99,9,01219,1,99,9,99,9","10100,1,99999,9",,,,"MET058METAR SKSA 112000Z 32005KT 9999 FEW040 OVC090 26/23 Q1010=",
"80222599999","2023-11-11T22:00:00","4","6.95","-71.85","213.0","LOS COLONIZADORES, CO","FM-15","99999","V020","999,9,C,0000,1","22000,1,9,N","009999,1,9,9","+0260,1","+0230,1","99999,9",,,,"00,99,1,99,9,99,9,99999,9,99,9,99,9","10100,1,99999,9",,,,"MET048METAR SKSA 112200Z 00000KT 9999 NSC 26/23 Q1010=",
"80222599999","2023-11-12T11:00:00","4","6.95","-71.85","213.0","LOS COLONIZADORES, CO","FM-15","99999","V020","999,9,C,0000,1","01219,1,C,N","009999,1,9,9","+0230,1","+0230,1","99999,9","08,1,+01219,1,99,9",,"9,AGL   ,+99999,+99999","99,99,9,08,1,99,9,01219,1,99,9,99,9","10110,1,99999,9",,,,"MET051METAR SKSA 121100Z 00000KT 9999 OVC040 23/23 Q1011=",
"80222599999","2023-11-12T12:00:00","4","6.95","-71.85","213.0","LOS COLONIZADORES, CO","FM-15","99999","V020","999,9,C,0000,1","01219,1,C,N","009999,1,9,9","+0230,1","+0230,1","99999,9","08,1,+01219,1,99,9",,"9,AGL   ,+99999,+99999","99,99,9,08,1,99,9,01219,1,99,9,99,9","10110,1,99999,9",,,,"MET051METAR SKSA 121200Z 00000KT 9999 OVC040 23/23 Q1011=",
"80222599999","2023-11-12T15:00:00","4","6.95","-71.85","213.0","LOS COLONIZADORES, CO","FM-15","99999","V020","999,9,C,0000,1","01219,1,C,N","009999,1,9,9","+0270,1","+0230,1","99999,9","08,1,+01219,1,99,9",,"9,AGL   ,+99999,+99999","99,99,9,08,1,99,9,01219,1,99,9,99,9","10120,1,99999,9",,,,"MET051METAR SKSA 121500Z 00000KT 9999 OVC040 27/23 Q1012=",
"80222599999","2023-11-12T16:00:00","4","6.95","-71.85","213.0","LOS COLONIZADORES, CO","FM-15","99999","V020","999,9,C,0000,1","22000,1,9,N","009999,1,9,9","+0280,1","+0230,1","99999,9",,,,"00,99,1,99,9,99,9,99999,9,99,9,99,9","10120,1,99999,9",,,,"MET048METAR SKSA 121600Z 00000KT 9999 NSC 28/23 Q1012=",
"80222599999","2023-11-12T17:00:00","4","6.95","-71.85","213.0","LOS COLONIZADORES, CO","FM-15","99999","V020","320,1,N,0046,1","22000,1,9,N","009999,1,9,9","+0310,1","+0230,1","99999,9",,,,"00,99,1,99,9,99,9,99999,9,99,9,99,9","10120,1,99999,9",,,,"MET048METAR SKSA 121700Z 32009KT 9999 NSC 31/23 Q1012=",
"80222599999","2023-11-12T18:00:00","4","6.95","-71.85","213.0","LOS COLONIZADORES, CO","FM-15","99999","V020","320,1,N,0046,1","22000,1,9,N","009999,1,9,9","+0310,1","+0230,1","99999,9",,,,"00,99,1,99,9,99,9,99999,9,99,9,99,9","10090,1,99999,9",,,,"MET048METAR SKSA 121800Z 32009KT 9999 NSC 31/23 Q1009=",
"80222599999","2023-11-12T19:00:00","4","6.95","-71.85","213.0","LOS COLONIZADORES, CO","FM-15","99999","V020","040,1,N,0015,1","22000,1,9,N","009999,1,9,9","+0320,1","+0230,1","99999,9",,,,"00,99,1,99,9,99,9,99999,9,99,9,99,9","10090,1,99999,9",,,,"MET048METAR SKSA 121900Z 04003KT 9999 NSC 32/23 Q1009=",
"80222599999","2023-11-12T20:00:00","4","6.95","-71.85","213.0","LOS COLONIZADORES, CO","FM-15","99999","V020","360,1,N,0015,1","22000,1,9,N","009999,1,9,9","+0310,1","+0230,1","99999,9",,,,"00,99,1,99,9,99,9,99999,9,99,9,99,9","10070,1,99999,9",,,,"MET048METAR SKSA 122000Z 36003KT 9999 NSC 31/23 Q1007=",
"80222599999","2023-11-12T21:00:00","4","6.95","-71.85","213.0","LOS COLONIZADORES, CO","FM-15","99999","V020","999,9,C,0000,1","22000,1,9,N","009999,1,9,9","+0310,1","+0230,1","99999,9",,,,"00,99,1,99,9,99,9,99999,9,99,9,99,9","10070,1,99999,9",,,,"MET048METAR SKSA 122100Z 00000KT 9999 NSC 31/23 Q1007=",
"80222599999","2023-11-12T22:00:00","4","6.95","-71.85","213.0","LOS COLONIZADORES, CO","FM-15","99999","V020","999,9,C,0000,1","22000,1,9,N","009999,1,9,9","+0310,1","+0230,1","99999,9",,,,"00,99,1,99,9,99,9,99999,9,99,9,99,9","10070,1,99999,9",,,,"MET048METAR SKSA 122200Z 00000KT 9999 NSC 31/23 Q1007=",
"80222599999","2023-11-12T23:00:00","4","6.95","-71.85","213.0","LOS COLONIZADORES, CO","FM-15","99999","V020","999,9,C,0000,1","22000,1,9,N","009999,1,9,9","+0270,1","+0230,1","99999,9",,,,"00,99,1,99,9,99,9,99999,9,99,9,99,9","10070,1,99999,9",,,,"MET048METAR SKSA 122300Z 00000KT 9999 NSC 27/23 Q1007=",
"80222599999","2023-11-13T11:00:00","4","6.95","-71.85","213.0","LOS COLONIZADORES, CO","FM-15","99999","V020","999,9,C,0000,1","22000,1,9,N","009999,1,9,9","+0220,1","+0220,1","99999,9",,,,"00,99,1,99,9,99,9,99999,9,99,9,99,9","10110,1,99999,9",,,,"MET048METAR SKSA 131100Z 00000KT 9999 NSC 22/22 Q1011=",
"80222599999","2023-11-13T12:00:00","4","6.95","-71.85","213.0","LOS COLONIZADORES, CO","FM-15","99999","V020","999,9,C,0000,1","22000,1,9,N","009999,1,9,9","+0220,1","+0220,1","99999,9",,,,"00,99,1,99,9,99,9,99999,9,99,9,99,9","10110,1,99999,9",,,,"MET048METAR SKSA 131200Z 00000KT 9999 NSC 22/22 Q1011=",
"80222599999","2023-11-13T13:00:00","4","6.95","-71.85","213.0","LOS COLONIZADORES, CO","FM-15","99999","V020","999,9,C,0000,1","22000,1,9,N","009999,1,9,9","+0280,1","+0220,1","99999,9",,,,"00,99,1,99,9,99,9,99999,9,99,9,99,9","10110,1,99999,9",,,,"MET048METAR SKSA 131300Z 00000KT 9999 NSC 28/22 Q1011=",
"80222599999","2023-11-13T14:00:00","4","6.95","-71.85","213.0","LOS COLONIZADORES, CO","FM-15","99999","V020","330,1,N,0046,1","02134,1,C,N","009999,1,9,9","+0290,1","+0230,1","99999,9","07,1,+02134,1,99,9",,"9,AGL   ,+99999,+99999","99,99,9,07,1,99,9,02134,1,99,9,99,9","10130,1,99999,9",,,,"MET051METAR SKSA 131400Z 33009KT 9999 BKN070 29/23 Q1013=",
"80222599999","2023-11-13T15:00:00","4","6.95","-71.85","213.0","LOS COLONIZADORES, CO","FM-15","99999","V020","350,1,N,0015,1","99999,9,9,N","009999,1,9,9","+0310,1","+0230,1","99999,9","02,1,+01219,1,99,9",,"9,AGL   ,+99999,+99999","99,99,9,02,1,99,9,01219,1,99,9,99,9","10130,1,99999,9",,,,"MET051METAR SKSA 131500Z 35003KT 9999 FEW040 31/23 Q1013=",
"80222599999","2023-11-13T16:00:00","4","6.95","-71.85","213.0","LOS COLONIZADORES, CO","FM-15","99999","V020","010,1,N,0021,1","99999,9,9,N","009999,1,9,9","+0300,1","+0230,1","99999,9","02,1,+01219,1,99,9",,"9,AGL   ,+99999,+99999","99,99,9,02,1,99,9,01219,1,99,9,99,9","10130,1,99999,9",,,,"MET051METAR SKSA 131600Z 01004KT 9999 FEW040 30/23 Q1013=",
"80222599999","2023-11-13T17:00:00","4","6.95","-71.85","213.0","LOS COLONIZADORES, CO","FM-15","99999","V020","070,1,N,0031,1","99999,9,9,N","009999,1,9,9","+0310,1","+0230,1","99999,9","04,1,+01219,1,99,9",,"9,AGL   ,+99999,+99999","99,99,9,04,1,99,9,01219,1,99,9,99,9","10100,1,99999,9",,,,"MET051METAR SKSA 131700Z 07006KT 9999 SCT040 31/23 Q1010=",
"80222599999","2023-11-13T18:00:00","4","6.95","-71.85","213.0","LOS COLONIZADORES, CO","FM-15","99999","V020","080,1,N,0015,1","22000,1,9,N","009999,1,9,9","+0300,1","+0230,1","99999,9",,,,"00,99,1,99,9,99,9,99999,9,99,9,99,9","10100,1,99999,9",,,,"MET048METAR SKSA 131800Z 08003KT 9999 NSC 30/23 Q1010=",
"80222599999","2023-11-13T19:00:00","4","6.95","-71.85","213.0","LOS COLONIZADORES, CO","FM-15","99999","V020","350,1,N,0021,1","22000,1,9,N","009999,1,9,9","+0320,1","+0230,1","99999,9",,,,"00,99,1,99,9,99,9,99999,9,99,9,99,9","10080,1,99999,9",,,,"MET048METAR SKSA 131900Z 35004KT 9999 NSC 32/23 Q1008=",
"80222599999","2023-11-13T20:00:00","4","6.95","-71.85","213.0","LOS COLONIZADORES, CO","FM-15","99999","V020","320,1,N,0015,1","22000,1,9,N","009999,1,9,9","+0320,1","+0230,1","99999,9",,,,"00,99,1,99,9,99,9,99999,9,99,9,99,9","10070,1,99999,9",,,,"MET048METAR SKSA 132000Z 32003KT 9999 NSC 32/23 Q1007=",
"80222599999","2023-11-13T21:00:00","4","6.95","-71.85","213.0","LOS COLONIZADORES, CO","FM-15","99999","V020","999,9,V,0010,1","99999,9,9,N","009999,1,9,9","+0320,1","+0230,1","99999,9","04,1,+00914,1,99,9",,"9,AGL   ,+99999,+99999","99,99,9,04,1,99,9,00914,1,99,9,99,9","10070,1,99999,9",,,,"MET051METAR SKSA 132100Z VRB02KT 9999 SCT030 32/23 Q1007=",
"80222599999","2023-11-14T11:00:00","4","6.95","-71.85","213.0","LOS COLONIZADORES, CO","FM-15","99999","V020","999,9,C,0000,1","99999,9,9,N","009999,1,9,9","+0250,1","+0230,1","99999,9","04,1,+02438,1,99,9",,"9,AGL   ,+99999,+99999","99,99,9,04,1,99,9,02438,1,99,9,99,9","10110,1,99999,9",,,,"MET051METAR SKSA 141100Z 00000KT 9999 SCT080 25/23 Q1011=",
"80222599999","2023-11-14T13:00:00","4","6.95","-71.85","213.0","LOS COLONIZADORES, CO","FM-15","99999","V020","310,1,N,0031,1","00914,1,C,N","009999,1,9,9","+0270,1","+0230,1","99999,9","08,1,+00914,1,99,9",,"9,AGL   ,+99999,+99999","99,99,9,08,1,99,9,00914,1,99,9,99,9","10120,1,99999,9",,,,"MET051METAR SKSA 141300Z 31006KT 9999 OVC030 27/23 Q1012=",
"80222599999","2023-11-14T14:00:00","4","6.95","-71.85","213.0","LOS COLONIZADORES, CO","FM-15","99999","V020","280,1,N,0041,1","99999,9,9,N","009999,1,9,9","+0280,1","+0220,1","99999,9","04,1,+00914,1,99,9",,"9,AGL   ,+99999,+99999","99,99,9,04,1,99,9,00914,1,99,9,99,9","10120,1,99999,9",,,,"MET051METAR SKSA 141400Z 28008KT 9999 SCT030 28/22 Q1012=",
"80222599999","2023-11-14T15:00:00","4","6.95","-71.85","213.0","LOS COLONIZADORES, CO","FM-15","99999","V020","290,1,N,0046,1","99999,9,9,N","009999,1,9,9","+0290,1","+0220,1","99999,9","04,1,+00914,1,99,9",,"9,AGL   ,+99999,+99999","99,99,9,04,1,99,9,00914,1,99,9,99,9","10120,1,99999,9",,,,"MET051METAR SKSA 141500Z 29009KT 9999 SCT030 29/22 Q1012=",
"80222599999","2023-11-14T16:00:00","4","6.95","-71.85","213.0","LOS COLONIZADORES, CO","FM-15","99999","V020","300,1,N,0021,1","99999,9,9,N","009999,1,9,9","+0290,1","+0220,1","99999,9","04,1,+01524,1,99,9",,"9,AGL   ,+99999,+99999","99,99,9,04,1,99,9,01524,1,99,9,99,9","10120,1,99999,9",,,,"MET051METAR SKSA 141600Z 30004KT 9999 SCT050 29/22 Q1012=",
"80222599999","2023-11-14T19:00:00","4","6.95","-71.85","213.0","LOS COLONIZADORES, CO","FM-15","99999","V020","320,1,N,0021,1","99999,9,9,N","009999,1,9,9","+0300,1","+0220,1","99999,9","04,1,+01524,1,99,9",,"9,AGL   ,+99999,+99999","99,99,9,04,1,99,9,01524,1,99,9,99,9","10120,1,99999,9",,,,"MET051METAR SKSA 141900Z 32004KT 9999 SCT050 30/22 Q1012=",
"80222599999","2023-11-14T20:00:00","4","6.95","-71.85","213.0","LOS COLONIZADORES, CO","FM-15","99999","V020","310,1,N,0021,1","99999,9,9,N","009999,1,9,9","+0300,1","+0220,1","99999,9","04,1,+01829,1,99,9",,"9,AGL   ,+99999,+99999","99,99,9,04,1,99,9,01829,1,99,9,99,9","10120,1,99999,9",,,,"MET051METAR SKSA 142000Z 31004KT 9999 SCT060 30/22 Q1012=",
"80222599999","2023-11-14T23:00:00","4","6.95","-71.85","213.0","LOS COLONIZADORES, CO","FM-15","99999","V020","310,1,N,0015,1","99999,9,9,N","009999,1,9,9","+0270,1","+0220,1","99999,9","02,1,+01219,1,99,9",,"9,AGL   ,+99999,+99999","99,99,9,02,1,99,9,01219,1,99,9,99,9","10090,1,99999,9",,,,"MET051METAR SKSA 142300Z 31003KT 9999 FEW040 27/22 Q1009=",
"80222599999","2023-11-15T11:00:00","4","6.95","-71.85","213.0","LOS COLONIZADORES, CO","FM-15","99999","V020","999,9,C,0000,1","22000,1,9,N","009999,1,9,9","+0230,1","+0220,1","99999,9",,,,"00,99,1,99,9,99,9,99999,9,99,9,99,9","10110,1,99999,9",,,,"MET048METAR SKSA 151100Z 00000KT 9999 NSC 23/22 Q1011=",
"80222599999","2023-11-15T12:00:00","4","6.95","-71.85","213.0","LOS COLONIZADORES, CO","FM-15","99999","V020","999,9,C,0000,1","22000,1,9,N","009999,1,9,9","+0250,1","+0220,1","99999,9",,,,"00,99,1,99,9,99,9,99999,9,99,9,99,9","10120,1,99999,9",,,,"MET048METAR SKSA 151200Z 00000KT 9999 NSC 25/22 Q1012=",
"80222599999","2023-11-15T13:00:00","4","6.95","-71.85","213.0","LOS COLONIZADORES, CO","FM-15","99999","V020","999,9,V,0010,1","22000,1,9,N","009999,1,9,9","+0280,1","+0220,1","99999,9",,,,"00,99,1,99,9,99,9,99999,9,99,9,99,9","10120,1,99999,9",,,,"MET048METAR SKSA 151300Z VRB02KT 9999 NSC 28/22 Q1012=",
"80222599999","2023-11-15T14:00:00","4","6.95","-71.85","213.0","LOS COLONIZADORES, CO","FM-15","99999","V020","999,9,V,0010,1","22000,1,9,N","009999,1,9,9","+0300,1","+0220,1","99999,9",,,,"00,99,1,99,9,99,9,99999,9,99,9,99,9","10130,1,99999,9",,,,"MET048METAR SKSA 151400Z VRB02KT 9999 NSC 30/22 Q1013=",
"80222599999","2023-11-15T15:00:00","4","6.95","-71.85","213.0","LOS COLONIZADORES, CO","FM-15","99999","V020","999,9,V,0010,1","22000,1,9,N","009999,1,9,9","+0320,1","+0220,1","99999,9",,,,"00,99,1,99,9,99,9,99999,9,99,9,99,9","10130,1,99999,9",,,,"MET048METAR SKSA 151500Z VRB02KT 9999 NSC 32/22 Q1013=",
"80222599999","2023-11-15T16:00:00","4","6.95","-71.85","213.0","LOS COLONIZADORES, CO","FM-15","99999","V020","999,9,V,0010,1","99999,9,9,N","009999,1,9,9","+0320,1","+0220,1","99999,9","04,1,+01219,1,99,9",,"9,AGL   ,+99999,+99999","99,99,9,04,1,99,9,01219,1,99,9,99,9","10130,1,99999,9",,,,"MET051METAR SKSA 151600Z VRB02KT 9999 SCT040 32/22 Q1013=",
"80222599999","2023-11-15T17:00:00","4","6.95","-71.85","213.0","LOS COLONIZADORES, CO","FM-15","99999","V020","090,1,N,0015,1","99999,9,9,N","009999,1,9,9","+0320,1","+0220,1","99999,9","04,1,+01219,1,99,9",,"9,AGL   ,+99999,+99999","99,99,9,04,1,99,9,01219,1,99,9,99,9","10110,1,99999,9",,,,"MET051METAR SKSA 151700Z 09003KT 9999 SCT040 32/22 Q1011=",
"80222599999","2023-11-15T18:00:00","4","6.95","-71.85","213.0","LOS COLONIZADORES, CO","FM-15","99999","V020","070,1,N,0021,1","99999,9,9,N","009999,1,9,9","+0320,1","+0220,1","99999,9","04,1,+01219,1,99,9",,"9,AGL   ,+99999,+99999","99,99,9,04,1,99,9,01219,1,99,9,99,9","10110,1,99999,9",,,,"MET051METAR SKSA 151800Z 07004KT 9999 SCT040 32/22 Q1011=",
"80222599999","2023-11-15T19:00:00","4","6.95","-71.85","213.0","LOS COLONIZADORES, CO","FM-15","99999","V020","999,9,C,0000,1","99999,9,9,N","009999,1,9,9","+0320,1","+0220,1","99999,9","04,1,+01219,1,99,9",,"9,AGL   ,+99999,+99999","99,99,9,04,1,99,9,01219,1,99,9,99,9","10110,1,99999,9",,,,"MET051METAR SKSA 151900Z 00000KT 9999 SCT040 32/22 Q1011=",
"80222599999","2023-11-15T20:00:00","4","6.95","-71.85","213.0","LOS COLONIZADORES, CO","FM-15","99999","V020","999,9,C,0000,1","99999,9,9,N","009999,1,9,9","+0310,1","+0220,1","99999,9","04,1,+01219,1,99,9",,"9,AGL   ,+99999,+99999","99,99,9,04,1,99,9,01219,1,99,9,99,9","10090,1,99999,9",,,,"MET051METAR SKSA 152000Z 00000KT 9999 SCT040 31/22 Q1009=",
"80222599999","2023-11-15T22:00:00","4","6.95","-71.85","213.0","LOS COLONIZADORES, CO","FM-15","99999","V020","999,9,C,0000,1","99999,9,9,N","009999,1,9,9","+0300,1","+0220,1","99999,9","04,1,+01219,1,99,9",,"9,AGL   ,+99999,+99999","99,99,9,04,1,99,9,01219,1,99,9,99,9","10080,1,99999,9",,,,"MET051METAR SKSA 152200Z 00000KT 9999 SCT040 30/22 Q1008=",
"80222599999","2023-11-16T11:00:00","4","6.95","-71.85","213.0","LOS COLONIZADORES, CO","FM-15","99999","V020","999,9,C,0000,1","22000,1,9,N","009999,1,9,9","+0220,1","+0220,1","99999,9",,,,"00,99,1,99,9,99,9,99999,9,99,9,99,9","10110,1,99999,9",,,,"MET048METAR SKSA 161100Z 00000KT 9999 NSC 22/22 Q1011=",
"80222599999","2023-11-16T13:00:00","4","6.95","-71.85","213.0","LOS COLONIZADORES, CO","FM-15","99999","V020","999,9,C,0000,1","22000,1,9,N","009999,1,9,9","+0270,1","+0220,1","99999,9",,,,"00,99,1,99,9,99,9,99999,9,99,9,99,9","10130,1,99999,9",,,,"MET048METAR SKSA 161300Z 00000KT 9999 NSC 27/22 Q1013=",
"80222599999","2023-11-16T14:00:00","4","6.95","-71.85","213.0","LOS COLONIZADORES, CO","FM-15","99999","V020","999,9,C,0000,1","22000,1,9,N","009999,1,9,9","+0300,1","+0230,1","99999,9",,,,"00,99,1,99,9,99,9,99999,9,99,9,99,9","10130,1,99999,9",,,,"MET048METAR SKSA 161400Z 00000KT 9999 NSC 30/23 Q1013=",
"80222599999","2023-11-16T15:00:00","4","6.95","-71.85","213.0","LOS COLONIZADORES, CO","FM-15","99999","V020","100,1,N,0015,1","22000,1,9,N","009999,1,9,9","+0310,1","+0230,1","99999,9",,,,"00,99,1,99,9,99,9,99999,9,99,9,99,9","10130,1,99999,9",,,,"MET048METAR SKSA 161500Z 10003KT 9999 NSC 31/23 Q1013=",
"80222599999","2023-11-16T16:00:00","4","6.95","-71.85","213.0","LOS COLONIZADORES, CO","FM-15","99999","V020","110,1,N,0021,1","99999,9,9,N","009999,1,9,9","+0320,1","+0230,1","99999,9","02,1,+00914,1,99,9",,"9,AGL   ,+99999,+99999","99,99,9,02,1,99,9,00914,1,99,9,99,9","10130,1,99999,9",,,,"MET051METAR SKSA 161600Z 11004KT 9999 FEW030 32/23 Q1013=",
"80222599999","2023-11-16T17:00:00","4","6.95","-71.85","213.0","LOS COLONIZADORES, CO","FM-15","99999","V020","999,9,C,0000,1","99999,9,9,N","009999,1,9,9","+0310,1","+0230,1","99999,9","02,1,+00914,1,99,9",,"9,AGL   ,+99999,+99999","99,99,9,02,1,99,9,00914,1,99,9,99,9","10130,1,99999,9",,,,"MET051METAR SKSA 161700Z 00000KT 9999 FEW030 31/23 Q1013=",
"80222599999","2023-11-16T20:00:00","4","6.95","-71.85","213.0","LOS COLONIZADORES, CO","FM-15","99999","V020","999,9,C,0000,1","99999,9,9,N","009999,1,9,9","+0340,1","+0230,1","99999,9","02,1,+00914,1,99,9",,"9,AGL   ,+99999,+99999","99,99,9,02,1,99,9,00914,1,99,9,99,9","10080,1,99999,9",,,,"MET051METAR SKSA 162000Z 00000KT 9999 FEW030 34/23 Q1008=",
"80222599999","2023-11-16T21:00:00","4","6.95","-71.85","213.0","LOS COLONIZADORES, CO","FM-15","99999","V020","140,1,N,0015,1","99999,9,9,N","009999,1,9,9","+0320,1","+0230,1","99999,9","02,1,+00914,1,99,9",,"9,AGL   ,+99999,+99999","99,99,9,02,1,99,9,00914,1,99,9,99,9","10080,1,99999,9",,,,"MET051METAR SKSA 162100Z 14003KT 9999 FEW030 32/23 Q1008=",
"80222599999","2023-11-16T23:00:00","4","6.95","-71.85","213.0","LOS COLONIZADORES, CO","FM-15","99999","V020","140,1,N,0015,1","99999,9,9,N","009999,1,9,9","+0270,1","+0230,1","99999,9","02,1,+00914,1,99,9",,"9,AGL   ,+99999,+99999","99,99,9,02,1,99,9,00914,1,99,9,99,9","10080,1,99999,9",,,,"MET051METAR SKSA 162300Z 14003KT 9999 FEW030 27/23 Q1008=",
"80222599999","2023-11-17T11:00:00","4","6.95","-71.85","213.0","LOS COLONIZADORES, CO","FM-15","99999","V020","350,1,N,0015,1","22000,1,9,N","009999,1,9,9","+0240,1","+0230,1","99999,9",,,,"00,99,1,99,9,99,9,99999,9,99,9,99,9","10110,1,99999,9",,,,"MET048METAR SKSA 171100Z 35003KT 9999 NSC 24/23 Q1011=",
"80222599999","2023-11-17T14:00:00","4","6.95","-71.85","213.0","LOS COLONIZADORES, CO","FM-15","99999","V020","350,1,N,0015,1","22000,1,9,N","009999,1,9,9","+0300,1","+0230,1","99999,9",,,,"00,99,1,99,9,99,9,99999,9,99,9,99,9","10120,1,99999,9",,,,"MET048METAR SKSA 171400Z 35003KT 9999 NSC 30/23 Q1012=",
"80222599999","2023-11-17T15:00:00","4","6.95","-71.85","213.0","LOS COLONIZADORES, CO","FM-15","99999","V020","330,1,N,0021,1","99999,9,9,N","009999,1,9,9","+0320,1","+0230,1","99999,9","04,1,+01219,1,99,9",,"9,AGL   ,+99999,+99999","99,99,9,04,1,99,9,01219,1,99,9,99,9","10120,1,99999,9",,,,"MET051METAR SKSA 171500Z 33004KT 9999 SCT040 32/23 Q1012=",
"80222599999","2023-11-17T16:00:00","4","6.95","-71.85","213.0","LOS COLONIZADORES, CO","FM-15","99999","V020","270,1,N,0015,1","00914,1,C,N","009999,1,9,9","+0300,1","+0230,1","99999,9","07,1,+00914,1,99,9",,"9,AGL   ,+99999,+99999","99,99,9,07,1,99,9,00914,1,99,9,99,9","10120,1,99999,9",,,,"MET051METAR SKSA 171600Z 27003KT 9999 BKN030 30/23 Q1012=",
"80222599999","2023-11-17T17:00:00","4","6.95","-71.85","213.0","LOS COLONIZADORES, CO","FM-15","99999","V020","030,1,N,0026,1","00914,1,C,N","009999,1,9,9","+0310,1","+0240,1","99999,9","07,1,+00914,1,99,9",,"9,AGL   ,+99999,+99999","99,99,9,07,1,99,9,00914,1,99,9,99,9","10110,1,99999,9",,,,"MET051METAR SKSA 171700Z 03005KT 9999 BKN030 31/24 Q1011=",
"80222599999","2023-11-17T18:00:00","4","6.95","-71.85","213.0","LOS COLONIZADORES, CO","FM-15","99999","V020","050,1,N,0015,1","00914,1,C,N","009999,1,9,9","+0310,1","+0240,1","99999,9","07,1,+00914,1,99,9",,"9,AGL   ,+99999,+99999","99,99,9,07,1,99,9,00914,1,99,9,99,9","10090,1,99999,9",,,,"MET051METAR SKSA 171800Z 05003KT 9999 BKN030 31/24 Q1009=",
"80222599999","2023-11-17T19:00:00","4","6.95","-71.85","213.0","LOS COLONIZADORES, CO","FM-15","99999","V020","320,1,N,0015,1","00914,1,C,N","009999,1,9,9","+0320,1","+0240,1","99999,9","07,1,+00914,1,99,9",,"9,AGL   ,+99999,+99999","99,99,9,07,1,99,9,00914,1,99,9,99,9","10090,1,99999,9",,,,"MET051METAR SKSA 171900Z 32003KT 9999 BKN030 32/24 Q1009=",
"80222599999","2023-11-17T20:00:00","4","6.95","-71.85","213.0","LOS COLONIZADORES, CO","FM-15","99999","V020","260,1,N,0015,1","00914,1,C,N","009999,1,9,9","+0300,1","+0240,1","99999,9","07,1,+00914,1,99,9",,"9,AGL   ,+99999,+99999","99,99,9,07,1,99,9,00914,1,99,9,99,9","10090,1,99999,9",,,,"MET051METAR SKSA 172000Z 26003KT 9999 BKN030 30/24 Q1009=",
"80222599999","2023-11-17T21:00:00","4","6.95","-71.85","213.0","LOS COLONIZADORES, CO","FM-15","99999","V020","250,1,N,0026,1","99999,9,9,N","009999,1,9,9","+0280,1","+0230,1","99999,9","02,1,+00914,1,99,9",,"9,AGL   ,+99999,+99999","99,99,9,02,1,99,9,00914,1,99,9,99,9","10080,1,99999,9",,,,"MET051METAR SKSA 172100Z 25005KT 9999 FEW030 28/23 Q1008=",
"80222599999","2023-11-17T22:00:00","4","6.95","-71.85","213.0","LOS COLONIZADORES, CO","FM-15","99999","V020","250,1,N,0021,1","99999,9,9,N","009999,1,9,9","+0280,1","+0230,1","99999,9","02,1,+00914,1,99,9",,"9,AGL   ,+99999,+99999","99,99,9,02,1,99,9,00914,1,99,9,99,9","10080,1,99999,9",,,,"MET051METAR SKSA 172200Z 25004KT 9999 FEW030 28/23 Q1008=",
"80222599999","2023-11-17T23:00:00","4","6.95","-71.85","213.0","LOS COLONIZADORES, CO","FM-15","99999","V020","280,1,N,0026,1","99999,9,9,N","009999,1,9,9","+0270,1","+0230,1","99999,9","02,1,+00914,1,99,9",,"9,AGL   ,+99999,+99999","99,99,9,02,1,99,9,00914,1,99,9,99,9","10080,1,99999,9",,,,"MET051METAR SKSA 172300Z 28005KT 9999 FEW030 27/23 Q1008=",
"80222599999","2023-11-18T11:00:00","4","6.95","-71.85","213.0","LOS COLONIZADORES, CO","FM-15","99999","V020","320,1,N,0026,1","22000,1,9,N","009999,1,9,9","+0240,1","+0230,1","99999,9",,,,"00,99,1,99,9,99,9,99999,9,99,9,99,9","10110,1,99999,9",,,,"MET048METAR SKSA 181100Z 32005KT 9999 NSC 24/23 Q1011=",
"80222599999","2023-11-18T12:00:00","4","6.95","-71.85","213.0","LOS COLONIZADORES, CO","FM-15","99999","V020","280,1,N,0026,1","22000,1,9,N","009999,1,9,9","+0260,1","+0230,1","99999,9",,,,"00,99,1,99,9,99,9,99999,9,99,9,99,9","10120,1,99999,9",,,,"MET048METAR SKSA 181200Z 28005KT 9999 NSC 26/23 Q1012=",
"80222599999","2023-11-18T13:00:00","4","6.95","-71.85","213.0","LOS COLONIZADORES, CO","FM-15","99999","V020","280,1,N,0031,1","99999,9,9,N","009999,1,9,9","+0280,1","+0230,1","99999,9","04,1,+00914,1,99,9",,"9,AGL   ,+99999,+99999","99,99,9,04,1,99,9,00914,1,99,9,99,9","10130,1,99999,9","16,1",,,"MET067METAR SKSA 181300Z 28006KT 9999 VCSH SCT030 28/23 Q1013 RMK VCSH W=",
"80222599999","2023-11-18T14:00:00","4","6.95","-71.85","213.0","LOS COLONIZADORES, CO","FM-15","99999","V020","270,1,N,0015,1","99999,9,9,N","009999,1,9,9","+0280,1","+0230,1","99999,9","04,1,+00914,1,99,9",,"9,AGL   ,+99999,+99999","99,99,9,04,1,99,9,00914,1,99,9,99,9","10130,1,99999,9","16,1",,,"MET067METAR SKSA 181400Z 27003KT 9999 VCSH SCT030 28/23 Q1013 RMK VCSH W=",
"80222599999","2023-11-18T15:00:00","4","6.95","-71.85","213.0","LOS COLONIZADORES, CO","FM-15","99999","V020","260,1,N,0021,1","22000,1,9,N","009999,1,9,9","+0290,1","+0240,1","99999,9",,,,"00,99,1,99,9,99,9,99999,9,99,9,99,9","10130,1,99999,9",,,,"MET052METAR SKSA 181500Z 26004KT 9999 NSC 29/24 Q1013 RMK=",
"80222599999","2023-11-18T16:00:00","4","6.95","-71.85","213.0","LOS COLONIZADORES, CO","FM-15","99999","V020","340,1,N,0015,1","22000,1,9,N","009999,1,9,9","+0320,1","+0240,1","99999,9",,,,"00,99,1,99,9,99,9,99999,9,99,9,99,9","10120,1,99999,9",,,,"MET052METAR SKSA 181600Z 34003KT 9999 NSC 32/24 Q1012 RMK=",
"80222599999","2023-11-18T17:00:00","4","6.95","-71.85","213.0","LOS COLONIZADORES, CO","FM-15","99999","V020","999,9,V,0010,1","22000,1,9,N","009999,1,9,9","+0310,1","+0240,1","99999,9",,,,"00,99,1,99,9,99,9,99999,9,99,9,99,9","10110,1,99999,9",,,,"MET052METAR SKSA 181700Z VRB02KT 9999 NSC 31/24 Q1011 RMK=",
"80222599999","2023-11-18T18:00:00","4","6.95","-71.85","213.0","LOS COLONIZADORES, CO","FM-15","99999","V020","999,9,V,0010,1","99999,9,9,N","009999,1,9,9","+0320,1","+0240,1","99999,9","04,1,+01067,1,99,9",,"9,AGL   ,+99999,+99999","99,99,9,04,1,99,9,01067,1,99,9,99,9","10100,1,99999,9",,,,"MET055METAR SKSA 181800Z VRB02KT 9999 SCT035 32/24 Q1010 RMK=",
"80222599999","2023-11-18T19:00:00","4","6.95","-71.85","213.0","LOS COLONIZADORES, CO","FM-15","99999","V020","120,1,N,0015,1","99999,9,9,N","009999,1,9,9","+0310,1","+0240,1","99999,9","04,1,+01067,1,99,9",,"9,AGL   ,+99999,+99999","99,99,9,04,1,99,9,01067,1,99,9,99,9","10090,1,99999,9",,,,"MET051METAR SKSA 181900Z 12003KT 9999 SCT035 31/24 Q1009=",
"80222599999","2023-11-18T20:00:00","4","6.95","-71.85","213.0","LOS COLONIZADORES, CO","FM-15","99999","V020","260,1,N,0031,1","99999,9,9,N","009999,1,9,9","+0310,1","+0240,1","99999,9","04,1,+01219,1,99,9",,"9,AGL   ,+99999,+99999","99,99,9,04,1,99,9,01219,1,99,9,99,9","10080,1,99999,9",,,,"MET051METAR SKSA 182000Z 26006KT 9999 SCT040 31/24 Q1008=",
"80222599999","2023-11-18T21:00:00","4","6.95","-71.85","213.0","LOS COLONIZADORES, CO","FM-15","99999","V020","260,1,N,0015,1","99999,9,9,N","009999,1,9,9","+0310,1","+0240,1","99999,9","04,1,+01067,1,99,9",,"9,AGL   ,+99999,+99999","99,99,9,04,1,99,9,01067,1,99,9,99,9","10080,1,99999,9",,,,"MET051METAR SKSA 182100Z 26003KT 9999 SCT035 31/24 Q1008=",
"80222599999","2023-11-18T22:00:00","4","6.95","-71.85","213.0","LOS COLONIZADORES, CO","FM-15","99999","V020","310,1,N,0015,1","99999,9,9,N","009999,1,9,9","+0290,1","+0230,1","99999,9","04,1,+02743,1,99,9",,"9,AGL   ,+99999,+99999","99,99,9,04,1,99,9,02743,1,99,9,99,9","10080,1,99999,9",,,,"MET051METAR SKSA 182200Z 31003KT 9999 SCT090 29/23 Q1008=",
"80222599999","2023-11-18T23:00:00","4","6.95","-71.85","213.0","LOS COLONIZADORES, CO","FM-15","99999","V020","999,9,C,0000,1","22000,1,9,N","009999,1,9,9","+0270,1","+0240,1","99999,9",,,,"00,99,1,99,9,99,9,99999,9,99,9,99,9","10080,1,99999,9",,,,"MET048METAR SKSA 182300Z 00000KT 9999 NSC 27/24 Q1008=",
"80222599999","2023-11-19T11:00:00","4","6.95","-71.85","213.0","LOS COLONIZADORES, CO","FM-15","99999","V020","999,9,V,0010,1","99999,9,9,N","999999,9,9,9","+0240,1","+0230,1","99999,9","04,1,+01829,1,99,9",,"9,AGL   ,+99999,+99999","99,99,9,04,1,99,9,01829,1,99,9,99,9","10110,1,99999,9",,,,"MET046METAR SKSA 191100Z VRB02KT SCT060 24/23 Q1011=",
"80222599999","2023-11-19T12:00:00","4","6.95","-71.85","213.0","LOS COLONIZADORES, CO","FM-15","99999","V020","999,9,V,0010,1","22000,1,9,N","999999,9,9,9","+0270,1","+0240,1","99999,9",,,,"00,99,1,99,9,99,9,99999,9,99,9,99,9","10120,1,99999,9",,,,"MET043METAR SKSA 191200Z VRB02KT NSC 27/24 Q1012=",
"80222599999","2023-11-19T13:00:00","4","6.95","-71.85","213.0","LOS COLONIZADORES, CO","FM-15","99999","V020","999,9,V,0010,1","22000,1,9,N","999999,9,9,9","+0280,1","+0230,1","99999,9",,,,"00,99,1,99,9,99,9,99999,9,99,9,99,9","10130,1,99999,9",,,,"MET043METAR SKSA 191300Z VRB02KT NSC 28/23 Q1013=",
"80222599999","2023-11-19T14:00:00","4","6.95","-71.85","213.0","LOS COLONIZADORES, CO","FM-15","99999","V020","999,9,V,0010,1","22000,1,9,N","999999,9,9,9","+0310,1","+0240,1","99999,9",,,,"00,99,1,99,9,99,9,99999,9,99,9,99,9","10140,1,99999,9",,,,"MET043METAR SKSA 191400Z VRB02KT NSC 31/24 Q1014=",
"80222599999","2023-11-19T15:00:00","4","6.95","-71.85","213.0","LOS COLONIZADORES, CO","FM-15","99999","V020","270,1,N,0036,1","99999,9,9,N","999999,9,9,9","+0310,1","+0240,1","99999,9","04,1,+02134,1,99,9",,"9,AGL   ,+99999,+99999","99,99,9,04,1,99,9,02134,1,99,9,99,9","10130,1,99999,9",,,,"MET046METAR SKSA 191500Z 27007KT SCT070 31/24 Q1013=",
"80222599999","2023-11-19T16:00:00","4","6.95","-71.85","213.0","LOS COLONIZADORES, CO","FM-15","99999","V020","300,1,N,0021,1","99999,9,9,N","999999,9,9,9","+0320,1","+0230,1","99999,9","04,1,+02134,1,99,9",,"9,AGL   ,+99999,+99999","99,99,9,04,1,99,9,02134,1,99,9,99,9","10130,1,99999,9",,,,"MET046METAR SKSA 191600Z 30004KT SCT070 32/23 Q1013=",
"80222599999","2023-11-19T17:00:00","4","6.95","-71.85","213.0","LOS COLONIZADORES, CO","FM-15","99999","V020","999,9,V,0010,1","99999,9,9,N","999999,9,9,9","+0330,1","+0230,1","99999,9","04,1,+02134,1,99,9",,"9,AGL   ,+99999,+99999","99,99,9,04,1,99,9,02134,1,99,9,99,9","10110,1,99999,9",,,,"MET046METAR SKSA 191700Z VRB02KT SCT070 33/23 Q1011=",
"80222599999","2023-11-19T18:00:00","4","6.95","-71.85","213.0","LOS COLONIZADORES, CO","FM-15","99999","V020","030,1,N,0036,1","99999,9,9,N","999999,9,9,9","+0310,1","+0240,1","99999,9","04,1,+02134,1,99,9",,"9,AGL   ,+99999,+99999","99,99,9,04,1,99,9,02134,1,99,9,99,9","10100,1,99999,9",,,,"MET046METAR SKSA 191800Z 03007KT SCT070 31/24 Q1010=",
"80222599999","2023-11-19T19:00:00","4","6.95","-71.85","213.0","LOS COLONIZADORES, CO","FM-15","99999","V020","070,1,N,0015,1","22000,1,9,N","999999,9,9,9","+0320,1","+0230,1","99999,9",,,,"00,99,1,99,9,99,9,99999,9,99,9,99,9","10090,1,99999,9",,,,"MET043METAR SKSA 191900Z 07003KT NSC 32/23 Q1009=",
"80222599999","2023-11-19T20:00:00","4","6.95","-71.85","213.0","LOS COLONIZADORES, CO","FM-15","99999","V020","070,1,N,0015,1","22000,1,9,N","999999,9,9,9","+0320,1","+0230,1","99999,9",,,,"00,99,1,99,9,99,9,99999,9,99,9,99,9","10090,1,99999,9",,,,"MET043METAR SKSA 192000Z 07003KT NSC 32/23 Q1009=",
"80222599999","2023-11-19T21:00:00","4","6.95","-71.85","213.0","LOS COLONIZADORES, CO","FM-15","99999","V020","040,1,N,0015,1","22000,1,9,N","999999,9,9,9","+0310,1","+0240,1","99999,9",,,,"00,99,1,99,9,99,9,99999,9,99,9,99,9","10080,1,99999,9",,,,"MET043METAR SKSA 192100Z 04003KT NSC 31/24 Q1008=",
"80222599999","2023-11-19T22:00:00","4","6.95","-71.85","213.0","LOS COLONIZADORES, CO","FM-15","99999","V020","999,9,V,0010,1","22000,1,9,N","999999,9,9,9","+0290,1","+0240,1","99999,9",,,,"00,99,1,99,9,99,9,99999,9,99,9,99,9","10080,1,99999,9",,,,"MET043METAR SKSA 192200Z VRB02KT NSC 29/24 Q1008=",
"80222599999","2023-11-19T23:00:00","4","6.95","-71.85","213.0","LOS COLONIZADORES, CO","FM-15","99999","V020","999,9,V,0010,1","22000,1,9,N","999999,9,9,9","+0270,1","+0250,1","99999,9",,,,"00,99,1,99,9,99,9,99999,9,99,9,99,9","10090,1,99999,9",,,,"MET043METAR SKSA 192300Z VRB02KT NSC 27/25 Q1009=",
"80222599999","2023-11-20T11:00:00","4","6.95","-71.85","213.0","LOS COLONIZADORES, CO","FM-15","99999","V020","300,1,N,0036,1","99999,9,9,N","999999,9,9,9","+0250,1","+0230,1","99999,9","04,1,+01829,1,99,9",,"9,AGL   ,+99999,+99999","99,99,9,04,1,99,9,01829,1,99,9,99,9","10110,1,99999,9",,,,"MET046METAR SKSA 201100Z 30007KT SCT060 25/23 Q1011=",
"80222599999","2023-11-20T12:00:00","4","6.95","-71.85","213.0","LOS COLONIZADORES, CO","FM-15","99999","V020","280,1,N,0031,1","99999,9,9,N","009999,1,9,9","+0260,1","+0230,1","99999,9","04,1,+01829,1,99,9",,"9,AGL   ,+99999,+99999","99,99,9,04,1,99,9,01829,1,99,9,99,9","10110,1,99999,9",,,,"MET051METAR SKSA 201200Z 28006KT 9999 SCT060 26/23 Q1011=",
"80222599999","2023-11-20T13:00:00","4","6.95","-71.85","213.0","LOS COLONIZADORES, CO","FM-15","99999","V020","280,1,N,0031,1","02134,1,C,N","009999,1,9,9","+0260,1","+0220,1","99999,9","07,1,+02134,1,99,9",,"9,AGL   ,+99999,+99999","99,99,9,07,1,99,9,02134,1,99,9,99,9","10120,1,99999,9",,,,"MET051METAR SKSA 201300Z 28006KT 9999 BKN070 26/22 Q1012=",
"80222599999","2023-11-20T14:00:00","4","6.95","-71.85","213.0","LOS COLONIZADORES, CO","FM-15","99999","V020","250,1,N,0015,1","01676,1,C,N","009999,1,9,9","+0260,1","+0230,1","99999,9","07,1,+01676,1,99,9",,"9,AGL   ,+99999,+99999","99,99,9,07,1,99,9,01676,1,99,9,99,9","10120,1,99999,9","16,1",,,"MET067METAR SKSA 201400Z 25003KT 9999 VCSH BKN055 26/23 Q1012 RMK VCSH W=",
"80222599999","2023-11-20T15:00:00","4","6.95","-71.85","213.0","LOS COLONIZADORES, CO","FM-15","99999","V020","320,1,N,0051,1","01829,1,C,N","009999,1,9,9","+0240,1","+0230,1","99999,9","08,1,+01829,1,99,9",,"9,AGL   ,+99999,+99999","99,99,9,08,1,99,9,01829,1,99,9,99,9","10140,1,99999,9","16,1","61,1",,"MET075METAR SKSA 201500Z 32010KT 9999 VCSH -RA OVC060 24/23 Q1014 RMK VCSH N E W=",
"80222599999","2023-11-20T16:00:00","4","6.95","-71.85","213.0","LOS COLONIZADORES, CO","FM-15","99999","V020","260,1,N,0031,1","99999,9,9,N","009999,1,9,9","+0240,1","+0230,1","99999,9","04,1,+01524,1,99,9",,"9,AGL   ,+99999,+99999","99,99,9,04,1,99,9,01524,1,99,9,99,9","10120,1,99999,9","16,1",,,"MET068METAR SKSA 201600Z 26006KT 9999 VCSH SCT050 24/23 Q1012 RMK VCSH SW=",
"80222599999","2023-11-20T17:00:00","4","6.95","-71.85","213.0","LOS COLONIZADORES, CO","FM-15","99999","V020","270,1,N,0031,1","22000,1,9,N","009999,1,9,9","+0290,1","+0250,1","99999,9",,,,"00,99,1,99,9,99,9,99999,9,99,9,99,9","10100,1,99999,9",,,,"MET048METAR SKSA 201700Z 27006KT 9999 NSC 29/25 Q1010=",
"80222599999","2023-11-20T18:00:00","4","6.95","-71.85","213.0","LOS COLONIZADORES, CO","FM-15","99999","V020","280,1,N,0021,1","22000,1,9,N","009999,1,9,9","+0310,1","+0230,1","99999,9",,,,"00,99,1,99,9,99,9,99999,9,99,9,99,9","10090,1,99999,9",,,,"MET048METAR SKSA 201800Z 28004KT 9999 NSC 31/23 Q1009=",
"80222599999","2023-11-20T19:00:00","4","6.95","-71.85","213.0","LOS COLONIZADORES, CO","FM-15","99999","V020","999,9,V,0010,1","22000,1,9,N","009999,1,9,9","+0310,1","+0230,1","99999,9",,,,"00,99,1,99,9,99,9,99999,9,99,9,99,9","10080,1,99999,9",,,,"MET048METAR SKSA 201900Z VRB02KT 9999 NSC 31/23 Q1008=",
"80222599999","2023-11-20T20:00:00","4","6.95","-71.85","213.0","LOS COLONIZADORES, CO","FM-15","99999","V020","010,1,N,0015,1","22000,1,9,N","009999,1,9,9","+0330,1","+0220,1","99999,9",,,,"00,99,1,99,9,99,9,99999,9,99,9,99,9","10070,1,99999,9",,,,"MET048METAR SKSA 202000Z 01003KT 9999 NSC 33/22 Q1007=",
"80222599999","2023-11-20T21:00:00","4","6.95","-71.85","213.0","LOS COLONIZADORES, CO","FM-15","99999","V020","010,1,N,0015,1","22000,1,9,N","009999,1,9,9","+0310,1","+0240,1","99999,9",,,,"00,99,1,99,9,99,9,99999,9,99,9,99,9","10060,1,99999,9",,,,"MET048METAR SKSA 202100Z 01003KT 9999 NSC 31/24 Q1006=",
"80222599999","2023-11-20T22:00:00","4","6.95","-71.85","213.0","LOS COLONIZADORES, CO","FM-15","99999","V020","999,9,V,0010,1","22000,1,9,N","009999,1,9,9","+0310,1","+0250,1","99999,9",,,,"00,99,1,99,9,99,9,99999,9,99,9,99,9","10070,1,99999,9",,,,"MET048METAR SKSA 202200Z VRB02KT 9999 NSC 31/25 Q1007=",
"80222599999","2023-11-21T12:00:00","4","6.95","-71.85","213.0","LOS COLONIZADORES, CO","FM-15","99999","V020","999,9,V,0010,1","22000,1,9,N","009999,1,9,9","+0260,1","+0230,1","99999,9",,,,"00,99,1,99,9,99,9,99999,9,99,9,99,9","10100,1,99999,9",,,,"MET048METAR SKSA 211200Z VRB02KT 9999 NSC 26/23 Q1010=",
"80222599999","2023-11-21T13:00:00","4","6.95","-71.85","213.0","LOS COLONIZADORES, CO","FM-15","99999","V020","999,9,V,0010,1","22000,1,9,N","009999,1,9,9","+0270,1","+0230,1","99999,9",,,,"00,99,1,99,9,99,9,99999,9,99,9,99,9","10110,1,99999,9",,,,"MET048METAR SKSA 211300Z VRB02KT 9999 NSC 27/23 Q1011=",
"80222599999","2023-11-21T14:00:00","4","6.95","-71.85","213.0","LOS COLONIZADORES, CO","FM-15","99999","V020","999,9,V,0010,1","01524,1,C,N","009999,1,9,9","+0280,1","+0240,1","99999,9","07,1,+01524,1,99,9",,"9,AGL   ,+99999,+99999","99,99,9,07,1,99,9,01524,1,99,9,99,9","10120,1,99999,9",,,,"MET051METAR SKSA 211400Z VRB02KT 9999 BKN050 28/24 Q1012=",
"80222599999","2023-11-21T15:00:00","4","6.95","-71.85","213.0","LOS COLONIZADORES, CO","FM-15","99999","V020","999,9,V,0010,1","01829,1,C,N","009999,1,9,9","+0290,1","+0240,1","99999,9","07,1,+01829,1,99,9",,"9,AGL   ,+99999,+99999","99,99,9,07,1,99,9,01829,1,99,9,99,9","10120,1,99999,9",,,,"MET051METAR SKSA 211500Z VRB02KT 9999 BKN060 29/24 Q1012=",
"80222599999","2023-11-21T16:00:00","4","6.95","-71.85","213.0","LOS COLONIZADORES, CO","FM-15","99999","V020","140,1,N,0026,1","22000,1,9,N","009999,1,9,9","+0310,1","+0230,1","99999,9",,,,"00,99,1,99,9,99,9,99999,9,99,9,99,9","10100,1,99999,9",,,,"MET048METAR SKSA 211600Z 14005KT 9999 NSC 31/23 Q1010=",
"80222599999","2023-11-21T17:00:00","4","6.95","-71.85","213.0","LOS COLONIZADORES, CO","FM-15","99999","V020","030,1,N,0021,1","99999,9,9,N","009999,1,9,9","+0320,1","+0230,1","99999,9","04,1,+01067,1,99,9",,"9,AGL   ,+99999,+99999","99,99,9,04,1,99,9,01067,1,99,9,99,9","10090,1,99999,9",,,,"MET051METAR SKSA 211700Z 03004KT 9999 SCT035 32/23 Q1009=",
"80222599999","2023-11-21T19:00:00","4","6.95","-71.85","213.0","LOS COLONIZADORES, CO","FM-15","99999","V020","090,1,N,0015,1","99999,9,9,N","009999,1,9,9","+0320,1","+0230,1","99999,9","04,1,+01067,1,99,9",,"9,AGL   ,+99999,+99999","99,99,9,04,1,99,9,01067,1,99,9,99,9","10070,1,99999,9",,,,"MET051METAR SKSA 211900Z 09003KT 9999 SCT035 32/23 Q1007=",
"80222599999","2023-11-21T20:00:00","4","6.95","-71.85","213.0","LOS COLONIZADORES, CO","FM-15","99999","V020","130,1,N,0015,1","99999,9,9,N","009999,1,9,9","+0310,1","+0240,1","99999,9","04,1,+01067,1,99,9",,"9,AGL   ,+99999,+99999","99,99,9,04,1,99,9,01067,1,99,9,99,9","10060,1,99999,9",,,,"MET051METAR SKSA 212000Z 13003KT 9999 SCT035 31/24 Q1006=",
"80222599999","2023-11-21T21:00:00","4","6.95","-71.85","213.0","LOS COLONIZADORES, CO","FM-15","99999","V020","090,1,N,0015,1","99999,9,9,N","009999,1,9,9","+0310,1","+0240,1","99999,9","04,1,+02134,1,99,9",,"9,AGL   ,+99999,+99999","99,99,9,04,1,99,9,02134,1,99,9,99,9","10060,1,99999,9",,,,"MET051METAR SKSA 212100Z 09003KT 9999 SCT070 31/24 Q1006=",
"80222599999","2023-11-21T22:00:00","4","6.95","-71.85","213.0","LOS COLONIZADORES, CO","FM-15","99999","V020","999,9,V,0010,1","99999,9,9,N","009999,1,9,9","+0300,1","+0250,1","99999,9","02,1,+02134,1,99,9",,"9,AGL   ,+99999,+99999","99,99,9,02,1,99,9,02134,1,99,9,99,9","10060,1,99999,9",,,,"MET051METAR SKSA 212200Z VRB02KT 9999 FEW070 30/25 Q1006=",
"80222599999","2023-11-21T23:00:00","4","6.95","-71.85","213.0","LOS COLONIZADORES, CO","FM-15","99999","V020","999,9,C,0000,1","22000,1,9,N","009999,1,9,9","+0260,1","+0250,1","99999,9",,,,"00,99,1,99,9,99,9,99999,9,99,9,99,9","10060,1,99999,9",,,,"MET048METAR SKSA 212300Z 00000KT 9999 NSC 26/25 Q1006=",
"80222599999","2023-11-22T11:00:00","4","6.95","-71.85","213.0","LOS COLONIZADORES, CO","FM-15","99999","V020","999,9,V,0010,1","22000,1,9,N","009999,1,9,9","+0230,1","+0230,1","99999,9",,,,"00,99,1,99,9,99,9,99999,9,99,9,99,9","10090,1,99999,9",,,,"MET048METAR SKSA 221100Z VRB02KT 9999 NSC 23/23 Q1009=",
"80222599999","2023-11-22T12:00:00","4","6.95","-71.85","213.0","LOS COLONIZADORES, CO","FM-15","99999","V020","320,1,N,0015,1","22000,1,9,N","009999,1,9,9","+0260,1","+0230,1","99999,9",,,,"00,99,1,99,9,99,9,99999,9,99,9,99,9","10100,1,99999,9",,,,"MET048METAR SKSA 221200Z 32003KT 9999 NSC 26/23 Q1010=",
"80222599999","2023-11-22T13:00:00","4","6.95","-71.85","213.0","LOS COLONIZADORES, CO","FM-15","99999","V020","350,1,N,0021,1","22000,1,9,N","009999,1,9,9","+0280,1","+0230,1","99999,9",,,,"00,99,1,99,9,99,9,99999,9,99,9,99,9","10110,1,99999,9",,,,"MET048METAR SKSA 221300Z 35004KT 9999 NSC 28/23 Q1011=",
"80222599999","2023-11-22T14:00:00","4","6.95","-71.85","213.0","LOS COLONIZADORES, CO","FM-15","99999","V020","999,9,V,0010,1","22000,1,9,N","009999,1,9,9","+0290,1","+0250,1","99999,9",,,,"00,99,1,99,9,99,9,99999,9,99,9,99,9","10110,1,99999,9",,,,"MET048METAR SKSA 221400Z VRB02KT 9999 NSC 29/25 Q1011=",
"80222599999","2023-11-22T15:00:00","4","6.95","-71.85","213.0","LOS COLONIZADORES, CO","FM-15","99999","V020","070,1,N,0015,1","22000,1,9,N","009999,1,9,9","+0310,1","+0230,1","99999,9",,,,"00,99,1,99,9,99,9,99999,9,99,9,99,9","10110,1,99999,9",,,,"MET048METAR SKSA 221500Z 07003KT 9999 NSC 31/23 Q1011=",
"80222599999","2023-11-22T16:00:00","4","6.95","-71.85","213.0","LOS COLONIZADORES, CO","FM-15","99999","V020","030,1,N,0026,1","99999,9,9,N","009999,1,9,9","+0320,1","+0240,1","99999,9","02,1,+00914,1,99,9",,"9,AGL   ,+99999,+99999","99,99,9,02,1,99,9,00914,1,99,9,99,9","10100,1,99999,9",,,,"MET051METAR SKSA 221600Z 03005KT 9999 FEW030 32/24 Q1010=",
"80222599999","2023-11-22T17:00:00","4","6.95","-71.85","213.0","LOS COLONIZADORES, CO","FM-15","99999","V020","080,1,N,0015,1","99999,9,9,N","009999,1,9,9","+0320,1","+0230,1","99999,9","02,1,+00914,1,99,9",,"9,AGL   ,+99999,+99999","99,99,9,02,1,99,9,00914,1,99,9,99,9","10090,1,99999,9",,,,"MET051METAR SKSA 221700Z 08003KT 9999 FEW030 32/23 Q1009=",
"80222599999","2023-11-22T19:00:00","4","6.95","-71.85","213.0","LOS COLONIZADORES, CO","FM-15","99999","V020","150,1,N,0015,1","99999,9,9,N","009999,1,9,9","+0320,1","+0240,1","99999,9","02,1,+01524,1,99,9",,"9,AGL   ,+99999,+99999","99,99,9,02,1,99,9,01524,1,99,9,99,9","10070,1,99999,9",,,,"MET051METAR SKSA 221900Z 15003KT 9999 FEW050 32/24 Q1007=",
"80222599999","2023-11-22T20:00:00","4","6.95","-71.85","213.0","LOS COLONIZADORES, CO","FM-15","99999","V020","080,1,N,0021,1","99999,9,9,N","009999,1,9,9","+0330,1","+0240,1","99999,9","02,1,+01524,1,99,9",,"9,AGL   ,+99999,+99999","99,99,9,02,1,99,9,01524,1,99,9,99,9","10060,1,99999,9",,,,"MET051METAR SKSA 222000Z 08004KT 9999 FEW050 33/24 Q1006=",
"80222599999","2023-11-22T21:00:00","4","6.95","-71.85","213.0","LOS COLONIZADORES, CO","FM-15","99999","V020","999,9,V,0010,1","99999,9,9,N","009999,1,9,9","+0310,1","+0240,1","99999,9","02,1,+01524,1,99,9",,"9,AGL   ,+99999,+99999","99,99,9,02,1,99,9,01524,1,99,9,99,9","10060,1,99999,9",,,,"MET051METAR SKSA 222100Z VRB02KT 9999 FEW050 31/24 Q1006=",
"80222599999","2023-11-22T22:00:00","4","6.95","-71.85","213.0","LOS COLONIZADORES, CO","FM-15","99999","V020","999,9,V,0010,1","22000,1,9,N","009999,1,9,9","+0310,1","+0250,1","99999,9",,,,"00,99,1,99,9,99,9,99999,9,99,9,99,9","10060,1,99999,9",,,,"MET048METAR SKSA 222200Z VRB02KT 9999 NSC 31/25 Q1006=",
"80222599999","2023-11-22T23:00:00","4","6.95","-71.85","213.0","LOS COLONIZADORES, CO","FM-15","99999","V020","999,9,V,0010,1","22000,1,9,N","009999,1,9,9","+0270,1","+0250,1","99999,9",,,,"00,99,1,99,9,99,9,99999,9,99,9,99,9","10070,1,99999,9",,,,"MET048METAR SKSA 222300Z VRB02KT 9999 NSC 27/25 Q1007=",
"80222599999","2023-11-23T11:00:00","4","6.95","-71.85","213.0","LOS COLONIZADORES, CO","FM-15","99999","V020","290,1,N,0030,1","99999,9,9,N","009999,1,9,9","+0230,1","+0220,1","99999,9","02,1,+02743,1,99,9",,"9,AGL   ,+99999,+99999","99,99,9,02,1,99,9,02743,1,99,9,99,9","10100,1,99999,9",,,,"MET049METAR SKSA 231100Z 29003 9999 FEW090 23/22 Q1010=",
"80222599999","2023-11-23T12:00:00","4","6.95","-71.85","213.0","LOS COLONIZADORES, CO","FM-15","99999","V020","330,1,N,0015,1","22000,1,9,N","009999,1,9,9","+0250,1","+0240,1","99999,9",,,,"00,99,1,99,9,99,9,99999,9,99,9,99,9","10110,1,99999,9",,,,"MET048METAR SKSA 231200Z 33003KT 9999 NSC 25/24 Q1011=",
"80222599999","2023-11-23T14:00:00","4","6.95","-71.85","213.0","LOS COLONIZADORES, CO","FM-15","99999","V020","340,1,N,0031,1","22000,1,9,N","009999,1,9,9","+0290,1","+0230,1","99999,9",,,,"00,99,1,99,9,99,9,99999,9,99,9,99,9","10120,1,99999,9",,,,"MET048METAR SKSA 231400Z 34006KT 9999 NSC 29/23 Q1012=",
"80222599999","2023-11-23T15:00:00","4","6.95","-71.85","213.0","LOS COLONIZADORES, CO","FM-15","99999","V020","999,9,V,0010,1","22000,1,9,N","009999,1,9,9","+0310,1","+0220,1","99999,9",,,,"00,99,1,99,9,99,9,99999,9,99,9,99,9","10120,1,99999,9",,,,"MET048METAR SKSA 231500Z VRB02KT 9999 NSC 31/22 Q1012=",
"80222599999","2023-11-23T16:00:00","4","6.95","-71.85","213.0","LOS COLONIZADORES, CO","FM-15","99999","V020","999,9,V,0010,1","22000,1,9,N","009999,1,9,9","+0320,1","+0230,1","99999,9",,,,"00,99,1,99,9,99,9,99999,9,99,9,99,9","10120,1,99999,9",,,,"MET048METAR SKSA 231600Z VRB02KT 9999 NSC 32/23 Q1012=",
"80222599999","2023-11-23T17:00:00","4","6.95","-71.85","213.0","LOS COLONIZADORES, CO","FM-15","99999","V020","100,1,N,0015,1","99999,9,9,N","009999,1,9,9","+0310,1","+0230,1","99999,9","04,1,+02134,1,99,9",,"9,AGL   ,+99999,+99999","99,99,9,04,1,99,9,02134,1,99,9,99,9","10110,1,99999,9",,,,"MET051METAR SKSA 231700Z 10003KT 9999 SCT070 31/23 Q1011=",
"80222599999","2023-11-23T18:00:00","4","6.95","-71.85","213.0","LOS COLONIZADORES, CO","FM-15","99999","V020","999,9,C,0000,1","99999,9,9,N","009999,1,9,9","+0330,1","+0240,1","99999,9","02,1,+02134,1,99,9",,"9,AGL   ,+99999,+99999","99,99,9,02,1,99,9,02134,1,99,9,99,9","10100,1,99999,9",,,,"MET051METAR SKSA 231800Z 00000KT 9999 FEW070 33/24 Q1010=",
"80222599999","2023-11-23T19:00:00","4","6.95","-71.85","213.0","LOS COLONIZADORES, CO","FM-15","99999","V020","010,1,N,0021,1","99999,9,9,N","009999,1,9,9","+0330,1","+0230,1","99999,9","04,1,+01524,1,99,9",,"9,AGL   ,+99999,+99999","99,99,9,04,1,99,9,01524,1,99,9,99,9","10080,1,99999,9",,,,"MET051METAR SKSA 231900Z 01004KT 9999 SCT050 33/23 Q1008=",
"80222599999","2023-11-23T20:00:00","4","6.95","-71.85","213.0","LOS COLONIZADORES, CO","FM-15","99999","V020","040,1,N,0021,1","99999,9,9,N","009999,1,9,9","+0310,1","+0230,1","99999,9","04,1,+01524,1,99,9",,"9,AGL   ,+99999,+99999","99,99,9,04,1,99,9,01524,1,99,9,99,9","10080,1,99999,9",,,,"MET051METAR SKSA 232000Z 04004KT 9999 SCT050 31/23 Q1008=",
"80222599999","2023-11-23T21:00:00","4","6.95","-71.85","213.0","LOS COLONIZADORES, CO","FM-15","99999","V020","070,1,N,0026,1","22000,1,9,N","009999,1,9,9","+0320,1","+0230,1","99999,9",,,,"00,99,1,99,9,99,9,99999,9,99,9,99,9","10080,1,99999,9",,,,"MET048METAR SKSA 232100Z 07005KT 9999 NSC 32/23 Q1008=",
"80222599999","2023-11-23T22:00:00","4","6.95","-71.85","213.0","LOS COLONIZADORES, CO","FM-15","99999","V020","999,9,V,0010,1","22000,1,9,N","009999,1,9,9","+0290,1","+0240,1","99999,9",,,,"00,99,1,99,9,99,9,99999,9,99,9,99,9","10090,1,99999,9",,,,"MET048METAR SKSA 232200Z VRB02KT 9999 NSC 29/24 Q1009=",
"80222599999","2023-11-23T23:00:00","4","6.95","-71.85","213.0","LOS COLONIZADORES, CO","FM-15","99999","V020","999,9,V,0010,1","22000,1,9,N","009999,1,9,9","+0270,1","+0250,1","99999,9",,,,"00,99,1,99,9,99,9,99999,9,99,9,99,9","10090,1,99999,9",,,,"MET048METAR SKSA 232300Z VRB02KT 9999 NSC 27/25 Q1009=",
"80222599999","2023-11-24T13:00:00","4","6.95","-71.85","213.0","LOS COLONIZADORES, CO","FM-15","99999","V020","290,1,N,0015,1","02134,1,C,N","009999,1,9,9","+0270,1","+0220,1","99999,9","07,1,+02134,1,99,9",,"9,AGL   ,+99999,+99999","99,99,9,07,1,99,9,02134,1,99,9,99,9","10140,1,99999,9",,,,"MET051METAR SKSA 241300Z 29003KT 9999 BKN070 27/22 Q1014=",
"80222599999","2023-11-24T14:00:00","4","6.95","-71.85","213.0","LOS COLONIZADORES, CO","FM-15","99999","V020","050,1,N,0031,1","01524,1,C,N","009999,1,9,9","+0260,1","+0230,1","99999,9","08,1,+01524,1,99,9",,"9,AGL   ,+99999,+99999","99,99,9,08,1,99,9,01524,1,99,9,99,9","10150,1,99999,9",,,,"MET051METAR SKSA 241400Z 05006KT 9999 OVC050 26/23 Q1015=",
"80222599999","2023-11-24T15:00:00","4","6.95","-71.85","213.0","LOS COLONIZADORES, CO","FM-15","99999","V020","080,1,N,0015,1","00914,1,C,N","009000,1,9,9","+0250,1","+0230,1","99999,9","08,1,+00914,1,99,9",,"9,AGL   ,+99999,+99999","99,99,9,08,1,99,9,00914,1,99,9,99,9","10150,1,99999,9","16,1","80,1",,"MET074METAR SKSA 241500Z 08003KT 9000 VCSH -SHRA OVC030 25/23 Q1015 RMK VCSH SW=",
"80222599999","2023-11-24T16:00:00","4","6.95","-71.85","213.0","LOS COLONIZADORES, CO","FM-15","99999","V020","080,1,N,0026,1","00457,1,C,N","008000,1,9,9","+0240,1","+0240,1","99999,9","08,1,+00457,1,99,9",,"9,AGL   ,+99999,+99999","99,99,9,08,1,99,9,00457,1,99,9,99,9","10150,1,99999,9","81,1",,,"MET073METAR SKSA 241600Z 08005KT 8000 SHRA OVC015 24/24 Q1015 RMK VCSH N S E W=",
"80222599999","2023-11-24T17:00:00","4","6.95","-71.85","213.0","LOS COLONIZADORES, CO","FM-15","99999","V020","999,9,C,0000,1","00610,1,C,N","009999,1,9,9","+0250,1","+0250,1","99999,9","07,1,+00610,1,99,9","08,1,+02134,1,99,9","9,AGL   ,+99999,+99999","99,99,9,07,1,99,9,00610,1,99,9,99,9","10130,1,99999,9","16,1",,,"MET074METAR SKSA 241700Z 00000KT 9999 VCSH BKN020 OVC070 25/25 Q1013 RMK VCSH W=",
"80222599999","2023-11-24T18:00:00","4","6.95","-71.85","213.0","LOS COLONIZADORES, CO","FM-15","99999","V020","200,1,N,0021,1","00914,1,C,N","008000,1,9,9","+0250,1","+0240,1","99999,9","07,1,+00914,1,99,9","08,1,+01524,1,99,9","9,AGL   ,+99999,+99999","99,99,9,07,1,99,9,00914,1,99,9,99,9","10130,1,99999,9","80,1",,,"MET076METAR SKSA 241800Z 20004KT 8000 -SHRA BKN030 OVC050 25/24 Q1013 RMK VCSH SE=",
"80222599999","2023-11-24T19:00:00","4","6.95","-71.85","213.0","LOS COLONIZADORES, CO","FM-15","99999","V020","240,1,N,0026,1","00610,1,C,N","009999,1,9,9","+0260,1","+0250,1","99999,9","08,1,+00610,1,99,9",,"9,AGL   ,+99999,+99999","99,99,9,08,1,99,9,00610,1,99,9,99,9","10120,1,99999,9","16,1",,,"MET069METAR SKSA 241900Z 24005KT 9999 VCSH OVC020 26/25 Q1012 RMK VCSH N W=",
"80222599999","2023-11-24T20:00:00","4","6.95","-71.85","213.0","LOS COLONIZADORES, CO","FM-15","99999","V020","280,1,N,0026,1","99999,9,9,N","009999,1,9,9","+0250,1","+0240,1","99999,9","04,1,+02134,1,99,9",,"9,AGL   ,+99999,+99999","99,99,9,04,1,99,9,02134,1,99,9,99,9","10110,1,99999,9",,,,"MET051METAR SKSA 242000Z 28005KT 9999 SCT070 25/24 Q1011=",
"80222599999","2023-11-24T21:00:00","4","6.95","-71.85","213.0","LOS COLONIZADORES, CO","FM-15","99999","V020","320,1,N,0036,1","22000,1,9,N","009999,1,9,9","+0260,1","+0230,1","99999,9",,,,"00,99,1,99,9,99,9,99999,9,99,9,99,9","10110,1,99999,9",,,,"MET048METAR SKSA 242100Z 32007KT 9999 NSC 26/23 Q1011=",
"80222599999","2023-11-24T22:00:00","4","6.95","-71.85","213.0","LOS COLONIZADORES, CO","FM-15","99999","V020","320,1,N,0031,1","22000,1,9,N","009999,1,9,9","+0250,1","+0230,1","99999,9",,,,"00,99,1,99,9,99,9,99999,9,99,9,99,9","10110,1,99999,9",,,,"MET048METAR SKSA 242200Z 32006KT 9999 NSC 25/23 Q1011=",
"80222599999","2023-11-24T23:00:00","4","6.95","-71.85","213.0","LOS COLONIZADORES, CO","FM-15","99999","V020","300,1,N,0031,1","22000,1,9,N","009999,1,9,9","+0240,1","+0220,1","99999,9",,,,"00,99,1,99,9,99,9,99999,9,99,9,99,9","10110,1,99999,9",,,,"MET048METAR SKSA 242300Z 30006KT 9999 NSC 24/22 Q1011=",
"80222599999","2023-11-25T12:00:00","4","6.95","-71.85","213.0","LOS COLONIZADORES, CO","FM-15","99999","V020","310,1,N,0015,1","22000,1,9,N","009999,1,9,9","+0240,1","+0210,1","99999,9",,,,"00,99,1,99,9,99,9,99999,9,99,9,99,9","10130,1,99999,9",,,,"MET048METAR SKSA 251200Z 31003KT 9999 NSC 24/21 Q1013=",
"80222599999","2023-11-25T13:00:00","4","6.95","-71.85","213.0","LOS COLONIZADORES, CO","FM-15","99999","V020","310,1,N,0015,1","22000,1,9,N","009999,1,9,9","+0260,1","+0220,1","99999,9",,,,"00,99,1,99,9,99,9,99999,9,99,9,99,9","10140,1,99999,9",,,,"MET048METAR SKSA 251300Z 31003KT 9999 NSC 26/22 Q1014=",
"80222599999","2023-11-25T14:00:00","4","6.95","-71.85","213.0","LOS COLONIZADORES, CO","FM-15","99999","V020","310,1,N,0021,1","99999,9,9,N","009999,1,9,9","+0280,1","+0220,1","99999,9","04,1,+02743,1,99,9",,"9,AGL   ,+99999,+99999","99,99,9,04,1,99,9,02743,1,99,9,99,9","10140,1,99999,9",,,,"MET051METAR SKSA 251400Z 31004KT 9999 SCT090 28/22 Q1014=",
"80222599999","2023-11-25T15:00:00","4","6.95","-71.85","213.0","LOS COLONIZADORES, CO","FM-15","99999","V020","330,1,N,0031,1","99999,9,9,N","009999,1,9,9","+0300,1","+0230,1","99999,9","04,1,+02743,1,99,9",,"9,AGL   ,+99999,+99999","99,99,9,04,1,99,9,02743,1,99,9,99,9","10140,1,99999,9",,,,"MET051METAR SKSA 251500Z 33006KT 9999 SCT090 30/23 Q1014=",
"80222599999","2023-11-25T16:00:00","4","6.95","-71.85","213.0","LOS COLONIZADORES, CO","FM-15","99999","V020","320,1,N,0026,1","99999,9,9,N","009999,1,9,9","+0310,1","+0220,1","99999,9","04,1,+02591,1,99,9",,"9,AGL   ,+99999,+99999","99,99,9,04,1,99,9,02591,1,99,9,99,9","10140,1,99999,9",,,,"MET051METAR SKSA 251600Z 32005KT 9999 SCT085 31/22 Q1014=",
"80222599999","2023-11-25T17:00:00","4","6.95","-71.85","213.0","LOS COLONIZADORES, CO","FM-15","99999","V020","350,1,N,0015,1","22000,1,9,N","009999,1,9,9","+0320,1","+0220,1","99999,9",,,,"00,99,1,99,9,99,9,99999,9,99,9,99,9","10130,1,99999,9",,,,"MET048METAR SKSA 251700Z 35003KT 9999 NSC 32/22 Q1013=",
"80222599999","2023-11-25T18:00:00","4","6.95","-71.85","213.0","LOS COLONIZADORES, CO","FM-15","99999","V020","080,1,N,0026,1","99999,9,9,N","009999,1,9,9","+0320,1","+0230,1","99999,9","04,1,+01372,1,99,9",,"9,AGL   ,+99999,+99999","99,99,9,04,1,99,9,01372,1,99,9,99,9","10120,1,99999,9",,,,"MET051METAR SKSA 251800Z 08005KT 9999 SCT045 32/23 Q1012=",
"80222599999","2023-11-25T19:00:00","4","6.95","-71.85","213.0","LOS COLONIZADORES, CO","FM-15","99999","V020","020,1,N,0041,1","99999,9,9,N","009999,1,9,9","+0320,1","+0230,1","99999,9","04,1,+01372,1,99,9",,"9,AGL   ,+99999,+99999","99,99,9,04,1,99,9,01372,1,99,9,99,9","10100,1,99999,9",,,,"MET051METAR SKSA 251900Z 02008KT 9999 SCT045 32/23 Q1010=",
"80222599999","2023-11-25T20:00:00","4","6.95","-71.85","213.0","LOS COLONIZADORES, CO","FM-15","99999","V020","999,9,V,0010,1","22000,1,9,N","009999,1,9,9","+0310,1","+0240,1","99999,9",,,,"00,99,1,99,9,99,9,99999,9,99,9,99,9","10100,1,99999,9",,,,"MET048METAR SKSA 252000Z VRB02KT 9999 NSC 31/24 Q1010=",
"80222599999","2023-11-25T21:00:00","4","6.95","-71.85","213.0","LOS COLONIZADORES, CO","FM-15","99999","V020","999,9,V,0010,1","22000,1,9,N","009999,1,9,9","+0300,1","+0240,1","99999,9",,,,"00,99,1,99,9,99,9,99999,9,99,9,99,9","10090,1,99999,9",,,,"MET048METAR SKSA 252100Z VRB02KT 9999 NSC 30/24 Q1009=",
"80222599999","2023-11-25T22:00:00","4","6.95","-71.85","213.0","LOS COLONIZADORES, CO","FM-15","99999","V020","999,9,V,0010,1","22000,1,9,N","009999,1,9,9","+0290,1","+0240,1","99999,9",,,,"00,99,1,99,9,99,9,99999,9,99,9,99,9","10100,1,99999,9",,,,"MET048METAR SKSA 252200Z VRB02KT 9999 NSC 29/24 Q1010=",
"80222599999","2023-11-27T11:00:00","4","6.95","-71.85","213.0","LOS COLONIZADORES, CO","FM-15","99999","V020","999,9,V,0010,1","22000,1,9,N","009999,1,9,9","+0220,1","+0210,1","99999,9",,,,"00,99,1,99,9,99,9,99999,9,99,9,99,9","10120,1,99999,9",,,,"MET048METAR SKSA 271100Z VRB02KT 9999 NSC 22/21 Q1012=",
"80222599999","2023-11-27T12:00:00","4","6.95","-71.85","213.0","LOS COLONIZADORES, CO","FM-15","99999","V020","999,9,V,0010,1","22000,1,9,N","009999,1,9,9","+0230,1","+0220,1","99999,9",,,,"00,99,1,99,9,99,9,99999,9,99,9,99,9","10130,1,99999,9",,,,"MET048METAR SKSA 271200Z VRB02KT 9999 NSC 23/22 Q1013=",
"80222599999","2023-11-27T13:00:00","4","6.95","-71.85","213.0","LOS COLONIZADORES, CO","FM-15","99999","V020","999,9,V,0010,1","22000,1,9,N","009999,1,9,9","+0260,1","+0240,1","99999,9",,,,"00,99,1,99,9,99,9,99999,9,99,9,99,9","10140,1,99999,9",,,,"MET048METAR SKSA 271300Z VRB02KT 9999 NSC 26/24 Q1014=",
"80222599999","2023-11-27T14:00:00","4","6.95","-71.85","213.0","LOS COLONIZADORES, CO","FM-15","99999","V020","999,9,V,0010,1","01524,1,C,N","009999,1,9,9","+0270,1","+0240,1","99999,9","07,1,+01524,1,99,9",,"9,AGL   ,+99999,+99999","99,99,9,07,1,99,9,01524,1,99,9,99,9","10140,1,99999,9",,,,"MET051METAR SKSA 271400Z VRB02KT 9999 BKN050 27/24 Q1014=",
"80222599999","2023-11-27T15:00:00","4","6.95","-71.85","213.0","LOS COLONIZADORES, CO","FM-15","99999","V020","999,9,V,0010,1","99999,9,9,N","009999,1,9,9","+0290,1","+0240,1","99999,9","04,1,+01524,1,99,9",,"9,AGL   ,+99999,+99999","99,99,9,04,1,99,9,01524,1,99,9,99,9","10140,1,99999,9",,,,"MET051METAR SKSA 271500Z VRB02KT 9999 SCT050 29/24 Q1014=",
"80222599999","2023-11-27T16:00:00","4","6.95","-71.85","213.0","LOS COLONIZADORES, CO","FM-15","99999","V020","120,1,N,0015,1","99999,9,9,N","009999,1,9,9","+0300,1","+0220,1","99999,9","04,1,+01219,1,99,9",,"9,AGL   ,+99999,+99999","99,99,9,04,1,99,9,01219,1,99,9,99,9","10140,1,99999,9",,,,"MET051METAR SKSA 271600Z 12003KT 9999 SCT040 30/22 Q1014=",
"80222599999","2023-11-27T17:00:00","4","6.95","-71.85","213.0","LOS COLONIZADORES, CO","FM-15","99999","V020","060,1,N,0015,1","99999,9,9,N","009999,1,9,9","+0300,1","+0230,1","99999,9","04,1,+01372,1,99,9",,"9,AGL   ,+99999,+99999","99,99,9,04,1,99,9,01372,1,99,9,99,9","10130,1,99999,9","16,1",,,"MET067METAR SKSA 271700Z 06003KT 9999 VCSH SCT045 30/23 Q1013 RMK VCSH W=",
"80222599999","2023-11-27T18:00:00","4","6.95","-71.85","213.0","LOS COLONIZADORES, CO","FM-15","99999","V020","020,1,N,0015,1","99999,9,9,N","009999,1,9,9","+0300,1","+0230,1","99999,9","04,1,+01067,1,99,9",,"9,AGL   ,+99999,+99999","99,99,9,04,1,99,9,01067,1,99,9,99,9","10110,1,99999,9","16,1",,,"MET068METAR SKSA 271800Z 02003KT 9999 VCSH SCT035 30/23 Q1011 RMK VCSH NE=",
"80222599999","2023-11-27T19:00:00","4","6.95","-71.85","213.0","LOS COLONIZADORES, CO","FM-15","99999","V020","020,1,N,0015,1","99999,9,9,N","009999,1,9,9","+0300,1","+0230,1","99999,9","04,1,+01067,1,99,9",,"9,AGL   ,+99999,+99999","99,99,9,04,1,99,9,01067,1,99,9,99,9","10110,1,99999,9","16,1",,,"MET068METAR SKSA 271900Z 02003KT 9999 VCSH SCT035 30/23 Q1011 RMK VCSH NE=",
"80222599999","2023-11-27T20:00:00","4","6.95","-71.85","213.0","LOS COLONIZADORES, CO","FM-15","99999","V020","290,1,N,0015,1","99999,9,9,N","009999,1,9,9","+0250,1","+0240,1","99999,9","04,1,+02438,1,99,9",,"9,AGL   ,+99999,+99999","99,99,9,04,1,99,9,02438,1,99,9,99,9","10110,1,99999,9","16,1",,,"MET068METAR SKSA 272000Z 29003KT 9999 VCSH SCT080 25/24 Q1011 RMK VCSH NW=",
"80222599999","2023-11-27T23:00:00","4","6.95","-71.85","213.0","LOS COLONIZADORES, CO","FM-15","99999","V020","280,1,N,0015,1","22000,1,9,N","009999,1,9,9","+0260,1","+0230,1","99999,9",,,,"00,99,1,99,9,99,9,99999,9,99,9,99,9","10110,1,99999,9",,,,"MET048METAR SKSA 272300Z 28003KT 9999 NSC 26/23 Q1011=",
"80222599999","2023-11-28T11:00:00","4","6.95","-71.85","213.0","LOS COLONIZADORES, CO","FM-15","99999","V020","300,1,N,0015,1","00610,1,C,N","009999,1,9,9","+0240,1","+0220,1","99999,9","08,1,+00610,1,99,9",,"9,AGL   ,+99999,+99999","99,99,9,08,1,99,9,00610,1,99,9,99,9","10130,1,99999,9",,,,"MET051METAR SKSA 281100Z 30003KT 9999 OVC020 24/22 Q1013=",
"80222599999","2023-11-28T12:00:00","4","6.95","-71.85","213.0","LOS COLONIZADORES, CO","FM-15","99999","V020","999,9,V,0010,1","01829,1,C,N","009999,1,9,9","+0240,1","+0220,1","99999,9","08,1,+01829,1,99,9",,"9,AGL   ,+99999,+99999","99,99,9,08,1,99,9,01829,1,99,9,99,9","10140,1,99999,9",,,,"MET051METAR SKSA 281200Z VRB02KT 9999 OVC060 24/22 Q1014=",
"80222599999","2023-11-28T13:00:00","4","6.95","-71.85","213.0","LOS COLONIZADORES, CO","FM-15","99999","V020","999,9,V,0010,1","01676,1,C,N","009999,1,9,9","+0250,1","+0230,1","99999,9","08,1,+01676,1,99,9",,"9,AGL   ,+99999,+99999","99,99,9,08,1,99,9,01676,1,99,9,99,9","10150,1,99999,9",,,,"MET051METAR SKSA 281300Z VRB02KT 9999 OVC055 25/23 Q1015=",
"80222599999","2023-11-28T14:00:00","4","6.95","-71.85","213.0","LOS COLONIZADORES, CO","FM-15","99999","V020","999,9,V,0010,1","02438,1,C,N","009999,1,9,9","+0260,1","+0230,1","99999,9","08,1,+02438,1,99,9",,"9,AGL   ,+99999,+99999","99,99,9,08,1,99,9,02438,1,99,9,99,9","10150,1,99999,9",,,,"MET051METAR SKSA 281400Z VRB02KT 9999 OVC080 26/23 Q1015=",
"80222599999","2023-11-28T15:00:00","4","6.95","-71.85","213.0","LOS COLONIZADORES, CO","FM-15","99999","V020","999,9,V,0010,1","01676,1,C,N","009999,1,9,9","+0290,1","+0240,1","99999,9","07,1,+01676,1,99,9",,"9,AGL   ,+99999,+99999","99,99,9,07,1,99,9,01676,1,99,9,99,9","10150,1,99999,9",,,,"MET051METAR SKSA 281500Z VRB02KT 9999 BKN055 29/24 Q1015=",
"80222599999","2023-11-28T16:00:00","4","6.95","-71.85","213.0","LOS COLONIZADORES, CO","FM-15","99999","V020","999,9,V,0010,1","22000,1,9,N","009999,1,9,9","+0310,1","+0240,1","99999,9",,,,"00,99,1,99,9,99,9,99999,9,99,9,99,9","10140,1,99999,9",,,,"MET048METAR SKSA 281600Z VRB02KT 9999 NSC 31/24 Q1014=",
"80222599999","2023-11-28T17:00:00","4","6.95","-71.85","213.0","LOS COLONIZADORES, CO","FM-15","99999","V020","040,1,N,0015,1","99999,9,9,N","009999,1,9,9","+0310,1","+0220,1","99999,9","04,1,+02134,1,99,9",,"9,AGL   ,+99999,+99999","99,99,9,04,1,99,9,02134,1,99,9,99,9","10130,1,99999,9",,,,"MET051METAR SKSA 281700Z 04003KT 9999 SCT070 31/22 Q1013=",
"80222599999","2023-11-28T18:00:00","4","6.95","-71.85","213.0","LOS COLONIZADORES, CO","FM-15","99999","V020","290,1,N,0026,1","99999,9,9,N","009999,1,9,9","+0310,1","+0230,1","99999,9","04,1,+02134,1,99,9",,"9,AGL   ,+99999,+99999","99,99,9,04,1,99,9,02134,1,99,9,99,9","10120,1,99999,9",,,,"MET051METAR SKSA 281800Z 29005KT 9999 SCT070 31/23 Q1012=",
"80222599999","2023-11-28T19:00:00","4","6.95","-71.85","213.0","LOS COLONIZADORES, CO","FM-15","99999","V020","999,9,V,0010,1","99999,9,9,N","009999,1,9,9","+0310,1","+0220,1","99999,9","04,1,+01524,1,99,9",,"9,AGL   ,+99999,+99999","99,99,9,04,1,99,9,01524,1,99,9,99,9","10100,1,99999,9",,,,"MET051METAR SKSA 281900Z VRB02KT 9999 SCT050 31/22 Q1010=",
"80222599999","2023-11-28T20:00:00","4","6.95","-71.85","213.0","LOS COLONIZADORES, CO","FM-15","99999","V020","310,1,N,0015,1","99999,9,9,N","009999,1,9,9","+0300,1","+0240,1","99999,9","02,1,+01524,1,99,9",,"9,AGL   ,+99999,+99999","99,99,9,02,1,99,9,01524,1,99,9,99,9","10090,1,99999,9",,,,"MET051METAR SKSA 282000Z 31003KT 9999 FEW050 30/24 Q1009=",
"80222599999","2023-11-28T21:00:00","4","6.95","-71.85","213.0","LOS COLONIZADORES, CO","FM-15","99999","V020","999,9,V,0010,1","22000,1,9,N","009999,1,9,9","+0300,1","+0230,1","99999,9",,,,"00,99,1,99,9,99,9,99999,9,99,9,99,9","10090,1,99999,9",,,,"MET048METAR SKSA 282100Z VRB02KT 9999 NSC 30/23 Q1009=",
"80222599999","2023-11-28T22:00:00","4","6.95","-71.85","213.0","LOS COLONIZADORES, CO","FM-15","99999","V020","999,9,V,0010,1","22000,1,9,N","009999,1,9,9","+0300,1","+0230,1","99999,9",,,,"00,99,1,99,9,99,9,99999,9,99,9,99,9","10090,1,99999,9",,,,"MET048METAR SKSA 282200Z VRB02KT 9999 NSC 30/23 Q1009=",
"80222599999","2023-11-29T11:00:00","4","6.95","-71.85","213.0","LOS COLONIZADORES, CO","FM-15","99999","V020","320,1,N,0015,1","99999,9,9,N","009999,1,9,9","+0230,1","+0210,1","99999,9","04,1,+02134,1,99,9",,"9,AGL   ,+99999,+99999","99,99,9,04,1,99,9,02134,1,99,9,99,9","10110,1,99999,9",,,,"MET051METAR SKSA 291100Z 32003KT 9999 SCT070 23/21 Q1011=",
"80222599999","2023-11-29T12:00:00","4","6.95","-71.85","213.0","LOS COLONIZADORES, CO","FM-15","99999","V020","320,1,N,0015,1","99999,9,9,N","009999,1,9,9","+0240,1","+0220,1","99999,9","04,1,+02743,1,99,9",,"9,AGL   ,+99999,+99999","99,99,9,04,1,99,9,02743,1,99,9,99,9","10120,1,99999,9",,,,"MET051METAR SKSA 291200Z 32003KT 9999 SCT090 24/22 Q1012=",
"80222599999","2023-11-29T13:00:00","4","6.95","-71.85","213.0","LOS COLONIZADORES, CO","FM-15","99999","V020","280,1,N,0026,1","22000,1,9,N","009999,1,9,9","+0270,1","+0210,1","99999,9",,,,"00,99,1,99,9,99,9,99999,9,99,9,99,9","10130,1,99999,9",,,,"MET048METAR SKSA 291300Z 28005KT 9999 NSC 27/21 Q1013=",
"80222599999","2023-11-29T14:00:00","4","6.95","-71.85","213.0","LOS COLONIZADORES, CO","FM-15","99999","V020","300,1,N,0021,1","99999,9,9,N","009999,1,9,9","+0270,1","+0200,1","99999,9","04,1,+01372,1,99,9",,"9,AGL   ,+99999,+99999","99,99,9,04,1,99,9,01372,1,99,9,99,9","10140,1,99999,9","16,1",,,"MET067METAR SKSA 291400Z 30004KT 9999 VCSH SCT045 27/20 Q1014 RMK VCSH W=",
"80222599999","2023-11-29T15:00:00","4","6.95","-71.85","213.0","LOS COLONIZADORES, CO","FM-15","99999","V020","300,1,N,0031,1","02134,1,C,N","009999,1,9,9","+0290,1","+0220,1","99999,9","07,1,+02134,1,99,9",,"9,AGL   ,+99999,+99999","99,99,9,07,1,99,9,02134,1,99,9,99,9","10140,1,99999,9","16,1",,,"MET069METAR SKSA 291500Z 30006KT 9999 VCSH BKN070 29/22 Q1014 RMK VCSH W E=",
"80222599999","2023-11-29T16:00:00","4","6.95","-71.85","213.0","LOS COLONIZADORES, CO","FM-15","99999","V020","320,1,N,0010,1","01219,1,C,N","009999,1,9,9","+0290,1","+0230,1","99999,9","07,1,+01219,1,99,9",,"9,AGL   ,+99999,+99999","99,99,9,07,1,99,9,01219,1,99,9,99,9","10140,1,99999,9","16,1",,,"MET070METAR SKSA 291600Z 32002KT 9999 VCSH BKN040 29/23 Q1014 RMK VCSH W SW=",
"80222599999","2023-11-29T17:00:00","4","6.95","-71.85","213.0","LOS COLONIZADORES, CO","FM-15","99999","V020","090,1,N,0015,1","01067,1,C,N","009999,1,9,9","+0300,1","+0210,1","99999,9","07,1,+01067,1,99,9",,"9,AGL   ,+99999,+99999","99,99,9,07,1,99,9,01067,1,99,9,99,9","10120,1,99999,9",,,,"MET051METAR SKSA 291700Z 09003KT 9999 BKN035 30/21 Q1012=",
"80222599999","2023-11-29T18:00:00","4","6.95","-71.85","213.0","LOS COLONIZADORES, CO","FM-15","99999","V020","999,9,V,0010,1","01524,1,C,N","009999,1,9,9","+0300,1","+0230,1","99999,9","07,1,+01524,1,99,9",,"9,AGL   ,+99999,+99999","99,99,9,07,1,99,9,01524,1,99,9,99,9","10110,1,99999,9",,,,"MET051METAR SKSA 291800Z VRB02KT 9999 BKN050 30/23 Q1011=",
"80222599999","2023-11-29T19:00:00","4","6.95","-71.85","213.0","LOS COLONIZADORES, CO","FM-15","99999","V020","210,1,N,0015,1","99999,9,9,N","009999,1,9,9","+0320,1","+0220,1","99999,9","04,1,+01219,1,99,9",,"9,AGL   ,+99999,+99999","99,99,9,04,1,99,9,01219,1,99,9,99,9","10100,1,99999,9",,,,"MET051METAR SKSA 291900Z 21003KT 9999 SCT040 32/22 Q1010=",
"80222599999","2023-11-29T20:00:00","4","6.95","-71.85","213.0","LOS COLONIZADORES, CO","FM-15","99999","V020","340,1,N,0026,1","22000,1,9,N","009999,1,9,9","+0300,1","+0230,1","99999,9",,,,"00,99,1,99,9,99,9,99999,9,99,9,99,9","10090,1,99999,9",,,,"MET048METAR SKSA 292000Z 34005KT 9999 NSC 30/23 Q1009=",
"80222599999","2023-11-29T21:00:00","4","6.95","-71.85","213.0","LOS COLONIZADORES, CO","FM-15","99999","V020","999,9,V,0010,1","22000,1,9,N","009999,1,9,9","+0300,1","+0220,1","99999,9",,,,"00,99,1,99,9,99,9,99999,9,99,9,99,9","10080,1,99999,9",,,,"MET048METAR SKSA 292100Z VRB02KT 9999 NSC 30/22 Q1008=",
"80222599999","2023-11-29T22:00:00","4","6.95","-71.85","213.0","LOS COLONIZADORES, CO","FM-15","99999","V020","340,1,N,0015,1","22000,1,9,N","009999,1,9,9","+0290,1","+0230,1","99999,9",,,,"00,99,1,99,9,99,9,99999,9,99,9,99,9","10090,1,99999,9",,,,"MET048METAR SKSA 292200Z 34003KT 9999 NSC 29/23 Q1009=",
"80222599999","2023-11-30T11:00:00","4","6.95","-71.85","213.0","LOS COLONIZADORES, CO","FM-15","99999","V020","320,1,N,0026,1","22000,1,9,N","009999,1,9,9","+0240,1","+0200,1","99999,9",,,,"00,99,1,99,9,99,9,99999,9,99,9,99,9","10120,1,99999,9",,,,"MET048METAR SKSA 301100Z 32005KT 9999 NSC 24/20 Q1012=",
"80222599999","2023-11-30T12:00:00","4","6.95","-71.85","213.0","LOS COLONIZADORES, CO","FM-15","99999","V020","300,1,N,0031,1","22000,1,9,N","009999,1,9,9","+0260,1","+0210,1","99999,9",,,,"00,99,1,99,9,99,9,99999,9,99,9,99,9","10130,1,99999,9",,,,"MET048METAR SKSA 301200Z 30006KT 9999 NSC 26/21 Q1013=",
"80222599999","2023-11-30T13:00:00","4","6.95","-71.85","213.0","LOS COLONIZADORES, CO","FM-15","99999","V020","300,1,N,0031,1","01372,1,C,N","009999,1,9,9","+0260,1","+0210,1","99999,9","07,1,+01372,1,99,9",,"9,AGL   ,+99999,+99999","99,99,9,07,1,99,9,01372,1,99,9,99,9","10130,1,99999,9",,,,"MET051METAR SKSA 301300Z 30006KT 9999 BKN045 26/21 Q1013=",
"80222599999","2023-11-30T14:00:00","4","6.95","-71.85","213.0","LOS COLONIZADORES, CO","FM-15","99999","V020","999,9,V,0010,1","01372,1,C,N","009999,1,9,9","+0270,1","+0220,1","99999,9","07,1,+01372,1,99,9",,"9,AGL   ,+99999,+99999","99,99,9,07,1,99,9,01372,1,99,9,99,9","10140,1,99999,9",,,,"MET051METAR SKSA 301400Z VRB02KT 9999 BKN045 27/22 Q1014=",
"80222599999","2023-11-30T15:00:00","4","6.95","-71.85","213.0","LOS COLONIZADORES, CO","FM-15","99999","V020","020,1,N,0015,1","02134,1,C,N","009999,1,9,9","+0290,1","+0210,1","99999,9","07,1,+02134,1,99,9",,"9,AGL   ,+99999,+99999","99,99,9,07,1,99,9,02134,1,99,9,99,9","10140,1,99999,9",,,,"MET051METAR SKSA 301500Z 02003KT 9999 BKN070 29/21 Q1014=",
"80222599999","2023-11-30T16:00:00","4","6.95","-71.85","213.0","LOS COLONIZADORES, CO","FM-15","99999","V020","020,1,N,0021,1","01676,1,C,N","009999,1,9,9","+0290,1","+0220,1","99999,9","07,1,+01676,1,99,9",,"9,AGL   ,+99999,+99999","99,99,9,07,1,99,9,01676,1,99,9,99,9","10130,1,99999,9",,,,"MET051METAR SKSA 301600Z 02004KT 9999 BKN055 29/22 Q1013=",
"80222599999","2023-11-30T17:00:00","4","6.95","-71.85","213.0","LOS COLONIZADORES, CO","FM-15","99999","V020","999,9,V,0010,1","01219,1,C,N","009999,1,9,9","+0300,1","+0220,1","99999,9","07,1,+01219,1,99,9",,"9,AGL   ,+99999,+99999","99,99,9,07,1,99,9,01219,1,99,9,99,9","10120,1,99999,9",,,,"MET051METAR SKSA 301700Z VRB02KT 9999 BKN040 30/22 Q1012=",
"80222599999","2023-11-30T18:00:00","4","6.95","-71.85","213.0","LOS COLONIZADORES, CO","FM-15","99999","V020","999,9,V,0010,1","99999,9,9,N","009999,1,9,9","+0300,1","+0220,1","99999,9","04,1,+01219,1,99,9",,"9,AGL   ,+99999,+99999","99,99,9,04,1,99,9,01219,1,99,9,99,9","10110,1,99999,9",,,,"MET051METAR SKSA 301800Z VRB02KT 9999 SCT040 30/22 Q1011=",
"80222599999","2023-11-30T19:00:00","4","6.95","-71.85","213.0","LOS COLONIZADORES, CO","FM-15","99999","V020","100,1,N,0021,1","99999,9,9,N","009999,1,9,9","+0310,1","+0220,1","99999,9","04,1,+01219,1,99,9",,"9,AGL   ,+99999,+99999","99,99,9,04,1,99,9,01219,1,99,9,99,9","10100,1,99999,9",,,,"MET051METAR SKSA 301900Z 10004KT 9999 SCT040 31/22 Q1010=",
"80222599999","2023-11-30T20:00:00","4","6.95","-71.85","213.0","LOS COLONIZADORES, CO","FM-15","99999","V020","050,1,N,0015,1","99999,9,9,N","009999,1,9,9","+0300,1","+0220,1","99999,9","04,1,+01219,1,99,9",,"9,AGL   ,+99999,+99999","99,99,9,04,1,99,9,01219,1,99,9,99,9","10090,1,99999,9",,,,"MET051METAR SKSA 302000Z 05003KT 9999 SCT040 30/22 Q1009=",
"80222599999","2023-11-30T21:00:00","4","6.95","-71.85","213.0","LOS COLONIZADORES, CO","FM-15","99999","V020","360,1,N,0015,1","22000,1,9,N","009999,1,9,9","+0310,1","+0230,1","99999,9",,,,"00,99,1,99,9,99,9,99999,9,99,9,99,9","10090,1,99999,9",,,,"MET048METAR SKSA 302100Z 36003KT 9999 NSC 31/23 Q1009=",
"80222599999","2023-11-30T22:00:00","4","6.95","-71.85","213.0","LOS COLONIZADORES, CO","FM-15","99999","V020","999,9,C,0000,1","22000,1,9,N","009999,1,9,9","+0300,1","+0230,1","99999,9",,,,"00,99,1,99,9,99,9,99999,9,99,9,99,9","10090,1,99999,9",,,,"MET048METAR SKSA 302200Z 00000KT 9999 NSC 30/23 Q1009=",
"80222599999","2023-11-30T23:00:00","4","6.95","-71.85","213.0","LOS COLONIZADORES, CO","FM-15","99999","V020","999,9,C,0000,1","22000,1,9,N","009999,1,9,9","+0260,1","+0230,1","99999,9",,,,"00,99,1,99,9,99,9,99999,9,99,9,99,9","10090,1,99999,9",,,,"MET048METAR SKSA 302300Z 00000KT 9999 NSC 26/23 Q1009=",
"80222599999","2023-12-01T11:00:00","4","6.95","-71.85","213.0","LOS COLONIZADORES, CO","FM-15","99999","V020","320,1,N,0021,1","22000,1,9,N","009999,1,9,9","+0230,1","+0200,1","99999,9",,,,"00,99,1,99,9,99,9,99999,9,99,9,99,9","10130,1,99999,9",,,,"MET048METAR SKSA 011100Z 32004KT 9999 NSC 23/20 Q1013=",
"80222599999","2023-12-01T13:00:00","4","6.95","-71.85","213.0","LOS COLONIZADORES, CO","FM-15","99999","V020","320,1,N,0015,1","99999,9,9,N","009999,1,9,9","+0270,1","+0190,1","99999,9","04,1,+01524,1,99,9",,"9,AGL   ,+99999,+99999","99,99,9,04,1,99,9,01524,1,99,9,99,9","10150,1,99999,9",,,,"MET051METAR SKSA 011300Z 32003KT 9999 SCT050 27/19 Q1015=",
"80222599999","2023-12-01T14:00:00","4","6.95","-71.85","213.0","LOS COLONIZADORES, CO","FM-15","99999","V020","330,1,N,0015,1","99999,9,9,N","009999,1,9,9","+0290,1","+0210,1","99999,9","04,1,+01219,1,99,9",,"9,AGL   ,+99999,+99999","99,99,9,04,1,99,9,01219,1,99,9,99,9","10150,1,99999,9",,,,"MET051METAR SKSA 011400Z 33003KT 9999 SCT040 29/21 Q1015=",
"80222599999","2023-12-01T15:00:00","4","6.95","-71.85","213.0","LOS COLONIZADORES, CO","FM-15","99999","V020","330,1,N,0015,1","22000,1,9,N","009999,1,9,9","+0310,1","+0200,1","99999,9",,,,"00,99,1,99,9,99,9,99999,9,99,9,99,9","10150,1,99999,9",,,,"MET048METAR SKSA 011500Z 33003KT 9999 NSC 31/20 Q1015=",
"80222599999","2023-12-01T17:00:00","4","6.95","-71.85","213.0","LOS COLONIZADORES, CO","FM-15","99999","V020","030,1,N,0015,1","99999,9,9,N","009999,1,9,9","+0310,1","+0210,1","99999,9","04,1,+01524,1,99,9",,"9,AGL   ,+99999,+99999","99,99,9,04,1,99,9,01524,1,99,9,99,9","10130,1,99999,9",,,,"MET051METAR SKSA 011700Z 03003KT 9999 SCT050 31/21 Q1013=",
"80222599999","2023-12-01T18:00:00","4","6.95","-71.85","213.0","LOS COLONIZADORES, CO","FM-15","99999","V020","040,1,N,0026,1","99999,9,9,N","009999,1,9,9","+0310,1","+0210,1","99999,9","04,1,+01524,1,99,9",,"9,AGL   ,+99999,+99999","99,99,9,04,1,99,9,01524,1,99,9,99,9","10130,1,99999,9",,,,"MET051METAR SKSA 011800Z 04005KT 9999 SCT050 31/21 Q1013=",
"80222599999","2023-12-01T19:00:00","4","6.95","-71.85","213.0","LOS COLONIZADORES, CO","FM-15","99999","V020","020,1,N,0031,1","99999,9,9,N","009999,1,9,9","+0320,1","+0210,1","99999,9","02,1,+01219,1,99,9",,"9,AGL   ,+99999,+99999","99,99,9,02,1,99,9,01219,1,99,9,99,9","10110,1,99999,9",,,,"MET051METAR SKSA 011900Z 02006KT 9999 FEW040 32/21 Q1011=",
"80222599999","2023-12-01T20:00:00","4","6.95","-71.85","213.0","LOS COLONIZADORES, CO","FM-15","99999","V020","040,1,N,0015,1","22000,1,9,N","009999,1,9,9","+0310,1","+0210,1","99999,9",,,,"00,99,1,99,9,99,9,99999,9,99,9,99,9","10100,1,99999,9",,,,"MET048METAR SKSA 012000Z 04003KT 9999 NSC 31/21 Q1010=",
"80222599999","2023-12-01T21:00:00","4","6.95","-71.85","213.0","LOS COLONIZADORES, CO","FM-15","99999","V020","080,1,N,0015,1","22000,1,9,N","009999,1,9,9","+0290,1","+0210,1","99999,9",,,,"00,99,1,99,9,99,9,99999,9,99,9,99,9","10100,1,99999,9",,,,"MET048METAR SKSA 012100Z 08003KT 9999 NSC 29/21 Q1010=",
"80222599999","2023-12-01T22:00:00","4","6.95","-71.85","213.0","LOS COLONIZADORES, CO","FM-15","99999","V020","300,1,N,0026,1","22000,1,9,N","009999,1,9,9","+0270,1","+0240,1","99999,9",,,,"00,99,1,99,9,99,9,99999,9,99,9,99,9","10100,1,99999,9",,,,"MET048METAR SKSA 012200Z 30005KT 9999 NSC 27/24 Q1010=",
"80222599999","2023-12-01T23:00:00","4","6.95","-71.85","213.0","LOS COLONIZADORES, CO","FM-15","99999","V020","999,9,C,0000,1","22000,1,9,N","009999,1,9,9","+0250,1","+0240,1","99999,9",,,,"00,99,1,99,9,99,9,99999,9,99,9,99,9","10100,1,99999,9",,,,"MET048METAR SKSA 012300Z 00000KT 9999 NSC 25/24 Q1010=",
"80222599999","2023-12-02T11:00:00","4","6.95","-71.85","213.0","LOS COLONIZADORES, CO","FM-15","99999","V020","999,9,C,0000,1","22000,1,9,N","009999,1,9,9","+0230,1","+0180,1","99999,9",,,,"00,99,1,99,9,99,9,99999,9,99,9,99,9","10130,1,99999,9",,,,"MET048METAR SKSA 021100Z 00000KT 9999 NSC 23/18 Q1013=",
"80222599999","2023-12-02T13:00:00","4","6.95","-71.85","213.0","LOS COLONIZADORES, CO","FM-15","99999","V020","290,1,N,0021,1","22000,1,9,N","009999,1,9,9","+0290,1","+0190,1","99999,9",,,,"00,99,1,99,9,99,9,99999,9,99,9,99,9","10140,1,99999,9",,,,"MET048METAR SKSA 021300Z 29004KT 9999 NSC 29/19 Q1014=",
"80222599999","2023-12-02T14:00:00","4","6.95","-71.85","213.0","LOS COLONIZADORES, CO","FM-15","99999","V020","290,1,N,0015,1","22000,1,9,N","009999,1,9,9","+0310,1","+0210,1","99999,9",,,,"00,99,1,99,9,99,9,99999,9,99,9,99,9","10140,1,99999,9",,,,"MET048METAR SKSA 021400Z 29003KT 9999 NSC 31/21 Q1014=",
"80222599999","2023-12-02T15:00:00","4","6.95","-71.85","213.0","LOS COLONIZADORES, CO","FM-15","99999","V020","040,1,N,0015,1","22000,1,9,N","009999,1,9,9","+0310,1","+0190,1","99999,9",,,,"00,99,1,99,9,99,9,99999,9,99,9,99,9","10140,1,99999,9",,,,"MET048METAR SKSA 021500Z 04003KT 9999 NSC 31/19 Q1014=",
"80222599999","2023-12-02T16:00:00","4","6.95","-71.85","213.0","LOS COLONIZADORES, CO","FM-15","99999","V020","040,1,N,0026,1","99999,9,9,N","009999,1,9,9","+0310,1","+0190,1","99999,9","02,1,+01219,1,99,9",,"9,AGL   ,+99999,+99999","99,99,9,02,1,99,9,01219,1,99,9,99,9","10140,1,99999,9",,,,"MET051METAR SKSA 021600Z 04005KT 9999 FEW040 31/19 Q1014=",
"80222599999","2023-12-02T17:00:00","4","6.95","-71.85","213.0","LOS COLONIZADORES, CO","FM-15","99999","V020","060,1,N,0046,1","99999,9,9,N","009999,1,9,9","+0310,1","+0190,1","99999,9","02,1,+01219,1,99,9",,"9,AGL   ,+99999,+99999","99,99,9,02,1,99,9,01219,1,99,9,99,9","10130,1,99999,9",,,,"MET051METAR SKSA 021700Z 06009KT 9999 FEW040 31/19 Q1013=",
"80222599999","2023-12-02T18:00:00","4","6.95","-71.85","213.0","LOS COLONIZADORES, CO","FM-15","99999","V020","120,1,N,0015,1","99999,9,9,N","009999,1,9,9","+0310,1","+0190,1","99999,9","04,1,+01219,1,99,9",,"9,AGL   ,+99999,+99999","99,99,9,04,1,99,9,01219,1,99,9,99,9","10110,1,99999,9",,,,"MET051METAR SKSA 021800Z 12003KT 9999 SCT040 31/19 Q1011=",
"80222599999","2023-12-02T19:00:00","4","6.95","-71.85","213.0","LOS COLONIZADORES, CO","FM-15","99999","V020","030,1,N,0015,1","99999,9,9,N","009999,1,9,9","+0310,1","+0200,1","99999,9","04,1,+01219,1,99,9",,"9,AGL   ,+99999,+99999","99,99,9,04,1,99,9,01219,1,99,9,99,9","10100,1,99999,9",,,,"MET051METAR SKSA 021900Z 03003KT 9999 SCT040 31/20 Q1010=",
"80222599999","2023-12-02T20:00:00","4","6.95","-71.85","213.0","LOS COLONIZADORES, CO","FM-15","99999","V020","999,9,C,0000,1","22000,1,9,N","009999,1,9,9","+0280,1","+0200,1","99999,9",,,,"00,99,1,99,9,99,9,99999,9,99,9,99,9","10100,1,99999,9",,,,"MET048METAR SKSA 022000Z 00000KT 9999 NSC 28/20 Q1010=",
"80222599999","2023-12-02T21:00:00","4","6.95","-71.85","213.0","LOS COLONIZADORES, CO","FM-15","99999","V020","999,9,C,0000,1","22000,1,9,N","009999,1,9,9","+0280,1","+0200,1","99999,9",,,,"00,99,1,99,9,99,9,99999,9,99,9,99,9","10100,1,99999,9",,,,"MET048METAR SKSA 022100Z 00000KT 9999 NSC 28/20 Q1010=",
"80222599999","2023-12-03T11:00:00","4","6.95","-71.85","213.0","LOS COLONIZADORES, CO","FM-15","99999","V020","999,9,C,0000,1","22000,1,9,N","009999,1,9,9","+0220,1","+0180,1","99999,9",,,,"00,99,1,99,9,99,9,99999,9,99,9,99,9","10120,1,99999,9",,,,"MET048METAR SKSA 031100Z 00000KT 9999 NSC 22/18 Q1012=",
"80222599999","2023-12-03T12:00:00","4","6.95","-71.85","213.0","LOS COLONIZADORES, CO","FM-15","99999","V020","999,9,C,0000,1","22000,1,9,N","009999,1,9,9","+0240,1","+0180,1","99999,9",,,,"00,99,1,99,9,99,9,99999,9,99,9,99,9","10120,1,99999,9",,,,"MET048METAR SKSA 031200Z 00000KT 9999 NSC 24/18 Q1012=",
"80222599999","2023-12-03T15:00:00","4","6.95","-71.85","213.0","LOS COLONIZADORES, CO","FM-15","99999","V020","020,1,N,0021,1","22000,1,9,N","009999,1,9,9","+0290,1","+0200,1","99999,9",,,,"00,99,1,99,9,99,9,99999,9,99,9,99,9","10140,1,99999,9",,,,"MET048METAR SKSA 031500Z 02004KT 9999 NSC 29/20 Q1014=",
"80222599999","2023-12-03T16:00:00","4","6.95","-71.85","213.0","LOS COLONIZADORES, CO","FM-15","99999","V020","020,1,N,0021,1","22000,1,9,N","009999,1,9,9","+0290,1","+0200,1","99999,9",,,,"00,99,1,99,9,99,9,99999,9,99,9,99,9","10140,1,99999,9",,,,"MET048METAR SKSA 031600Z 02004KT 9999 NSC 29/20 Q1014=",
"80222599999","2023-12-03T17:00:00","4","6.95","-71.85","213.0","LOS COLONIZADORES, CO","FM-15","99999","V020","080,1,N,0015,1","22000,1,9,N","009999,1,9,9","+0290,1","+0200,1","99999,9",,,,"00,99,1,99,9,99,9,99999,9,99,9,99,9","10140,1,99999,9",,,,"MET048METAR SKSA 031700Z 08003KT 9999 NSC 29/20 Q1014=",
"80222599999","2023-12-03T18:00:00","4","6.95","-71.85","213.0","LOS COLONIZADORES, CO","FM-15","99999","V020","999,9,C,0000,1","99999,9,9,N","009999,1,9,9","+0310,1","+0200,1","99999,9","04,1,+01524,1,99,9",,"9,AGL   ,+99999,+99999","99,99,9,04,1,99,9,01524,1,99,9,99,9","10110,1,99999,9",,,,"MET051METAR SKSA 031800Z 00000KT 9999 SCT050 31/20 Q1011=",
"80222599999","2023-12-03T19:00:00","4","6.95","-71.85","213.0","LOS COLONIZADORES, CO","FM-15","99999","V020","010,1,N,0021,1","99999,9,9,N","009999,1,9,9","+0320,1","+0220,1","99999,9","02,1,+01219,1,99,9",,"9,AGL   ,+99999,+99999","99,99,9,02,1,99,9,01219,1,99,9,99,9","10100,1,99999,9",,,,"MET051METAR SKSA 031900Z 01004KT 9999 FEW040 32/22 Q1010=",
"80222599999","2023-12-03T20:00:00","4","6.95","-71.85","213.0","LOS COLONIZADORES, CO","FM-15","99999","V020","050,1,N,0015,1","99999,9,9,N","009999,1,9,9","+0300,1","+0220,1","99999,9","02,1,+01219,1,99,9",,"9,AGL   ,+99999,+99999","99,99,9,02,1,99,9,01219,1,99,9,99,9","10100,1,99999,9",,,,"MET051METAR SKSA 032000Z 05003KT 9999 FEW040 30/22 Q1010=",
"80222599999","2023-12-03T21:00:00","4","6.95","-71.85","213.0","LOS COLONIZADORES, CO","FM-15","99999","V020","260,1,N,0015,1","22000,1,9,N","009999,1,9,9","+0300,1","+0220,1","99999,9",,,,"00,99,1,99,9,99,9,99999,9,99,9,99,9","10100,1,99999,9",,,,"MET048METAR SKSA 032100Z 26003KT 9999 NSC 30/22 Q1010=",
"80222599999","2023-12-03T23:00:00","4","6.95","-71.85","213.0","LOS COLONIZADORES, CO","FM-15","99999","V020","999,9,C,0000,1","22000,1,9,N","009999,1,9,9","+0260,1","+0220,1","99999,9",,,,"00,99,1,99,9,99,9,99999,9,99,9,99,9","10100,1,99999,9",,,,"MET048METAR SKSA 032300Z 00000KT 9999 NSC 26/22 Q1010=",
"80222599999","2023-12-04T11:00:00","4","6.95","-71.85","213.0","LOS COLONIZADORES, CO","FM-15","99999","V020","999,9,C,0000,1","22000,1,9,N","009999,1,9,9","+0230,1","+0180,1","99999,9",,,,"00,99,1,99,9,99,9,99999,9,99,9,99,9","10120,1,99999,9",,,,"MET048METAR SKSA 041100Z 00000KT 9999 NSC 23/18 Q1012=",
"80222599999","2023-12-04T12:00:00","4","6.95","-71.85","213.0","LOS COLONIZADORES, CO","FM-15","99999","V020","999,9,C,0000,1","22000,1,9,N","009999,1,9,9","+0270,1","+0180,1","99999,9",,,,"00,99,1,99,9,99,9,99999,9,99,9,99,9","10120,1,99999,9",,,,"MET048METAR SKSA 041200Z 00000KT 9999 NSC 27/18 Q1012=",
"80222599999","2023-12-04T13:00:00","4","6.95","-71.85","213.0","LOS COLONIZADORES, CO","FM-15","99999","V020","340,1,N,0021,1","22000,1,9,N","009999,1,9,9","+0290,1","+0180,1","99999,9",,,,"00,99,1,99,9,99,9,99999,9,99,9,99,9","10120,1,99999,9",,,,"MET048METAR SKSA 041300Z 34004KT 9999 NSC 29/18 Q1012=",
"80222599999","2023-12-04T14:00:00","4","6.95","-71.85","213.0","LOS COLONIZADORES, CO","FM-15","99999","V020","360,1,N,0015,1","22000,1,9,N","009999,1,9,9","+0300,1","+0200,1","99999,9",,,,"00,99,1,99,9,99,9,99999,9,99,9,99,9","10140,1,99999,9",,,,"MET048METAR SKSA 041400Z 36003KT 9999 NSC 30/20 Q1014=",
"80222599999","2023-12-04T16:00:00","4","6.95","-71.85","213.0","LOS COLONIZADORES, CO","FM-15","99999","V020","030,1,N,0031,1","22000,1,9,N","009999,1,9,9","+0310,1","+0230,1","99999,9",,,,"00,99,1,99,9,99,9,99999,9,99,9,99,9","10140,1,99999,9",,,,"MET048METAR SKSA 041600Z 03006KT 9999 NSC 31/23 Q1014=",
"80222599999","2023-12-04T17:00:00","4","6.95","-71.85","213.0","LOS COLONIZADORES, CO","FM-15","99999","V020","030,1,N,0031,1","22000,1,9,N","009999,1,9,9","+0310,1","+0230,1","99999,9",,,,"00,99,1,99,9,99,9,99999,9,99,9,99,9","10130,1,99999,9",,,,"MET048METAR SKSA 041700Z 03006KT 9999 NSC 31/23 Q1013=",
"80222599999","2023-12-04T20:00:00","4","6.95","-71.85","213.0","LOS COLONIZADORES, CO","FM-15","99999","V020","310,1,N,0031,1","99999,9,9,N","009999,1,9,9","+0320,1","+0210,1","99999,9","02,1,+01219,1,99,9",,"9,AGL   ,+99999,+99999","99,99,9,02,1,99,9,01219,1,99,9,99,9","10100,1,99999,9",,,,"MET051METAR SKSA 042000Z 31006KT 9999 FEW040 32/21 Q1010=",
"80222599999","2023-12-04T23:00:00","4","6.95","-71.85","213.0","LOS COLONIZADORES, CO","FM-15","99999","V020","999,9,C,0000,1","22000,1,9,N","009999,1,9,9","+0270,1","+0230,1","99999,9",,,,"00,99,1,99,9,99,9,99999,9,99,9,99,9","10100,1,99999,9",,,,"MET048METAR SKSA 042300Z 00000KT 9999 NSC 27/23 Q1010=",
"80222599999","2023-12-05T11:00:00","4","6.95","-71.85","213.0","LOS COLONIZADORES, CO","FM-15","99999","V020","999,9,C,0000,1","22000,1,9,N","009999,1,9,9","+0230,1","+0180,1","99999,9",,,,"00,99,1,99,9,99,9,99999,9,99,9,99,9","10120,1,99999,9",,,,"MET048METAR SKSA 051100Z 00000KT 9999 NSC 23/18 Q1012=",
"80222599999","2023-12-05T13:00:00","4","6.95","-71.85","213.0","LOS COLONIZADORES, CO","FM-15","99999","V020","999,9,C,0000,1","22000,1,9,N","009999,1,9,9","+0290,1","+0180,1","99999,9",,,,"00,99,1,99,9,99,9,99999,9,99,9,99,9","10140,1,99999,9",,,,"MET048METAR SKSA 051300Z 00000KT 9999 NSC 29/18 Q1014=",
"80222599999","2023-12-05T14:00:00","4","6.95","-71.85","213.0","LOS COLONIZADORES, CO","FM-15","99999","V020","280,1,N,0015,1","99999,9,9,N","009999,1,9,9","+0300,1","+0180,1","99999,9","04,1,+01524,1,99,9",,"9,AGL   ,+99999,+99999","99,99,9,04,1,99,9,01524,1,99,9,99,9","10150,1,99999,9",,,,"MET051METAR SKSA 051400Z 28003KT 9999 SCT050 30/18 Q1015=",
"80222599999","2023-12-05T15:00:00","4","6.95","-71.85","213.0","LOS COLONIZADORES, CO","FM-15","99999","V020","280,1,N,0015,1","22000,1,9,N","009999,1,9,9","+0300,1","+0180,1","99999,9",,,,"00,99,1,99,9,99,9,99999,9,99,9,99,9","10150,1,99999,9",,,,"MET048METAR SKSA 051500Z 28003KT 9999 NSC 30/18 Q1015=",
"80222599999","2023-12-05T16:00:00","4","6.95","-71.85","213.0","LOS COLONIZADORES, CO","FM-15","99999","V020","360,1,N,0015,1","22000,1,9,N","009999,1,9,9","+0300,1","+0180,1","99999,9",,,,"00,99,1,99,9,99,9,99999,9,99,9,99,9","10150,1,99999,9",,,,"MET048METAR SKSA 051600Z 36003KT 9999 NSC 30/18 Q1015=",
"80222599999","2023-12-05T17:00:00","4","6.95","-71.85","213.0","LOS COLONIZADORES, CO","FM-15","99999","V020","060,1,N,0021,1","22000,1,9,N","009999,1,9,9","+0320,1","+0220,1","99999,9",,,,"00,99,1,99,9,99,9,99999,9,99,9,99,9","10130,1,99999,9",,,,"MET048METAR SKSA 051700Z 06004KT 9999 NSC 32/22 Q1013=",
"80222599999","2023-12-05T18:00:00","4","6.95","-71.85","213.0","LOS COLONIZADORES, CO","FM-15","99999","V020","350,1,N,0015,1","22000,1,9,N","009999,1,9,9","+0320,1","+0220,1","99999,9",,,,"00,99,1,99,9,99,9,99999,9,99,9,99,9","10130,1,99999,9",,,,"MET048METAR SKSA 051800Z 35003KT 9999 NSC 32/22 Q1013=",
"80222599999","2023-12-05T19:00:00","4","6.95","-71.85","213.0","LOS COLONIZADORES, CO","FM-15","99999","V020","330,1,N,0041,1","99999,9,9,N","009999,1,9,9","+0320,1","+0220,1","99999,9","02,1,+01219,1,99,9",,"9,AGL   ,+99999,+99999","99,99,9,02,1,99,9,01219,1,99,9,99,9","10130,1,99999,9",,,,"MET051METAR SKSA 051900Z 33008KT 9999 FEW040 32/22 Q1013=",
"80222599999","2023-12-05T20:00:00","4","6.95","-71.85","213.0","LOS COLONIZADORES, CO","FM-15","99999","V020","330,1,N,0041,1","99999,9,9,N","009999,1,9,9","+0300,1","+0230,1","99999,9","02,1,+01524,1,99,9",,"9,AGL   ,+99999,+99999","99,99,9,02,1,99,9,01524,1,99,9,99,9","10100,1,99999,9",,,,"MET051METAR SKSA 052000Z 33008KT 9999 FEW050 30/23 Q1010=",
"80222599999","2023-12-05T22:00:00","4","6.95","-71.85","213.0","LOS COLONIZADORES, CO","FM-15","99999","V020","350,1,N,0021,1","22000,1,9,N","009999,1,9,9","+0300,1","+0230,1","99999,9",,,,"00,99,1,99,9,99,9,99999,9,99,9,99,9","10100,1,99999,9",,,,"MET048METAR SKSA 052200Z 35004KT 9999 NSC 30/23 Q1010=",
"80222599999","2023-12-05T23:00:00","4","6.95","-71.85","213.0","LOS COLONIZADORES, CO","FM-15","99999","V020","290,1,N,0015,1","22000,1,9,N","009999,1,9,9","+0270,1","+0230,1","99999,9",,,,"00,99,1,99,9,99,9,99999,9,99,9,99,9","10100,1,99999,9",,,,"MET048METAR SKSA 052300Z 29003KT 9999 NSC 27/23 Q1010=",
"80222599999","2023-12-06T11:00:00","4","6.95","-71.85","213.0","LOS COLONIZADORES, CO","FM-15","99999","V020","999,9,C,0000,1","22000,1,9,N","009999,1,9,9","+0220,1","+0190,1","99999,9",,,,"00,99,1,99,9,99,9,99999,9,99,9,99,9","10120,1,99999,9",,,,"MET048METAR SKSA 061100Z 00000KT 9999 NSC 22/19 Q1012=",
"80222599999","2023-12-06T12:00:00","4","6.95","-71.85","213.0","LOS COLONIZADORES, CO","FM-15","99999","V020","999,9,C,0000,1","22000,1,9,N","009999,1,9,9","+0250,1","+0190,1","99999,9",,,,"00,99,1,99,9,99,9,99999,9,99,9,99,9","10120,1,99999,9",,,,"MET048METAR SKSA 061200Z 00000KT 9999 NSC 25/19 Q1012=",
"80222599999","2023-12-06T14:00:00","4","6.95","-71.85","213.0","LOS COLONIZADORES, CO","FM-15","99999","V020","320,1,N,0015,1","22000,1,9,N","009999,1,9,9","+0300,1","+0210,1","99999,9",,,,"00,99,1,99,9,99,9,99999,9,99,9,99,9","10140,1,99999,9",,,,"MET048METAR SKSA 061400Z 32003KT 9999 NSC 30/21 Q1014=",
"80222599999","2023-12-06T15:00:00","4","6.95","-71.85","213.0","LOS COLONIZADORES, CO","FM-15","99999","V020","330,1,N,0026,1","22000,1,9,N","009999,1,9,9","+0320,1","+0200,1","99999,9",,,,"00,99,1,99,9,99,9,99999,9,99,9,99,9","10140,1,99999,9",,,,"MET048METAR SKSA 061500Z 33005KT 9999 NSC 32/20 Q1014=",
"80222599999","2023-12-06T16:00:00","4","6.95","-71.85","213.0","LOS COLONIZADORES, CO","FM-15","99999","V020","340,1,N,0015,1","22000,1,9,N","009999,1,9,9","+0320,1","+0200,1","99999,9",,,,"00,99,1,99,9,99,9,99999,9,99,9,99,9","10130,1,99999,9",,,,"MET048METAR SKSA 061600Z 34003KT 9999 NSC 32/20 Q1013=",
"80222599999","2023-12-06T17:00:00","4","6.95","-71.85","213.0","LOS COLONIZADORES, CO","FM-15","99999","V020","090,1,N,0015,1","99999,9,9,N","009999,1,9,9","+0310,1","+0200,1","99999,9","04,1,+01219,1,99,9",,"9,AGL   ,+99999,+99999","99,99,9,04,1,99,9,01219,1,99,9,99,9","10130,1,99999,9",,,,"MET051METAR SKSA 061700Z 09003KT 9999 SCT040 31/20 Q1013=",
"80222599999","2023-12-06T18:00:00","4","6.95","-71.85","213.0","LOS COLONIZADORES, CO","FM-15","99999","V020","030,1,N,0015,1","99999,9,9,N","009999,1,9,9","+0320,1","+0200,1","99999,9","02,1,+01219,1,99,9",,"9,AGL   ,+99999,+99999","99,99,9,02,1,99,9,01219,1,99,9,99,9","10100,1,99999,9",,,,"MET051METAR SKSA 061800Z 03003KT 9999 FEW040 32/20 Q1010=",
"80222599999","2023-12-06T19:00:00","4","6.95","-71.85","213.0","LOS COLONIZADORES, CO","FM-15","99999","V020","320,1,N,0026,1","99999,9,9,N","009999,1,9,9","+0340,1","+0210,1","99999,9","02,1,+01219,1,99,9",,"9,AGL   ,+99999,+99999","99,99,9,02,1,99,9,01219,1,99,9,99,9","10090,1,99999,9",,,,"MET051METAR SKSA 061900Z 32005KT 9999 FEW040 34/21 Q1009=",
"80222599999","2023-12-06T20:00:00","4","6.95","-71.85","213.0","LOS COLONIZADORES, CO","FM-15","99999","V020","999,9,C,0000,1","99999,9,9,N","009999,1,9,9","+0310,1","+0210,1","99999,9","02,1,+01219,1,99,9",,"9,AGL   ,+99999,+99999","99,99,9,02,1,99,9,01219,1,99,9,99,9","10090,1,99999,9",,,,"MET051METAR SKSA 062000Z 00000KT 9999 FEW040 31/21 Q1009=",
"80222599999","2023-12-06T22:00:00","4","6.95","-71.85","213.0","LOS COLONIZADORES, CO","FM-15","99999","V020","999,9,C,0000,1","22000,1,9,N","009999,1,9,9","+0270,1","+0210,1","99999,9",,,,"00,99,1,99,9,99,9,99999,9,99,9,99,9","10090,1,99999,9",,,,"MET048METAR SKSA 062200Z 00000KT 9999 NSC 27/21 Q1009=",
"80222599999","2023-12-07T11:00:00","4","6.95","-71.85","213.0","LOS COLONIZADORES, CO","FM-15","99999","V020","300,1,N,0015,1","22000,1,9,N","009999,1,9,9","+0230,1","+0190,1","99999,9",,,,"00,99,1,99,9,99,9,99999,9,99,9,99,9","10120,1,99999,9",,,,"MET048METAR SKSA 071100Z 30003KT 9999 NSC 23/19 Q1012=",
"80222599999","2023-12-07T13:00:00","4","6.95","-71.85","213.0","LOS COLONIZADORES, CO","FM-15","99999","V020","999,9,C,0000,1","22000,1,9,N","009999,1,9,9","+0280,1","+0190,1","99999,9",,,,"00,99,1,99,9,99,9,99999,9,99,9,99,9","10120,1,99999,9",,,,"MET048METAR SKSA 071300Z 00000KT 9999 NSC 28/19 Q1012=",
"80222599999","2023-12-07T14:00:00","4","6.95","-71.85","213.0","LOS COLONIZADORES, CO","FM-15","99999","V020","300,1,N,0021,1","22000,1,9,N","009999,1,9,9","+0300,1","+0190,1","99999,9",,,,"00,99,1,99,9,99,9,99999,9,99,9,99,9","10130,1,99999,9",,,,"MET048METAR SKSA 071400Z 30004KT 9999 NSC 30/19 Q1013=",
"80222599999","2023-12-07T15:00:00","4","6.95","-71.85","213.0","LOS COLONIZADORES, CO","FM-15","99999","V020","040,1,N,0026,1","22000,1,9,N","009999,1,9,9","+0310,1","+0200,1","99999,9",,,,"00,99,1,99,9,99,9,99999,9,99,9,99,9","10130,1,99999,9",,,,"MET048METAR SKSA 071500Z 04005KT 9999 NSC 31/20 Q1013=",
"80222599999","2023-12-07T16:00:00","4","6.95","-71.85","213.0","LOS COLONIZADORES, CO","FM-15","99999","V020","060,1,N,0031,1","22000,1,9,N","009999,1,9,9","+0320,1","+0210,1","99999,9",,,,"00,99,1,99,9,99,9,99999,9,99,9,99,9","10130,1,99999,9",,,,"MET048METAR SKSA 071600Z 06006KT 9999 NSC 32/21 Q1013=",
"80222599999","2023-12-07T18:00:00","4","6.95","-71.85","213.0","LOS COLONIZADORES, CO","FM-15","99999","V020","070,1,N,0015,1","99999,9,9,N","009999,1,9,9","+0320,1","+0210,1","99999,9","02,1,+01219,1,99,9",,"9,AGL   ,+99999,+99999","99,99,9,02,1,99,9,01219,1,99,9,99,9","10100,1,99999,9",,,,"MET051METAR SKSA 071800Z 07003KT 9999 FEW040 32/21 Q1010=",
"80222599999","2023-12-07T19:00:00","4","6.95","-71.85","213.0","LOS COLONIZADORES, CO","FM-15","99999","V020","120,1,N,0015,1","22000,1,9,N","009999,1,9,9","+0320,1","+0210,1","99999,9",,,,"00,99,1,99,9,99,9,99999,9,99,9,99,9","10100,1,99999,9",,,,"MET048METAR SKSA 071900Z 12003KT 9999 NSC 32/21 Q1010=",
"80222599999","2023-12-07T20:00:00","4","6.95","-71.85","213.0","LOS COLONIZADORES, CO","FM-15","99999","V020","080,1,N,0021,1","22000,1,9,N","009999,1,9,9","+0320,1","+0210,1","99999,9",,,,"00,99,1,99,9,99,9,99999,9,99,9,99,9","10090,1,99999,9",,,,"MET048METAR SKSA 072000Z 08004KT 9999 NSC 32/21 Q1009=",
"80222599999","2023-12-07T20:10:00","4","6.95","-71.85","213.0","LOS COLONIZADORES, CO","FM-15","99999","V020","080,1,N,0021,1","22000,1,9,N","009999,1,9,9","+0320,1","+0210,1","99999,9",,,,"00,99,1,99,9,99,9,99999,9,99,9,99,9","10090,1,99999,9",,,,"MET048METAR SKSA 072010Z 08004KT 9999 NSC 32/21 Q1009=",
"80222599999","2023-12-07T23:00:00","4","6.95","-71.85","213.0","LOS COLONIZADORES, CO","FM-15","99999","V020","200,1,N,0015,1","22000,1,9,N","009999,1,9,9","+0250,1","+0220,1","99999,9",,,,"00,99,1,99,9,99,9,99999,9,99,9,99,9","10100,1,99999,9",,,,"MET048METAR SKSA 072300Z 20003KT 9999 NSC 25/22 Q1010=",
"80222599999","2023-12-08T11:00:00","4","6.95","-71.85","213.0","LOS COLONIZADORES, CO","FM-15","99999","V020","290,1,N,0015,1","99999,9,9,N","009999,1,9,9","+0220,1","+0110,1","99999,9","04,1,+01219,1,99,9",,"9,AGL   ,+99999,+99999","99,99,9,04,1,99,9,01219,1,99,9,99,9","10120,1,99999,9",,,,"MET051METAR SKSA 081100Z 29003KT 9999 SCT040 22/11 Q1012=",
"80222599999","2023-12-08T13:00:00","4","6.95","-71.85","213.0","LOS COLONIZADORES, CO","FM-15","99999","V020","320,1,N,0015,1","99999,9,9,N","009999,1,9,9","+0270,1","+0220,2","99999,9","04,1,+01219,1,99,9",,"9,AGL   ,+99999,+99999","99,99,9,04,1,99,9,01219,1,99,9,99,9","10140,1,99999,9",,,,"MET051METAR SKSA 081300Z 32003KT 9999 SCT040 27/22 Q1014=",
"80222599999","2023-12-08T14:00:00","4","6.95","-71.85","213.0","LOS COLONIZADORES, CO","FM-15","99999","V020","340,1,N,0015,1","99999,9,9,N","009999,1,9,9","+0280,1","+0220,1","99999,9","02,1,+01524,1,99,9",,"9,AGL   ,+99999,+99999","99,99,9,02,1,99,9,01524,1,99,9,99,9","10140,1,99999,9",,,,"MET051METAR SKSA 081400Z 34003KT 9999 FEW050 28/22 Q1014=",
"80222599999","2023-12-08T16:00:00","4","6.95","-71.85","213.0","LOS COLONIZADORES, CO","FM-15","99999","V020","320,1,N,0015,1","99999,9,9,N","009999,1,9,9","+0290,1","+0220,1","99999,9","02,1,+01524,1,99,9",,"9,AGL   ,+99999,+99999","99,99,9,02,1,99,9,01524,1,99,9,99,9","10140,1,99999,9",,,,"MET051METAR SKSA 081600Z 32003KT 9999 FEW050 29/22 Q1014=",
"80222599999","2023-12-08T17:00:00","4","6.95","-71.85","213.0","LOS COLONIZADORES, CO","FM-15","99999","V020","999,9,C,0000,1","01219,1,C,N","009999,1,9,9","+0280,1","+0240,1","99999,9","07,1,+01219,1,99,9",,"9,AGL   ,+99999,+99999","99,99,9,07,1,99,9,01219,1,99,9,99,9","10130,1,99999,9",,,,"MET051METAR SKSA 081700Z 00000KT 9999 BKN040 28/24 Q1013=",
"80222599999","2023-12-08T18:00:00","4","6.95","-71.85","213.0","LOS COLONIZADORES, CO","FM-15","99999","V020","330,1,N,0021,1","01524,1,C,N","009999,1,9,9","+0290,1","+0220,1","99999,9","07,1,+01524,1,99,9",,"9,AGL   ,+99999,+99999","99,99,9,07,1,99,9,01524,1,99,9,99,9","10120,1,99999,9",,,,"MET051METAR SKSA 081800Z 33004KT 9999 BKN050 29/22 Q1012=",
"80222599999","2023-12-08T19:00:00","4","6.95","-71.85","213.0","LOS COLONIZADORES, CO","FM-15","99999","V020","999,9,C,0000,1","01524,1,C,N","009999,1,9,9","+0300,1","+0230,1","99999,9","07,1,+01524,1,99,9",,"9,AGL   ,+99999,+99999","99,99,9,07,1,99,9,01524,1,99,9,99,9","10100,1,99999,9",,,,"MET051METAR SKSA 081900Z 00000KT 9999 BKN050 30/23 Q1010=",
"80222599999","2023-12-08T20:00:00","4","6.95","-71.85","213.0","LOS COLONIZADORES, CO","FM-15","99999","V020","999,9,C,0000,1","99999,9,9,N","009999,1,9,9","+0280,1","+0230,1","99999,9","04,1,+01524,1,99,9",,"9,AGL   ,+99999,+99999","99,99,9,04,1,99,9,01524,1,99,9,99,9","10090,1,99999,9",,,,"MET051METAR SKSA 082000Z 00000KT 9999 SCT050 28/23 Q1009=",
"80222599999","2023-12-08T21:00:00","4","6.95","-71.85","213.0","LOS COLONIZADORES, CO","FM-15","99999","V020","010,1,N,0021,1","99999,9,9,N","009999,1,9,9","+0280,1","+0230,1","99999,9","04,1,+02134,1,99,9",,"9,AGL   ,+99999,+99999","99,99,9,04,1,99,9,02134,1,99,9,99,9","10090,1,99999,9",,,,"MET051METAR SKSA 082100Z 01004KT 9999 SCT070 28/23 Q1009=",
"80222599999","2023-12-08T23:00:00","4","6.95","-71.85","213.0","LOS COLONIZADORES, CO","FM-15","99999","V020","999,9,C,0000,1","99999,9,9,N","009999,1,9,9","+0250,1","+0230,1","99999,9","04,1,+02134,1,99,9",,"9,AGL   ,+99999,+99999","99,99,9,04,1,99,9,02134,1,99,9,99,9","10090,1,99999,9",,,,"MET051METAR SKSA 082300Z 00000KT 9999 SCT070 25/23 Q1009=",
"80222599999","2023-12-09T11:00:00","4","6.95","-71.85","213.0","LOS COLONIZADORES, CO","FM-15","99999","V020","310,1,N,0015,1","00610,1,C,N","005000,1,9,9","+0220,1","+0220,1","99999,9","08,1,+00610,1,99,9",,"9,AGL   ,+99999,+99999","99,99,9,08,1,99,9,00610,1,99,9,99,9","10120,1,99999,9","63,1",,,"MET054METAR SKSA 091100Z 31003KT 5000 RA OVC020 22/22 Q1012=",
"80222599999","2023-12-09T13:00:00","4","6.95","-71.85","213.0","LOS COLONIZADORES, CO","FM-15","99999","V020","280,1,N,0015,1","00914,1,C,N","007000,1,9,9","+0250,1","+0230,1","99999,9","08,1,+00914,1,99,9",,"9,AGL   ,+99999,+99999","99,99,9,08,1,99,9,00914,1,99,9,99,9","10140,1,99999,9",,,,"MET051METAR SKSA 091300Z 28003KT 7000 OVC030 25/23 Q1014=",
"80222599999","2023-12-09T16:00:00","4","6.95","-71.85","213.0","LOS COLONIZADORES, CO","FM-15","99999","V020","280,1,N,0015,1","00914,1,C,N","007000,1,9,9","+0250,1","+0230,1","99999,9","08,1,+00914,1,99,9",,"9,AGL   ,+99999,+99999","99,99,9,08,1,99,9,00914,1,99,9,99,9","10140,1,99999,9",,,,"MET051METAR SKSA 091600Z 28003KT 7000 OVC030 25/23 Q1014=",
"80222599999","2023-12-09T18:00:00","4","6.95","-71.85","213.0","LOS COLONIZADORES, CO","FM-15","99999","V020","340,1,N,0015,1","99999,9,9,N","009999,1,9,9","+0300,1","+0230,1","99999,9","04,1,+01219,1,99,9",,"9,AGL   ,+99999,+99999","99,99,9,04,1,99,9,01219,1,99,9,99,9","10140,1,99999,9",,,,"MET051METAR SKSA 091800Z 34003KT 9999 SCT040 30/23 Q1014=",
"80222599999","2023-12-09T19:00:00","4","6.95","-71.85","213.0","LOS COLONIZADORES, CO","FM-15","99999","V020","010,1,N,0026,1","99999,9,9,N","009999,1,9,9","+0290,1","+0230,1","99999,9","02,1,+01219,1,99,9",,"9,AGL   ,+99999,+99999","99,99,9,02,1,99,9,01219,1,99,9,99,9","10100,1,99999,9",,,,"MET051METAR SKSA 091900Z 01005KT 9999 FEW040 29/23 Q1010=",
"80222599999","2023-12-09T20:00:00","4","6.95","-71.85","213.0","LOS COLONIZADORES, CO","FM-15","99999","V020","350,1,N,0015,1","99999,9,9,N","009999,1,9,9","+0300,1","+0230,1","99999,9","04,1,+01524,1,99,9",,"9,AGL   ,+99999,+99999","99,99,9,04,1,99,9,01524,1,99,9,99,9","10100,1,99999,9",,,,"MET051METAR SKSA 092000Z 35003KT 9999 SCT050 30/23 Q1010=",
"80222599999","2023-12-09T21:00:00","4","6.95","-71.85","213.0","LOS COLONIZADORES, CO","FM-15","99999","V020","999,9,C,0000,1","99999,9,9,N","009999,1,9,9","+0300,1","+0230,1","99999,9","04,1,+01524,1,99,9",,"9,AGL   ,+99999,+99999","99,99,9,04,1,99,9,01524,1,99,9,99,9","10100,1,99999,9",,,,"MET051METAR SKSA 092100Z 00000KT 9999 SCT050 30/23 Q1010=",
"80222599999","2023-12-09T22:00:00","4","6.95","-71.85","213.0","LOS COLONIZADORES, CO","FM-15","99999","V020","999,9,C,0000,1","22000,1,9,N","009999,1,9,9","+0270,1","+0230,1","99999,9",,,,"00,99,1,99,9,99,9,99999,9,99,9,99,9","10100,1,99999,9",,,,"MET048METAR SKSA 092200Z 00000KT 9999 NSC 27/23 Q1010=",
"80222599999","2023-12-09T23:00:00","4","6.95","-71.85","213.0","LOS COLONIZADORES, CO","FM-15","99999","V020","999,9,C,0000,1","22000,1,9,N","009999,1,9,9","+0250,1","+0250,1","99999,9",,,,"00,99,1,99,9,99,9,99999,9,99,9,99,9","10090,1,99999,9",,,,"MET048METAR SKSA 092300Z 00000KT 9999 NSC 25/25 Q1009=",
"80222599999","2023-12-10T11:00:00","4","6.95","-71.85","213.0","LOS COLONIZADORES, CO","FM-15","99999","V020","300,1,N,0026,1","00610,1,C,N","009999,1,9,9","+0230,1","+0230,1","99999,9","08,1,+00610,1,99,9",,"9,AGL   ,+99999,+99999","99,99,9,08,1,99,9,00610,1,99,9,99,9","10120,1,99999,9",,,,"MET051METAR SKSA 101100Z 30005KT 9999 OVC020 23/23 Q1012=",
"80222599999","2023-12-10T14:00:00","4","6.95","-71.85","213.0","LOS COLONIZADORES, CO","FM-15","99999","V020","240,1,N,0015,1","22000,1,9,N","009999,1,9,9","+0280,1","+0230,1","99999,9",,,,"00,99,1,99,9,99,9,99999,9,99,9,99,9","10120,1,99999,9",,,,"MET048METAR SKSA 101400Z 24003KT 9999 NSC 28/23 Q1012=",
"80222599999","2023-12-10T15:00:00","4","6.95","-71.85","213.0","LOS COLONIZADORES, CO","FM-15","99999","V020","230,1,N,0021,1","22000,1,9,N","009999,1,9,9","+0290,1","+0240,1","99999,9",,,,"00,99,1,99,9,99,9,99999,9,99,9,99,9","10140,1,99999,9",,,,"MET048METAR SKSA 101500Z 23004KT 9999 NSC 29/24 Q1014=",
"80222599999","2023-12-10T16:00:00","4","6.95","-71.85","213.0","LOS COLONIZADORES, CO","FM-15","99999","V020","999,9,C,0000,1","99999,9,9,N","009999,1,9,9","+0300,1","+0240,1","99999,9","04,1,+01524,1,99,9",,"9,AGL   ,+99999,+99999","99,99,9,04,1,99,9,01524,1,99,9,99,9","10130,1,99999,9",,,,"MET051METAR SKSA 101600Z 00000KT 9999 SCT050 30/24 Q1013=",
"80222599999","2023-12-10T17:00:00","4","6.95","-71.85","213.0","LOS COLONIZADORES, CO","FM-15","99999","V020","350,1,N,0036,1","01219,1,C,N","009999,1,9,9","+0260,1","+0230,1","99999,9","07,1,+01219,1,99,9",,"9,AGL   ,+99999,+99999","99,99,9,07,1,99,9,01219,1,99,9,99,9","10120,1,99999,9",,,,"MET051METAR SKSA 101700Z 35007KT 9999 BKN040 26/23 Q1012=",
"80222599999","2023-12-10T18:00:00","4","6.95","-71.85","213.0","LOS COLONIZADORES, CO","FM-15","99999","V020","020,1,N,0026,1","01219,1,C,N","009999,1,9,9","+0260,1","+0230,1","99999,9","07,1,+01219,1,99,9",,"9,AGL   ,+99999,+99999","99,99,9,07,1,99,9,01219,1,99,9,99,9","10110,1,99999,9",,,,"MET051METAR SKSA 101800Z 02005KT 9999 BKN040 26/23 Q1011=",
"80222599999","2023-12-10T19:00:00","4","6.95","-71.85","213.0","LOS COLONIZADORES, CO","FM-15","99999","V020","030,1,N,0015,1","22000,1,9,N","009999,1,9,9","+0270,1","+0230,1","99999,9",,,,"00,99,1,99,9,99,9,99999,9,99,9,99,9","10110,1,99999,9",,,,"MET048METAR SKSA 101900Z 03003KT 9999 NSC 27/23 Q1011=",
"80222599999","2023-12-10T20:00:00","4","6.95","-71.85","213.0","LOS COLONIZADORES, CO","FM-15","99999","V020","320,1,N,0015,1","99999,9,9,N","009999,1,9,9","+0290,1","+0230,1","99999,9","02,1,+00610,1,99,9",,"9,AGL   ,+99999,+99999","99,99,9,02,1,99,9,00610,1,99,9,99,9","10110,1,99999,9",,,,"MET051METAR SKSA 102000Z 32003KT 9999 FEW020 29/23 Q1011=",
"80222599999","2023-12-10T21:00:00","4","6.95","-71.85","213.0","LOS COLONIZADORES, CO","FM-15","99999","V020","999,9,C,0000,1","22000,1,9,N","009999,1,9,9","+0290,1","+0230,1","99999,9",,,,"00,99,1,99,9,99,9,99999,9,99,9,99,9","10110,1,99999,9",,,,"MET048METAR SKSA 102100Z 00000KT 9999 NSC 29/23 Q1011=",
"80222599999","2023-12-10T22:00:00","4","6.95","-71.85","213.0","LOS COLONIZADORES, CO","FM-15","99999","V020","999,9,C,0000,1","99999,9,9,N","009999,1,9,9","+0280,1","+0230,1","99999,9","04,1,+02134,1,99,9",,"9,AGL   ,+99999,+99999","99,99,9,04,1,99,9,02134,1,99,9,99,9","10080,1,99999,9",,,,"MET051METAR SKSA 102200Z 00000KT 9999 SCT070 28/23 Q1008=",
"80222599999","2023-12-10T23:00:00","4","6.95","-71.85","213.0","LOS COLONIZADORES, CO","FM-15","99999","V020","270,1,N,0015,1","22000,1,9,N","009999,1,9,9","+0270,1","+0230,1","99999,9",,,,"00,99,1,99,9,99,9,99999,9,99,9,99,9","10080,1,99999,9",,,,"MET048METAR SKSA 102300Z 27003KT 9999 NSC 27/23 Q1008=",
"80222599999","2023-12-11T16:00:00","4","6.95","-71.85","213.0","LOS COLONIZADORES, CO","FM-15","99999","V020","999,9,C,0000,1","22000,1,9,N","009999,1,9,9","+0320,1","+0230,1","99999,9",,,,"00,99,1,99,9,99,9,99999,9,99,9,99,9","10120,1,99999,9",,,,"MET048METAR SKSA 111600Z 00000KT 9999 NSC 32/23 Q1012=",
"80222599999","2023-12-11T17:00:00","4","6.95","-71.85","213.0","LOS COLONIZADORES, CO","FM-15","99999","V020","010,1,N,0026,1","22000,1,9,N","009999,1,9,9","+0320,1","+0230,1","99999,9",,,,"00,99,1,99,9,99,9,99999,9,99,9,99,9","10100,1,99999,9",,,,"MET048METAR SKSA 111700Z 01005KT 9999 NSC 32/23 Q1010=",
"80222599999","2023-12-11T18:00:00","4","6.95","-71.85","213.0","LOS COLONIZADORES, CO","FM-15","99999","V020","320,1,N,0021,1","22000,1,9,N","009999,1,9,9","+0310,1","+0230,1","99999,9",,,,"00,99,1,99,9,99,9,99999,9,99,9,99,9","10090,1,99999,9",,,,"MET048METAR SKSA 111800Z 32004KT 9999 NSC 31/23 Q1009=",
"80222599999","2023-12-11T22:00:00","4","6.95","-71.85","213.0","LOS COLONIZADORES, CO","FM-15","99999","V020","330,1,N,0021,1","22000,1,9,N","009999,1,9,9","+0320,1","+0230,1","99999,9",,,,"00,99,1,99,9,99,9,99999,9,99,9,99,9","10090,1,99999,9",,,,"MET048METAR SKSA 112200Z 33004KT 9999 NSC 32/23 Q1009=",
"80222599999","2023-12-11T23:00:00","4","6.95","-71.85","213.0","LOS COLONIZADORES, CO","FM-15","99999","V020","999,9,C,0000,1","22000,1,9,N","009999,1,9,9","+0260,1","+0240,1","99999,9",,,,"00,99,1,99,9,99,9,99999,9,99,9,99,9","10080,1,99999,9",,,,"MET048METAR SKSA 112300Z 00000KT 9999 NSC 26/24 Q1008=",
"80222599999","2023-12-12T11:00:00","4","6.95","-71.85","213.0","LOS COLONIZADORES, CO","FM-15","99999","V020","999,9,C,0000,1","22000,1,9,N","009999,1,9,9","+0220,1","+0220,1","99999,9",,,,"00,99,1,99,9,99,9,99999,9,99,9,99,9","10110,1,99999,9",,,,"MET048METAR SKSA 121100Z 00000KT 9999 NSC 22/22 Q1011=",
"80222599999","2023-12-12T12:00:00","4","6.95","-71.85","213.0","LOS COLONIZADORES, CO","FM-15","99999","V020","999,9,C,0000,1","22000,1,9,N","009999,1,9,9","+0250,1","+0220,1","99999,9",,,,"00,99,1,99,9,99,9,99999,9,99,9,99,9","10110,1,99999,9",,,,"MET048METAR SKSA 121200Z 00000KT 9999 NSC 25/22 Q1011=",
"80222599999","2023-12-12T15:00:00","4","6.95","-71.85","213.0","LOS COLONIZADORES, CO","FM-15","99999","V020","330,1,N,0021,1","22000,1,9,N","009999,1,9,9","+0320,1","+0220,1","99999,9",,,,"00,99,1,99,9,99,9,99999,9,99,9,99,9","10130,1,99999,9",,,,"MET048METAR SKSA 121500Z 33004KT 9999 NSC 32/22 Q1013=",
"80222599999","2023-12-12T19:00:00","4","6.95","-71.85","213.0","LOS COLONIZADORES, CO","FM-15","99999","V020","999,9,C,0000,1","22000,1,9,N","009999,1,9,9","+0320,1","+0220,1","99999,9",,,,"00,99,1,99,9,99,9,99999,9,99,9,99,9","10080,1,99999,9",,,,"MET048METAR SKSA 121900Z 00000KT 9999 NSC 32/22 Q1008=",
"80222599999","2023-12-12T20:00:00","4","6.95","-71.85","213.0","LOS COLONIZADORES, CO","FM-15","99999","V020","350,1,N,0021,1","22000,1,9,N","009999,1,9,9","+0320,1","+0220,1","99999,9",,,,"00,99,1,99,9,99,9,99999,9,99,9,99,9","10080,1,99999,9",,,,"MET048METAR SKSA 122000Z 35004KT 9999 NSC 32/22 Q1008=",
"80222599999","2023-12-12T23:00:00","4","6.95","-71.85","213.0","LOS COLONIZADORES, CO","FM-15","99999","V020","240,1,N,0015,1","22000,1,9,N","009999,1,9,9","+0270,1","+0240,1","99999,9",,,,"00,99,1,99,9,99,9,99999,9,99,9,99,9","10080,1,99999,9",,,,"MET048METAR SKSA 122300Z 24003KT 9999 NSC 27/24 Q1008=",
"80222599999","2023-12-13T11:00:00","4","6.95","-71.85","213.0","LOS COLONIZADORES, CO","FM-15","99999","V020","999,9,C,0000,1","22000,1,9,N","009999,1,9,9","+0240,1","+0180,1","99999,9",,,,"00,99,1,99,9,99,9,99999,9,99,9,99,9","10090,1,99999,9",,,,"MET048METAR SKSA 131100Z 00000KT 9999 NSC 24/18 Q1009=",
"80222599999","2023-12-13T13:00:00","4","6.95","-71.85","213.0","LOS COLONIZADORES, CO","FM-15","99999","V020","999,9,C,0000,1","99999,9,9,N","009999,1,9,9","+0270,1","+0200,1","99999,9","04,1,+02438,1,99,9",,"9,AGL   ,+99999,+99999","99,99,9,04,1,99,9,02438,1,99,9,99,9","10110,1,99999,9",,,,"MET051METAR SKSA 131300Z 00000KT 9999 SCT080 27/20 Q1011=",
"80222599999","2023-12-13T14:00:00","4","6.95","-71.85","213.0","LOS COLONIZADORES, CO","FM-15","99999","V020","330,1,N,0021,1","99999,9,9,N","009999,1,9,9","+0250,1","+0210,1","99999,9","04,1,+02438,1,99,9",,"9,AGL   ,+99999,+99999","99,99,9,04,1,99,9,02438,1,99,9,99,9","10110,1,99999,9",,,,"MET051METAR SKSA 131400Z 33004KT 9999 SCT080 25/21 Q1011=",
"80222599999","2023-12-13T15:00:00","4","6.95","-71.85","213.0","LOS COLONIZADORES, CO","FM-15","99999","V020","010,1,N,0021,1","99999,9,9,N","009999,1,9,9","+0300,1","+0210,1","99999,9","02,1,+02134,1,99,9",,"9,AGL   ,+99999,+99999","99,99,9,02,1,99,9,02134,1,99,9,99,9","10120,1,99999,9",,,,"MET051METAR SKSA 131500Z 01004KT 9999 FEW070 30/21 Q1012=",
"80222599999","2023-12-13T16:00:00","4","6.95","-71.85","213.0","LOS COLONIZADORES, CO","FM-15","99999","V020","060,1,N,0015,1","22000,1,9,N","009999,1,9,9","+0300,1","+0210,1","99999,9",,,,"00,99,1,99,9,99,9,99999,9,99,9,99,9","10110,1,99999,9",,,,"MET048METAR SKSA 131600Z 06003KT 9999 NSC 30/21 Q1011=",
"80222599999","2023-12-13T17:00:00","4","6.95","-71.85","213.0","LOS COLONIZADORES, CO","FM-15","99999","V020","320,1,N,0015,1","99999,9,9,N","999999,9,9,9","+0320,1","+0230,1","99999,9","04,1,+01219,1,99,9",,"9,AGL   ,+99999,+99999","99,99,9,04,1,99,9,01219,1,99,9,99,9","10090,1,99999,9",,,,"MET046METAR SKSA 131700Z 32003KT SCT040 32/23 Q1009=",
"80222599999","2023-12-13T19:00:00","4","6.95","-71.85","213.0","LOS COLONIZADORES, CO","FM-15","99999","V020","999,9,N,9999,9","99999,9,9,N","009999,1,9,9","+0300,5","+0230,5","99999,9",,,,,"10080,5,99999,9",,,,"MET051METAR SKSA 131900Z 9999 01003KT SCT040 30/23 Q1008=","D01      0ADE693D02      0ADE539"
"80222599999","2023-12-13T20:00:00","4","6.95","-71.85","213.0","LOS COLONIZADORES, CO","FM-15","99999","V020","320,1,N,0036,1","99999,9,9,N","009999,1,9,9","+0310,1","+0240,1","99999,9","04,1,+01219,1,99,9",,"9,AGL   ,+99999,+99999","99,99,9,04,1,99,9,01219,1,99,9,99,9","10070,1,99999,9",,,,"MET051METAR SKSA 132000Z 32007KT 9999 SCT040 31/24 Q1007=",
"80222599999","2023-12-13T21:00:00","4","6.95","-71.85","213.0","LOS COLONIZADORES, CO","FM-15","99999","V020","300,1,N,0021,1","99999,9,9,N","009999,1,9,9","+0310,1","+0240,1","99999,9","02,1,+01219,1,99,9",,"9,AGL   ,+99999,+99999","99,99,9,02,1,99,9,01219,1,99,9,99,9","10060,1,99999,9",,,,"MET051METAR SKSA 132100Z 30004KT 9999 FEW040 31/24 Q1006=",
"80222599999","2023-12-13T22:00:00","4","6.95","-71.85","213.0","LOS COLONIZADORES, CO","FM-15","99999","V020","999,9,V,0010,1","22000,1,9,N","009999,1,9,9","+0290,1","+0240,1","99999,9",,,,"00,99,1,99,9,99,9,99999,9,99,9,99,9","10060,1,99999,9",,,,"MET048METAR SKSA 132200Z VRB02KT 9999 NSC 29/24 Q1006=",
"80222599999","2023-12-13T23:00:00","4","6.95","-71.85","213.0","LOS COLONIZADORES, CO","FM-15","99999","V020","999,9,V,0010,1","22000,1,9,N","009999,1,9,9","+0260,1","+0240,1","99999,9",,,,"00,99,1,99,9,99,9,99999,9,99,9,99,9","10070,1,99999,9",,,,"MET048METAR SKSA 132300Z VRB02KT 9999 NSC 26/24 Q1007=",
"80222599999","2023-12-14T11:00:00","4","6.95","-71.85","213.0","LOS COLONIZADORES, CO","FM-15","99999","V020","310,1,N,0015,1","22000,1,9,N","009999,1,9,9","+0230,1","+0210,1","99999,9",,,,"00,99,1,99,9,99,9,99999,9,99,9,99,9","10090,1,99999,9",,,,"MET048METAR SKSA 141100Z 31003KT 9999 NSC 23/21 Q1009=",
"80222599999","2023-12-14T12:00:00","4","6.95","-71.85","213.0","LOS COLONIZADORES, CO","FM-15","99999","V020","999,9,V,0010,1","22000,1,9,N","009999,1,9,9","+0240,1","+0210,1","99999,9",,,,"00,99,1,99,9,99,9,99999,9,99,9,99,9","10090,1,99999,9",,,,"MET048METAR SKSA 141200Z VRB02KT 9999 NSC 24/21 Q1009=",
"80222599999","2023-12-14T13:00:00","4","6.95","-71.85","213.0","LOS COLONIZADORES, CO","FM-15","99999","V020","080,1,N,0046,1","99999,9,9,N","009999,1,9,9","+0260,1","+0230,1","99999,9","04,1,+01372,1,99,9",,"9,AGL   ,+99999,+99999","99,99,9,04,1,99,9,01372,1,99,9,99,9","10090,1,99999,9","16,1",,,"MET067METAR SKSA 141300Z 08009KT 9999 VCSH SCT045 26/23 Q1009 RMK VCSH W=",
"80222599999","2023-12-14T14:00:00","4","6.95","-71.85","213.0","LOS COLONIZADORES, CO","FM-15","99999","V020","030,1,N,0015,1","99999,9,9,N","009999,1,9,9","+0270,1","+0220,1","99999,9","04,1,+01372,1,99,9",,"9,AGL   ,+99999,+99999","99,99,9,04,1,99,9,01372,1,99,9,99,9","10110,1,99999,9","16,1",,,"MET067METAR SKSA 141400Z 03003KT 9999 VCSH SCT045 27/22 Q1011 RMK VCSH W=",
"80222599999","2023-12-14T15:00:00","4","6.95","-71.85","213.0","LOS COLONIZADORES, CO","FM-15","99999","V020","999,9,V,0010,1","01219,1,C,N","009999,1,9,9","+0280,1","+0220,1","99999,9","07,1,+01219,1,99,9",,"9,AGL   ,+99999,+99999","99,99,9,07,1,99,9,01219,1,99,9,99,9","10110,1,99999,9","16,1",,,"MET067METAR SKSA 141500Z VRB02KT 9999 VCSH BKN040 28/22 Q1011 RMK VCSH W=",
"80222599999","2023-12-14T16:00:00","4","6.95","-71.85","213.0","LOS COLONIZADORES, CO","FM-15","99999","V020","270,1,N,0021,1","00914,1,C,N","009999,1,9,9","+0280,1","+0220,1","99999,9","07,1,+00914,1,99,9",,"9,AGL   ,+99999,+99999","99,99,9,07,1,99,9,00914,1,99,9,99,9","10100,1,99999,9","16,1",,,"MET068METAR SKSA 141600Z 27004KT 9999 VCSH BKN030 28/22 Q1010 RMK VCSH NW=",
"80222599999","2023-12-14T17:00:00","4","6.95","-71.85","213.0","LOS COLONIZADORES, CO","FM-15","99999","V020","270,1,N,0021,1","99999,9,9,N","009999,1,9,9","+0280,1","+0220,1","99999,9","04,1,+00914,1,99,9",,"9,AGL   ,+99999,+99999","99,99,9,04,1,99,9,00914,1,99,9,99,9","10100,1,99999,9",,,,"MET051METAR SKSA 141700Z 27004KT 9999 SCT030 28/22 Q1010=",
"80222599999","2023-12-14T19:00:00","4","6.95","-71.85","213.0","LOS COLONIZADORES, CO","FM-15","99999","V020","999,9,V,0010,1","99999,9,9,N","009999,1,9,9","+0320,1","+0230,1","99999,9","02,1,+00914,1,99,9",,"9,AGL   ,+99999,+99999","99,99,9,02,1,99,9,00914,1,99,9,99,9","10070,1,99999,9",,,,"MET051METAR SKSA 141900Z VRB02KT 9999 FEW030 32/23 Q1007=",
"80222599999","2023-12-14T20:00:00","4","6.95","-71.85","213.0","LOS COLONIZADORES, CO","FM-15","99999","V020","999,9,V,0010,1","99999,9,9,N","009999,1,9,9","+0310,1","+0220,1","99999,9","02,1,+00914,1,99,9",,"9,AGL   ,+99999,+99999","99,99,9,02,1,99,9,00914,1,99,9,99,9","10060,1,99999,9",,,,"MET051METAR SKSA 142000Z VRB02KT 9999 FEW030 31/22 Q1006=",
"80222599999","2023-12-14T22:00:00","4","6.95","-71.85","213.0","LOS COLONIZADORES, CO","FM-15","99999","V020","999,9,V,0010,1","22000,1,9,N","009999,1,9,9","+0290,1","+0230,1","99999,9",,,,"00,99,1,99,9,99,9,99999,9,99,9,99,9","10050,1,99999,9",,,,"MET048METAR SKSA 142200Z VRB02KT 9999 NSC 29/23 Q1005=",
"80222599999","2023-12-14T23:00:00","4","6.95","-71.85","213.0","LOS COLONIZADORES, CO","FM-15","99999","V020","999,9,V,0010,1","22000,1,9,N","009999,1,9,9","+0260,1","+0240,1","99999,9",,,,"00,99,1,99,9,99,9,99999,9,99,9,99,9","10050,1,99999,9",,,,"MET048METAR SKSA 142300Z VRB02KT 9999 NSC 26/24 Q1005=",
"80222599999","2023-12-15T11:00:00","4","6.95","-71.85","213.0","LOS COLONIZADORES, CO","FM-15","99999","V020","310,1,N,0015,1","99999,9,9,N","009999,1,9,9","+0230,1","+0210,1","99999,9","04,1,+02743,1,99,9",,"9,AGL   ,+99999,+99999","99,99,9,04,1,99,9,02743,1,99,9,99,9","10080,1,99999,9",,,,"MET051METAR SKSA 151100Z 31003KT 9999 SCT090 23/21 Q1008=",
"80222599999","2023-12-15T12:00:00","4","6.95","-71.85","213.0","LOS COLONIZADORES, CO","FM-15","99999","V020","999,9,V,0010,1","99999,9,9,N","009999,1,9,9","+0250,1","+0230,1","99999,9","04,1,+02743,1,99,9",,"9,AGL   ,+99999,+99999","99,99,9,04,1,99,9,02743,1,99,9,99,9","10090,1,99999,9","16,1",,,"MET068METAR SKSA 151200Z VRB02KT 9999 VCSH SCT090 25/23 Q1009 RMK VCSH NW=",
"80222599999","2023-12-15T13:00:00","4","6.95","-71.85","213.0","LOS COLONIZADORES, CO","FM-15","99999","V020","999,9,V,0010,1","99999,9,9,N","009999,1,9,9","+0270,1","+0230,1","99999,9","04,1,+02743,1,99,9",,"9,AGL   ,+99999,+99999","99,99,9,04,1,99,9,02743,1,99,9,99,9","10100,1,99999,9","16,1",,,"MET068METAR SKSA 151300Z VRB02KT 9999 VCSH SCT090 27/23 Q1010 RMK VCSH NW=",
"80222599999","2023-12-15T14:00:00","4","6.95","-71.85","213.0","LOS COLONIZADORES, CO","FM-15","99999","V020","999,9,V,0010,1","99999,9,9,N","009999,1,9,9","+0280,1","+0240,1","99999,9","04,1,+01372,1,99,9",,"9,AGL   ,+99999,+99999","99,99,9,04,1,99,9,01372,1,99,9,99,9","10110,1,99999,9","16,1",,,"MET068METAR SKSA 151400Z VRB02KT 9999 VCSH SCT045 28/24 Q1011 RMK VCSH NW=",
"80222599999","2023-12-15T15:00:00","4","6.95","-71.85","213.0","LOS COLONIZADORES, CO","FM-15","99999","V020","999,9,V,0010,1","99999,9,9,N","009999,1,9,9","+0300,1","+0230,1","99999,9","04,1,+02743,1,99,9",,"9,AGL   ,+99999,+99999","99,99,9,04,1,99,9,02743,1,99,9,99,9","10110,1,99999,9","16,1",,,"MET067METAR SKSA 151500Z VRB02KT 9999 VCSH SCT090 30/23 Q1011 RMK VCSH W=",
"80222599999","2023-12-15T16:00:00","4","6.95","-71.85","213.0","LOS COLONIZADORES, CO","FM-15","99999","V020","050,1,N,0026,1","99999,9,9,N","009999,1,9,9","+0300,1","+0230,1","99999,9","04,1,+02743,1,99,9",,"9,AGL   ,+99999,+99999","99,99,9,04,1,99,9,02743,1,99,9,99,9","10100,1,99999,9","16,1",,,"MET070METAR SKSA 151600Z 05005KT 9999 VCSH SCT090 30/23 Q1010 RMK VCSH SW W=",
"80222599999","2023-12-15T17:00:00","4","6.95","-71.85","213.0","LOS COLONIZADORES, CO","FM-15","99999","V020","290,1,N,0021,1","99999,9,9,N","009999,1,9,9","+0290,1","+0230,1","99999,9","04,1,+02743,1,99,9",,"9,AGL   ,+99999,+99999","99,99,9,04,1,99,9,02743,1,99,9,99,9","10100,1,99999,9","16,1",,,"MET070METAR SKSA 151700Z 29004KT 9999 VCSH SCT090 29/23 Q1010 RMK VCSH S SW=",
"80222599999","2023-12-15T18:00:00","4","6.95","-71.85","213.0","LOS COLONIZADORES, CO","FM-15","99999","V020","290,1,N,0015,1","99999,9,9,N","009999,1,9,9","+0300,1","+0230,1","99999,9","04,1,+02743,1,99,9",,"9,AGL   ,+99999,+99999","99,99,9,04,1,99,9,02743,1,99,9,99,9","10090,1,99999,9","16,1",,,"MET068METAR SKSA 151800Z 29003KT 9999 VCSH SCT090 30/23 Q1009 RMK VCSH NW=",
"80222599999","2023-12-15T19:00:00","4","6.95","-71.85","213.0","LOS COLONIZADORES, CO","FM-15","99999","V020","030,1,N,0021,1","99999,9,9,N","009999,1,9,9","+0310,1","+0230,1","99999,9","04,1,+02743,1,99,9",,"9,AGL   ,+99999,+99999","99,99,9,04,1,99,9,02743,1,99,9,99,9","10070,1,99999,9",,,,"MET051METAR SKSA 151900Z 03004KT 9999 SCT090 31/23 Q1007=",
"80222599999","2023-12-15T20:00:00","4","6.95","-71.85","213.0","LOS COLONIZADORES, CO","FM-15","99999","V020","320,1,N,0021,1","02591,1,C,N","009999,1,9,9","+0290,1","+0230,1","99999,9","07,1,+02591,1,99,9",,"9,AGL   ,+99999,+99999","99,99,9,07,1,99,9,02591,1,99,9,99,9","10070,1,99999,9","10,1",,,"MET054METAR SKSA 152000Z 32004KT 9999 BR BKN085 29/23 Q1007=",
"80222599999","2023-12-15T21:00:00","4","6.95","-71.85","213.0","LOS COLONIZADORES, CO","FM-15","99999","V020","320,1,N,0021,1","02591,1,C,N","009999,1,9,9","+0290,1","+0230,1","99999,9","07,1,+02591,1,99,9",,"9,AGL   ,+99999,+99999","99,99,9,07,1,99,9,02591,1,99,9,99,9","10070,1,99999,9","10,1",,,"MET054METAR SKSA 152100Z 32004KT 9999 BR BKN085 29/23 Q1007=",
"80222599999","2023-12-15T22:00:00","4","6.95","-71.85","213.0","LOS COLONIZADORES, CO","FM-15","99999","V020","310,1,N,0015,1","99999,9,9,N","009999,1,9,9","+0280,1","+0230,1","99999,9","04,1,+02743,1,99,9",,"9,AGL   ,+99999,+99999","99,99,9,04,1,99,9,02743,1,99,9,99,9","10060,1,99999,9","10,1",,,"MET054METAR SKSA 152200Z 31003KT 9999 BR SCT090 28/23 Q1006=",
"80222599999","2023-12-15T23:00:00","4","6.95","-71.85","213.0","LOS COLONIZADORES, CO","FM-15","99999","V020","999,9,C,0000,1","99999,9,9,N","009999,1,9,9","+0280,1","+0230,1","99999,9","04,1,+02743,1,99,9",,"9,AGL   ,+99999,+99999","99,99,9,04,1,99,9,02743,1,99,9,99,9","10070,1,99999,9",,,,"MET051METAR SKSA 152300Z 00000KT 9999 SCT090 28/23 Q1007=",
"80222599999","2023-12-16T11:00:00","4","6.95","-71.85","213.0","LOS COLONIZADORES, CO","FM-15","99999","V020","290,1,N,0015,1","02743,1,C,N","009999,1,9,9","+0240,1","+0240,1","99999,9","07,1,+02743,1,99,9",,"9,AGL   ,+99999,+99999","99,99,9,07,1,99,9,02743,1,99,9,99,9","10100,1,99999,9","16,1",,,"MET068METAR SKSA 161100Z 29003KT 9999 VCSH BKN090 24/24 Q1010 RKN VCSH SW=",
"80222599999","2023-12-16T12:00:00","4","6.95","-71.85","213.0","LOS COLONIZADORES, CO","FM-15","99999","V020","220,1,N,0015,1","02743,1,9,N","009999,1,9,9","+0240,1","+0230,1","99999,9","04,1,+01372,1,99,9","07,1,+02743,1,99,9","9,AGL   ,+99999,+99999","99,99,9,04,1,99,9,01372,1,99,9,99,9","10100,1,99999,9","16,1",,,"MET075METAR SKSA 161200Z 22003KT 9999 VCSH SCT045 BKN090 24/23 Q1010 RKN VCSH SW=",
"80222599999","2023-12-16T13:00:00","4","6.95","-71.85","213.0","LOS COLONIZADORES, CO","FM-15","99999","V020","300,1,N,0026,1","01829,1,9,N","009999,1,9,9","+0250,1","+0220,1","99999,9","04,1,+01524,1,99,9","07,1,+01829,1,99,9","9,AGL   ,+99999,+99999","99,99,9,04,1,99,9,01524,1,99,9,99,9","10120,1,99999,9","16,1",,,"MET075METAR SKSA 161300Z 30005KT 9999 VCSH SCT050 BKN060 25/22 Q1012 RKN VCSH NW=",
"80222599999","2023-12-16T14:00:00","4","6.95","-71.85","213.0","LOS COLONIZADORES, CO","FM-15","99999","V020","270,1,N,0026,1","02743,1,9,N","009999,1,9,9","+0250,1","+0230,1","99999,9","04,1,+02438,1,99,9","07,1,+02743,1,99,9","9,AGL   ,+99999,+99999","99,99,9,04,1,99,9,02438,1,99,9,99,9","10120,1,99999,9","16,1",,,"MET075METAR SKSA 161400Z 27005KT 9999 VCSH SCT080 BKN090 25/23 Q1012 RKN VCSH NW=",
"80222599999","2023-12-16T15:00:00","4","6.95","-71.85","213.0","LOS COLONIZADORES, CO","FM-15","99999","V020","310,1,N,0031,1","02134,1,C,N","009999,1,9,9","+0250,1","+0230,1","99999,9","07,1,+02134,1,99,9",,"9,AGL   ,+99999,+99999","99,99,9,07,1,99,9,02134,1,99,9,99,9","10120,1,99999,9","80,1",,,"MET057METAR SKSA 161500Z 31006KT 9999 -SHRA BKN070 25/23 Q1012=",
"80222599999","2023-12-16T16:00:00","4","6.95","-71.85","213.0","LOS COLONIZADORES, CO","FM-15","99999","V020","310,1,N,0031,1","02134,1,C,N","009999,1,9,9","+0250,1","+0230,1","99999,9","07,1,+02134,1,99,9",,"9,AGL   ,+99999,+99999","99,99,9,07,1,99,9,02134,1,99,9,99,9","10120,1,99999,9","16,1",,,"MET068METAR SKSA 161600Z 31006KT 9999 VCSH BKN070 25/23 Q1012 RMK VCSH NE=",
"80222599999","2023-12-16T17:00:00","4","6.95","-71.85","213.0","LOS COLONIZADORES, CO","FM-15","99999","V020","320,1,N,0026,1","02134,1,9,N","009999,1,9,9","+0260,1","+0240,1","99999,9","04,1,+01676,1,99,9","07,1,+02134,1,99,9","9,AGL   ,+99999,+99999","99,99,9,04,1,99,9,01676,1,99,9,99,9","10110,1,99999,9","80,1",,,"MET064METAR SKSA 161700Z 32005KT 9999 -SHRA SCT055 BKN070 26/24 Q1011=",
"80222599999","2023-12-16T20:00:00","4","6.95","-71.85","213.0","LOS COLONIZADORES, CO","FM-15","99999","V020","999,9,V,0010,1","02743,1,C,N","009999,1,9,9","+0290,1","+0240,1","99999,9","07,1,+02743,1,99,9",,"9,AGL   ,+99999,+99999","99,99,9,07,1,99,9,02743,1,99,9,99,9","10080,1,99999,9",,,,"MET051METAR SKSA 162000Z VRB02KT 9999 BKN090 29/24 Q1008=",
"80222599999","2023-12-16T21:00:00","4","6.95","-71.85","213.0","LOS COLONIZADORES, CO","FM-15","99999","V020","999,9,V,0010,1","02743,1,C,N","009999,1,9,9","+0290,1","+0250,1","99999,9","07,1,+02743,1,99,9",,"9,AGL   ,+99999,+99999","99,99,9,07,1,99,9,02743,1,99,9,99,9","10080,1,99999,9",,,,"MET051METAR SKSA 162100Z VRB02KT 9999 BKN090 29/25 Q1008=",
"80222599999","2023-12-16T22:00:00","4","6.95","-71.85","213.0","LOS COLONIZADORES, CO","FM-15","99999","V020","999,9,V,0010,1","99999,9,9,N","009999,1,9,9","+0280,1","+0260,1","99999,9","04,1,+02743,1,99,9",,"9,AGL   ,+99999,+99999","99,99,9,04,1,99,9,02743,1,99,9,99,9","10080,1,99999,9",,,,"MET051METAR SKSA 162200Z VRB02KT 9999 SCT090 28/26 Q1008=",
"80222599999","2023-12-16T23:00:00","4","6.95","-71.85","213.0","LOS COLONIZADORES, CO","FM-15","99999","V020","999,9,V,0010,1","99999,9,9,N","009999,1,9,9","+0260,1","+0250,1","99999,9","04,1,+02743,1,99,9",,"9,AGL   ,+99999,+99999","99,99,9,04,1,99,9,02743,1,99,9,99,9","10090,1,99999,9",,,,"MET051METAR SKSA 162300Z VRB02KT 9999 SCT090 26/25 Q1009=",
"80222599999","2023-12-17T11:00:00","4","6.95","-71.85","213.0","LOS COLONIZADORES, CO","FM-15","99999","V020","330,1,N,0015,1","02134,1,C,N","009999,1,9,9","+0240,1","+0230,1","99999,9","07,1,+02134,1,99,9",,"9,AGL   ,+99999,+99999","99,99,9,07,1,99,9,02134,1,99,9,99,9","10110,1,99999,9",,,,"MET051METAR SKSA 171100Z 33003KT 9999 BKN070 24/23 Q1011=",
"80222599999","2023-12-17T12:00:00","4","6.95","-71.85","213.0","LOS COLONIZADORES, CO","FM-15","99999","V020","999,9,V,0010,1","02134,1,C,N","009999,1,9,9","+0250,1","+0230,1","99999,9","07,1,+02134,1,99,9",,"9,AGL   ,+99999,+99999","99,99,9,07,1,99,9,02134,1,99,9,99,9","10120,1,99999,9","16,1",,,"MET064METAR SKSA 171200Z VRB02KT 9999 VCSH BKN070 25/23 Q1012 VCSH SW=",
"80222599999","2023-12-17T13:00:00","4","6.95","-71.85","213.0","LOS COLONIZADORES, CO","FM-15","99999","V020","999,9,V,0010,1","02286,1,C,N","009999,1,9,9","+0270,1","+0230,1","99999,9","07,1,+02286,1,99,9",,"9,AGL   ,+99999,+99999","99,99,9,07,1,99,9,02286,1,99,9,99,9","10120,1,99999,9","16,1",,,"MET063METAR SKSA 171300Z VRB02KT 9999 VCSH BKN075 27/23 Q1012 VCSH W=",
"80222599999","2023-12-17T14:00:00","4","6.95","-71.85","213.0","LOS COLONIZADORES, CO","FM-15","99999","V020","270,1,N,0015,1","02286,1,C,N","009999,1,9,9","+0290,1","+0230,1","99999,9","07,1,+02286,1,99,9",,"9,AGL   ,+99999,+99999","99,99,9,07,1,99,9,02286,1,99,9,99,9","10130,1,99999,9","16,1",,,"MET063METAR SKSA 171400Z 27003KT 9999 VCSH BKN075 29/23 Q1013 VCSH W=",
"80222599999","2023-12-17T15:00:00","4","6.95","-71.85","213.0","LOS COLONIZADORES, CO","FM-15","99999","V020","280,1,N,0021,1","02743,1,C,N","009999,1,9,9","+0310,1","+0220,1","99999,9","07,1,+02743,1,99,9",,"9,AGL   ,+99999,+99999","99,99,9,07,1,99,9,02743,1,99,9,99,9","10130,1,99999,9","16,1",,,"MET064METAR SKSA 171500Z 28004KT 9999 VCSH BKN090 31/22 Q1013 VCSH SW=",
"80222599999","2023-12-17T16:00:00","4","6.95","-71.85","213.0","LOS COLONIZADORES, CO","FM-15","99999","V020","310,1,N,0031,1","99999,9,9,N","009999,1,9,9","+0300,1","+0220,1","99999,9","04,1,+01829,1,99,9",,"9,AGL   ,+99999,+99999","99,99,9,04,1,99,9,01829,1,99,9,99,9","10120,1,99999,9",,,,"MET051METAR SKSA 171600Z 31006KT 9999 SCT060 30/22 Q1012=",
"80222599999","2023-12-17T17:00:00","4","6.95","-71.85","213.0","LOS COLONIZADORES, CO","FM-15","99999","V020","270,1,N,0015,1","99999,9,9,N","009999,1,9,9","+0330,1","+0220,1","99999,9","04,1,+01219,1,99,9",,"9,AGL   ,+99999,+99999","99,99,9,04,1,99,9,01219,1,99,9,99,9","10110,1,99999,9",,,,"MET051METAR SKSA 171700Z 27003KT 9999 SCT040 33/22 Q1011=",
"80222599999","2023-12-17T18:00:00","4","6.95","-71.85","213.0","LOS COLONIZADORES, CO","FM-15","99999","V020","290,1,N,0021,1","99999,9,9,N","009999,1,9,9","+0320,1","+0210,1","99999,9","04,1,+01219,1,99,9",,"9,AGL   ,+99999,+99999","99,99,9,04,1,99,9,01219,1,99,9,99,9","10090,1,99999,9",,,,"MET051METAR SKSA 171800Z 29004KT 9999 SCT040 32/21 Q1009=",
"80222599999","2023-12-17T19:00:00","4","6.95","-71.85","213.0","LOS COLONIZADORES, CO","FM-15","99999","V020","020,1,N,0026,1","99999,9,9,N","009999,1,9,9","+0310,1","+0230,1","99999,9","04,1,+01219,1,99,9",,"9,AGL   ,+99999,+99999","99,99,9,04,1,99,9,01219,1,99,9,99,9","10090,1,99999,9",,,,"MET051METAR SKSA 171900Z 02005KT 9999 SCT040 31/23 Q1009=",
"80222599999","2023-12-17T20:00:00","4","6.95","-71.85","213.0","LOS COLONIZADORES, CO","FM-15","99999","V020","150,1,N,0026,1","99999,9,9,N","009999,1,9,9","+0290,1","+0240,1","99999,9","04,1,+01219,1,99,9",,"9,AGL   ,+99999,+99999","99,99,9,04,1,99,9,01219,1,99,9,99,9","10080,1,99999,9",,,,"MET051METAR SKSA 172000Z 15005KT 9999 SCT040 29/24 Q1008=",
"80222599999","2023-12-17T21:00:00","4","6.95","-71.85","213.0","LOS COLONIZADORES, CO","FM-15","99999","V020","999,9,V,0010,1","99999,9,9,N","009999,1,9,9","+0290,1","+0250,1","99999,9","02,1,+02743,1,99,9",,"9,AGL   ,+99999,+99999","99,99,9,02,1,99,9,02743,1,99,9,99,9","10080,1,99999,9",,,,"MET051METAR SKSA 172100Z VRB02KT 9999 FEW090 29/25 Q1008=",
"80222599999","2023-12-17T22:00:00","4","6.95","-71.85","213.0","LOS COLONIZADORES, CO","FM-15","99999","V020","999,9,V,0010,1","99999,9,9,N","009999,1,9,9","+0290,1","+0250,1","99999,9","02,1,+02743,1,99,9",,"9,AGL   ,+99999,+99999","99,99,9,02,1,99,9,02743,1,99,9,99,9","10080,1,99999,9",,,,"MET051METAR SKSA 172200Z VRB02KT 9999 FEW090 29/25 Q1008=",
"80222599999","2023-12-17T23:00:00","4","6.95","-71.85","213.0","LOS COLONIZADORES, CO","FM-15","99999","V020","999,9,V,0010,1","99999,9,9,N","009999,1,9,9","+0260,1","+0250,1","99999,9","02,1,+02743,1,99,9",,"9,AGL   ,+99999,+99999","99,99,9,02,1,99,9,02743,1,99,9,99,9","10080,1,99999,9",,,,"MET051METAR SKSA 172300Z VRB02KT 9999 FEW090 26/25 Q1008=",
"80222599999","2023-12-18T11:00:00","4","6.95","-71.85","213.0","LOS COLONIZADORES, CO","FM-15","99999","V020","999,9,V,0010,1","02134,1,C,N","009999,1,9,9","+0230,1","+0220,1","99999,9","07,1,+02134,1,99,9",,"9,AGL   ,+99999,+99999","99,99,9,07,1,99,9,02134,1,99,9,99,9","10100,1,99999,9",,,,"MET051METAR SKSA 181100Z VRB02KT 9999 BKN070 23/22 Q1010=",
"80222599999","2023-12-18T12:00:00","4","6.95","-71.85","213.0","LOS COLONIZADORES, CO","FM-15","99999","V020","999,9,V,0010,1","99999,9,9,N","009999,1,9,9","+0240,1","+0230,1","99999,9","04,1,+02743,1,99,9",,"9,AGL   ,+99999,+99999","99,99,9,04,1,99,9,02743,1,99,9,99,9","10100,1,99999,9",,,,"MET051METAR SKSA 181200Z VRB02KT 9999 SCT090 24/23 Q1010=",
"80222599999","2023-12-18T13:00:00","4","6.95","-71.85","213.0","LOS COLONIZADORES, CO","FM-15","99999","V020","340,1,N,0046,1","99999,9,9,N","009999,1,9,9","+0290,1","+0230,1","99999,9","02,1,+01981,1,99,9",,"9,AGL   ,+99999,+99999","99,99,9,02,1,99,9,01981,1,99,9,99,9","10110,1,99999,9","16,1",,,"MET068METAR SKSA 181300Z 34009KT 9999 VCSH FEW065 29/23 Q1011 RMK VCSH NW=",
"80222599999","2023-12-18T14:00:00","4","6.95","-71.85","213.0","LOS COLONIZADORES, CO","FM-15","99999","V020","290,1,N,0036,1","99999,9,9,N","009999,1,9,9","+0290,1","+0230,1","99999,9","02,1,+02743,1,99,9",,"9,AGL   ,+99999,+99999","99,99,9,02,1,99,9,02743,1,99,9,99,9","10120,1,99999,9","16,1",,,"MET068METAR SKSA 181400Z 29007KT 9999 VCSH FEW090 29/23 Q1012 RMK VCSH NW=",
"80222599999","2023-12-18T15:00:00","4","6.95","-71.85","213.0","LOS COLONIZADORES, CO","FM-15","99999","V020","330,1,N,0031,1","99999,9,9,N","009999,1,9,9","+0280,1","+0230,1","99999,9","04,1,+02134,1,99,9",,"9,AGL   ,+99999,+99999","99,99,9,04,1,99,9,02134,1,99,9,99,9","10120,1,99999,9","16,1",,,"MET068METAR SKSA 181500Z 33006KT 9999 VCSH SCT070 28/23 Q1012 RMK VCSH NW=",
"80222599999","2023-12-18T16:00:00","4","6.95","-71.85","213.0","LOS COLONIZADORES, CO","FM-15","99999","V020","310,1,N,0041,1","99999,9,9,N","009999,1,9,9","+0320,1","+0230,1","99999,9","02,1,+02743,1,99,9",,"9,AGL   ,+99999,+99999","99,99,9,02,1,99,9,02743,1,99,9,99,9","10110,1,99999,9","16,1",,,"MET068METAR SKSA 181600Z 31008KT 9999 VCSH FEW090 32/23 Q1011 RMK VCSH NW=",
"80222599999","2023-12-18T17:00:00","4","6.95","-71.85","213.0","LOS COLONIZADORES, CO","FM-15","99999","V020","310,1,N,0046,1","99999,9,9,N","009999,1,9,9","+0290,1","+0230,1","99999,9","04,1,+02438,1,99,9",,"9,AGL   ,+99999,+99999","99,99,9,04,1,99,9,02438,1,99,9,99,9","10100,1,99999,9","16,1",,,"MET067METAR SKSA 181700Z 31009KT 9999 VCSH SCT080 29/23 Q1010 RMK VCSH W=",
"80222599999","2023-12-18T18:00:00","4","6.95","-71.85","213.0","LOS COLONIZADORES, CO","FM-15","99999","V020","300,1,N,0031,1","99999,9,9,N","009999,1,9,9","+0300,1","+0240,1","99999,9","04,1,+02743,1,99,9",,"9,AGL   ,+99999,+99999","99,99,9,04,1,99,9,02743,1,99,9,99,9","10090,1,99999,9",,,,"MET051METAR SKSA 181800Z 30006KT 9999 SCT090 30/24 Q1009=",
"80222599999","2023-12-18T19:00:00","4","6.95","-71.85","213.0","LOS COLONIZADORES, CO","FM-15","99999","V020","300,1,N,0036,1","99999,9,9,N","009999,1,9,9","+0320,1","+0220,1","99999,9","02,1,+02743,1,99,9",,"9,AGL   ,+99999,+99999","99,99,9,02,1,99,9,02743,1,99,9,99,9","10080,1,99999,9",,,,"MET051METAR SKSA 181900Z 30007KT 9999 FEW090 32/22 Q1008=",
"80222599999","2023-12-18T20:00:00","4","6.95","-71.85","213.0","LOS COLONIZADORES, CO","FM-15","99999","V020","280,1,N,0036,1","99999,9,9,N","009999,1,9,9","+0320,1","+0220,1","99999,9","02,1,+02743,1,99,9",,"9,AGL   ,+99999,+99999","99,99,9,02,1,99,9,02743,1,99,9,99,9","10070,1,99999,9",,,,"MET051METAR SKSA 182000Z 28007KT 9999 FEW090 32/22 Q1007=",
"80222599999","2023-12-18T21:00:00","4","6.95","-71.85","213.0","LOS COLONIZADORES, CO","FM-15","99999","V020","999,9,V,0010,1","22000,1,9,N","009999,1,9,9","+0320,1","+0210,1","99999,9",,,,"00,99,1,99,9,99,9,99999,9,99,9,99,9","10070,1,99999,9",,,,"MET048METAR SKSA 182100Z VRB02KT 9999 NSC 32/21 Q1007=",
"80222599999","2023-12-18T22:00:00","4","6.95","-71.85","213.0","LOS COLONIZADORES, CO","FM-15","99999","V020","999,9,V,0010,1","22000,1,9,N","009999,1,9,9","+0300,1","+0220,1","99999,9",,,,"00,99,1,99,9,99,9,99999,9,99,9,99,9","10070,1,99999,9",,,,"MET048METAR SKSA 182200Z VRB02KT 9999 NSC 30/22 Q1007=",
"80222599999","2023-12-18T23:00:00","4","6.95","-71.85","213.0","LOS COLONIZADORES, CO","FM-15","99999","V020","999,9,V,0010,1","22000,1,9,N","009999,1,9,9","+0270,1","+0230,1","99999,9",,,,"00,99,1,99,9,99,9,99999,9,99,9,99,9","10080,1,99999,9",,,,"MET048METAR SKSA 182300Z VRB02KT 9999 NSC 27/23 Q1008=",
"80222599999","2023-12-19T11:00:00","4","6.95","-71.85","213.0","LOS COLONIZADORES, CO","FM-15","99999","V020","999,9,V,0010,1","22000,1,9,N","009999,1,9,9","+0220,1","+0210,1","99999,9",,,,"00,99,1,99,9,99,9,99999,9,99,9,99,9","10080,1,99999,9",,,,"MET048METAR SKSA 191100Z VRB02KT 9999 NSC 22/21 Q1008=",
"80222599999","2023-12-19T12:00:00","4","6.95","-71.85","213.0","LOS COLONIZADORES, CO","FM-15","99999","V020","999,9,V,0010,1","22000,1,9,N","009999,1,9,9","+0250,1","+0220,1","99999,9",,,,"00,99,1,99,9,99,9,99999,9,99,9,99,9","10090,1,99999,9",,,,"MET048METAR SKSA 191200Z VRB02KT 9999 NSC 25/22 Q1009=",
"80222599999","2023-12-19T13:00:00","4","6.95","-71.85","213.0","LOS COLONIZADORES, CO","FM-15","99999","V020","310,1,N,0021,1","22000,1,9,N","009999,1,9,9","+0280,1","+0210,1","99999,9",,,,"00,99,1,99,9,99,9,99999,9,99,9,99,9","10100,1,99999,9",,,,"MET048METAR SKSA 191300Z 31004KT 9999 NSC 28/21 Q1010=",
"80222599999","2023-12-19T15:00:00","4","6.95","-71.85","213.0","LOS COLONIZADORES, CO","FM-15","99999","V020","020,1,N,0015,1","99999,9,9,N","009999,1,9,9","+0300,1","+0220,1","99999,9","04,1,+02743,1,99,9",,"9,AGL   ,+99999,+99999","99,99,9,04,1,99,9,02743,1,99,9,99,9","10100,1,99999,9",,,,"MET051METAR SKSA 191500Z 02003KT 9999 SCT090 30/22 Q1010=",
"80222599999","2023-12-19T16:00:00","4","6.95","-71.85","213.0","LOS COLONIZADORES, CO","FM-15","99999","V020","040,1,N,0015,1","99999,9,9,N","009999,1,9,9","+0310,1","+0220,1","99999,9","02,1,+02743,1,99,9",,"9,AGL   ,+99999,+99999","99,99,9,02,1,99,9,02743,1,99,9,99,9","10100,1,99999,9",,,,"MET051METAR SKSA 191600Z 04003KT 9999 FEW090 31/22 Q1010=",
"80222599999","2023-12-19T17:00:00","4","6.95","-71.85","213.0","LOS COLONIZADORES, CO","FM-15","99999","V020","999,9,V,0010,1","99999,9,9,N","009999,1,9,9","+0320,1","+0220,1","99999,9","02,1,+01219,1,99,9",,"9,AGL   ,+99999,+99999","99,99,9,02,1,99,9,01219,1,99,9,99,9","10090,1,99999,9",,,,"MET051METAR SKSA 191700Z VRB02KT 9999 FEW040 32/22 Q1009=",
"80222599999","2023-12-19T18:00:00","4","6.95","-71.85","213.0","LOS COLONIZADORES, CO","FM-15","99999","V020","090,1,N,0015,1","99999,9,9,N","009999,1,9,9","+0310,1","+0230,1","99999,9","04,1,+01524,1,99,9",,"9,AGL   ,+99999,+99999","99,99,9,04,1,99,9,01524,1,99,9,99,9","10080,1,99999,9",,,,"MET051METAR SKSA 191800Z 09003KT 9999 SCT050 31/23 Q1008=",
"80222599999","2023-12-19T19:00:00","4","6.95","-71.85","213.0","LOS COLONIZADORES, CO","FM-15","99999","V020","330,1,N,0015,1","99999,9,9,N","009999,1,9,9","+0330,1","+0230,1","99999,9","04,1,+02134,1,99,9",,"9,AGL   ,+99999,+99999","99,99,9,04,1,99,9,02134,1,99,9,99,9","10070,1,99999,9",,,,"MET051METAR SKSA 191900Z 33003KT 9999 SCT070 33/23 Q1007=",
"80222599999","2023-12-19T20:00:00","4","6.95","-71.85","213.0","LOS COLONIZADORES, CO","FM-15","99999","V020","999,9,V,0010,1","99999,9,9,N","009999,1,9,9","+0320,1","+0240,1","99999,9","04,1,+02134,1,99,9",,"9,AGL   ,+99999,+99999","99,99,9,04,1,99,9,02134,1,99,9,99,9","10060,1,99999,9",,,,"MET051METAR SKSA 192000Z VRB02KT 9999 SCT070 32/24 Q1006=",
"80222599999","2023-12-19T21:00:00","4","6.95","-71.85","213.0","LOS COLONIZADORES, CO","FM-15","99999","V020","999,9,V,0010,1","99999,9,9,N","009999,1,9,9","+0340,1","+0220,1","99999,9","04,1,+02134,1,99,9",,"9,AGL   ,+99999,+99999","99,99,9,04,1,99,9,02134,1,99,9,99,9","10060,1,99999,9","16,1",,,"MET067METAR SKSA 192100Z VRB02KT 9999 VCSH SCT070 34/22 Q1006 RMK VCSH S=",
"80222599999","2023-12-19T22:00:00","4","6.95","-71.85","213.0","LOS COLONIZADORES, CO","FM-15","99999","V020","999,9,V,0010,1","99999,9,9,N","009999,1,9,9","+0290,1","+0250,1","99999,9","04,1,+02134,1,99,9",,"9,AGL   ,+99999,+99999","99,99,9,04,1,99,9,02134,1,99,9,99,9","10060,1,99999,9",,,,"MET051METAR SKSA 192200Z VRB02KT 9999 SCT070 29/25 Q1006=",
"80222599999","2023-12-19T23:00:00","4","6.95","-71.85","213.0","LOS COLONIZADORES, CO","FM-15","99999","V020","999,9,V,0010,1","99999,9,9,N","009999,1,9,9","+0270,1","+0250,1","99999,9","04,1,+02743,1,99,9",,"9,AGL   ,+99999,+99999","99,99,9,04,1,99,9,02743,1,99,9,99,9","10070,1,99999,9",,,,"MET051METAR SKSA 192300Z VRB02KT 9999 SCT090 27/25 Q1007=",
"80222599999","2023-12-20T11:00:00","4","6.95","-71.85","213.0","LOS COLONIZADORES, CO","FM-15","99999","V020","999,9,V,0010,1","02743,1,C,N","009999,1,9,9","+0230,1","+0230,1","99999,9","07,1,+02743,1,99,9",,"9,AGL   ,+99999,+99999","99,99,9,07,1,99,9,02743,1,99,9,99,9","10090,1,99999,9",,,,"MET051METAR SKSA 201100Z VRB02KT 9999 BKN090 23/23 Q1009=",
"80222599999","2023-12-20T12:00:00","4","6.95","-71.85","213.0","LOS COLONIZADORES, CO","FM-15","99999","V020","999,9,V,0010,1","02743,1,C,N","009999,1,9,9","+0240,1","+0230,1","99999,9","07,1,+02743,1,99,9",,"9,AGL   ,+99999,+99999","99,99,9,07,1,99,9,02743,1,99,9,99,9","10090,1,99999,9",,,,"MET051METAR SKSA 201200Z VRB02KT 9999 BKN090 24/23 Q1009=",
"80222599999","2023-12-20T13:00:00","4","6.95","-71.85","213.0","LOS COLONIZADORES, CO","FM-15","99999","V020","999,9,V,0010,1","02743,1,C,N","009999,1,9,9","+0250,1","+0240,1","99999,9","07,1,+02743,1,99,9",,"9,AGL   ,+99999,+99999","99,99,9,07,1,99,9,02743,1,99,9,99,9","10100,1,99999,9","10,1",,,"MET054METAR SKSA 201300Z VRB02KT 9999 BR BKN090 25/24 Q1010=",
"80222599999","2023-12-20T14:00:00","4","6.95","-71.85","213.0","LOS COLONIZADORES, CO","FM-15","99999","V020","999,9,V,0010,1","02743,1,C,N","009999,1,9,9","+0260,1","+0240,1","99999,9","07,1,+02743,1,99,9",,"9,AGL   ,+99999,+99999","99,99,9,07,1,99,9,02743,1,99,9,99,9","10110,1,99999,9","10,1",,,"MET054METAR SKSA 201400Z VRB02KT 9999 BR BKN090 26/24 Q1011=",
"80222599999","2023-12-20T15:00:00","4","6.95","-71.85","213.0","LOS COLONIZADORES, CO","FM-15","99999","V020","999,9,V,0010,1","02743,1,C,N","009999,1,9,9","+0280,1","+0220,1","99999,9","07,1,+02743,1,99,9",,"9,AGL   ,+99999,+99999","99,99,9,07,1,99,9,02743,1,99,9,99,9","10100,1,99999,9","16,1",,,"MET067METAR SKSA 201500Z VRB02KT 9999 VCSH BKN090 28/22 Q1010 RMK VCSH W=",
"80222599999","2023-12-20T16:00:00","4","6.95","-71.85","213.0","LOS COLONIZADORES, CO","FM-15","99999","V020","330,1,N,0015,1","02743,1,C,N","009999,1,9,9","+0290,1","+0230,1","99999,9","07,1,+02743,1,99,9",,"9,AGL   ,+99999,+99999","99,99,9,07,1,99,9,02743,1,99,9,99,9","10100,1,99999,9","16,1",,,"MET067METAR SKSA 201600Z 33003KT 9999 VCSH BKN090 29/23 Q1010 RMK VCSH W=",
"80222599999","2023-12-20T18:00:00","4","6.95","-71.85","213.0","LOS COLONIZADORES, CO","FM-15","99999","V020","360,1,N,0015,1","99999,9,9,N","009999,1,9,9","+0310,1","+0230,1","99999,9","04,1,+02743,1,99,9",,"9,AGL   ,+99999,+99999","99,99,9,04,1,99,9,02743,1,99,9,99,9","10080,1,99999,9","16,1",,,"MET067METAR SKSA 201800Z 36003KT 9999 VCSH SCT090 31/23 Q1008 RMK VCSH E=",
"80222599999","2023-12-20T19:00:00","4","6.95","-71.85","213.0","LOS COLONIZADORES, CO","FM-15","99999","V020","050,1,N,0015,1","99999,9,9,N","009999,1,9,9","+0300,1","+0230,1","99999,9","04,1,+02438,1,99,9",,"9,AGL   ,+99999,+99999","99,99,9,04,1,99,9,02438,1,99,9,99,9","10070,1,99999,9","16,1",,,"MET067METAR SKSA 201900Z 05003KT 9999 VCSH SCT080 30/23 Q1007 RMK VCSH E=",
"80222599999","2023-12-20T20:00:00","4","6.95","-71.85","213.0","LOS COLONIZADORES, CO","FM-15","99999","V020","999,9,V,0010,1","22000,1,9,N","009999,1,9,9","+0330,1","+0210,1","99999,9",,,,"00,99,1,99,9,99,9,99999,9,99,9,99,9","10060,1,99999,9",,,,"MET048METAR SKSA 202000Z VRB02KT 9999 NSC 33/21 Q1006=",
"80222599999","2023-12-20T21:00:00","4","6.95","-71.85","213.0","LOS COLONIZADORES, CO","FM-15","99999","V020","040,1,N,0015,1","22000,1,9,N","009999,1,9,9","+0310,1","+0240,1","99999,9",,,,"00,99,1,99,9,99,9,99999,9,99,9,99,9","10060,1,99999,9",,,,"MET048METAR SKSA 202100Z 04003KT 9999 NSC 31/24 Q1006=",
"80222599999","2023-12-20T22:00:00","4","6.95","-71.85","213.0","LOS COLONIZADORES, CO","FM-15","99999","V020","999,9,C,0000,1","22000,1,9,N","009999,1,9,9","+0290,1","+0240,1","99999,9",,,,"00,99,1,99,9,99,9,99999,9,99,9,99,9","10060,1,99999,9",,,,"MET048METAR SKSA 202200Z 00000KT 9999 NSC 29/24 Q1006=",
"80222599999","2023-12-20T23:00:00","4","6.95","-71.85","213.0","LOS COLONIZADORES, CO","FM-15","99999","V020","999,9,C,0000,1","99999,9,9,N","009999,1,9,9","+0270,1","+0240,1","99999,9","02,1,+02743,1,99,9",,"9,AGL   ,+99999,+99999","99,99,9,02,1,99,9,02743,1,99,9,99,9","10070,1,99999,9",,,,"MET051METAR SKSA 202300Z 00000KT 9999 FEW090 27/24 Q1007=",
"80222599999","2023-12-21T11:00:00","4","6.95","-71.85","213.0","LOS COLONIZADORES, CO","FM-15","99999","V020","999,9,V,0010,1","01829,1,C,N","009999,1,9,9","+0240,1","+0220,1","99999,9","08,1,+01829,1,99,9",,"9,AGL   ,+99999,+99999","99,99,9,08,1,99,9,01829,1,99,9,99,9","10090,1,99999,9",,,,"MET051METAR SKSA 211100Z VRB02KT 9999 OVC060 24/22 Q1009=",
"80222599999","2023-12-21T12:00:00","4","6.95","-71.85","213.0","LOS COLONIZADORES, CO","FM-15","99999","V020","290,1,N,0021,1","01829,1,C,N","009999,1,9,9","+0260,1","+0220,1","99999,9","08,1,+01829,1,99,9",,"9,AGL   ,+99999,+99999","99,99,9,08,1,99,9,01829,1,99,9,99,9","10090,1,99999,9",,,,"MET051METAR SKSA 211200Z 29004KT 9999 OVC060 26/22 Q1009=",
"80222599999","2023-12-21T13:00:00","4","6.95","-71.85","213.0","LOS COLONIZADORES, CO","FM-15","99999","V020","300,1,N,0031,1","01524,1,C,N","009999,1,9,9","+0260,1","+0220,1","99999,9","08,1,+01524,1,99,9",,"9,AGL   ,+99999,+99999","99,99,9,08,1,99,9,01524,1,99,9,99,9","10100,1,99999,9","16,1",,,"MET067METAR SKSA 211300Z 30006KT 9999 VCSH OVC050 26/22 Q1010 RMK VCSH W=",
"80222599999","2023-12-21T14:00:00","4","6.95","-71.85","213.0","LOS COLONIZADORES, CO","FM-15","99999","V020","320,1,N,0015,1","01829,1,C,N","009999,1,9,9","+0250,1","+0230,1","99999,9","08,1,+01829,1,99,9",,"9,AGL   ,+99999,+99999","99,99,9,08,1,99,9,01829,1,99,9,99,9","10110,1,99999,9","16,1",,,"MET067METAR SKSA 211400Z 32003KT 9999 VCSH OVC060 25/23 Q1011 RMK VCSH W=",
"80222599999","2023-12-21T15:00:00","4","6.95","-71.85","213.0","LOS COLONIZADORES, CO","FM-15","99999","V020","999,9,V,0010,1","01676,1,C,N","009999,1,9,9","+0260,1","+0230,1","99999,9","08,1,+01676,1,99,9",,"9,AGL   ,+99999,+99999","99,99,9,08,1,99,9,01676,1,99,9,99,9","10120,1,99999,9","16,1",,,"MET067METAR SKSA 211500Z VRB02KT 9999 VCSH OVC055 26/23 Q1012 RMK VCSH W=",
"80222599999","2023-12-21T16:00:00","4","6.95","-71.85","213.0","LOS COLONIZADORES, CO","FM-15","99999","V020","330,1,N,0031,1","01372,1,C,N","009999,1,9,9","+0270,1","+0230,1","99999,9","08,1,+01372,1,99,9",,"9,AGL   ,+99999,+99999","99,99,9,08,1,99,9,01372,1,99,9,99,9","10120,1,99999,9","16,1",,,"MET067METAR SKSA 211600Z 33006KT 9999 VCSH OVC045 27/23 Q1012 RMK VCSH W=",
"80222599999","2023-12-21T17:00:00","4","6.95","-71.85","213.0","LOS COLONIZADORES, CO","FM-15","99999","V020","300,1,N,0021,1","02134,1,C,N","009999,1,9,9","+0270,1","+0230,1","99999,9","08,1,+02134,1,99,9",,"9,AGL   ,+99999,+99999","99,99,9,08,1,99,9,02134,1,99,9,99,9","10110,1,99999,9","16,1",,,"MET070METAR SKSA 211700Z 30004KT 9999 VCSH OVC070 27/23 Q1011 RMK VCSH W NW=",
"80222599999","2023-12-21T18:00:00","4","6.95","-71.85","213.0","LOS COLONIZADORES, CO","FM-15","99999","V020","310,1,N,0031,1","01372,1,C,N","009999,1,9,9","+0280,1","+0230,1","99999,9","07,1,+01372,1,99,9","08,1,+02134,1,99,9","9,AGL   ,+99999,+99999","99,99,9,07,1,99,9,01372,1,99,9,99,9","10100,1,99999,9","16,1",,,"MET077METAR SKSA 211800Z 31006KT 9999 VCSH BKN045 OVC070 28/23 Q1010 RMK VCSH W NW=",
"80222599999","2023-12-21T19:00:00","4","6.95","-71.85","213.0","LOS COLONIZADORES, CO","FM-15","99999","V020","340,1,N,0036,1","01372,1,C,N","009999,1,9,9","+0260,1","+0230,1","99999,9","07,1,+01372,1,99,9","08,1,+02134,1,99,9","9,AGL   ,+99999,+99999","99,99,9,07,1,99,9,01372,1,99,9,99,9","10100,1,99999,9","16,1",,,"MET075METAR SKSA 211900Z 34007KT 9999 VCSH BKN045 OVC070 26/23 Q1010 RMK VCSH NW=",
"80222599999","2023-12-21T20:00:00","4","6.95","-71.85","213.0","LOS COLONIZADORES, CO","FM-15","99999","V020","310,1,N,0031,1","02286,1,C,N","009999,1,9,9","+0260,1","+0230,1","99999,9","08,1,+02286,1,99,9",,"9,AGL   ,+99999,+99999","99,99,9,08,1,99,9,02286,1,99,9,99,9","10090,1,99999,9","16,1",,,"MET068METAR SKSA 212000Z 31006KT 9999 VCSH OVC075 26/23 Q1009 RMK VCSH NW=",
"80222599999","2023-12-21T21:00:00","4","6.95","-71.85","213.0","LOS COLONIZADORES, CO","FM-15","99999","V020","320,1,N,0026,1","00274,1,C,N","009000,1,9,9","+0260,5","+0230,5","99999,9","08,1,+00274,1,99,9",,"9,AGL   ,+99999,+99999","99,99,9,08,1,99,9,00274,1,99,9,99,9","10090,5,99999,9","10,1",,,"MET055METAR SKSA 212100Z 32005KT 9000 BR OVC0090 26/23 Q1009=","D01      0ADE693D02      0ADE539"
"80222599999","2023-12-21T22:00:00","4","6.95","-71.85","213.0","LOS COLONIZADORES, CO","FM-15","99999","V020","320,1,N,0031,1","99999,9,9,N","009999,1,9,9","+0270,1","+0230,1","99999,9","04,1,+02438,1,99,9",,"9,AGL   ,+99999,+99999","99,99,9,04,1,99,9,02438,1,99,9,99,9","10080,1,99999,9",,,,"MET051METAR SKSA 212200Z 32006KT 9999 SCT080 27/23 Q1008=",
"80222599999","2023-12-21T23:00:00","4","6.95","-71.85","213.0","LOS COLONIZADORES, CO","FM-15","99999","V020","300,1,N,0026,1","99999,9,9,N","009999,1,9,9","+0250,1","+0230,1","99999,9","04,1,+02438,1,99,9",,"9,AGL   ,+99999,+99999","99,99,9,04,1,99,9,02438,1,99,9,99,9","10090,1,99999,9",,,,"MET051METAR SKSA 212300Z 30005KT 9999 SCT080 25/23 Q1009=",
"80222599999","2023-12-22T11:00:00","4","6.95","-71.85","213.0","LOS COLONIZADORES, CO","FM-15","99999","V020","999,9,V,0010,1","99999,9,9,N","009999,1,9,9","+0230,1","+0220,1","99999,9","04,1,+02743,1,99,9",,"9,AGL   ,+99999,+99999","99,99,9,04,1,99,9,02743,1,99,9,99,9","10110,1,99999,9",,,,"MET051METAR SKSA 221100Z VRB02KT 9999 SCT090 23/22 Q1011=",
"80222599999","2023-12-22T12:00:00","4","6.95","-71.85","213.0","LOS COLONIZADORES, CO","FM-15","99999","V020","999,9,V,0010,1","99999,9,9,N","009999,1,9,9","+0240,1","+0230,1","99999,9","04,1,+02743,1,99,9",,"9,AGL   ,+99999,+99999","99,99,9,04,1,99,9,02743,1,99,9,99,9","10110,1,99999,9",,,,"MET051METAR SKSA 221200Z VRB02KT 9999 SCT090 24/23 Q1011=",
"80222599999","2023-12-22T13:00:00","4","6.95","-71.85","213.0","LOS COLONIZADORES, CO","FM-15","99999","V020","999,9,V,0010,1","22000,1,9,N","009999,1,9,9","+0280,1","+0230,1","99999,9",,,,"00,99,1,99,9,99,9,99999,9,99,9,99,9","10130,1,99999,9",,,,"MET048METAR SKSA 221300Z VRB02KT 9999 NSC 28/23 Q1013=",
"80222599999","2023-12-22T15:00:00","4","6.95","-71.85","213.0","LOS COLONIZADORES, CO","FM-15","99999","V020","050,1,N,0015,1","99999,9,9,N","009999,1,9,9","+0290,1","+0240,1","99999,9","04,1,+02743,1,99,9",,"9,AGL   ,+99999,+99999","99,99,9,04,1,99,9,02743,1,99,9,99,9","10140,1,99999,9",,,,"MET051METAR SKSA 221500Z 05003KT 9999 SCT090 29/24 Q1014=",
"80222599999","2023-12-22T16:00:00","4","6.95","-71.85","213.0","LOS COLONIZADORES, CO","FM-15","99999","V020","340,1,N,0036,1","99999,9,9,N","009999,1,9,9","+0300,1","+0230,1","99999,9","04,1,+02743,1,99,9",,"9,AGL   ,+99999,+99999","99,99,9,04,1,99,9,02743,1,99,9,99,9","10130,1,99999,9",,,,"MET051METAR SKSA 221600Z 34007KT 9999 SCT090 30/23 Q1013=",
"80222599999","2023-12-22T17:00:00","4","6.95","-71.85","213.0","LOS COLONIZADORES, CO","FM-15","99999","V020","320,1,N,0026,1","99999,9,9,N","009999,1,9,9","+0310,1","+0220,1","99999,9","04,1,+02743,1,99,9",,"9,AGL   ,+99999,+99999","99,99,9,04,1,99,9,02743,1,99,9,99,9","10120,1,99999,9",,,,"MET051METAR SKSA 221700Z 32005KT 9999 SCT090 31/22 Q1012=",
"80222599999","2023-12-22T18:00:00","4","6.95","-71.85","213.0","LOS COLONIZADORES, CO","FM-15","99999","V020","260,1,N,0036,1","02743,1,C,N","009999,1,9,9","+0290,1","+0230,1","99999,9","07,1,+02743,1,99,9",,"9,AGL   ,+99999,+99999","99,99,9,07,1,99,9,02743,1,99,9,99,9","10110,1,99999,9","16,1",,,"MET067METAR SKSA 221800Z 26007KT 9999 VCSH BKN090 29/23 Q1011 RMK VCSH W=",
"80222599999","2023-12-22T19:00:00","4","6.95","-71.85","213.0","LOS COLONIZADORES, CO","FM-15","99999","V020","260,1,N,0036,1","99999,9,9,N","009999,1,9,9","+0310,1","+0220,1","99999,9","02,1,+02743,1,99,9",,"9,AGL   ,+99999,+99999","99,99,9,02,1,99,9,02743,1,99,9,99,9","10100,1,99999,9","16,1",,,"MET068METAR SKSA 221900Z 26007KT 9999 VCSH FEW090 31/22 Q1010 RMK VCSH NW=",
"80222599999","2023-12-22T20:00:00","4","6.95","-71.85","213.0","LOS COLONIZADORES, CO","FM-15","99999","V020","310,1,N,0031,1","99999,9,9,N","009999,1,9,9","+0320,1","+0220,1","99999,9","02,1,+02743,1,99,9",,"9,AGL   ,+99999,+99999","99,99,9,02,1,99,9,02743,1,99,9,99,9","10090,1,99999,9",,,,"MET051METAR SKSA 222000Z 31006KT 9999 FEW090 32/22 Q1009=",
"80222599999","2023-12-22T21:00:00","4","6.95","-71.85","213.0","LOS COLONIZADORES, CO","FM-15","99999","V020","300,1,N,0021,1","22000,1,9,N","009999,1,9,9","+0310,1","+0230,1","99999,9",,,,"00,99,1,99,9,99,9,99999,9,99,9,99,9","10090,1,99999,9",,,,"MET048METAR SKSA 222100Z 30004KT 9999 NSC 31/23 Q1009=",
"80222599999","2023-12-22T22:00:00","4","6.95","-71.85","213.0","LOS COLONIZADORES, CO","FM-15","99999","V020","350,1,N,0021,1","22000,1,9,N","009999,1,9,9","+0290,1","+0230,1","99999,9",,,,"00,99,1,99,9,99,9,99999,9,99,9,99,9","10090,1,99999,9",,,,"MET048METAR SKSA 222200Z 35004KT 9999 NSC 29/23 Q1009=",
"80222599999","2023-12-22T23:00:00","4","6.95","-71.85","213.0","LOS COLONIZADORES, CO","FM-15","99999","V020","320,1,N,0015,1","22000,1,9,N","009999,1,9,9","+0270,1","+0240,1","99999,9",,,,"00,99,1,99,9,99,9,99999,9,99,9,99,9","10090,1,99999,9",,,,"MET048METAR SKSA 222300Z 32003KT 9999 NSC 27/24 Q1009=",
"80222599999","2023-12-23T11:00:00","4","6.95","-71.85","213.0","LOS COLONIZADORES, CO","FM-15","99999","V020","300,1,N,0015,1","99999,9,9,N","009999,1,9,9","+0230,1","+0190,1","99999,9","04,1,+02743,1,99,9",,"9,AGL   ,+99999,+99999","99,99,9,04,1,99,9,02743,1,99,9,99,9","10120,1,99999,9",,,,"MET051METAR SKSA 231100Z 30003KT 9999 SCT090 23/19 Q1012=",
"80222599999","2023-12-23T12:00:00","4","6.95","-71.85","213.0","LOS COLONIZADORES, CO","FM-15","99999","V020","310,1,N,0015,1","99999,9,9,N","009999,1,9,9","+0240,1","+0200,1","99999,9","04,1,+02438,1,99,9",,"9,AGL   ,+99999,+99999","99,99,9,04,1,99,9,02438,1,99,9,99,9","10130,1,99999,9",,,,"MET051METAR SKSA 231200Z 31003KT 9999 SCT080 24/20 Q1013=",
"80222599999","2023-12-23T13:00:00","4","6.95","-71.85","213.0","LOS COLONIZADORES, CO","FM-15","99999","V020","320,1,N,0015,1","99999,9,9,N","009999,1,9,9","+0260,1","+0220,1","99999,9","02,1,+02743,1,99,9",,"9,AGL   ,+99999,+99999","99,99,9,02,1,99,9,02743,1,99,9,99,9","10140,1,99999,9",,,,"MET051METAR SKSA 231300Z 32003KT 9999 FEW090 26/22 Q1014=",
"80222599999","2023-12-23T14:00:00","4","6.95","-71.85","213.0","LOS COLONIZADORES, CO","FM-15","99999","V020","300,1,N,0026,1","22000,1,9,N","009999,1,9,9","+0290,1","+0210,1","99999,9",,,,"00,99,1,99,9,99,9,99999,9,99,9,99,9","10130,1,99999,9",,,,"MET048METAR SKSA 231400Z 30005KT 9999 NSC 29/21 Q1013=",
"80222599999","2023-12-23T15:00:00","4","6.95","-71.85","213.0","LOS COLONIZADORES, CO","FM-15","99999","V020","300,1,N,0026,1","22000,1,9,N","009999,1,9,9","+0320,1","+0220,1","99999,9",,,,"00,99,1,99,9,99,9,99999,9,99,9,99,9","10130,1,99999,9",,,,"MET048METAR SKSA 231500Z 30005KT 9999 NSC 32/22 Q1013=",
"80222599999","2023-12-23T16:00:00","4","6.95","-71.85","213.0","LOS COLONIZADORES, CO","FM-15","99999","V020","300,1,N,0026,1","22000,1,9,N","009999,1,9,9","+0330,1","+0210,1","99999,9",,,,"00,99,1,99,9,99,9,99999,9,99,9,99,9","10120,1,99999,9",,,,"MET048METAR SKSA 231600Z 30005KT 9999 NSC 33/21 Q1012=",
"80222599999","2023-12-23T17:00:00","4","6.95","-71.85","213.0","LOS COLONIZADORES, CO","FM-15","99999","V020","030,1,N,0026,1","22000,1,9,N","009999,1,9,9","+0330,1","+0210,1","99999,9",,,,"00,99,1,99,9,99,9,99999,9,99,9,99,9","10120,1,99999,9",,,,"MET048METAR SKSA 231700Z 03005KT 9999 NSC 33/21 Q1012=",
"80222599999","2023-12-23T18:00:00","4","6.95","-71.85","213.0","LOS COLONIZADORES, CO","FM-15","99999","V020","070,1,N,0021,1","99999,9,9,N","009999,1,9,9","+0320,1","+0230,1","99999,9","04,1,+02743,1,99,9",,"9,AGL   ,+99999,+99999","99,99,9,04,1,99,9,02743,1,99,9,99,9","10110,1,99999,9","16,1",,,"MET068METAR SKSA 231800Z 07004KT 9999 VCSH SCT090 32/23 Q1011 RMK VCSH SW=",
"80222599999","2023-12-23T19:00:00","4","6.95","-71.85","213.0","LOS COLONIZADORES, CO","FM-15","99999","V020","170,1,N,0031,1","99999,9,9,N","009999,1,9,9","+0300,1","+0240,1","99999,9","04,1,+02743,1,99,9",,"9,AGL   ,+99999,+99999","99,99,9,04,1,99,9,02743,1,99,9,99,9","10100,1,99999,9","16,1",,,"MET067METAR SKSA 231900Z 17006KT 9999 VCSH SCT090 30/24 Q1010 RMK VCSH W=",
"80222599999","2023-12-23T20:00:00","4","6.95","-71.85","213.0","LOS COLONIZADORES, CO","FM-15","99999","V020","220,1,N,0041,1","02743,1,C,N","009999,1,9,9","+0290,1","+0230,1","99999,9","07,1,+02743,1,99,9",,"9,AGL   ,+99999,+99999","99,99,9,07,1,99,9,02743,1,99,9,99,9","10090,1,99999,9","16,1",,,"MET067METAR SKSA 232000Z 22008KT 9999 VCSH BKN090 29/23 Q1009 RMK VCSH W=",
"80222599999","2023-12-23T21:00:00","4","6.95","-71.85","213.0","LOS COLONIZADORES, CO","FM-15","99999","V020","250,1,N,0031,1","02743,1,C,N","009999,1,9,9","+0260,1","+0200,1","99999,9","07,1,+02743,1,99,9",,"9,AGL   ,+99999,+99999","99,99,9,07,1,99,9,02743,1,99,9,99,9","10090,1,99999,9",,,,"MET055METAR SKSA 232100Z 25006KT 9999 BKN090 26/20 Q1009 RMK=",
"80222599999","2023-12-23T23:00:00","4","6.95","-71.85","213.0","LOS COLONIZADORES, CO","FM-15","99999","V020","260,1,N,0021,1","22000,1,9,N","009999,1,9,9","+0260,1","+0210,1","99999,9",,,,"00,99,1,99,9,99,9,99999,9,99,9,99,9","10090,1,99999,9",,,,"MET048METAR SKSA 232300Z 26004KT 9999 NSC 26/21 Q1009=",
"80222599999","2023-12-24T11:00:00","4","6.95","-71.85","213.0","LOS COLONIZADORES, CO","FM-15","99999","V020","300,1,N,0015,1","02743,1,C,N","009999,1,9,9","+0240,1","+0220,1","99999,9","07,1,+02743,1,99,9",,"9,AGL   ,+99999,+99999","99,99,9,07,1,99,9,02743,1,99,9,99,9","10110,1,99999,9",,,,"MET051METAR SKSA 241100Z 30003KT 9999 BKN090 24/22 Q1011=",
"80222599999","2023-12-24T12:00:00","4","6.95","-71.85","213.0","LOS COLONIZADORES, CO","FM-15","99999","V020","290,1,N,0015,1","99999,9,9,N","009999,1,9,9","+0260,1","+0210,1","99999,9","02,1,+02743,1,99,9",,"9,AGL   ,+99999,+99999","99,99,9,02,1,99,9,02743,1,99,9,99,9","10120,1,99999,9",,,,"MET051METAR SKSA 241200Z 29003KT 9999 FEW090 26/21 Q1012=",
"80222599999","2023-12-24T13:00:00","4","6.95","-71.85","213.0","LOS COLONIZADORES, CO","FM-15","99999","V020","310,1,N,0041,1","99999,9,9,N","009999,1,9,9","+0280,1","+0220,1","99999,9","02,1,+02743,1,99,9",,"9,AGL   ,+99999,+99999","99,99,9,02,1,99,9,02743,1,99,9,99,9","10130,1,99999,9","16,1",,,"MET067METAR SKSA 241300Z 31008KT 9999 VCSH FEW090 28/22 Q1013 RMK VCSH W=",
"80222599999","2023-12-24T14:00:00","4","6.95","-71.85","213.0","LOS COLONIZADORES, CO","FM-15","99999","V020","310,1,N,0041,1","02743,1,C,N","009999,1,9,9","+0280,1","+0220,1","99999,9","07,1,+02743,1,99,9",,"9,AGL   ,+99999,+99999","99,99,9,07,1,99,9,02743,1,99,9,99,9","10130,1,99999,9","16,1",,,"MET067METAR SKSA 241400Z 31008KT 9999 VCSH BKN090 28/22 Q1013 RMK VCSH W=",
"80222599999","2023-12-24T15:00:00","4","6.95","-71.85","213.0","LOS COLONIZADORES, CO","FM-15","99999","V020","320,1,N,0031,1","02743,1,C,N","009999,1,9,9","+0290,1","+0230,1","99999,9","07,1,+02743,1,99,9",,"9,AGL   ,+99999,+99999","99,99,9,07,1,99,9,02743,1,99,9,99,9","10130,1,99999,9","16,1",,,"MET067METAR SKSA 241500Z 32006KT 9999 VCSH BKN090 29/23 Q1013 RMK VCSH W=",
"80222599999","2023-12-24T16:00:00","4","6.95","-71.85","213.0","LOS COLONIZADORES, CO","FM-15","99999","V020","320,1,N,0036,1","99999,9,9,N","009999,1,9,9","+0310,1","+0240,1","99999,9","04,1,+02743,1,99,9",,"9,AGL   ,+99999,+99999","99,99,9,04,1,99,9,02743,1,99,9,99,9","10130,1,99999,9","16,1",,,"MET067METAR SKSA 241600Z 32007KT 9999 VCSH SCT090 31/24 Q1013 RMK VCSH W=",
"80222599999","2023-12-24T17:00:00","4","6.95","-71.85","213.0","LOS COLONIZADORES, CO","FM-15","99999","V020","300,1,N,0021,1","99999,9,9,N","009999,1,9,9","+0310,1","+0220,1","99999,9","04,1,+02743,1,99,9",,"9,AGL   ,+99999,+99999","99,99,9,04,1,99,9,02743,1,99,9,99,9","10120,1,99999,9","16,1",,,"MET067METAR SKSA 241700Z 30004KT 9999 VCSH SCT090 31/22 Q1012 RMK VCSH W=",
"80222599999","2023-12-24T18:00:00","4","6.95","-71.85","213.0","LOS COLONIZADORES, CO","FM-15","99999","V020","250,1,N,0021,1","02743,1,C,N","009999,1,9,9","+0300,1","+0230,1","99999,9","07,1,+02743,1,99,9",,"9,AGL   ,+99999,+99999","99,99,9,07,1,99,9,02743,1,99,9,99,9","10110,1,99999,9","16,1",,,"MET067METAR SKSA 241800Z 25004KT 9999 VCSH BKN090 30/23 Q1011 RMK VCSH W=",
"80222599999","2023-12-24T19:00:00","4","6.95","-71.85","213.0","LOS COLONIZADORES, CO","FM-15","99999","V020","220,1,N,0021,1","99999,9,9,N","009999,1,9,9","+0280,1","+0230,1","99999,9","04,1,+02743,1,99,9",,"9,AGL   ,+99999,+99999","99,99,9,04,1,99,9,02743,1,99,9,99,9","10100,1,99999,9",,,,"MET051METAR SKSA 241900Z 22004KT 9999 SCT090 28/23 Q1010=",
"80222599999","2023-12-24T21:00:00","4","6.95","-71.85","213.0","LOS COLONIZADORES, CO","FM-15","99999","V020","310,1,N,0031,1","99999,9,9,N","009999,1,9,9","+0300,1","+0230,1","99999,9","02,1,+02743,1,99,9",,"9,AGL   ,+99999,+99999","99,99,9,02,1,99,9,02743,1,99,9,99,9","10090,1,99999,9",,,,"MET051METAR SKSA 242100Z 31006KT 9999 FEW090 30/23 Q1009=",
"80222599999","2023-12-25T12:00:00","4","6.95","-71.85","213.0","LOS COLONIZADORES, CO","FM-15","99999","V020","350,1,N,0015,1","02438,1,C,N","009999,1,9,9","+0240,1","+0230,1","99999,9","07,1,+02438,1,99,9",,"9,AGL   ,+99999,+99999","99,99,9,07,1,99,9,02438,1,99,9,99,9","10120,1,99999,9",,,,"MET051METAR SKSA 251200Z 35003KT 9999 BKN080 24/23 Q1012=",
"80222599999","2023-12-25T13:00:00","4","6.95","-71.85","213.0","LOS COLONIZADORES, CO","FM-15","99999","V020","350,1,N,0015,1","02743,1,C,N","009999,1,9,9","+0250,1","+0230,1","99999,9","07,1,+02743,1,99,9",,"9,AGL   ,+99999,+99999","99,99,9,07,1,99,9,02743,1,99,9,99,9","10140,1,99999,9",,,,"MET051METAR SKSA 251300Z 35003KT 9999 BKN090 25/23 Q1014=",
"80222599999","2023-12-25T14:00:00","4","6.95","-71.85","213.0","LOS COLONIZADORES, CO","FM-15","99999","V020","300,1,N,0021,1","02134,1,C,N","009999,1,9,9","+0280,1","+0230,1","99999,9","07,1,+02134,1,99,9",,"9,AGL   ,+99999,+99999","99,99,9,07,1,99,9,02134,1,99,9,99,9","10130,1,99999,9",,,,"MET051METAR SKSA 251400Z 30004KT 9999 BKN070 28/23 Q1013=",
"80222599999","2023-12-25T15:00:00","4","6.95","-71.85","213.0","LOS COLONIZADORES, CO","FM-15","99999","V020","320,1,N,0015,1","02134,1,C,N","009999,1,9,9","+0300,1","+0220,1","99999,9","07,1,+02134,1,99,9",,"9,AGL   ,+99999,+99999","99,99,9,07,1,99,9,02134,1,99,9,99,9","10140,1,99999,9",,,,"MET051METAR SKSA 251500Z 32003KT 9999 BKN070 30/22 Q1014=",
"80222599999","2023-12-25T16:00:00","4","6.95","-71.85","213.0","LOS COLONIZADORES, CO","FM-15","99999","V020","010,1,N,0021,1","02743,1,C,N","009999,1,9,9","+0310,1","+0240,1","99999,9","07,1,+02743,1,99,9",,"9,AGL   ,+99999,+99999","99,99,9,07,1,99,9,02743,1,99,9,99,9","10130,1,99999,9",,,,"MET051METAR SKSA 251600Z 01004KT 9999 BKN090 31/24 Q1013=",
"80222599999","2023-12-25T17:00:00","4","6.95","-71.85","213.0","LOS COLONIZADORES, CO","FM-15","99999","V020","320,1,N,0021,1","99999,9,9,N","009999,1,9,9","+0320,1","+0230,1","99999,9","04,1,+02743,1,99,9",,"9,AGL   ,+99999,+99999","99,99,9,04,1,99,9,02743,1,99,9,99,9","10120,1,99999,9",,,,"MET051METAR SKSA 251700Z 32004KT 9999 SCT090 32/23 Q1012=",
"80222599999","2023-12-25T18:00:00","4","6.95","-71.85","213.0","LOS COLONIZADORES, CO","FM-15","99999","V020","320,1,N,0021,1","99999,9,9,N","009999,1,9,9","+0330,1","+0220,1","99999,9","04,1,+02743,1,99,9",,"9,AGL   ,+99999,+99999","99,99,9,04,1,99,9,02743,1,99,9,99,9","10110,1,99999,9",,,,"MET051METAR SKSA 251800Z 32004KT 9999 SCT090 33/22 Q1011=",
"80222599999","2023-12-25T19:00:00","4","6.95","-71.85","213.0","LOS COLONIZADORES, CO","FM-15","99999","V020","230,1,N,0031,1","99999,9,9,N","009999,1,9,9","+0320,1","+0230,1","99999,9","04,1,+02743,1,99,9",,"9,AGL   ,+99999,+99999","99,99,9,04,1,99,9,02743,1,99,9,99,9","10100,1,99999,9",,,,"MET051METAR SKSA 251900Z 23006KT 9999 SCT090 32/23 Q1010=",
"80222599999","2023-12-25T20:00:00","4","6.95","-71.85","213.0","LOS COLONIZADORES, CO","FM-15","99999","V020","260,1,N,0031,1","99999,9,9,N","009999,1,9,9","+0310,1","+0230,1","99999,9","04,1,+02743,1,99,9",,"9,AGL   ,+99999,+99999","99,99,9,04,1,99,9,02743,1,99,9,99,9","10090,1,99999,9",,,,"MET051METAR SKSA 252000Z 26006KT 9999 SCT090 31/23 Q1009=",
"80222599999","2023-12-25T21:00:00","4","6.95","-71.85","213.0","LOS COLONIZADORES, CO","FM-15","99999","V020","230,1,N,0021,1","99999,9,9,N","009999,1,9,9","+0300,1","+0230,1","99999,9","04,1,+02743,1,99,9",,"9,AGL   ,+99999,+99999","99,99,9,04,1,99,9,02743,1,99,9,99,9","10090,1,99999,9",,,,"MET051METAR SKSA 252100Z 23004KT 9999 SCT090 30/23 Q1009=",
"80222599999","2023-12-25T22:00:00","4","6.95","-71.85","213.0","LOS COLONIZADORES, CO","FM-15","99999","V020","220,1,N,0021,1","99999,9,9,N","009999,1,9,9","+0300,1","+0230,1","99999,9","04,1,+02743,1,99,9",,"9,AGL   ,+99999,+99999","99,99,9,04,1,99,9,02743,1,99,9,99,9","10090,1,99999,9",,,,"MET051METAR SKSA 252200Z 22004KT 9999 SCT090 30/23 Q1009=",
"80222599999","2023-12-25T23:00:00","4","6.95","-71.85","213.0","LOS COLONIZADORES, CO","FM-15","99999","V020","999,9,V,0010,1","99999,9,9,N","009999,1,9,9","+0270,1","+0240,1","99999,9","04,1,+01524,1,99,9",,"9,AGL   ,+99999,+99999","99,99,9,04,1,99,9,01524,1,99,9,99,9","10100,1,99999,9",,,,"MET051METAR SKSA 252300Z VRB02KT 9999 SCT050 27/24 Q1010=",
"80222599999","2023-12-26T11:00:00","4","6.95","-71.85","213.0","LOS COLONIZADORES, CO","FM-15","99999","V020","280,1,N,0026,1","99999,9,9,N","006000,1,9,9","+0230,5","+0230,5","99999,9",,,,,"10130,5,99999,9","81,1",,,"MET057METAR SKSA 261100Z 28005KT 6000 SHRA/ OVC030 23/23 Q1013=","D01      0ADE693D02      0ADE539"
"80222599999","2023-12-26T12:00:00","4","6.95","-71.85","213.0","LOS COLONIZADORES, CO","FM-15","99999","V020","280,1,N,0026,1","00914,1,C,N","006000,1,9,9","+0230,1","+0230,1","99999,9","08,1,+00914,1,99,9",,"9,AGL   ,+99999,+99999","99,99,9,08,1,99,9,00914,1,99,9,99,9","10130,1,99999,9","81,1",,,"MET056METAR SKSA 261200Z 28005KT 6000 SHRA OVC030 23/23 Q1013=",
"80222599999","2023-12-26T13:00:00","4","6.95","-71.85","213.0","LOS COLONIZADORES, CO","FM-15","99999","V020","280,1,N,0026,1","00762,1,C,N","006000,1,9,9","+0230,1","+0230,1","99999,9","08,1,+00762,1,99,9",,"9,AGL   ,+99999,+99999","99,99,9,08,1,99,9,00762,1,99,9,99,9","10140,1,99999,9","81,1",,,"MET056METAR SKSA 261300Z 28005KT 6000 SHRA OVC025 23/23 Q1014=",
"80222599999","2023-12-26T14:00:00","4","6.95","-71.85","213.0","LOS COLONIZADORES, CO","FM-15","99999","V020","250,1,N,0026,1","00762,1,C,N","005000,1,9,9","+0230,1","+0230,1","99999,9","08,1,+00762,1,99,9",,"9,AGL   ,+99999,+99999","99,99,9,08,1,99,9,00762,1,99,9,99,9","10150,1,99999,9","81,1",,,"MET056METAR SKSA 261400Z 25005KT 5000 SHRA OVC025 23/23 Q1015=",
"80222599999","2023-12-26T15:00:00","4","6.95","-71.85","213.0","LOS COLONIZADORES, CO","FM-15","99999","V020","250,1,N,0026,1","00762,1,C,N","006000,1,9,9","+0230,1","+0230,1","99999,9","08,1,+00762,1,99,9",,"9,AGL   ,+99999,+99999","99,99,9,08,1,99,9,00762,1,99,9,99,9","10130,1,99999,9","80,1",,,"MET057METAR SKSA 261500Z 25005KT 6000 -SHRA OVC025 23/23 Q1013=",
"80222599999","2023-12-26T16:00:00","4","6.95","-71.85","213.0","LOS COLONIZADORES, CO","FM-15","99999","V020","270,1,N,0026,1","00762,1,C,N","008000,1,9,9","+0240,1","+0240,1","99999,9","08,1,+00762,1,99,9",,"9,AGL   ,+99999,+99999","99,99,9,08,1,99,9,00762,1,99,9,99,9","10140,1,99999,9","80,1",,,"MET057METAR SKSA 261600Z 27005KT 8000 -SHRA OVC025 24/24 Q1014=",
"80222599999","2023-12-26T17:00:00","4","6.95","-71.85","213.0","LOS COLONIZADORES, CO","FM-15","99999","V020","270,1,N,0026,1","00914,1,C,N","008000,1,9,9","+0240,1","+0240,1","99999,9","08,1,+00914,1,99,9",,"9,AGL   ,+99999,+99999","99,99,9,08,1,99,9,00914,1,99,9,99,9","10130,1,99999,9","16,1",,,"MET068METAR SKSA 261700Z 27005KT 8000 VCSH OVC030 24/24 Q1013 RMK VCSH SW=",
"80222599999","2023-12-26T18:00:00","4","6.95","-71.85","213.0","LOS COLONIZADORES, CO","FM-15","99999","V020","310,1,N,0021,1","22000,1,9,N","009999,1,9,9","+0280,1","+0240,1","99999,9",,,,"00,99,1,99,9,99,9,99999,9,99,9,99,9","10120,1,99999,9",,,,"MET048METAR SKSA 261800Z 31004KT 9999 NSC 28/24 Q1012=",
"80222599999","2023-12-26T22:00:00","4","6.95","-71.85","213.0","LOS COLONIZADORES, CO","FM-15","99999","V020","999,9,C,0000,1","22000,1,9,N","009999,1,9,9","+0290,1","+0260,1","99999,9",,,,"00,99,1,99,9,99,9,99999,9,99,9,99,9","10090,1,99999,9",,,,"MET048METAR SKSA 262200Z 00000KT 9999 NSC 29/26 Q1009=",
"80222599999","2023-12-26T23:00:00","4","6.95","-71.85","213.0","LOS COLONIZADORES, CO","FM-15","99999","V020","999,9,C,0000,1","22000,1,9,N","009999,1,9,9","+0250,1","+0250,1","99999,9",,,,"00,99,1,99,9,99,9,99999,9,99,9,99,9","10090,1,99999,9",,,,"MET048METAR SKSA 262300Z 00000KT 9999 NSC 25/25 Q1009=",
"80222599999","2023-12-27T11:00:00","4","6.95","-71.85","213.0","LOS COLONIZADORES, CO","FM-15","99999","V020","999,9,V,0010,1","02743,1,C,N","009999,1,9,9","+0230,1","+0230,1","99999,9","08,1,+02743,1,99,9",,"9,AGL   ,+99999,+99999","99,99,9,08,1,99,9,02743,1,99,9,99,9","10120,1,99999,9",,,,"MET051METAR SKSA 271100Z VRB02KT 9999 OVC090 23/23 Q1012=",
"80222599999","2023-12-27T12:00:00","4","6.95","-71.85","213.0","LOS COLONIZADORES, CO","FM-15","99999","V020","999,9,V,0010,1","02743,1,C,N","009999,1,9,9","+0240,1","+0230,1","99999,9","07,1,+02743,1,99,9",,"9,AGL   ,+99999,+99999","99,99,9,07,1,99,9,02743,1,99,9,99,9","10130,1,99999,9",,,,"MET051METAR SKSA 271200Z VRB02KT 9999 BKN090 24/23 Q1013=",
"80222599999","2023-12-27T13:00:00","4","6.95","-71.85","213.0","LOS COLONIZADORES, CO","FM-15","99999","V020","999,9,V,0010,1","22000,1,9,N","009999,1,9,9","+0270,1","+0230,1","99999,9",,,,"00,99,1,99,9,99,9,99999,9,99,9,99,9","10130,1,99999,9",,,,"MET048METAR SKSA 271300Z VRB02KT 9999 NSC 27/23 Q1013=",
"80222599999","2023-12-27T14:00:00","4","6.95","-71.85","213.0","LOS COLONIZADORES, CO","FM-15","99999","V020","999,9,V,0010,1","22000,1,9,N","009999,1,9,9","+0290,1","+0240,1","99999,9",,,,"00,99,1,99,9,99,9,99999,9,99,9,99,9","10140,1,99999,9",,,,"MET048METAR SKSA 271400Z VRB02KT 9999 NSC 29/24 Q1014=",
"80222599999","2023-12-27T15:00:00","4","6.95","-71.85","213.0","LOS COLONIZADORES, CO","FM-15","99999","V020","999,9,V,0010,1","99999,9,9,N","009999,1,9,9","+0300,1","+0230,1","99999,9","04,1,+02743,1,99,9",,"9,AGL   ,+99999,+99999","99,99,9,04,1,99,9,02743,1,99,9,99,9","10130,1,99999,9",,,,"MET051METAR SKSA 271500Z VRB02KT 9999 SCT090 30/23 Q1013=",
"80222599999","2023-12-27T16:00:00","4","6.95","-71.85","213.0","LOS COLONIZADORES, CO","FM-15","99999","V020","120,1,N,0021,1","99999,9,9,N","009999,1,9,9","+0310,1","+0250,1","99999,9","02,1,+02743,1,99,9",,"9,AGL   ,+99999,+99999","99,99,9,02,1,99,9,02743,1,99,9,99,9","10130,1,99999,9",,,,"MET051METAR SKSA 271600Z 12004KT 9999 FEW090 31/25 Q1013=",
"80222599999","2023-12-27T17:00:00","4","6.95","-71.85","213.0","LOS COLONIZADORES, CO","FM-15","99999","V020","110,1,N,0021,1","22000,1,9,N","009999,1,9,9","+0310,1","+0220,1","99999,9",,,,"00,99,1,99,9,99,9,99999,9,99,9,99,9","10120,1,99999,9",,,,"MET048METAR SKSA 271700Z 11004KT 9999 NSC 31/22 Q1012=",
"80222599999","2023-12-27T18:00:00","4","6.95","-71.85","213.0","LOS COLONIZADORES, CO","FM-15","99999","V020","050,1,N,0021,1","22000,1,9,N","009999,1,9,9","+0320,1","+0240,1","99999,9",,,,"00,99,1,99,9,99,9,99999,9,99,9,99,9","10110,1,99999,9",,,,"MET048METAR SKSA 271800Z 05004KT 9999 NSC 32/24 Q1011=",
"80222599999","2023-12-27T19:00:00","4","6.95","-71.85","213.0","LOS COLONIZADORES, CO","FM-15","99999","V020","050,1,N,0015,1","99999,9,9,N","009999,1,9,9","+0310,1","+0240,1","99999,9","02,1,+02743,1,99,9",,"9,AGL   ,+99999,+99999","99,99,9,02,1,99,9,02743,1,99,9,99,9","10090,1,99999,9",,,,"MET051METAR SKSA 271900Z 05003KT 9999 FEW090 31/24 Q1009=",
"80222599999","2023-12-27T20:00:00","4","6.95","-71.85","213.0","LOS COLONIZADORES, CO","FM-15","99999","V020","060,1,N,0015,1","99999,9,9,N","009999,1,9,9","+0320,1","+0230,1","99999,9","02,1,+02743,1,99,9",,"9,AGL   ,+99999,+99999","99,99,9,02,1,99,9,02743,1,99,9,99,9","10090,1,99999,9",,,,"MET051METAR SKSA 272000Z 06003KT 9999 FEW090 32/23 Q1009=",
"80222599999","2023-12-27T21:00:00","4","6.95","-71.85","213.0","LOS COLONIZADORES, CO","FM-15","99999","V020","090,1,N,0021,1","22000,1,9,N","009999,1,9,9","+0320,1","+0230,1","99999,9",,,,"00,99,1,99,9,99,9,99999,9,99,9,99,9","10080,1,99999,9",,,,"MET048METAR SKSA 272100Z 09004KT 9999 NSC 32/23 Q1008=",
"80222599999","2023-12-27T22:00:00","4","6.95","-71.85","213.0","LOS COLONIZADORES, CO","FM-15","99999","V020","999,9,V,0010,1","22000,1,9,N","009999,1,9,9","+0310,1","+0250,1","99999,9",,,,"00,99,1,99,9,99,9,99999,9,99,9,99,9","10080,1,99999,9",,,,"MET048METAR SKSA 272200Z VRB02KT 9999 NSC 31/25 Q1008=",
"80222599999","2023-12-27T23:00:00","4","6.95","-71.85","213.0","LOS COLONIZADORES, CO","FM-15","99999","V020","999,9,V,0010,1","22000,1,9,N","009999,1,9,9","+0280,1","+0250,1","99999,9",,,,"00,99,1,99,9,99,9,99999,9,99,9,99,9","10090,1,99999,9",,,,"MET048METAR SKSA 272300Z VRB02KT 9999 NSC 28/25 Q1009=",
"80222599999","2023-12-28T12:00:00","4","6.95","-71.85","213.0","LOS COLONIZADORES, CO","FM-15","99999","V020","150,1,N,0015,1","02743,1,C,N","009999,1,9,9","+0240,1","+0240,1","99999,9","07,1,+02743,1,99,9",,"9,AGL   ,+99999,+99999","99,99,9,07,1,99,9,02743,1,99,9,99,9","10120,1,99999,9","16,1",,,"MET067METAR SKSA 281200Z 15003KT 9999 VCSH BKN090 24/24 Q1012 RMK VCSH W=",
"80222599999","2023-12-28T13:00:00","4","6.95","-71.85","213.0","LOS COLONIZADORES, CO","FM-15","99999","V020","999,9,N,9999,9","99999,9,9,N","011265,5,9,9","+0270,5","+0240,5","99999,9",,,,,"10130,5,99999,9","16,5",,,"MET067METAR SKSA 281300Z 0903KT 9999 VCSH SCT090 27/24 Q1013 RMK VCSH NW=","D01      0ADE693D02      0ADE539D03      0ADE592D04      0ADE735"
"80222599999","2023-12-28T14:00:00","4","6.95","-71.85","213.0","LOS COLONIZADORES, CO","FM-15","99999","V020","050,1,N,0026,1","02743,1,C,N","009999,1,9,9","+0260,1","+0250,1","99999,9","07,1,+02743,1,99,9",,"9,AGL   ,+99999,+99999","99,99,9,07,1,99,9,02743,1,99,9,99,9","10140,1,99999,9","16,1",,,"MET068METAR SKSA 281400Z 05005KT 9999 VCSH BKN090 26/25 Q1014 RMK VCSH NW=",
"80222599999","2023-12-28T15:00:00","4","6.95","-71.85","213.0","LOS COLONIZADORES, CO","FM-15","99999","V020","999,9,V,0010,1","02438,1,C,N","009999,1,9,9","+0270,1","+0240,1","99999,9","07,1,+02438,1,99,9",,"9,AGL   ,+99999,+99999","99,99,9,07,1,99,9,02438,1,99,9,99,9","10140,1,99999,9",,,,"MET051METAR SKSA 281500Z VRB02KT 9999 BKN080 27/24 Q1014=",
"80222599999","2023-12-28T17:00:00","4","6.95","-71.85","213.0","LOS COLONIZADORES, CO","FM-15","99999","V020","010,1,N,0031,1","02438,1,C,N","009999,1,9,9","+0270,1","+0240,1","99999,9","07,1,+02438,1,99,9",,"9,AGL   ,+99999,+99999","99,99,9,07,1,99,9,02438,1,99,9,99,9","10130,1,99999,9","16,1",,,"MET068METAR SKSA 281700Z 01006KT 9999 VCSH BKN080 27/24 Q1013 RMK VCSH SW=",
"80222599999","2023-12-28T18:00:00","4","6.95","-71.85","213.0","LOS COLONIZADORES, CO","FM-15","99999","V020","340,1,N,0026,1","02438,1,C,N","009999,1,9,9","+0290,1","+0240,1","99999,9","07,1,+02438,1,99,9",,"9,AGL   ,+99999,+99999","99,99,9,07,1,99,9,02438,1,99,9,99,9","10110,1,99999,9","16,1",,,"MET068METAR SKSA 281800Z 34005KT 9999 VCSH BKN080 29/24 Q1011 RMK VCSH SE=",
"80222599999","2023-12-28T19:00:00","4","6.95","-71.85","213.0","LOS COLONIZADORES, CO","FM-15","99999","V020","999,9,V,0010,1","02134,1,C,N","009999,1,9,9","+0300,1","+0240,1","99999,9","07,1,+02134,1,99,9",,"9,AGL   ,+99999,+99999","99,99,9,07,1,99,9,02134,1,99,9,99,9","10130,1,99999,9","16,1",,,"MET068METAR SKSA 281900Z VRB02KT 9999 VCSH BKN070 30/24 Q1013 RMK VCSH SE=",
"80222599999","2023-12-28T20:00:00","4","6.95","-71.85","213.0","LOS COLONIZADORES, CO","FM-15","99999","V020","999,9,V,0010,1","02134,1,C,N","009999,1,9,9","+0290,1","+0240,1","99999,9","07,1,+02134,1,99,9",,"9,AGL   ,+99999,+99999","99,99,9,07,1,99,9,02134,1,99,9,99,9","10100,1,99999,9",,,,"MET051METAR SKSA 282000Z VRB02KT 9999 BKN070 29/24 Q1010=",
"80222599999","2023-12-29T11:00:00","4","6.95","-71.85","213.0","LOS COLONIZADORES, CO","FM-15","99999","V020","999,9,C,0000,1","02743,1,C,N","009999,1,9,9","+0230,1","+0220,1","99999,9","08,1,+02743,1,99,9",,"9,AGL   ,+99999,+99999","99,99,9,08,1,99,9,02743,1,99,9,99,9","10120,1,99999,9",,,,"MET051METAR SKSA 291100Z 00000KT 9999 OVC090 23/22 Q1012=",
"80222599999","2023-12-29T12:00:00","4","6.95","-71.85","213.0","LOS COLONIZADORES, CO","FM-15","99999","V020","999,9,C,0000,1","02743,1,C,N","009999,1,9,9","+0230,1","+0220,1","99999,9","08,1,+02743,1,99,9",,"9,AGL   ,+99999,+99999","99,99,9,08,1,99,9,02743,1,99,9,99,9","10130,1,99999,9",,,,"MET051METAR SKSA 291200Z 00000KT 9999 OVC090 23/22 Q1013=",
"80222599999","2023-12-29T13:00:00","4","6.95","-71.85","213.0","LOS COLONIZADORES, CO","FM-15","99999","V020","999,9,C,0000,1","02743,1,C,N","009999,1,9,9","+0260,1","+0240,1","99999,9","07,1,+02743,1,99,9",,"9,AGL   ,+99999,+99999","99,99,9,07,1,99,9,02743,1,99,9,99,9","10140,1,99999,9",,,,"MET051METAR SKSA 291300Z 00000KT 9999 BKN090 26/24 Q1014=",
"80222599999","2023-12-29T14:00:00","4","6.95","-71.85","213.0","LOS COLONIZADORES, CO","FM-15","99999","V020","999,9,C,0000,1","02134,1,C,N","009999,1,9,9","+0280,1","+0230,1","99999,9","07,1,+02134,1,99,9",,"9,AGL   ,+99999,+99999","99,99,9,07,1,99,9,02134,1,99,9,99,9","10150,1,99999,9",,,,"MET051METAR SKSA 291400Z 00000KT 9999 BKN070 28/23 Q1015=",
"80222599999","2023-12-29T15:00:00","4","6.95","-71.85","213.0","LOS COLONIZADORES, CO","FM-15","99999","V020","999,9,C,0000,1","02134,1,C,N","009999,1,9,9","+0310,1","+0230,1","99999,9","07,1,+02134,1,99,9",,"9,AGL   ,+99999,+99999","99,99,9,07,1,99,9,02134,1,99,9,99,9","10150,1,99999,9",,,,"MET051METAR SKSA 291500Z 00000KT 9999 BKN070 31/23 Q1015=",
"80222599999","2023-12-29T16:00:00","4","6.95","-71.85","213.0","LOS COLONIZADORES, CO","FM-15","99999","V020","290,1,N,0015,1","22000,1,9,N","009999,1,9,9","+0320,1","+0230,1","99999,9",,,,"00,99,1,99,9,99,9,99999,9,99,9,99,9","10140,1,99999,9",,,,"MET048METAR SKSA 291600Z 29003KT 9999 NSC 32/23 Q1014=",
"80222599999","2023-12-29T17:00:00","4","6.95","-71.85","213.0","LOS COLONIZADORES, CO","FM-15","99999","V020","999,9,V,0010,1","22000,1,9,N","009999,1,9,9","+0320,1","+0220,1","99999,9",,,,"00,99,1,99,9,99,9,99999,9,99,9,99,9","10130,1,99999,9",,,,"MET048METAR SKSA 291700Z VRB02KT 9999 NSC 32/22 Q1013=",
"80222599999","2023-12-29T18:00:00","4","6.95","-71.85","213.0","LOS COLONIZADORES, CO","FM-15","99999","V020","999,9,V,0010,1","22000,1,9,N","009999,1,9,9","+0300,1","+0230,1","99999,9",,,,"00,99,1,99,9,99,9,99999,9,99,9,99,9","10120,1,99999,9",,,,"MET048METAR SKSA 291800Z VRB02KT 9999 NSC 30/23 Q1012=",
"80222599999","2023-12-29T19:00:00","4","6.95","-71.85","213.0","LOS COLONIZADORES, CO","FM-15","99999","V020","999,9,V,0010,1","22000,1,9,N","009999,1,9,9","+0320,1","+0240,1","99999,9",,,,"00,99,1,99,9,99,9,99999,9,99,9,99,9","10110,1,99999,9",,,,"MET048METAR SKSA 291900Z VRB02KT 9999 NSC 32/24 Q1011=",
"80222599999","2023-12-29T20:00:00","4","6.95","-71.85","213.0","LOS COLONIZADORES, CO","FM-15","99999","V020","999,9,V,0010,1","22000,1,9,N","009999,1,9,9","+0330,1","+0230,1","99999,9",,,,"00,99,1,99,9,99,9,99999,9,99,9,99,9","10100,1,99999,9",,,,"MET048METAR SKSA 292000Z VRB02KT 9999 NSC 33/23 Q1010=",
"80222599999","2023-12-29T21:00:00","4","6.95","-71.85","213.0","LOS COLONIZADORES, CO","FM-15","99999","V020","999,9,V,0010,1","99999,9,9,N","009999,1,9,9","+0310,1","+0240,1","99999,9","02,1,+02743,1,99,9",,"9,AGL   ,+99999,+99999","99,99,9,02,1,99,9,02743,1,99,9,99,9","10100,1,99999,9",,,,"MET051METAR SKSA 292100Z VRB02KT 9999 FEW090 31/24 Q1010=",
"80222599999","2023-12-29T22:00:00","4","6.95","-71.85","213.0","LOS COLONIZADORES, CO","FM-15","99999","V020","999,9,V,0010,1","22000,1,9,N","009999,1,9,9","+0300,1","+0260,1","99999,9",,,,"00,99,1,99,9,99,9,99999,9,99,9,99,9","10100,1,99999,9",,,,"MET048METAR SKSA 292200Z VRB02KT 9999 NSC 30/26 Q1010=",
"80222599999","2023-12-29T23:00:00","4","6.95","-71.85","213.0","LOS COLONIZADORES, CO","FM-15","99999","V020","999,9,C,0000,1","22000,1,9,N","009999,1,9,9","+0270,1","+0260,1","99999,9",,,,"00,99,1,99,9,99,9,99999,9,99,9,99,9","10100,1,99999,9",,,,"MET048METAR SKSA 292300Z 00000KT 9999 NSC 27/26 Q1010=",
"80222599999","2023-12-30T11:00:00","4","6.95","-71.85","213.0","LOS COLONIZADORES, CO","FM-15","99999","V020","310,1,N,0015,1","99999,9,9,N","009999,1,9,9","+0240,1","+0230,1","99999,9","04,1,+02743,1,99,9",,"9,AGL   ,+99999,+99999","99,99,9,04,1,99,9,02743,1,99,9,99,9","10130,1,99999,9",,,,"MET051METAR SKSA 301100Z 31003KT 9999 SCT090 24/23 Q1013=",
"80222599999","2023-12-30T12:00:00","4","6.95","-71.85","213.0","LOS COLONIZADORES, CO","FM-15","99999","V020","310,1,N,0015,1","02134,1,C,N","009999,1,9,9","+0250,1","+0230,1","99999,9","07,1,+02134,1,99,9",,"9,AGL   ,+99999,+99999","99,99,9,07,1,99,9,02134,1,99,9,99,9","10140,1,99999,9",,,,"MET051METAR SKSA 301200Z 31003KT 9999 BKN070 25/23 Q1014=",
"80222599999","2023-12-30T13:00:00","4","6.95","-71.85","213.0","LOS COLONIZADORES, CO","FM-15","99999","V020","350,1,N,0026,1","99999,9,9,N","009999,1,9,9","+0260,1","+0240,1","99999,9","04,1,+02134,1,99,9",,"9,AGL   ,+99999,+99999","99,99,9,04,1,99,9,02134,1,99,9,99,9","10160,1,99999,9",,,,"MET051METAR SKSA 301300Z 35005KT 9999 SCT070 26/24 Q1016=",
"80222599999","2023-12-30T14:00:00","4","6.95","-71.85","213.0","LOS COLONIZADORES, CO","FM-15","99999","V020","350,1,N,0031,1","99999,9,9,N","009999,1,9,9","+0280,1","+0230,1","99999,9","04,1,+02743,1,99,9",,"9,AGL   ,+99999,+99999","99,99,9,04,1,99,9,02743,1,99,9,99,9","10160,1,99999,9",,,,"MET051METAR SKSA 301400Z 35006KT 9999 SCT090 28/23 Q1016=",
"80222599999","2023-12-30T15:00:00","4","6.95","-71.85","213.0","LOS COLONIZADORES, CO","FM-15","99999","V020","300,1,N,0021,1","22000,1,9,N","009999,1,9,9","+0290,1","+0240,1","99999,9",,,,"00,99,1,99,9,99,9,99999,9,99,9,99,9","10150,1,99999,9",,,,"MET048METAR SKSA 301500Z 30004KT 9999 NSC 29/24 Q1015=",
"80222599999","2023-12-30T16:00:00","4","6.95","-71.85","213.0","LOS COLONIZADORES, CO","FM-15","99999","V020","290,1,N,0021,1","22000,1,9,N","009999,1,9,9","+0310,1","+0220,1","99999,9",,,,"00,99,1,99,9,99,9,99999,9,99,9,99,9","10150,1,99999,9",,,,"MET048METAR SKSA 301600Z 29004KT 9999 NSC 31/22 Q1015=",
"80222599999","2023-12-30T17:00:00","4","6.95","-71.85","213.0","LOS COLONIZADORES, CO","FM-15","99999","V020","030,1,N,0031,1","22000,1,9,N","009999,1,9,9","+0310,1","+0220,1","99999,9",,,,"00,99,1,99,9,99,9,99999,9,99,9,99,9","10140,1,99999,9",,,,"MET048METAR SKSA 301700Z 03006KT 9999 NSC 31/22 Q1014=",
"80222599999","2023-12-30T18:00:00","4","6.95","-71.85","213.0","LOS COLONIZADORES, CO","FM-15","99999","V020","010,1,N,0015,1","22000,1,9,N","009999,1,9,9","+0320,1","+0230,1","99999,9",,,,"00,99,1,99,9,99,9,99999,9,99,9,99,9","10120,1,99999,9",,,,"MET048METAR SKSA 301800Z 01003KT 9999 NSC 32/23 Q1012=",
"80222599999","2023-12-30T20:00:00","4","6.95","-71.85","213.0","LOS COLONIZADORES, CO","FM-15","99999","V020","080,1,N,0015,1","22000,1,9,N","009999,1,9,9","+0320,1","+0230,1","99999,9",,,,"00,99,1,99,9,99,9,99999,9,99,9,99,9","10100,1,99999,9",,,,"MET048METAR SKSA 302000Z 08003KT 9999 NSC 32/23 Q1010=",
"80222599999","2023-12-30T21:00:00","4","6.95","-71.85","213.0","LOS COLONIZADORES, CO","FM-15","99999","V020","360,1,N,0015,1","22000,1,9,N","009999,1,9,9","+0320,1","+0230,1","99999,9",,,,"00,99,1,99,9,99,9,99999,9,99,9,99,9","10100,1,99999,9",,,,"MET048METAR SKSA 302100Z 36003KT 9999 NSC 32/23 Q1010=",
"80222599999","2023-12-30T23:00:00","4","6.95","-71.85","213.0","LOS COLONIZADORES, CO","FM-15","99999","V020","360,1,N,0015,1","22000,1,9,N","009999,1,9,9","+0270,1","+0230,1","99999,9",,,,"00,99,1,99,9,99,9,99999,9,99,9,99,9","10100,1,99999,9",,,,"MET048METAR SKSA 302300Z 36003KT 9999 NSC 27/23 Q1010=",
"80222599999","2023-12-31T11:00:00","4","6.95","-71.85","213.0","LOS COLONIZADORES, CO","FM-15","99999","V020","270,1,N,0015,1","01829,1,C,N","009999,1,9,9","+0240,1","+0220,1","99999,9","07,1,+01829,1,99,9",,"9,AGL   ,+99999,+99999","99,99,9,07,1,99,9,01829,1,99,9,99,9","10130,1,99999,9",,,,"MET051METAR SKSA 311100Z 27003KT 9999 BKN060 24/22 Q1013=",
"80222599999","2023-12-31T14:00:00","4","6.95","-71.85","213.0","LOS COLONIZADORES, CO","FM-15","99999","V020","330,1,N,0015,1","02134,1,C,N","009999,1,9,9","+0280,1","+0220,1","99999,9","07,1,+02134,1,99,9",,"9,AGL   ,+99999,+99999","99,99,9,07,1,99,9,02134,1,99,9,99,9","10150,1,99999,9",,,,"MET051METAR SKSA 311400Z 33003KT 9999 BKN070 28/22 Q1015=",
"80222599999","2023-12-31T15:00:00","4","6.95","-71.85","213.0","LOS COLONIZADORES, CO","FM-15","99999","V020","030,1,N,0015,1","02134,1,C,N","009999,1,9,9","+0270,1","+0230,1","99999,9","07,1,+02134,1,99,9",,"9,AGL   ,+99999,+99999","99,99,9,07,1,99,9,02134,1,99,9,99,9","10160,1,99999,9",,,,"MET051METAR SKSA 311500Z 03003KT 9999 BKN070 27/23 Q1016=",
"80222599999","2023-12-31T16:00:00","4","6.95","-71.85","213.0","LOS COLONIZADORES, CO","FM-15","99999","V020","350,1,N,0026,1","00914,1,C,N","009999,1,9,9","+0260,1","+0230,1","99999,9","08,1,+00914,1,99,9",,"9,AGL   ,+99999,+99999","99,99,9,08,1,99,9,00914,1,99,9,99,9","10160,1,99999,9",,,,"MET051METAR SKSA 311600Z 35005KT 9999 OVC030 26/23 Q1016=",
"80222599999","2023-12-31T17:00:00","4","6.95","-71.85","213.0","LOS COLONIZADORES, CO","FM-15","99999","V020","330,1,N,0015,1","00914,1,C,N","009999,1,9,9","+0250,1","+0230,1","99999,9","08,1,+00914,1,99,9",,"9,AGL   ,+99999,+99999","99,99,9,08,1,99,9,00914,1,99,9,99,9","10150,1,99999,9",,,,"MET051METAR SKSA 311700Z 33003KT 9999 OVC030 25/23 Q1015=",
"80222599999","2023-12-31T19:00:00","4","6.95","-71.85","213.0","LOS COLONIZADORES, CO","FM-15","99999","V020","999,9,C,0000,1","01829,1,C,N","009999,1,9,9","+0290,1","+0230,1","99999,9","08,1,+01829,1,99,9",,"9,AGL   ,+99999,+99999","99,99,9,08,1,99,9,01829,1,99,9,99,9","10130,1,99999,9",,,,"MET051METAR SKSA 311900Z 00000KT 9999 OVC060 29/23 Q1013=",
"80222599999","2023-12-31T21:00:00","4","6.95","-71.85","213.0","LOS COLONIZADORES, CO","FM-15","99999","V020","999,9,C,0000,1","99999,9,9,N","009999,1,9,9","+0280,1","+0230,1","99999,9","04,1,+02438,1,99,9",,"9,AGL   ,+99999,+99999","99,99,9,04,1,99,9,02438,1,99,9,99,9","10130,1,99999,9",,,,"MET051METAR SKSA 312100Z 00000KT 9999 SCT080 28/23 Q1013=",
"80222599999","2023-12-31T22:00:00","4","6.95","-71.85","213.0","LOS COLONIZADORES, CO","FM-15","99999","V020","320,1,N,0026,1","22000,1,9,N","009999,1,9,9","+0280,1","+0230,1","99999,9",,,,"00,99,1,99,9,99,9,99999,9,99,9,99,9","10110,1,99999,9",,,,"MET048METAR SKSA 312200Z 32005KT 9999 NSC 28/23 Q1011=",
"80222599999","2023-12-31T23:00:00","4","6.95","-71.85","213.0","LOS COLONIZADORES, CO","FM-15","99999","V020","320,1,N,0026,1","22000,1,9,N","009999,1,9,9","+0260,1","+0230,1","99999,9",,,,"00,99,1,99,9,99,9,99999,9,99,9,99,9","10110,1,99999,9",,,,"MET048METAR SKSA 312300Z 32005KT 9999 NSC 26/23 Q1011=",
