"STATION","DATE","SOURCE","LATITUDE","LONGITUDE","ELEVATION","NAME","REPORT_TYPE","CALL_SIGN","QUALITY_CONTROL","WND","CIG","VIS","TMP","DEW","SLP","GA1","GA2","GA3","GE1","GF1","MA1","MW1","REM"
"40712799999","2023-01-18T07:00:00","4","32.434444","48.39764","144.47","DEZFUL, IR","FM-15","99999","V020","999,9,C,0000,1","00762,1,C,N","002000,1,9,9","+0110,1","+0110,1","99999,9","07,1,+00762,1,99,9",,,"9,AGL   ,+99999,+99999","99,99,9,07,1,99,9,00762,1,99,9,99,9","10210,1,99999,9","10,1","MET060METAR OIAD 180700Z 00000KT 2000 BR BKN025 11/11 Q1021 A3017="
"40712799999","2023-01-23T02:00:00","4","32.434444","48.39764","144.47","DEZFUL, IR","FM-15","99999","V020","999,9,C,0000,1","99999,9,9,N","000200,1,9,9","+0110,1","+0110,1","99999,9",,,,,"09,99,1,99,9,99,9,99999,9,99,9,99,9","10210,1,99999,9","44,1","MET059METAR OIAD 230200Z 00000KT 0200 FG VV/// 11/11 Q1021 A3015="
"40712799999","2023-01-23T03:00:00","4","32.434444","48.39764","144.47","DEZFUL, IR","FM-15","99999","V020","999,9,C,0000,1","99999,9,9,N","000800,1,9,9","+0110,1","+0110,1","99999,9",,,,,"09,99,1,99,9,99,9,99999,9,99,9,99,9","10210,1,99999,9","44,1","MET059METAR OIAD 230300Z 00000KT 0800 FG VV/// 11/11 Q1021 A3016="
"40712799999","2023-01-23T05:00:00","4","32.434444","48.39764","144.47","DEZFUL, IR","FM-15","99999","V020","999,9,C,0000,1","00762,1,C,N","000500,1,9,9","+0110,1","+0110,1","99999,9","08,1,+00762,1,99,9",,,"9,AGL   ,+99999,+99999","99,99,9,08,1,99,9,00762,1,99,9,99,9","10220,1,99999,9","44,1","MET060METAR OIAD 230500Z 00000KT 0500 FG OVC025 11/11 Q1022 A3019="
"40712799999","2023-01-26T04:00:00","4","32.434444","48.39764","144.47","DEZFUL, IR","FM-15","99999","V020","999,9,C,0000,1","03048,1,9,N","001000,1,9,9","+0070,1","+0060,1","99999,9","02,1,+01067,1,99,9","07,1,+03048,1,99,9",,"9,AGL   ,+99999,+99999","99,99,9,02,1,99,9,01067,1,99,9,99,9","10200,1,99999,9","10,1","MET067METAR OIAD 260400Z 00000KT 1000 BR FEW035 BKN100 07/06 Q1020 A3012="
"40712799999","2023-01-31T01:00:00","4","32.434444","48.39764","144.47","DEZFUL, IR","FM-15","99999","V020","999,9,C,0000,1","02743,1,9,N","004000,1,9,9","+0140,1","+0110,1","99999,9","02,1,+01067,1,09,1","02,1,+01219,1,99,9","08,1,+02743,1,99,9","9,AGL   ,+99999,+99999","99,99,9,02,1,99,9,01067,1,99,9,99,9","10140,1,99999,9","10,1","MET076METAR OIAD 310100Z 00000KT 4000 BR FEW035CB FEW040 OVC090 14/11 Q1014 A2997="
"40712799999","2023-01-31T02:00:00","4","32.434444","48.39764","144.47","DEZFUL, IR","FM-15","99999","V020","999,9,C,0000,1","01219,1,C,N","005000,1,9,9","+0140,1","+0110,1","99999,9","02,1,+01067,1,09,1","04,1,+01219,1,99,9","07,1,+03048,1,99,9","9,AGL   ,+99999,+99999","99,99,9,02,1,99,9,01067,1,99,9,99,9","10140,1,99999,9","10,1","MET076METAR OIAD 310200Z 00000KT 5000 BR FEW035CB SCT040 BKN100 14/11 Q1014 A2997="
"40712799999","2023-02-03T05:00:00","4","32.434444","48.39764","144.47","DEZFUL, IR","FM-15","99999","V020","999,9,C,0000,1","22000,1,9,N","008000,1,9,9","+0080,1","+0070,1","99999,9",,,,,"00,99,1,99,9,99,9,99999,9,99,9,99,9","10230,1,99999,9",,"MET054METAR OIAD 030500Z 00000KT 8000 NSC 08/07 Q1023 A3022="
"40712799999","2023-02-03T06:00:00","4","32.434444","48.39764","144.47","DEZFUL, IR","FM-15","99999","V020","330,1,N,0041,1","99999,9,9,Y","009900,5,9,9","+0130,1","+0080,1","99999,9",,,,,,"10230,1,99999,9",,"MET051METAR OIAD 030600Z 33008KT CAVOK 13/08 Q1023 A3024="
"40712799999","2023-02-03T14:00:00","4","32.434444","48.39764","144.47","DEZFUL, IR","FM-15","99999","V020","999,9,C,0000,1","99999,9,9,Y","009900,5,9,9","+0180,1","+0060,1","99999,9",,,,,,"10210,1,99999,9",,"MET051METAR OIAD 031400Z 00000KT CAVOK 18/06 Q1021 A3018="
"40712799999","2023-02-07T04:00:00","4","32.434444","48.39764","144.47","DEZFUL, IR","FM-15","99999","V020","070,1,N,0031,1","99999,9,9,N","005000,1,9,9","+0120,1","+0090,1","99999,9","02,1,+01219,1,99,9",,,"9,AGL   ,+99999,+99999","99,99,9,02,1,99,9,01219,1,99,9,99,9","10130,1,99999,9","10,1","MET060METAR OIAD 070400Z 07006KT 5000 BR FEW040 12/09 Q1013 A2992="
"40712799999","2023-02-07T08:00:00","4","32.434444","48.39764","144.47","DEZFUL, IR","FM-15","99999","V020","130,1,N,0072,1","03048,1,C,N","005000,1,9,9","+0190,1","+0140,1","99999,9","02,1,+01219,1,99,9","04,1,+03048,1,99,9",,"9,AGL   ,+99999,+99999","99,99,9,02,1,99,9,01219,1,99,9,99,9","10130,1,99999,9","07,1","MET067METAR OIAD 070800Z 13014KT 5000 SA FEW040 SCT100 19/14 Q1013 A2992="
"40712799999","2023-02-09T03:00:00","4","32.434444","48.39764","144.47","DEZFUL, IR","FM-15","99999","V020","999,9,C,0000,1","22000,1,9,N","005000,1,9,9","+0040,1","+0030,1","99999,9",,,,,"00,99,1,99,9,99,9,99999,9,99,9,99,9","10200,1,99999,9","10,1","MET057METAR OIAD 090300Z 00000KT 5000 BR NSC 04/03 Q1020 A3015="
"40712799999","2023-02-20T07:00:00","4","32.434444","48.39764","144.47","DEZFUL, IR","FM-15","99999","V020","999,9,C,0000,1","99999,9,9,Y","009900,5,9,9","+0200,1","+0060,1","99999,9",,,,,,"10230,1,99999,9",,"MET051METAR OIAD 200700Z 00000KT CAVOK 20/06 Q1023 A3022="
"40712799999","2023-02-20T10:00:00","4","32.434444","48.39764","144.47","DEZFUL, IR","FM-15","99999","V020","300,1,N,0051,1","99999,9,9,Y","009900,5,9,9","+0220,1","+0020,1","99999,9",,,,,,"10200,1,99999,9",,"MET051METAR OIAD 201000Z 30010KT CAVOK 22/02 Q1020 A3015="
"40712799999","2023-02-26T02:00:00","4","32.434444","48.39764","144.47","DEZFUL, IR","FM-15","99999","V020","999,9,C,0000,1","22000,1,9,N","005000,1,9,9","+0130,1","+0100,1","99999,9",,,,,"00,99,1,99,9,99,9,99999,9,99,9,99,9","10180,1,99999,9","10,1","MET057METAR OIAD 260200Z 00000KT 5000 BR NSC 13/10 Q1018 A3007="
"40712799999","2023-02-26T03:00:00","4","32.434444","48.39764","144.47","DEZFUL, IR","FM-15","99999","V020","999,9,C,0000,1","03048,1,C,N","005000,1,9,9","+0130,1","+0090,1","99999,9","02,1,+01219,1,99,9","04,1,+03048,1,99,9","07,1,+05182,1,99,9","9,AGL   ,+99999,+99999","99,99,9,02,1,99,9,01219,1,99,9,99,9","10180,1,99999,9","05,1","MET074METAR OIAD 260300Z 00000KT 5000 HZ FEW040 SCT100 BKN170 13/09 Q1018 A3008="
"40712799999","2023-02-26T04:00:00","4","32.434444","48.39764","144.47","DEZFUL, IR","FM-15","99999","V020","330,1,N,0021,1","22000,1,9,N","006000,1,9,9","+0140,1","+0080,1","99999,9",,,,,"00,99,1,99,9,99,9,99999,9,99,9,99,9","10070,2,99999,9",,"MET068METAR OIAD 260400Z 33004KT 6000 NSC 14/08 Q1007 A3009 FEW100 BKN170="
"40712799999","2023-02-28T02:00:00","4","32.434444","48.39764","144.47","DEZFUL, IR","FM-15","99999","V020","999,9,C,0000,1","22000,1,9,N","007000,1,9,9","+0110,1","+0090,1","99999,9",,,,,"00,99,1,99,9,99,9,99999,9,99,9,99,9","10190,1,99999,9",,"MET054METAR OIAD 280200Z 00000KT 7000 NSC 11/09 Q1019 A3012="
"40712799999","2023-03-05T03:00:00","4","32.434444","48.39764","144.47","DEZFUL, IR","FM-15","99999","V020","999,9,C,0000,1","22000,1,9,N","005000,1,9,9","+0110,1","+0080,1","99999,9",,,,,"00,99,1,99,9,99,9,99999,9,99,9,99,9","10200,1,99999,9","10,1","MET057METAR OIAD 050300Z 00000KT 5000 BR NSC 11/08 Q1020 A3015="
"40712799999","2023-03-14T02:00:00","4","32.434444","48.39764","144.47","DEZFUL, IR","FM-15","99999","V020","999,9,C,0000,1","02743,1,9,N","006000,1,9,9","+0160,1","+0150,1","99999,9","04,1,+01219,1,99,9","07,1,+02743,1,99,9",,"9,AGL   ,+99999,+99999","99,99,9,04,1,99,9,01219,1,99,9,99,9","10160,1,99999,9",,"MET064METAR OIAD 140200Z 00000KT 6000 SCT040 BKN090 16/15 Q1016 A3000="
"40712799999","2023-04-04T02:00:00","4","32.434444","48.39764","144.47","DEZFUL, IR","FM-15","99999","V020","999,9,C,0000,1","22000,1,9,N","007000,1,9,9","+0100,1","+0080,1","99999,9",,,,,"00,99,1,99,9,99,9,99999,9,99,9,99,9","10140,1,99999,9",,"MET054METAR OIAD 040200Z 00000KT 7000 NSC 10/08 Q1014 A2995="
"40712799999","2023-04-25T07:00:00","4","32.434444","48.39764","144.47","DEZFUL, IR","FM-15","99999","V020","140,1,N,0072,1","01219,1,C,N","009999,1,9,9","+0280,1","+0130,1","99999,9","02,1,+01067,1,09,1","04,1,+01219,1,99,9","07,1,+03048,1,99,9","9,AGL   ,+99999,+99999","99,99,9,02,1,99,9,01067,1,99,9,99,9","10110,1,99999,9",,"MET073METAR OIAD 250700Z 14014KT 9999 FEW035CB SCT040 BKN100 28/13 Q1011 A2987="
"40712799999","2023-04-25T09:00:00","4","32.434444","48.39764","144.47","DEZFUL, IR","FM-15","99999","V020","140,1,N,0062,1","01219,1,C,N","009999,1,9,9","+0300,1","+0120,1","99999,9","02,1,+01067,1,09,1","04,1,+01219,1,99,9","07,1,+03048,1,99,9","9,AGL   ,+99999,+99999","99,99,9,02,1,99,9,01067,1,99,9,99,9","10100,1,99999,9",,"MET073METAR OIAD 250900Z 14012KT 9999 FEW035CB SCT040 BKN100 30/12 Q1010 A2985="
"40712799999","2023-04-29T02:00:00","4","32.434444","48.39764","144.47","DEZFUL, IR","FM-15","99999","V020","999,9,C,0000,1","99999,9,9,Y","009900,5,9,9","+0160,1","+0090,1","99999,9",,,,,,"10060,1,99999,9",,"MET051METAR OIAD 290200Z 00000KT CAVOK 16/09 Q1006 A2971="
"40712799999","2023-05-01T20:00:00","4","32.434444","48.39764","144.47","DEZFUL, IR","FM-15","99999","V020","100,1,N,0021,1","99999,9,9,Y","009900,5,9,9","+0180,1","+0040,1","99999,9",,,,,,"10110,1,99999,9",,"MET051METAR OIAD 012000Z 10004KT CAVOK 18/04 Q1011 A2987="
"40712799999","2023-05-06T14:00:00","4","32.434444","48.39764","144.47","DEZFUL, IR","FM-15","99999","V020","250,1,N,0031,1","99999,9,9,Y","009900,5,9,9","+0390,1","-0050,1","99999,9",,,,,,"10080,1,99999,9",,"MET052METAR OIAD 061400Z 25006KT CAVOK 39/M05 Q1008 A2979="
"40712799999","2023-05-07T02:00:00","4","32.434444","48.39764","144.47","DEZFUL, IR","FM-15","99999","V020","999,9,C,0000,1","99999,9,9,Y","009900,5,9,9","+0150,1","+0080,1","99999,9",,,,,,"10100,1,99999,9",,"MET051METAR OIAD 070200Z 00000KT CAVOK 15/08 Q1010 A2983="
"40712799999","2023-05-07T03:00:00","4","32.434444","48.39764","144.47","DEZFUL, IR","FM-15","99999","V020","999,9,C,0000,1","99999,9,9,Y","009900,5,9,9","+0170,1","+0100,1","99999,9",,,,,,"10100,1,99999,9",,"MET051METAR OIAD 070300Z 00000KT CAVOK 17/10 Q1010 A2984="
"40712799999","2023-05-11T02:00:00","4","32.434444","48.39764","144.47","DEZFUL, IR","FM-15","99999","V020","999,9,C,0000,1","99999,9,9,Y","009900,5,9,9","+0170,1","+0110,1","99999,9",,,,,,"10110,1,99999,9",,"MET051METAR OIAD 110200Z 00000KT CAVOK 17/11 Q1011 A2986="
"40712799999","2023-05-13T16:00:00","4","32.434444","48.39764","144.47","DEZFUL, IR","FM-15","99999","V020","250,1,N,0031,1","22000,1,9,N","006000,1,9,9","+0360,1","+0040,1","99999,9",,,,,"00,99,1,99,9,99,9,99999,9,99,9,99,9","10060,1,99999,9",,"MET054METAR OIAD 131600Z 25006KT 6000 NSC 36/04 Q1006 A2972="
"40712799999","2023-05-14T02:00:00","4","32.434444","48.39764","144.47","DEZFUL, IR","FM-15","99999","V020","160,1,N,0021,1","22000,1,9,N","006000,1,9,9","+0190,1","+0090,1","99999,9",,,,,"00,99,1,99,9,99,9,99999,9,99,9,99,9","10080,1,99999,9",,"MET054METAR OIAD 140200Z 16004KT 6000 NSC 19/09 Q1008 A2977="
"40712799999","2023-05-14T03:00:00","4","32.434444","48.39764","144.47","DEZFUL, IR","FM-15","99999","V020","999,9,C,0000,1","22000,1,9,N","006000,1,9,9","+0210,1","+0100,1","99999,9",,,,,"00,99,1,99,9,99,9,99999,9,99,9,99,9","10080,1,99999,9",,"MET054METAR OIAD 140300Z 00000KT 6000 NSC 21/10 Q1008 A2979="
"40712799999","2023-05-15T01:00:00","4","32.434444","48.39764","144.47","DEZFUL, IR","FM-15","99999","V020","050,1,N,0031,1","99999,9,9,Y","009900,5,9,9","+0180,1","+0110,1","99999,9",,,,,,"10080,1,99999,9",,"MET051METAR OIAD 150100Z 05006KT CAVOK 18/11 Q1008 A2977="
"40712799999","2023-05-15T02:00:00","4","32.434444","48.39764","144.47","DEZFUL, IR","FM-15","99999","V020","999,9,C,0000,1","22000,1,9,N","007000,1,9,9","+0170,1","+0110,1","99999,9",,,,,"00,99,1,99,9,99,9,99999,9,99,9,99,9","10070,1,99999,9",,"MET054METAR OIAD 150200Z 00000KT 7000 NSC 17/11 Q1007 A2975="
"40712799999","2023-05-20T22:00:00","4","32.434444","48.39764","144.47","DEZFUL, IR","FM-15","99999","V020","090,1,N,0082,1","01219,1,C,N","006000,1,9,9","+0270,1","+0140,1","99999,9","02,1,+01067,1,09,1","04,1,+01219,1,99,9","08,1,+02743,1,99,9","9,AGL   ,+99999,+99999","99,99,9,02,1,99,9,01067,1,99,9,99,9","10060,1,99999,9",,"MET073METAR OIAD 202200Z 09016KT 6000 FEW035CB SCT040 OVC090 27/14 Q1006 A2971="
"40712799999","2023-05-22T15:00:00","4","32.434444","48.39764","144.47","DEZFUL, IR","FM-15","99999","V020","130,1,N,0021,1","22000,1,9,N","006000,1,9,9","+0370,1","+0110,1","99999,9",,,,,"00,99,1,99,9,99,9,99999,9,99,9,99,9","10090,1,99999,9",,"MET054METAR OIAD 221500Z 13004KT 6000 NSC 37/11 Q1009 A2980="
"40712799999","2023-05-23T02:00:00","4","32.434444","48.39764","144.47","DEZFUL, IR","FM-15","99999","V020","999,9,C,0000,1","22000,1,9,N","007000,1,9,9","+0210,1","+0110,1","99999,9",,,,,"00,99,1,99,9,99,9,99999,9,99,9,99,9","10110,1,99999,9",,"MET054METAR OIAD 230200Z 00000KT 7000 NSC 21/11 Q1011 A2987="
"40712799999","2023-05-29T17:00:00","4","32.434444","48.39764","144.47","DEZFUL, IR","FM-15","99999","V020","250,1,N,0051,1","22000,1,9,N","007000,1,9,9","+0370,1","+0070,1","99999,9",,,,,"00,99,1,99,9,99,9,99999,9,99,9,99,9","10070,1,99999,9",,"MET054METAR OIAD 291700Z 25010KT 7000 NSC 37/07 Q1007 A2974="
"40712799999","2023-05-30T02:00:00","4","32.434444","48.39764","144.47","DEZFUL, IR","FM-15","99999","V020","999,9,C,0000,1","22000,1,9,N","007000,1,9,9","+0250,1","+0140,1","99999,9",,,,,"00,99,1,99,9,99,9,99999,9,99,9,99,9","10080,1,99999,9",,"MET054METAR OIAD 300200Z 00000KT 7000 NSC 25/14 Q1008 A2979="
"40712799999","2023-06-05T16:00:00","4","32.434444","48.39764","144.47","DEZFUL, IR","FM-15","99999","V020","250,1,N,0051,1","22000,1,9,N","005000,1,9,9","+0400,1","+0010,1","99999,9",,,,,"00,99,1,99,9,99,9,99999,9,99,9,99,9","10030,1,99999,9","05,1","MET057METAR OIAD 051600Z 25010KT 5000 HZ NSC 40/01 Q1003 A2964="
"40712799999","2023-07-15T13:00:00","4","32.434444","48.39764","144.47","DEZFUL, IR","FM-15","99999","V020","270,1,N,0031,1","22000,1,9,N","006000,1,9,9","+0480,1","+0070,1","99999,9",,,,,"00,99,1,99,9,99,9,99999,9,99,9,99,9","09980,1,99999,9",,"MET054METAR OIAD 151300Z 27006KT 6000 NSC 48/07 Q0998 A2949="
"40712799999","2023-07-23T01:00:00","4","32.434444","48.39764","144.47","DEZFUL, IR","FM-15","99999","V020","999,9,C,0000,1","22000,1,9,N","006000,1,9,9","+0280,1","+0070,1","99999,9",,,,,"00,99,1,99,9,99,9,99999,9,99,9,99,9","09980,1,99999,9",,"MET054METAR OIAD 230100Z 00000KT 6000 NSC 28/07 Q0998 A2948="
"40712799999","2023-07-30T01:00:00","4","32.434444","48.39764","144.47","DEZFUL, IR","FM-15","99999","V020","999,9,C,0000,1","22000,1,9,N","007000,1,9,9","+0290,1","+0080,1","99999,9",,,,,"00,99,1,99,9,99,9,99999,9,99,9,99,9","09970,1,99999,9",,"MET054METAR OIAD 300100Z 00000KT 7000 NSC 29/08 Q0997 A2945="
"40712799999","2023-10-14T14:00:00","4","32.434444","48.39764","144.47","DEZFUL, IR","FM-15","99999","V020","340,1,N,0021,1","99999,9,9,Y","009900,5,9,9","+0360,1","+0080,1","99999,9",,,,,,"10110,1,99999,9",,"MET058METAR OIAD 141400Z 34004KT CAVOK 36/08 Q1011 A2988 FEW100="
"40712799999","2023-10-14T16:00:00","4","32.434444","48.39764","144.47","DEZFUL, IR","FM-15","99999","V020","999,9,C,0000,1","99999,9,9,Y","009900,5,9,9","+0310,1","+0090,1","99999,9",,,,,,"10110,1,99999,9",,"MET051METAR OIAD 141600Z 00000KT CAVOK 31/09 Q1011 A2989="
"40712799999","2023-11-06T15:00:00","4","32.434444","48.39764","144.47","DEZFUL, IR","FM-15","99999","V020","999,9,C,0000,1","99999,9,9,Y","009900,5,9,9","+0260,1","+0110,1","99999,9",,,,,,"10140,1,99999,9",,"MET051METAR OIAD 061500Z 00000KT CAVOK 26/11 Q1014 A2996="
"40712799999","2023-11-13T14:00:00","4","32.434444","48.39764","144.47","DEZFUL, IR","FM-15","99999","V020","999,9,C,0000,1","22000,1,9,N","006000,1,9,9","+0270,1","+0100,1","99999,9",,,,,"00,99,1,99,9,99,9,99999,9,99,9,99,9","10170,1,99999,9",,"MET068METAR OIAD 131400Z 00000KT 6000 NSC 27/10 Q1017 A3005 FEW100 BKN170="
