"STATION","DATE","SOURCE","LATITUDE","LONGITUDE","ELEVATION","NAME","REPORT_TYPE","CALL_SIGN","QUALITY_CONTROL","WND","CIG","VIS","TMP","DEW","SLP","GA1","GE1","GF1","MA1","REM"
"67205099999","2023-01-26T15:00:00","4","-11.361789","40.354875","27.12","MOCIMBOA DA PRAIA, MZ","FM-15","99999","V020","150,1,N,0072,1","99999,9,9,N","009999,1,9,9","+0300,1","+0200,1","99999,9","04,1,+00610,1,99,9","9,AGL   ,+99999,+99999","99,99,9,04,1,99,9,00610,1,99,9,99,9","10120,1,99999,9","MET057METAR FQMP 261500Z 15014KT 9999 SCT020 30/20 Q1012 NOSIG="
"67205099999","2023-03-08T10:00:00","4","-11.361789","40.354875","27.12","MOCIMBOA DA PRAIA, MZ","FM-15","99999","V020","120,1,V,0026,1","99999,9,9,N","009999,1,9,9","+0300,1","+0210,1","99999,9","04,1,+00610,1,99,9","9,AGL   ,+99999,+99999","99,99,9,04,1,99,9,00610,1,99,9,99,9","10120,1,99999,9","MET065METAR FQMP 081000Z 12005KT 110V230 9999 SCT020 30/21 Q1012 NOSIG="
"67205099999","2023-10-28T09:00:00","4","-11.361789","40.354875","27.12","MOCIMBOA DA PRAIA, MZ","FM-15","99999","V020","170,1,V,0036,1","00610,1,C,N","009999,1,9,9","+0270,1","+0200,1","99999,9","07,1,+00610,1,99,9","9,AGL   ,+99999,+99999","99,99,9,07,1,99,9,00610,1,99,9,99,9","10130,1,99999,9","MET065METAR FQMP 280900Z 17007KT 140V200 9999 BKN020 27/20 Q1013 NOSIG="
