"STATION","DATE","SOURCE","LATITUDE","LONGITUDE","ELEVATION","NAME","REPORT_TYPE","CALL_SIGN","QUALITY_CONTROL","WND","CIG","VIS","TMP","DEW","SLP","AA1","AJ1","AT1","AT2","AT3","AU1","AU2","AW1","AW2","GA1","GA2","GA3","GD1","GD2","GD3","GD4","GE1","GF1","KA1","KA2","MA1","MV1","MW1","MW2","MW3","OC1","REM","EQD"
"70249026526","2023-01-01T01:45:00","4","62.0911","-152.7349","566.3","PUNTILLA, AK US","FM-15","99999","V020","999,9,C,0000,1","03048,1,9,N","040234,1,9,9","-0090,1","-0090,1","99999,9",,,,,,,,,,,,,"2,99,1,+00914,1,9","3,99,1,+03048,1,9",,,"9,AGL   ,+99999,+99999","99,99,9,99,9,99,9,00914,1,99,9,99,9",,,"09858,1,99999,9",,,,,,"MET078METAR PAPT 010145Z 00000KT 25SM SCT030 BKN100 M09/M09 A2911 RMK NO SPECI LAST=",
"70249026526","2023-01-01T17:45:00","7","62.0911","-152.7349","566.3","PUNTILLA, AK US","FM-15","PAPT ","V020","999,9,C,0000,5","00762,5,M,N","004828,5,N,5","-0060,C","-0060,C","99999,9",,,,,,,,,,"08,5,+00762,5,99,9",,,"4,99,1,+00762,5,9",,,,"9,AGL   ,+99999,+99999","99,99,9,99,9,99,9,00762,1,99,9,99,9",,,"09699,5,09066,5",,,,,,"MET08701/01/23 08:45:02 METAR PAPT 011745Z 00000KT 3SM OVC025 M06/M06 A2864 RMK NO SPECI LAST","R01   M067TMP046R02   M067DPT046"
"70249026526","2023-01-01T19:46:00","7","62.0911","-152.7349","566.3","PUNTILLA, AK US","FM-15","PAPT ","V020","999,9,C,0000,5","00914,5,M,N","004828,7,N,5","-0050,C","-0050,C","99999,9",,,,,,"2,0,03,0,0,1,7",,"72,7",,"08,5,+00914,5,99,9",,,"4,99,1,+00914,5,9",,,,"9,AGL   ,+99999,+99999","99,99,9,99,9,99,9,00914,1,99,9,99,9",,,"09695,5,09063,5",,"73,7",,,,"MET08501/01/23 10:46:02 METAR PAPT 011946Z 00000KT 3SM SN OVC030 M05/M05 A2863 RMK NO SPECI","R01   3SM7VIS012R02   M057TMP046R03   M057DPT046R04    SN7AWW012R05SEERMK7MVW012R06    SN7MWW012"
"70249026526","2023-01-01T21:49:00","7","62.0911","-152.7349","566.3","PUNTILLA, AK US","FM-15","PAPT ","V020","999,9,C,0000,5","00914,5,M,N","011265,5,N,5","-0040,C","-0040,C","99999,9",,,,,,"1,0,03,0,0,1,5",,"71,5",,"08,5,+00914,5,99,9",,,"4,99,1,+00914,5,9",,,,"9,AGL   ,+99999,+99999","99,99,9,99,9,99,9,00914,1,99,9,99,9",,,"09702,5,09069,5",,"71,5",,,,"MET08601/01/23 12:49:02 METAR PAPT 012149Z 00000KT 7SM -SN OVC030 M04/M04 A2865 RMK NO SPECI","R01   M047TMP046R02   M047DPT046"
"70249026526","2023-01-01T23:45:00","7","62.0911","-152.7349","566.3","PUNTILLA, AK US","FM-15","PAPT ","V020","999,9,C,0000,5","00914,5,M,N","008047,5,N,5","-0030,C","-0030,C","99999,9","24,0035,3,1","0046,9,5,004570,9,9",,,,"1,0,03,0,0,1,5",,"71,5",,"08,5,+00914,5,99,9",,,"4,99,1,+00914,5,9",,,,"9,AGL   ,+99999,+99999","99,99,9,99,9,99,9,00914,1,99,9,99,9","240,M,-0028,1","240,N,-0089,1","09709,5,09076,5",,"71,5",,,,"MET11501/01/23 14:45:02 METAR PAPT 012345Z 00000KT 5SM -SN OVC030 M03/M03 A2867 RMK NO SPECI 410281089 70014 931025 4/018","R01   M037TMP046R02   M037DPT046"
"70249026526","2023-01-02T01:47:00","7","62.0911","-152.7349","566.3","PUNTILLA, AK US","FM-15","PAPT ","V020","999,9,C,0000,5","00914,5,M,N","008047,5,N,5","-0040,C","-0040,C","99999,9",,,,,,"1,0,03,0,0,1,5",,"71,5",,"08,5,+00914,5,99,9",,,"4,99,1,+00914,5,9",,,,"9,AGL   ,+99999,+99999","99,99,9,99,9,99,9,00914,1,99,9,99,9",,,"09716,5,09082,5",,"71,5",,,,"MET09101/01/23 16:47:01 METAR PAPT 020147Z 00000KT 5SM -SN OVC030 M04/M04 A2869 RMK NO SPECI LAST","R01   M047TMP046R02   M047DPT046"
"70249026526","2023-01-02T08:59:00","O","62.0911","-152.7349","566.3","PUNTILLA, AK US","SOD  ","PAPT ","V020","999,9,9,9999,9","99999,9,9,9","999999,9,9,9","+9999,9","+9999,9","99999,9",,,"AU,18,SN  ,5",,,,,,,,,,,,,,,,,,,,,,,,,
"70249026526","2023-01-02T17:46:00","7","62.0911","-152.7349","566.3","PUNTILLA, AK US","FM-15","PAPT ","V020","999,9,C,0000,5","00914,5,M,N","008047,5,N,5","-0080,C","-0080,C","99999,9",,,,,,"1,0,03,0,0,1,5",,"71,5",,"08,5,+00914,5,99,9",,,"4,99,1,+00914,5,9",,,,"9,AGL   ,+99999,+99999","99,99,9,99,9,99,9,00914,1,99,9,99,9",,,"09760,5,09124,5",,"71,5",,,,"MET09201/02/23 08:46:02 METAR PAPT 021746Z 00000KT 5SM -SN OVC030 M08/M08 A2882 RMK NO SPECI FIRST","R01   M087TMP046R02   M087DPT046"
"70249026526","2023-01-02T19:45:00","7","62.0911","-152.7349","566.3","PUNTILLA, AK US","FM-15","PAPT ","V020","999,9,C,0000,5","00914,5,M,N","011265,5,N,5","-0050,C","-0050,C","99999,9",,,,,,,,,,"08,5,+00914,5,99,9",,,"4,99,1,+00914,5,9",,,,"9,AGL   ,+99999,+99999","99,99,9,99,9,99,9,00914,1,99,9,99,9",,,"09766,5,09130,5",,,,,,"MET08201/02/23 10:45:02 METAR PAPT 021945Z 00000KT 7SM OVC030 M05/M05 A2884 RMK NO SPECI","R01   M057TMP046R02   M057DPT046"
"70249026526","2023-01-02T21:47:00","7","62.0911","-152.7349","566.3","PUNTILLA, AK US","FM-15","PAPT ","V020","170,5,N,0026,5","00762,5,M,N","001609,7,N,5","-0010,C","-0010,C","99999,9",,,,,,"2,0,03,0,0,1,7",,"72,7",,"08,5,+00762,5,99,9",,,"4,99,1,+00762,5,9",,,,"9,AGL   ,+99999,+99999","99,99,9,99,9,99,9,00762,1,99,9,99,9",,,"09780,5,09143,5",,"73,7",,,,"MET08501/02/23 12:47:02 METAR PAPT 022147Z 17005KT 1SM SN OVC025 M01/M01 A2888 RMK NO SPECI","R01   1SM7VIS012R02   M017TMP046R03   M017DPT046R04    SN7AWW012R05SEERMK7MVW012R06    SN7MWW012"
"70249026526","2023-01-02T23:45:00","7","62.0911","-152.7349","566.3","PUNTILLA, AK US","FM-15","PAPT ","V020","170,5,N,0026,5","00914,5,M,N","008047,5,N,5","-0010,C","-0010,C","99999,9","24,0020,3,1","0046,9,5,004570,9,9",,,,"1,0,03,0,0,1,5",,"71,5",,"08,5,+00914,5,99,9",,,"4,99,1,+00914,5,9",,,,"9,AGL   ,+99999,+99999","99,99,9,99,9,99,9,00914,1,99,9,99,9","240,M,-0006,1","240,N,-0078,1","09790,5,09153,5",,"71,5",,,,"MET11501/02/23 14:45:02 METAR PAPT 022345Z 17005KT 5SM -SN OVC030 M01/M01 A2891 RMK NO SPECI 410061078 70008 931010 4/018","R01   M017TMP046R02   M017DPT046"
"70249026526","2023-01-03T01:45:00","7","62.0911","-152.7349","566.3","PUNTILLA, AK US","FM-15","PAPT ","V020","170,5,N,0021,5","00914,5,M,N","008047,5,N,5","-0010,C","-0010,C","99999,9",,,,,,"1,0,03,0,0,1,5",,"71,5",,"08,5,+00914,5,99,9",,,"4,99,1,+00914,5,9",,,,"9,AGL   ,+99999,+99999","99,99,9,99,9,99,9,00914,1,99,9,99,9",,,"09804,5,09166,5",,"71,5",,,,"MET09101/02/23 16:45:01 METAR PAPT 030145Z 17004KT 5SM -SN OVC030 M01/M01 A2895 RMK NO SPECI LAST","R01   M017TMP046R02   M017DPT046"
"70249026526","2023-01-03T08:59:00","O","62.0911","-152.7349","566.3","PUNTILLA, AK US","SOD  ","PAPT ","V020","999,9,9,9999,9","99999,9,9,9","999999,9,9,9","+9999,9","+9999,9","99999,9",,,"AU,18,SN  ,5",,,,,,,,,,,,,,,,,,,,,,,,,
"70249026526","2023-01-03T17:46:00","7","62.0911","-152.7349","566.3","PUNTILLA, AK US","FM-15","PAPT ","V020","999,9,N,9999,9","03048,5,M,N","040234,5,N,5","-0080,C","-0080,C","99999,9",,,,,,,,,,"07,5,+03048,5,99,9",,,"3,99,1,+03048,5,9",,,,"9,AGL   ,+99999,+99999","99,99,9,99,9,99,9,03048,1,99,9,99,9",,,"09922,5,09278,5",,,,,,"MET08901/03/23 08:46:02 METAR PAPT 031746Z      KT 25SM BKN100 M08/M08 A2930 RMK NO SPECI FIRST","R01   M087TMP046R02   M087DPT046"
"70249026526","2023-01-03T19:45:00","7","62.0911","-152.7349","566.3","PUNTILLA, AK US","FM-15","PAPT ","V020","999,9,C,0000,5","03048,5,M,N","040234,5,N,5","-0070,C","-0070,C","99999,9",,,,,,,,,,"07,5,+03048,5,99,9",,,"3,99,1,+03048,5,9",,,,"9,AGL   ,+99999,+99999","99,99,9,99,9,99,9,03048,1,99,9,99,9",,,"09932,5,09288,5",,,,,,"MET08301/03/23 10:45:02 METAR PAPT 031945Z 00000KT 25SM BKN100 M07/M07 A2933 RMK NO SPECI","R01   M077TMP046R02   M077DPT046"
"70249026526","2023-01-03T21:45:00","7","62.0911","-152.7349","566.3","PUNTILLA, AK US","FM-15","PAPT ","V020","999,9,C,0000,5","01829,5,M,N","024140,5,N,5","-0050,C","-0050,C","99999,9",,,,,,,,,,"07,5,+01829,5,99,9",,,"3,99,1,+01829,5,9",,,,"9,AGL   ,+99999,+99999","99,99,9,99,9,99,9,01829,1,99,9,99,9",,,"09936,5,09291,5",,,,,,"MET08301/03/23 12:45:02 METAR PAPT 032145Z 00000KT 15SM BKN060 M05/M05 A2934 RMK NO SPECI","R01   M057TMP046R02   M057DPT046"
"70249026526","2023-01-03T23:46:00","7","62.0911","-152.7349","566.3","PUNTILLA, AK US","FM-15","PAPT ","V020","340,5,N,0021,5","03048,5,M,N","040234,5,N,5","-0040,C","-0040,C","99999,9","24,0000,2,1","0046,9,5,004570,9,9",,,,,,,,"04,5,+01829,5,99,9","07,5,+03048,5,99,9",,"2,99,1,+01829,5,9","3,99,1,+03048,5,9",,,"9,AGL   ,+99999,+99999","99,99,9,99,9,99,9,01829,1,99,9,99,9","240,M,-0006,1","240,N,-0078,1","09939,5,09294,5",,,,,,"MET11201/03/23 14:46:02 METAR PAPT 032346Z 34004KT 25SM SCT060 BKN100 M04/M04 A2935 RMK NO SPECI 410061078 70000 4/018","R01   M047TMP046R02   M047DPT046"
"70249026526","2023-01-04T01:47:00","7","62.0911","-152.7349","566.3","PUNTILLA, AK US","FM-15","PAPT ","V020","999,9,C,0000,5","03048,5,M,N","040234,5,N,5","-0080,C","-0080,C","99999,9",,,,,,,,,,"04,5,+01829,5,99,9","07,5,+03048,5,99,9",,"2,99,1,+01829,5,9","3,99,1,+03048,5,9",,,"9,AGL   ,+99999,+99999","99,99,9,99,9,99,9,01829,1,99,9,99,9",,,"09939,5,09294,5",,,,,,"MET09501/03/23 16:47:01 METAR PAPT 040147Z 00000KT 25SM SCT060 BKN100 M08/M08 A2935 RMK NO SPECI LAST","R01   M087TMP046R02   M087DPT046"
"70249026526","2023-01-04T17:45:00","7","62.0911","-152.7349","566.3","PUNTILLA, AK US","FM-15","PAPT ","V020","999,9,C,0000,5","03048,5,M,N","040234,5,N,5","-0080,C","-0080,C","99999,9",,,,,,,,,,"08,5,+03048,5,99,9",,,"4,99,1,+03048,5,9",,,,"9,AGL   ,+99999,+99999","99,99,9,99,9,99,9,03048,1,99,9,99,9",,,"09905,5,09262,5",,,,,,"MET08301/04/23 08:45:02 METAR PAPT 041745Z 00000KT 25SM OVC100 M08/M08 A2925 RMK NO SPECI","R01   M087TMP046R02   M087DPT046"
"70249026526","2023-01-04T19:59:00","7","62.0911","-152.7349","566.3","PUNTILLA, AK US","FM-15","PAPT ","V020","350,5,N,0015,5","00610,5,M,N","001609,5,N,5","-0030,C","-0030,C","99999,9",,,,,,,,,,"08,5,+00610,5,99,9",,,"4,99,1,+00610,5,9",,,,"9,AGL   ,+99999,+99999","99,99,9,99,9,99,9,00610,1,99,9,99,9",,,"09919,5,09275,5",,,,,,"MET08201/04/23 10:59:02 METAR PAPT 041959Z 35003KT 1SM OVC020 M03/M03 A2929 RMK NO SPECI","R01   M037TMP046R02   M037DPT046"
"70249026526","2023-01-04T21:44:00","7","62.0911","-152.7349","566.3","PUNTILLA, AK US","FM-15","PAPT ","V020","999,9,C,0000,5","00610,5,M,N","001609,7,N,5","-0040,C","-0040,C","99999,9",,,,,,"2,0,03,0,0,1,7",,"72,7",,"08,5,+00610,5,99,9",,,"4,99,1,+00610,5,9",,,,"9,AGL   ,+99999,+99999","99,99,9,99,9,99,9,00610,1,99,9,99,9",,,"09926,5,09281,5",,"73,7",,,,"MET08501/04/23 12:44:02 METAR PAPT 042144Z 00000KT 1SM SN OVC020 M04/M04 A2931 RMK NO SPECI","R01   1SM7VIS012R02   M047TMP046R03   M047DPT046R04    SN7AWW012R05SEERMK7MVW012R06    SN7MWW012"
"70249026526","2023-01-04T23:50:00","7","62.0911","-152.7349","566.3","PUNTILLA, AK US","FM-15","PAPT ","V020","999,9,C,0000,5","03048,5,M,N","040234,5,N,5","-0040,C","-0040,C","99999,9","24,0012,3,1","0046,9,5,004570,9,9",,,,,,,,"04,5,+01829,5,99,9","07,5,+03048,5,99,9",,"2,99,1,+01829,5,9","3,99,1,+03048,5,9",,,"9,AGL   ,+99999,+99999","99,99,9,99,9,99,9,01829,1,99,9,99,9","240,M,-0033,1","240,N,-0083,1","09929,5,09284,5",,,,,,"MET11901/04/23 14:50:02 METAR PAPT 042350Z 00000KT 25SM SCT060 BKN100 M04/M04 A2932 RMK NO SPECI 410331083 70005 931010 4/018","R01   M047TMP046R02   M047DPT046"
"70249026526","2023-01-05T01:45:00","7","62.0911","-152.7349","566.3","PUNTILLA, AK US","FM-15","PAPT ","V020","999,9,C,0000,5","03048,5,M,N","040234,5,N,5","-0070,C","-0070,C","99999,9",,,,,,,,,,"04,5,+01829,5,99,9","07,5,+03048,5,99,9",,"2,99,1,+01829,5,9","3,99,1,+03048,5,9",,,"9,AGL   ,+99999,+99999","99,99,9,99,9,99,9,01829,1,99,9,99,9",,,"09932,5,09288,5",,,,,,"MET09501/04/23 16:45:01 METAR PAPT 050145Z 00000KT 25SM SCT060 BKN100 M07/M07 A2933 RMK NO SPECI LAST","R01   M077TMP046R02   M077DPT046"
"70249026526","2023-01-05T17:45:00","7","62.0911","-152.7349","566.3","PUNTILLA, AK US","FM-15","PAPT ","V020","999,9,C,0000,5","03048,5,M,N","040234,5,N,5","-0070,C","-0070,C","99999,9",,,,,,,,,,"07,5,+03048,5,99,9",,,"3,99,1,+03048,5,9",,,,"9,AGL   ,+99999,+99999","99,99,9,99,9,99,9,03048,1,99,9,99,9",,,"09959,5,09313,5",,,,,,"MET08901/05/23 08:45:02 METAR PAPT 051745Z 00000KT 25SM BKN100 M07/M07 A2941 RMK NO SPECI FIRST","R01   M077TMP046R02   M077DPT046"
"70249026526","2023-01-05T19:45:00","7","62.0911","-152.7349","566.3","PUNTILLA, AK US","FM-15","PAPT ","V020","999,9,C,0000,5","01829,5,M,N","011265,5,N,5","-0090,C","-0090,C","99999,9",,,,,,"1,0,03,0,0,1,5",,"71,5",,"07,5,+01829,5,99,9",,,"3,99,1,+01829,5,9",,,,"9,AGL   ,+99999,+99999","99,99,9,99,9,99,9,01829,1,99,9,99,9",,,"09970,5,09323,5",,"71,5",,,,"MET08601/05/23 10:45:02 METAR PAPT 051945Z 00000KT 7SM -SN BKN060 M09/M09 A2944 RMK NO SPECI","R01   M097TMP046R02   M097DPT046"
"70249026526","2023-01-05T21:52:00","7","62.0911","-152.7349","566.3","PUNTILLA, AK US","FM-15","PAPT ","V020","999,9,C,0000,5","01829,5,M,N","040234,5,N,5","-0070,C","-0070,C","99999,9",,,,,,,,,,"07,5,+01829,5,99,9",,,"3,99,1,+01829,5,9",,,,"9,AGL   ,+99999,+99999","99,99,9,99,9,99,9,01829,1,99,9,99,9",,,"09963,5,09316,5",,,,,,"MET08301/05/23 12:52:02 METAR PAPT 052152Z 00000KT 25SM BKN060 M07/M07 A2942 RMK NO SPECI","R01   M077TMP046R02   M077DPT046"
"70249026526","2023-01-05T23:53:00","7","62.0911","-152.7349","566.3","PUNTILLA, AK US","FM-15","PAPT ","V020","180,5,N,0015,5","01829,5,M,N","040234,5,N,5","-0090,C","-0090,C","99999,9","24,0005,3,1","0046,9,5,004570,9,9",,,,,,,,"07,5,+01829,5,99,9",,,"3,99,1,+01829,5,9",,,,"9,AGL   ,+99999,+99999","99,99,9,99,9,99,9,01829,1,99,9,99,9","240,M,-0067,1","240,N,-0094,1","09956,5,09310,5",,,,,,"MET11201/05/23 14:53:02 METAR PAPT 052353Z 18003KT 25SM BKN060 M09/M09 A2940 RMK NO SPECI 410671094 70002 931000 4/018","R01   M097TMP046R02   M097DPT046"
"70249026526","2023-01-06T01:54:00","7","62.0911","-152.7349","566.3","PUNTILLA, AK US","FM-15","PAPT ","V020","999,9,C,0000,5","01829,5,M,N","040234,5,N,5","-0110,C","-0110,C","99999,9",,,,,,,,,,"08,5,+01829,5,99,9",,,"4,99,1,+01829,5,9",,,,"9,AGL   ,+99999,+99999","99,99,9,99,9,99,9,01829,1,99,9,99,9",,,"09956,5,09310,5",,,,,,"MET08801/05/23 16:54:01 METAR PAPT 060154Z 00000KT 25SM OVC060 M11/M11 A2940 RMK NO SPECI LAST","R01   M117TMP046R02   M117DPT046"
"70249026526","2023-01-06T08:59:00","O","62.0911","-152.7349","566.3","PUNTILLA, AK US","SOD  ","PAPT ","V020","999,9,9,9999,9","99999,9,9,9","999999,9,9,9","+9999,9","+9999,9","99999,9",,,"AU,18,SN  ,5",,,,,,,,,,,,,,,,,,,,,,,,,
"70249026526","2023-01-06T17:46:00","7","62.0911","-152.7349","566.3","PUNTILLA, AK US","FM-15","PAPT ","V020","340,5,N,0015,5","03048,5,M,N","040234,5,N,5","-0170,C","-0170,C","99999,9",,,,,,,,,,"08,5,+03048,5,99,9",,,"4,99,1,+03048,5,9",,,,"9,AGL   ,+99999,+99999","99,99,9,99,9,99,9,03048,1,99,9,99,9",,,"09939,5,09294,5",,,,,,"MET08901/06/23 08:46:02 METAR PAPT 061746Z 34003KT 25SM OVC100 M17/M17 A2935 RMK NO SPECI FIRST","R01   M177TMP046R02   M177DPT046"
"70249026526","2023-01-06T19:45:00","7","62.0911","-152.7349","566.3","PUNTILLA, AK US","FM-15","PAPT ","V020","340,5,N,0015,5","03048,5,M,N","040234,5,N,5","-0140,C","-0140,C","99999,9",,,,,,,,,,"08,5,+03048,5,99,9",,,"4,99,1,+03048,5,9",,,,"9,AGL   ,+99999,+99999","99,99,9,99,9,99,9,03048,1,99,9,99,9",,,"09946,5,09300,5",,,,,,"MET08301/06/23 10:45:02 METAR PAPT 061945Z 34003KT 25SM OVC100 M14/M14 A2937 RMK NO SPECI","R01   M147TMP046R02   M147DPT046"
"70249026526","2023-01-06T21:48:00","7","62.0911","-152.7349","566.3","PUNTILLA, AK US","FM-15","PAPT ","V020","999,9,C,0000,5","03048,5,M,N","040234,5,N,5","-0130,C","-0130,C","99999,9",,,,,,,,,,"08,5,+03048,5,99,9",,,"4,99,1,+03048,5,9",,,,"9,AGL   ,+99999,+99999","99,99,9,99,9,99,9,03048,1,99,9,99,9",,,"09953,5,09307,5",,,,,,"MET08301/06/23 12:48:02 METAR PAPT 062148Z 00000KT 25SM OVC100 M13/M13 A2939 RMK NO SPECI","R01   M137TMP046R02   M137DPT046"
"70249026526","2023-01-06T23:49:00","7","62.0911","-152.7349","566.3","PUNTILLA, AK US","FM-15","PAPT ","V020","340,5,N,0015,5","03048,5,M,N","040234,5,N,5","-0100,C","-0100,C","99999,9","24,0000,9,1","0046,9,5,004570,9,9",,,,,,,,"08,5,+03048,5,99,9",,,"4,99,1,+03048,5,9",,,,"9,AGL   ,+99999,+99999","99,99,9,99,9,99,9,03048,1,99,9,99,9","240,M,-0100,1","240,N,-0172,1","09956,5,09310,5",,,,,,"MET10501/06/23 14:49:02 METAR PAPT 062349Z 34003KT 25SM OVC100 M10/M10 A2940 RMK NO SPECI 411001172 70000 4/018","Q01  00002PRCP24R01   M107TMP046R02   M107DPT046"
"70249026526","2023-01-07T01:46:00","7","62.0911","-152.7349","566.3","PUNTILLA, AK US","FM-15","PAPT ","V020","999,9,C,0000,5","03048,5,M,N","040234,5,N,5","-0100,C","-0100,C","99999,9",,,,,,,,,,"08,5,+03048,5,99,9",,,"4,99,1,+03048,5,9",,,,"9,AGL   ,+99999,+99999","99,99,9,99,9,99,9,03048,1,99,9,99,9",,,"09963,5,09316,5",,,,,,"MET08801/06/23 16:46:01 METAR PAPT 070146Z 00000KT 25SM OVC100 M10/M10 A2942 RMK NO SPECI LAST","R01   M107TMP046R02   M107DPT046"
"70249026526","2023-01-07T17:48:00","7","62.0911","-152.7349","566.3","PUNTILLA, AK US","FM-15","PAPT ","V020","340,5,N,0021,5","22000,7,9,N","040234,5,N,5","-0210,C","-0210,C","99999,9",,,,,,,,,,"00,7,+99999,9,99,9",,,"0,99,1,+99999,9,9",,,,,"00,99,1,99,9,99,9,99999,9,99,9,99,9",,,"10017,5,09368,5",,,,,,"MET08601/07/23 08:48:02 METAR PAPT 071748Z 34004KT 25SM SKC M21/M21 A2958 RMK NO SPECI FIRST","R01   SKC7SKY009R02   M217TMP046R03   M217DPT046R04   SKC7GAS009"
"70249026526","2023-01-07T19:45:00","7","62.0911","-152.7349","566.3","PUNTILLA, AK US","FM-15","PAPT ","V020","999,9,C,0000,5","22000,7,9,N","040234,5,N,5","-0220,C","-0220,C","99999,9",,,,,,,,,,"00,7,+99999,9,99,9",,,"0,99,1,+99999,9,9",,,,,"00,99,1,99,9,99,9,99999,9,99,9,99,9",,,"10017,5,09368,5",,,,,,"MET08001/07/23 10:45:02 METAR PAPT 071945Z 00000KT 25SM SKC M22/M22 A2958 RMK NO SPECI","R01   SKC7SKY009R02   M227TMP046R03   M227DPT046R04   SKC7GAS009"
"70249026526","2023-01-07T21:54:00","7","62.0911","-152.7349","566.3","PUNTILLA, AK US","FM-15","PAPT ","V020","999,9,C,0000,5","22000,7,9,N","040234,5,N,5","-0210,C","-0210,C","99999,9",,,,,,,,,,"00,7,+99999,9,99,9",,,"0,99,1,+99999,9,9",,,,,"00,99,1,99,9,99,9,99999,9,99,9,99,9",,,"10014,5,09365,5",,,,,,"MET08001/07/23 12:54:02 METAR PAPT 072154Z 00000KT 25SM SKC M21/M21 A2957 RMK NO SPECI","R01   SKC7SKY009R02   M217TMP046R03   M217DPT046R04   SKC7GAS009"
"70249026526","2023-01-07T23:59:00","7","62.0911","-152.7349","566.3","PUNTILLA, AK US","FM-15","PAPT ","V020","350,5,N,0015,5","22000,7,9,N","040234,5,N,5","-0210,C","-0210,C","99999,9","24,0000,9,1","0046,9,5,004570,9,9",,,,,,,,"00,7,+99999,9,99,9",,,"0,99,1,+99999,9,9",,,,,"00,99,1,99,9,99,9,99999,9,99,9,99,9","240,M,-0100,1","240,N,-0217,1","10007,5,09358,5",,,,,,"MET10201/07/23 14:59:02 METAR PAPT 072359Z 35003KT 25SM SKC M21/M21 A2955 RMK NO SPECI 411001217 70000 4/018","Q01  00002PRCP24R01   SKC7SKY009R02   M217TMP046R03   M217DPT046R04   SKC7GAS009"
"70249026526","2023-01-08T01:45:00","7","62.0911","-152.7349","566.3","PUNTILLA, AK US","FM-15","PAPT ","V020","350,5,N,0015,5","22000,7,9,N","040234,5,N,5","-0230,C","-0230,C","99999,9",,,,,,,,,,"00,7,+99999,9,99,9",,,"0,99,1,+99999,9,9",,,,,"00,99,1,99,9,99,9,99999,9,99,9,99,9",,,"10000,5,09352,5",,,,,,"MET08501/07/23 16:45:01 METAR PAPT 080145Z 35003KT 25SM SKC M23/M23 A2953 RMK NO SPECI LAST","R01   SKC7SKY009R02   M237TMP046R03   M237DPT046R04   SKC7GAS009"
"70249026526","2023-01-08T17:45:00","7","62.0911","-152.7349","566.3","PUNTILLA, AK US","FM-15","PAPT ","V020","350,5,N,0021,5","22000,7,9,N","040234,5,N,5","-0230,C","-0230,C","99999,9",,,,,,,,,,"00,7,+99999,9,99,9",,,"0,99,1,+99999,9,9",,,,,"00,99,1,99,9,99,9,99999,9,99,9,99,9",,,"09980,5,09332,5",,,,,,"MET08601/08/23 08:45:02 METAR PAPT 081745Z 35004KT 25SM SKC M23/M23 A2947 RMK NO SPECI FIRST","R01   SKC7SKY009R02   M237TMP046R03   M237DPT046R04   SKC7GAS009"
"70249026526","2023-01-08T19:45:00","7","62.0911","-152.7349","566.3","PUNTILLA, AK US","FM-15","PAPT ","V020","999,9,C,0000,5","22000,7,9,N","040234,5,N,5","-0240,C","-0240,C","99999,9",,,,,,,,,,"00,7,+99999,9,99,9",,,"0,99,1,+99999,9,9",,,,,"00,99,1,99,9,99,9,99999,9,99,9,99,9",,,"09990,5,09342,5",,,,,,"MET08001/08/23 10:45:02 METAR PAPT 081945Z 00000KT 25SM SKC M24/M24 A2950 RMK NO SPECI","R01   SKC7SKY009R02   M247TMP046R03   M247DPT046R04   SKC7GAS009"
"70249026526","2023-01-08T21:45:00","7","62.0911","-152.7349","566.3","PUNTILLA, AK US","FM-15","PAPT ","V020","999,9,C,0000,5","22000,7,9,N","040234,5,N,5","-0210,C","-0210,C","99999,9",,,,,,,,,,"00,7,+99999,9,99,9",,,"0,99,1,+99999,9,9",,,,,"00,99,1,99,9,99,9,99999,9,99,9,99,9",,,"09993,5,09345,5",,,,,,"MET08001/08/23 12:45:02 METAR PAPT 082145Z 00000KT 25SM SKC M21/M21 A2951 RMK NO SPECI","R01   SKC7SKY009R02   M217TMP046R03   M217DPT046R04   SKC7GAS009"
"70249026526","2023-01-08T23:45:00","7","62.0911","-152.7349","566.3","PUNTILLA, AK US","FM-15","PAPT ","V020","350,5,N,0015,5","22000,7,9,N","040234,5,N,5","-0240,C","-0240,C","99999,9","24,0000,9,1","0046,9,5,004570,9,9",,,,,,,,"00,7,+99999,9,99,9",,,"0,99,1,+99999,9,9",,,,,"00,99,1,99,9,99,9,99999,9,99,9,99,9","240,M,-0206,1","240,N,-0239,1","09997,5,09348,5",,,,,,"MET10201/08/23 14:45:02 METAR PAPT 082345Z 35003KT 25SM SKC M24/M24 A2952 RMK NO SPECI 412061239 70000 4/018","Q01  00002PRCP24R01   SKC7SKY009R02   M247TMP046R03   M247DPT046R04   SKC7GAS009"
"70249026526","2023-01-09T01:49:00","7","62.0911","-152.7349","566.3","PUNTILLA, AK US","FM-15","PAPT ","V020","350,5,N,0015,5","22000,7,9,N","040234,5,N,5","-0230,C","-0230,C","99999,9",,,,,,,,,,"00,7,+99999,9,99,9",,,"0,99,1,+99999,9,9",,,,,"00,99,1,99,9,99,9,99999,9,99,9,99,9",,,"10000,5,09352,5",,,,,,"MET08501/08/23 16:49:01 METAR PAPT 090149Z 35003KT 25SM SKC M23/M23 A2953 RMK NO SPECI LAST","R01   SKC7SKY009R02   M237TMP046R03   M237DPT046R04   SKC7GAS009"
"70249026526","2023-01-09T17:45:00","7","62.0911","-152.7349","566.3","PUNTILLA, AK US","FM-15","PAPT ","V020","350,5,N,0015,5","03048,5,M,N","040234,5,N,5","-0140,C","-0140,C","99999,9",,,,,,,,,,"08,5,+03048,5,99,9",,,"4,99,1,+03048,5,9",,,,"9,AGL   ,+99999,+99999","99,99,9,99,9,99,9,03048,1,99,9,99,9",,,"09973,5,09326,5",,,,,,"MET08901/09/23 08:45:02 METAR PAPT 091745Z 35003KT 25SM OVC100 M14/M14 A2945 RMK NO SPECI FIRST","R01   M147TMP046R02   M147DPT046"
"70249026526","2023-01-09T19:45:00","7","62.0911","-152.7349","566.3","PUNTILLA, AK US","FM-15","PAPT ","V020","999,9,C,0000,5","03048,5,M,N","040234,5,N,5","-0130,C","-0130,C","99999,9",,,,,,,,,,"08,5,+03048,5,99,9",,,"4,99,1,+03048,5,9",,,,"9,AGL   ,+99999,+99999","99,99,9,99,9,99,9,03048,1,99,9,99,9",,,"09976,5,09329,5",,,,,,"MET08301/09/23 10:45:02 METAR PAPT 091945Z 00000KT 25SM OVC100 M13/M13 A2946 RMK NO SPECI","R01   M137TMP046R02   M137DPT046"
"70249026526","2023-01-09T21:45:00","7","62.0911","-152.7349","566.3","PUNTILLA, AK US","FM-15","PAPT ","V020","999,9,C,0000,5","01829,5,M,N","040234,5,N,5","-0100,C","-0100,C","99999,9",,,,,,,,,,"08,5,+01829,5,99,9",,,"4,99,1,+01829,5,9",,,,"9,AGL   ,+99999,+99999","99,99,9,99,9,99,9,01829,1,99,9,99,9",,,"09966,5,09320,5",,,,,,"MET08301/09/23 12:45:02 METAR PAPT 092145Z 00000KT 25SM OVC060 M10/M10 A2943 RMK NO SPECI","R01   M107TMP046R02   M107DPT046"
"70249026526","2023-01-09T23:52:00","7","62.0911","-152.7349","566.3","PUNTILLA, AK US","FM-15","PAPT ","V020","999,9,C,0000,5","01829,5,M,N","040234,5,N,5","-0090,C","-0090,C","99999,9","24,0000,9,1","0046,9,5,004570,9,9",,,,,,,,"08,5,+01829,5,99,9",,,"4,99,1,+01829,5,9",,,,"9,AGL   ,+99999,+99999","99,99,9,99,9,99,9,01829,1,99,9,99,9","240,M,-0089,1","240,N,-0228,1","09959,5,09313,5",,,,,,"MET10501/09/23 14:52:02 METAR PAPT 092352Z 00000KT 25SM OVC060 M09/M09 A2941 RMK NO SPECI 410891228 70000 4/018","Q01  00002PRCP24R01   M097TMP046R02   M097DPT046"
"70249026526","2023-01-10T01:50:00","7","62.0911","-152.7349","566.3","PUNTILLA, AK US","FM-15","PAPT ","V020","999,9,C,0000,5","01829,5,M,N","040234,5,N,5","-0100,C","-0100,C","99999,9",,,,,,,,,,"08,5,+01829,5,99,9",,,"4,99,1,+01829,5,9",,,,"9,AGL   ,+99999,+99999","99,99,9,99,9,99,9,01829,1,99,9,99,9",,,"09953,5,09307,5",,,,,,"MET08801/09/23 16:50:01 METAR PAPT 100150Z 00000KT 25SM OVC060 M10/M10 A2939 RMK NO SPECI LAST","R01   M107TMP046R02   M107DPT046"
"70249026526","2023-01-10T17:46:00","7","62.0911","-152.7349","566.3","PUNTILLA, AK US","FM-15","PAPT ","V020","999,9,C,0000,5","00914,5,M,N","004828,5,N,5","-0070,C","-0070,C","99999,9",,,,,,"1,0,03,0,0,1,5",,"71,5",,"08,5,+00914,5,99,9",,,"4,99,1,+00914,5,9",,,,"9,AGL   ,+99999,+99999","99,99,9,99,9,99,9,00914,1,99,9,99,9",,,"09926,5,09281,5",,"71,5",,,,"MET09201/10/23 08:46:02 METAR PAPT 101746Z 00000KT 3SM -SN OVC030 M07/M07 A2931 RMK NO SPECI FIRST","R01   M077TMP046R02   M077DPT046"
"70249026526","2023-01-10T19:45:00","7","62.0911","-152.7349","566.3","PUNTILLA, AK US","FM-15","PAPT ","V020","999,9,C,0000,5","00914,5,M,N","004828,5,N,5","-0060,C","-0060,C","99999,9",,,,,,"1,0,03,0,0,1,5",,"71,5",,"08,5,+00914,5,99,9",,,"4,99,1,+00914,5,9",,,,"9,AGL   ,+99999,+99999","99,99,9,99,9,99,9,00914,1,99,9,99,9",,,"09929,5,09284,5",,"71,5",,,,"MET08601/10/23 10:45:02 METAR PAPT 101945Z 00000KT 3SM -SN OVC030 M06/M06 A2932 RMK NO SPECI","R01   M067TMP046R02   M067DPT046"
"70249026526","2023-01-10T21:45:00","7","62.0911","-152.7349","566.3","PUNTILLA, AK US","FM-15","PAPT ","V020","999,9,C,0000,5","00914,5,M,N","004828,5,N,5","-0040,C","-0040,C","99999,9",,,,,,"1,0,03,0,0,1,5",,"71,5",,"08,5,+00914,5,99,9",,,"4,99,1,+00914,5,9",,,,"9,AGL   ,+99999,+99999","99,99,9,99,9,99,9,00914,1,99,9,99,9",,,"09929,5,09284,5",,"71,5",,,,"MET08601/10/23 12:45:02 METAR PAPT 102145Z 00000KT 3SM -SN OVC030 M04/M04 A2932 RMK NO SPECI","R01   M047TMP046R02   M047DPT046"
"70249026526","2023-01-10T23:57:00","7","62.0911","-152.7349","566.3","PUNTILLA, AK US","FM-15","PAPT ","V020","999,9,C,0000,5","00914,5,M,N","004828,5,N,5","-0030,C","-0030,C","99999,9","24,0005,3,1","0046,9,5,004570,9,9",,,,"1,0,03,0,0,1,5",,"71,5",,"08,5,+00914,5,99,9",,,"4,99,1,+00914,5,9",,,,"9,AGL   ,+99999,+99999","99,99,9,99,9,99,9,00914,1,99,9,99,9","240,M,-0033,1","240,N,-0100,1","09926,5,09281,5",,"71,5",,,,"MET11501/10/23 14:57:02 METAR PAPT 102357Z 00000KT 3SM -SN OVC030 M03/M03 A2931 RMK NO SPECI 410331100 70002 931000 4/018","R01   M037TMP046R02   M037DPT046"
"70249026526","2023-01-11T08:59:00","O","62.0911","-152.7349","566.3","PUNTILLA, AK US","SOD  ","PAPT ","V020","999,9,9,9999,9","99999,9,9,9","999999,9,9,9","+9999,9","+9999,9","99999,9",,,"AU,18,SN  ,5",,,,,,,,,,,,,,,,,,,,,,,,,
"70249026526","2023-01-11T17:45:00","7","62.0911","-152.7349","566.3","PUNTILLA, AK US","FM-15","PAPT ","V020","030,5,N,0015,5","00762,5,M,N","004828,5,N,5","-0030,C","-0030,C","99999,9",,,,,,"1,0,03,0,0,1,5",,"71,5",,"08,5,+00762,5,99,9",,,"4,99,1,+00762,5,9",,,,"9,AGL   ,+99999,+99999","99,99,9,99,9,99,9,00762,1,99,9,99,9",,,"09956,5,09310,5",,"71,5",,,,"MET09201/11/23 08:45:02 METAR PAPT 111745Z 03003KT 3SM -SN OVC025 M03/M03 A2940 RMK NO SPECI FIRST","R01   M037TMP046R02   M037DPT046"
"70249026526","2023-01-11T19:51:00","7","62.0911","-152.7349","566.3","PUNTILLA, AK US","FM-15","PAPT ","V020","999,9,C,0000,5","00305,5,M,N","004828,5,N,5","-0030,C","-0030,C","99999,9",,,,,,,,,,"08,5,+00305,5,99,9",,,"4,99,1,+00305,5,9",,,,"9,AGL   ,+99999,+99999","99,99,9,99,9,99,9,00305,1,99,9,99,9",,,"09983,5,09336,5",,,,,,"MET08201/11/23 10:51:02 METAR PAPT 111951Z 00000KT 3SM OVC010 M03/M03 A2948 RMK NO SPECI","R01   M037TMP046R02   M037DPT046"
"70249026526","2023-01-11T23:48:00","7","62.0911","-152.7349","566.3","PUNTILLA, AK US","FM-15","PAPT ","V020","999,9,C,0000,5","00457,5,M,N","004828,5,N,5","-0030,C","-0030,C","99999,9","24,0020,3,1","0046,9,5,004570,9,9",,,,"1,0,03,0,0,1,5",,"71,5",,"08,5,+00457,5,99,9",,,"4,99,1,+00457,5,9",,,,"9,AGL   ,+99999,+99999","99,99,9,99,9,99,9,00457,1,99,9,99,9","240,M,-0028,1","240,N,-0039,1","10003,5,09355,5",,"71,5",,,,"MET11501/11/23 14:48:02 METAR PAPT 112348Z 00000KT 3SM -SN OVC015 M03/M03 A2954 RMK NO SPECI 410281039 70008 931013 4/018","R01   M037TMP046R02   M037DPT046"
"70249026526","2023-01-12T01:48:00","7","62.0911","-152.7349","566.3","PUNTILLA, AK US","FM-15","PAPT ","V020","170,5,N,0015,5","00457,5,M,N","004828,5,N,5","-0030,C","-0030,C","99999,9",,,,,,"1,0,03,0,0,1,5",,"71,5",,"08,5,+00457,5,99,9",,,"4,99,1,+00457,5,9",,,,"9,AGL   ,+99999,+99999","99,99,9,99,9,99,9,00457,1,99,9,99,9",,,"10014,5,09365,5",,"71,5",,,,"MET09101/11/23 16:48:01 METAR PAPT 120148Z 17003KT 3SM -SN OVC015 M03/M03 A2957 RMK NO SPECI LAST","R01   M037TMP046R02   M037DPT046"
"70249026526","2023-01-12T08:59:00","O","62.0911","-152.7349","566.3","PUNTILLA, AK US","SOD  ","PAPT ","V020","999,9,9,9999,9","99999,9,9,9","999999,9,9,9","+9999,9","+9999,9","99999,9",,,"AU,18,SN  ,5",,,,,,,,,,,,,,,,,,,,,,,,,
"70249026526","2023-01-12T17:46:00","7","62.0911","-152.7349","566.3","PUNTILLA, AK US","FM-15","PAPT ","V020","999,9,C,0000,5","00610,5,M,N","004828,5,N,5","-0040,C","-0040,C","99999,9",,,,,,"1,0,03,0,0,1,5",,"71,5",,"08,5,+00610,5,99,9",,,"4,99,1,+00610,5,9",,,,"9,AGL   ,+99999,+99999","99,99,9,99,9,99,9,00610,1,99,9,99,9",,,"10017,5,09368,5",,"71,5",,,,"MET09201/12/23 08:46:02 METAR PAPT 121746Z 00000KT 3SM -SN OVC020 M04/M04 A2958 RMK NO SPECI FIRST","R01   M047TMP046R02   M047DPT046"
"70249026526","2023-01-12T19:51:00","7","62.0911","-152.7349","566.3","PUNTILLA, AK US","FM-15","PAPT ","V020","340,5,N,0015,5","00610,5,M,N","040234,5,N,5","-0040,C","-0040,C","99999,9",,,,,,,,,,"08,5,+00610,5,99,9",,,"4,99,1,+00610,5,9",,,,"9,AGL   ,+99999,+99999","99,99,9,99,9,99,9,00610,1,99,9,99,9",,,"10014,5,09365,5",,,,,,"MET08301/12/23 10:51:02 METAR PAPT 121951Z 34003KT 25SM OVC020 M04/M04 A2957 RMK NO SPECI","R01   M047TMP046R02   M047DPT046"
"70249026526","2023-01-12T21:47:00","7","62.0911","-152.7349","566.3","PUNTILLA, AK US","FM-15","PAPT ","V020","999,9,C,0000,5","01524,5,M,N","040234,5,N,5","-0040,C","-0040,C","99999,9",,,,,,,,,,"04,5,+00305,5,99,9","08,5,+01524,5,99,9",,"2,99,1,+00305,5,9","4,99,1,+01524,5,9",,,"9,AGL   ,+99999,+99999","99,99,9,99,9,99,9,00305,1,99,9,99,9",,,"10010,5,09361,5",,,,,,"MET09001/12/23 12:47:02 METAR PAPT 122147Z 00000KT 25SM SCT010 OVC050 M04/M04 A2956 RMK NO SPECI","R01   M047TMP046R02   M047DPT046"
"70249026526","2023-01-12T23:46:00","7","62.0911","-152.7349","566.3","PUNTILLA, AK US","FM-15","PAPT ","V020","999,9,C,0000,5","01524,5,M,N","040234,5,N,5","-0040,C","-0040,C","99999,9","24,0010,3,1","0046,9,5,004570,9,9",,,,,,,,"08,5,+01524,5,99,9",,,"4,99,1,+01524,5,9",,,,"9,AGL   ,+99999,+99999","99,99,9,99,9,99,9,01524,1,99,9,99,9","240,M,-0028,1","240,N,-0044,1","10003,5,09355,5",,,,,,"MET11201/12/23 14:46:02 METAR PAPT 122346Z 00000KT 25SM OVC050 M04/M04 A2954 RMK NO SPECI 410281044 70004 931005 4/018","R01   M047TMP046R02   M047DPT046"
"70249026526","2023-01-13T01:45:00","7","62.0911","-152.7349","566.3","PUNTILLA, AK US","FM-15","PAPT ","V020","999,9,C,0000,5","01524,5,M,N","040234,5,N,5","-0040,C","-0040,C","99999,9",,,,,,,,,,"08,5,+01524,5,99,9",,,"4,99,1,+01524,5,9",,,,"9,AGL   ,+99999,+99999","99,99,9,99,9,99,9,01524,1,99,9,99,9",,,"10000,5,09352,5",,,,,,"MET08801/12/23 16:45:01 METAR PAPT 130145Z 00000KT 25SM OVC050 M04/M04 A2953 RMK NO SPECI LAST","R01   M047TMP046R02   M047DPT046"
"70249026526","2023-01-13T08:59:00","O","62.0911","-152.7349","566.3","PUNTILLA, AK US","SOD  ","PAPT ","V020","999,9,9,9999,9","99999,9,9,9","999999,9,9,9","+9999,9","+9999,9","99999,9",,,"AU,18,SN  ,5",,,,,,,,,,,,,,,,,,,,,,,,,
"70249026526","2023-01-13T17:45:00","7","62.0911","-152.7349","566.3","PUNTILLA, AK US","FM-15","PAPT ","V020","999,9,C,0000,5","01829,5,M,N","040234,5,N,5","-0110,C","-0110,C","99999,9",,,,,,,,,,"08,5,+01829,5,99,9",,,"4,99,1,+01829,5,9",,,,"9,AGL   ,+99999,+99999","99,99,9,99,9,99,9,01829,1,99,9,99,9",,,"09973,5,09326,5",,,,,,"MET08901/13/23 08:45:02 METAR PAPT 131745Z 00000KT 25SM OVC060 M11/M11 A2945 RMK NO SPECI FIRST","R01   M117TMP046R02   M117DPT046"
"70249026526","2023-01-13T19:45:00","7","62.0911","-152.7349","566.3","PUNTILLA, AK US","FM-15","PAPT ","V020","999,9,C,0000,5","01829,5,M,N","024140,5,N,5","-0110,C","-0110,C","99999,9",,,,,,,,,,"08,5,+01829,5,99,9",,,"4,99,1,+01829,5,9",,,,"9,AGL   ,+99999,+99999","99,99,9,99,9,99,9,01829,1,99,9,99,9",,,"09973,5,09326,5",,,,,,"MET08901/13/23 10:45:02 METAR PAPT 131945Z 00000KT 15SM OVC060 M11/M11 A2945 RMK NO SPECI FIRST","R01   M117TMP046R02   M117DPT046"
"70249026526","2023-01-13T21:45:00","7","62.0911","-152.7349","566.3","PUNTILLA, AK US","FM-15","PAPT ","V020","999,9,C,0000,5","01829,5,M,N","040234,5,N,5","-0110,C","-0110,C","99999,9",,,,,,,,,,"08,5,+01829,5,99,9",,,"4,99,1,+01829,5,9",,,,"9,AGL   ,+99999,+99999","99,99,9,99,9,99,9,01829,1,99,9,99,9",,,"09966,5,09320,5",,,,,,"MET08301/13/23 12:45:02 METAR PAPT 132145Z 00000KT 25SM OVC060 M11/M11 A2943 RMK NO SPECI","R01   M117TMP046R02   M117DPT046"
"70249026526","2023-01-13T23:46:00","7","62.0911","-152.7349","566.3","PUNTILLA, AK US","FM-15","PAPT ","V020","999,9,C,0000,5","01829,5,M,N","040234,5,N,5","-0110,C","-0110,C","99999,9","24,0000,9,1","0046,9,5,004570,9,9",,,,,,,,"08,5,+01829,5,99,9",,,"4,99,1,+01829,5,9",,,,"9,AGL   ,+99999,+99999","99,99,9,99,9,99,9,01829,1,99,9,99,9",,,"09956,5,09310,5",,,,,,"MET10401/13/23 14:46:02 METAR PAPT 132346Z 00000KT 25SM OVC060 M11/M11 A2940 RMK NO SPECI 41044101170000 4/018","Q01  00002PRCP24R01   M117TMP046R02   M117DPT046"
"70249026526","2023-01-14T01:45:00","7","62.0911","-152.7349","566.3","PUNTILLA, AK US","FM-15","PAPT ","V020","999,9,C,0000,5","01829,5,M,N","040234,5,N,5","-0110,C","-0110,C","99999,9",,,,,,,,,,"08,5,+01829,5,99,9",,,"4,99,1,+01829,5,9",,,,"9,AGL   ,+99999,+99999","99,99,9,99,9,99,9,01829,1,99,9,99,9",,,"09946,5,09300,5",,,,,,"MET08801/13/23 16:45:01 METAR PAPT 140145Z 00000KT 25SM OVC060 M11/M11 A2937 RMK NO SPECI LAST","R01   M117TMP046R02   M117DPT046"
"70249026526","2023-01-14T17:45:00","7","62.0911","-152.7349","566.3","PUNTILLA, AK US","FM-15","PAPT ","V020","999,9,C,0000,5","22000,5,9,N","040234,5,N,5","-0110,C","-0110,C","99999,9",,,,,,,,,,"02,5,+03048,5,99,9",,,"1,99,1,+03048,5,9",,,,"9,AGL   ,+99999,+99999","02,99,5,99,9,99,9,03048,1,99,9,99,9",,,"09902,5,09259,5",,,,,,"MET08901/14/23 08:45:02 METAR PAPT 141745Z 00000KT 25SM FEW100 M11/M11 A2924 RMK NO SPECI FIRST","R01   M117TMP046R02   M117DPT046D01      0ADE726"
"70249026526","2023-01-14T19:46:00","7","62.0911","-152.7349","566.3","PUNTILLA, AK US","FM-15","PAPT ","V020","999,9,C,0000,5","03048,5,M,N","040234,5,N,5","-0140,C","-0140,C","99999,9",,,,,,,,,,"07,5,+03048,5,99,9",,,"3,99,1,+03048,5,9",,,,"9,AGL   ,+99999,+99999","99,99,9,99,9,99,9,03048,1,99,9,99,9",,,"09905,5,09262,5",,,,,,"MET08301/14/23 10:46:02 METAR PAPT 141946Z 00000KT 25SM BKN100 M14/M14 A2925 RMK NO SPECI","R01   M147TMP046R02   M147DPT046"
"70249026526","2023-01-14T21:45:00","7","62.0911","-152.7349","566.3","PUNTILLA, AK US","FM-15","PAPT ","V020","999,9,C,0000,5","03048,5,M,N","040234,5,N,5","-0120,C","-0120,C","99999,9",,,,,,,,,,"07,5,+03048,5,99,9",,,"3,99,1,+03048,5,9",,,,"9,AGL   ,+99999,+99999","99,99,9,99,9,99,9,03048,1,99,9,99,9",,,"09892,5,09249,5",,,,,,"MET08301/14/23 12:45:02 METAR PAPT 142145Z 00000KT 25SM BKN100 M12/M12 A2921 RMK NO SPECI","R01   M127TMP046R02   M127DPT046"
"70249026526","2023-01-14T23:47:00","7","62.0911","-152.7349","566.3","PUNTILLA, AK US","FM-15","PAPT ","V020","999,9,C,0000,5","03048,5,M,N","040234,5,N,5","-0090,C","-0090,C","99999,9","24,0000,9,1","0046,9,5,004570,9,9",,,,,,,,"07,5,+03048,5,99,9",,,"3,99,1,+03048,5,9",,,,"9,AGL   ,+99999,+99999","99,99,9,99,9,99,9,03048,1,99,9,99,9","240,M,-0094,1","240,N,-0144,1","09881,5,09239,5",,,,,,"MET10501/14/23 14:47:02 METAR PAPT 142347Z 00000KT 25SM BKN100 M09/M09 A2918 RMK NO SPECI 410941144 70000 4/018","Q01  00002PRCP24R01   M097TMP046R02   M097DPT046"
"70249026526","2023-01-15T01:45:00","7","62.0911","-152.7349","566.3","PUNTILLA, AK US","FM-15","PAPT ","V020","999,9,C,0000,5","01524,5,M,N","040234,5,N,5","-0090,C","-0090,C","99999,9",,,,,,,,,,"08,5,+01524,5,99,9",,,"4,99,1,+01524,5,9",,,,"9,AGL   ,+99999,+99999","99,99,9,99,9,99,9,01524,1,99,9,99,9",,,"09875,5,09233,5",,,,,,"MET08801/14/23 16:45:01 METAR PAPT 150145Z 00000KT 25SM OVC050 M09/M09 A2916 RMK NO SPECI LAST","R01   M097TMP046R02   M097DPT046"
"70249026526","2023-01-15T17:45:00","7","62.0911","-152.7349","566.3","PUNTILLA, AK US","FM-15","PAPT ","V020","999,9,C,0000,5","00762,5,M,N","004828,5,N,5","-0050,C","-0050,C","99999,9",,,,,,"1,0,03,0,0,1,5",,"71,5",,"08,5,+00762,5,99,9",,,"4,99,1,+00762,5,9",,,,"9,AGL   ,+99999,+99999","99,99,9,99,9,99,9,00762,1,99,9,99,9",,,"09871,5,09230,5",,"71,5",,,,"MET09201/15/23 08:45:02 METAR PAPT 151745Z 00000KT 3SM -SN OVC025 M05/M05 A2915 RMK NO SPECI FIRST","R01   M057TMP046R02   M057DPT046"
"70249026526","2023-01-15T19:45:00","7","62.0911","-152.7349","566.3","PUNTILLA, AK US","FM-15","PAPT ","V020","999,9,C,0000,5","00152,5,M,N","004828,5,N,5","-0040,C","-0040,C","99999,9",,,,,,,,,,"08,5,+00152,5,99,9",,,"4,99,1,+00152,5,9",,,,"9,AGL   ,+99999,+99999","99,99,9,99,9,99,9,00152,1,99,9,99,9",,,"09875,5,09233,5",,,,,,"MET08201/15/23 10:45:02 METAR PAPT 151945Z 00000KT 3SM OVC005 M04/M04 A2916 RMK NO SPECI","R01   M047TMP046R02   M047DPT046"
"70249026526","2023-01-15T21:48:00","7","62.0911","-152.7349","566.3","PUNTILLA, AK US","FM-15","PAPT ","V020","999,9,C,0000,5","00610,5,M,N","004828,5,N,5","-0030,C","-0030,C","99999,9",,,,,,,,,,"04,5,+00152,5,99,9","08,5,+00610,5,99,9",,"2,99,1,+00152,5,9","4,99,1,+00610,5,9",,,"9,AGL   ,+99999,+99999","99,99,9,99,9,99,9,00152,1,99,9,99,9",,,"09875,5,09233,5",,,,,,"MET08901/15/23 12:48:02 METAR PAPT 152148Z 00000KT 3SM SCT005 OVC020 M03/M03 A2916 RMK NO SPECI","R01   M037TMP046R02   M037DPT046"
"70249026526","2023-01-15T23:46:00","7","62.0911","-152.7349","566.3","PUNTILLA, AK US","FM-15","PAPT ","V020","190,5,N,0015,5","00305,5,M,N","004828,5,N,5","-0030,C","-0030,C","99999,9","24,0000,2,1","0046,9,5,004570,9,9",,,,"1,0,03,0,0,1,5",,"71,5",,"08,5,+00305,5,99,9",,,"4,99,1,+00305,5,9",,,,"9,AGL   ,+99999,+99999","99,99,9,99,9,99,9,00305,1,99,9,99,9","240,M,-0028,1","240,N,-0089,1","09871,5,09230,5",,"71,5",,,,"MET11501/15/23 14:46:02 METAR PAPT 152346Z 19003KT 3SM -SN OVC010 M03/M03 A2915 RMK NO SPECI 410281089 70000 931000 4/018","R01   M037TMP046R02   M037DPT046"
"70249026526","2023-01-16T01:45:00","7","62.0911","-152.7349","566.3","PUNTILLA, AK US","FM-15","PAPT ","V020","999,9,C,0000,5","00610,5,M,N","004828,5,N,5","-0030,C","-0030,C","99999,9",,,,,,"1,0,03,0,0,1,5",,"71,5",,"08,5,+00610,5,99,9",,,"4,99,1,+00610,5,9",,,,"9,AGL   ,+99999,+99999","99,99,9,99,9,99,9,00610,1,99,9,99,9",,,"09865,5,09223,5",,"71,5",,,,"MET09101/15/23 16:45:01 METAR PAPT 160145Z 00000KT 3SM -SN OVC020 M03/M03 A2913 RMK NO SPECI LAST","R01   M037TMP046R02   M037DPT046"
"70249026526","2023-01-16T08:59:00","O","62.0911","-152.7349","566.3","PUNTILLA, AK US","SOD  ","PAPT ","V020","999,9,9,9999,9","99999,9,9,9","999999,9,9,9","+9999,9","+9999,9","99999,9",,,"AU,18,SN  ,5",,,,,,,,,,,,,,,,,,,,,,,,,
"70249026526","2023-01-16T17:45:00","7","62.0911","-152.7349","566.3","PUNTILLA, AK US","FM-15","PAPT ","V020","180,5,N,0046,5","00610,5,M,N","004828,5,N,5","-0020,C","-0020,C","99999,9",,,,,,"1,0,03,0,0,1,5",,"71,5",,"08,5,+00610,5,99,9",,,"4,99,1,+00610,5,9",,,,"9,AGL   ,+99999,+99999","99,99,9,99,9,99,9,00610,1,99,9,99,9",,,"09848,5,09207,5",,"71,5",,,,"MET09201/16/23 08:45:02 METAR PAPT 161745Z 18009KT 3SM -SN OVC020 M02/M02 A2908 RMK NO SPECI FIRST","R01   M027TMP046R02   M027DPT046"
"70249026526","2023-01-16T19:46:00","7","62.0911","-152.7349","566.3","PUNTILLA, AK US","FM-15","PAPT ","V020","160,5,N,0021,5","03048,5,M,N","008047,5,N,5","-0030,C","-0030,C","99999,9",,,,,,,,,,"02,5,+00305,5,99,9","04,5,+00914,5,99,9","07,5,+03048,5,99,9","1,99,1,+00305,5,9","2,99,1,+00914,5,9","3,99,1,+03048,5,9",,"9,AGL   ,+99999,+99999","99,99,9,99,9,99,9,00305,1,99,9,99,9",,,"09858,5,09217,5",,,,,,"MET09601/16/23 10:46:02 METAR PAPT 161946Z 16004KT 5SM FEW010 SCT030 BKN100 M03/M03 A2911 RMK NO SPECI","R01   M037TMP046R02   M037DPT046"
"70249026526","2023-01-16T21:47:00","7","62.0911","-152.7349","566.3","PUNTILLA, AK US","FM-15","PAPT ","V020","230,5,N,0015,5","00914,5,M,N","011265,5,N,5","-0040,C","-0040,C","99999,9",,,,,,,,,,"04,5,+00305,5,99,9","08,5,+00914,5,99,9",,"2,99,1,+00305,5,9","4,99,1,+00914,5,9",,,"9,AGL   ,+99999,+99999","99,99,9,99,9,99,9,00305,1,99,9,99,9",,,"09865,5,09223,5",,,,,,"MET08901/16/23 12:47:02 METAR PAPT 162147Z 23003KT 7SM SCT010 OVC030 M04/M04 A2913 RMK NO SPECI","R01   M047TMP046R02   M047DPT046"
"70249026526","2023-01-16T23:46:00","7","62.0911","-152.7349","566.3","PUNTILLA, AK US","FM-15","PAPT ","V020","999,9,C,0000,5","00914,5,M,N","011265,5,N,5","-0040,C","-0040,C","99999,9","24,0012,3,1","0046,9,5,004570,9,9",,,,,,,,"04,5,+00305,5,99,9","08,5,+00914,5,99,9",,"2,99,1,+00305,5,9","4,99,1,+00914,5,9",,,"9,AGL   ,+99999,+99999","99,99,9,99,9,99,9,00305,1,99,9,99,9","240,M,-0022,1","240,N,-0044,1","09858,5,09217,5",,,,,,"MET11801/16/23 14:46:02 METAR PAPT 162346Z 00000KT 7SM SCT010 OVC030 M04/M04 A2911 RMK NO SPECI 410221044 70005 931006 4/018","R01   M047TMP046R02   M047DPT046"
"70249026526","2023-01-17T01:45:00","7","62.0911","-152.7349","566.3","PUNTILLA, AK US","FM-15","PAPT ","V020","020,5,N,0015,5","00914,5,M,N","011265,5,N,5","-0040,C","-0040,C","99999,9",,,,,,,,,,"04,5,+00305,5,99,9","08,5,+00914,5,99,9",,"2,99,1,+00305,5,9","4,99,1,+00914,5,9",,,"9,AGL   ,+99999,+99999","99,99,9,99,9,99,9,00305,1,99,9,99,9",,,"09854,5,09214,5",,,,,,"MET09401/16/23 16:45:01 METAR PAPT 170145Z 02003KT 7SM SCT010 OVC030 M04/M04 A2910 RMK NO SPECI LAST","R01   M047TMP046R02   M047DPT046"
"70249026526","2023-01-17T08:59:00","O","62.0911","-152.7349","566.3","PUNTILLA, AK US","SOD  ","PAPT ","V020","999,9,9,9999,9","99999,9,9,9","999999,9,9,9","+9999,9","+9999,9","99999,9",,,"AU,18,SN  ,5",,,,,,,,,,,,,,,,,,,,,,,,,
"70249026526","2023-01-17T17:56:00","7","62.0911","-152.7349","566.3","PUNTILLA, AK US","FM-15","PAPT ","V020","340,5,N,0015,5","00762,5,M,N","004828,5,N,5","-0090,C","-0090,C","99999,9",,,,,,,,,,"08,5,+00762,5,99,9",,,"4,99,1,+00762,5,9",,,,"9,AGL   ,+99999,+99999","99,99,9,99,9,99,9,00762,1,99,9,99,9",,,"09817,5,09179,5",,,,,,"MET08801/17/23 08:56:02 METAR PAPT 171756Z 34003KT 3SM OVC025 M09/M09 A2899 RMK NO SPECI FIRST","R01   M097TMP046R02   M097DPT046"
"70249026526","2023-01-17T19:45:00","7","62.0911","-152.7349","566.3","PUNTILLA, AK US","FM-15","PAPT ","V020","999,9,C,0000,5","99999,9,9,N","040234,7,N,5","-0120,C","-0120,C","99999,9",,,,,,"0,0,00,0,0,1,7",,,,,,,"3,99,1,+99999,9,9",,,,"9,AGL   ,+99999,+99999",,,,"09817,5,09179,5",,,,,,"MET08301/17/23 10:45:02 METAR PAPT 171945Z 00000KT 25SM BK 100 M12/M12 A2899 RMK NO SPECI","R01      7SKY009R02  25SM7VIS011R03   M127TMP046R04   M127DPT046R05BK 1007AWW013R06      7GAS009D01      0ADE693D02      0ADE539"
"70249026526","2023-01-17T23:45:00","7","62.0911","-152.7349","566.3","PUNTILLA, AK US","FM-15","PAPT ","V020","999,9,C,0000,5","22000,5,9,N","040234,5,N,5","-0140,C","-0140,C","99999,9","24,0000,9,1","0046,9,5,004570,9,9",,,,,,,,"02,5,+03048,5,99,9",,,"1,99,1,+03048,5,9",,,,"9,AGL   ,+99999,+99999","02,99,5,99,9,99,9,03048,1,99,9,99,9","240,M,-0044,1","240,N,-0139,1","09814,5,09175,5",,,,,,"MET11201/17/23 14:45:02 METAR PAPT 172345Z 00000KT 25SM FEW100 M14/M14 A2898 RMK NO SPECI 410441139 70000 931000 4/018","Q01  00002PRCP24R01   M147TMP046R02   M147DPT046D01      0ADE726"
"70249026526","2023-01-18T01:49:00","7","62.0911","-152.7349","566.3","PUNTILLA, AK US","FM-15","PAPT ","V020","350,5,N,0015,5","22000,5,9,N","040234,5,N,5","-0160,C","-0160,C","99999,9",,,,,,,,,,"04,5,+03048,5,99,9",,,"2,99,1,+03048,5,9",,,,"9,AGL   ,+99999,+99999","04,99,5,99,9,99,9,03048,1,99,9,99,9",,,"09810,5,09172,5",,,,,,"MET08801/17/23 16:49:01 METAR PAPT 180149Z 35003KT 25SM SCT100 M16/M16 A2897 RMK NO SPECI LAST","R01   M167TMP046R02   M167DPT046D01      0ADE726"
"70249026526","2023-01-18T17:45:00","7","62.0911","-152.7349","566.3","PUNTILLA, AK US","FM-15","PAPT ","V020","999,9,C,0000,5","03048,5,M,N","040234,5,N,5","-0140,C","-0140,C","99999,9",,,,,,,,,,"08,5,+03048,5,99,9",,,"4,99,1,+03048,5,9",,,,"9,AGL   ,+99999,+99999","99,99,9,99,9,99,9,03048,1,99,9,99,9",,,"09837,5,09198,5",,,,,,"MET08901/18/23 08:45:02 METAR PAPT 181745Z 00000KT 25SM OVC100 M14/M14 A2905 RMK NO SPECI FIRST","R01   M147TMP046R02   M147DPT046"
"70249026526","2023-01-18T19:47:00","7","62.0911","-152.7349","566.3","PUNTILLA, AK US","FM-15","PAPT ","V020","999,9,C,0000,5","03048,5,M,N","040234,5,N,5","-0150,C","-0150,C","99999,9",,,,,,,,,,"08,5,+03048,5,99,9",,,"4,99,1,+03048,5,9",,,,"9,AGL   ,+99999,+99999","99,99,9,99,9,99,9,03048,1,99,9,99,9",,,"09854,5,09214,5",,,,,,"MET08301/18/23 10:47:02 METAR PAPT 181947Z 00000KT 25SM OVC100 M15/M15 A2910 RMK NO SPECI","R01   M157TMP046R02   M157DPT046"
"70249026526","2023-01-18T21:45:00","7","62.0911","-152.7349","566.3","PUNTILLA, AK US","FM-15","PAPT ","V020","220,5,N,0015,5","03048,5,M,N","040234,5,N,5","-0100,C","-0100,C","99999,9",,,,,,,,,,"08,5,+03048,5,99,9",,,"4,99,1,+03048,5,9",,,,"9,AGL   ,+99999,+99999","99,99,9,99,9,99,9,03048,1,99,9,99,9",,,"09861,5,09220,5",,,,,,"MET08301/18/23 12:45:02 METAR PAPT 182145Z 22003KT 25SM OVC100 M10/M10 A2912 RMK NO SPECI","R01   M107TMP046R02   M107DPT046"
"70249026526","2023-01-18T23:55:00","7","62.0911","-152.7349","566.3","PUNTILLA, AK US","FM-15","PAPT ","V020","999,9,C,0000,5","03048,5,M,N","024140,5,N,5","-0080,C","-0080,C","99999,9","24,0000,9,1","0046,9,5,004570,9,9",,,,,,,,"07,5,+03048,5,99,9",,,"3,99,1,+03048,5,9",,,,"9,AGL   ,+99999,+99999","99,99,9,99,9,99,9,03048,1,99,9,99,9","240,M,-0083,1","240,N,-0156,1","09865,5,09223,5",,,,,,"MET10501/18/23 14:55:02 METAR PAPT 182355Z 00000KT 15SM BKN100 M08/M08 A2913 RMK NO SPECI 410831156 70000 4/018","Q01  00002PRCP24R01   M087TMP046R02   M087DPT046"
"70249026526","2023-01-19T01:46:00","7","62.0911","-152.7349","566.3","PUNTILLA, AK US","FM-15","PAPT ","V020","220,5,N,0015,5","03048,5,M,N","008047,5,N,5","-0090,C","-0090,C","99999,9",,,,,,"1,0,03,0,0,1,5",,"71,5",,"04,5,+01219,5,99,9","08,5,+03048,5,99,9",,"2,99,1,+01219,5,9","4,99,1,+03048,5,9",,,"9,AGL   ,+99999,+99999","99,99,9,99,9,99,9,01219,1,99,9,99,9",,,"09861,5,09220,5",,"71,5",,,,"MET09801/18/23 16:46:01 METAR PAPT 190146Z 22003KT 5SM -SN SCT040 OVC100 M09/M09 A2912 RMK NO SPECI LAST","R01   M097TMP046R02   M097DPT046"
"70249026526","2023-01-19T08:59:00","O","62.0911","-152.7349","566.3","PUNTILLA, AK US","SOD  ","PAPT ","V020","999,9,9,9999,9","99999,9,9,9","999999,9,9,9","+9999,9","+9999,9","99999,9",,,"AU,18,SN  ,5",,,,,,,,,,,,,,,,,,,,,,,,,
"70249026526","2023-01-19T17:46:00","7","62.0911","-152.7349","566.3","PUNTILLA, AK US","FM-15","PAPT ","V020","999,9,C,0000,5","00762,5,M,N","004828,5,N,5","-0080,C","-0080,C","99999,9",,,,,,"1,0,03,0,0,1,5",,"71,5",,"08,5,+00762,5,99,9",,,"4,99,1,+00762,5,9",,,,"9,AGL   ,+99999,+99999","99,99,9,99,9,99,9,00762,1,99,9,99,9",,,"09878,5,09236,5",,"71,5",,,,"MET09201/19/23 08:46:02 METAR PAPT 191746Z 00000KT 3SM -SN OVC025 M08/M08 A2917 RMK NO SPECI FIRST","R01   M087TMP046R02   M087DPT046"
"70249026526","2023-01-19T19:45:00","7","62.0911","-152.7349","566.3","PUNTILLA, AK US","FM-15","PAPT ","V020","999,9,C,0000,5","01829,5,M,N","024140,7,N,5","-0090,C","-0090,C","99999,9",,,,,,"1,0,03,0,0,1,5",,"71,5",,"04,5,+00914,5,99,9","07,5,+01829,5,99,9",,"2,99,1,+00914,5,9","3,99,1,+01829,5,9",,,"9,AGL   ,+99999,+99999","99,99,9,99,9,99,9,00914,1,99,9,99,9",,,"09885,5,09243,5",,"71,5",,,,"MET09401/19/23 10:45:02 METAR PAPT 191945Z 00000KT 15SM -SN SCT030 BKN060 M09/M09 A2919 RMK NO SPECI","R01  15SM7VIS011R02   M097TMP046R03   M097DPT046"
"70249026526","2023-01-19T21:46:00","7","62.0911","-152.7349","566.3","PUNTILLA, AK US","FM-15","PAPT ","V020","999,9,C,0000,5","01829,5,M,N","024140,5,N,5","-0090,C","-0090,C","99999,9",,,,,,,,,,"07,5,+01829,5,99,9",,,"3,99,1,+01829,5,9",,,,"9,AGL   ,+99999,+99999","99,99,9,99,9,99,9,01829,1,99,9,99,9",,,"09885,5,09243,5",,,,,,"MET08301/19/23 12:46:02 METAR PAPT 192146Z 00000KT 15SM BKN060 M09/M09 A2919 RMK NO SPECI","R01   M097TMP046R02   M097DPT046"
"70249026526","2023-01-19T23:45:00","7","62.0911","-152.7349","566.3","PUNTILLA, AK US","FM-15","PAPT ","V020","999,9,C,0000,5","03048,5,M,N","040234,5,N,5","-0080,C","-0080,C","99999,9","24,0017,3,1","0046,9,5,004570,9,9",,,,,,,,"07,5,+03048,5,99,9",,,"3,99,1,+03048,5,9",,,,"9,AGL   ,+99999,+99999","99,99,9,99,9,99,9,03048,1,99,9,99,9","240,M,-0078,1","240,N,-0094,1","09885,5,09243,5",,,,,,"MET11201/19/23 14:45:02 METAR PAPT 192345Z 00000KT 25SM BKN100 M08/M08 A2919 RMK NO SPECI 410781094 70007 931010 4/018","R01   M087TMP046R02   M087DPT046"
"70249026526","2023-01-20T01:56:00","7","62.0911","-152.7349","566.3","PUNTILLA, AK US","FM-15","PAPT ","V020","170,5,N,0015,5","03048,5,M,N","024140,7,N,5","-0090,C","-0090,C","99999,9",,,,,,"1,0,03,0,0,1,5",,"71,5",,"02,5,+01829,5,99,9","07,5,+03048,5,99,9",,"1,99,1,+01829,5,9","3,99,1,+03048,5,9",,,"9,AGL   ,+99999,+99999","99,99,9,99,9,99,9,01829,1,99,9,99,9",,,"09881,5,09239,5",,"71,5",,,,"MET09901/19/23 16:56:01 METAR PAPT 200156Z 17003KT 15SM -SN FEW060 BKN100 M09/M09 A2918 RMK NO SPECI LAST","R01  15SM7VIS011R02   M097TMP046R03   M097DPT046"
"70249026526","2023-01-20T08:59:00","O","62.0911","-152.7349","566.3","PUNTILLA, AK US","SOD  ","PAPT ","V020","999,9,9,9999,9","99999,9,9,9","999999,9,9,9","+9999,9","+9999,9","99999,9",,,"AU,18,SN  ,5",,,,,,,,,,,,,,,,,,,,,,,,,
"70249026526","2023-01-20T17:45:00","4","62.0911","-152.7349","566.3","PUNTILLA, AK US","FM-15","99999","V020","999,9,C,0000,1","00762,1,9,N","004828,1,9,9","-0100,1","-0100,1","99999,9",,,,,,,,,,,,,"4,99,1,+00762,1,9",,,,"9,AGL   ,+99999,+99999","99,99,9,99,9,99,9,00762,1,99,9,99,9",,,"09929,1,99999,9",,"71,1",,,,"MET075METAR PAPT 201745Z 00000KT 3SM -SN OVC025 M10/M10 A2932 RMK NO SPECI FIRST=",
"70249026526","2023-01-20T19:45:00","4","62.0911","-152.7349","566.3","PUNTILLA, AK US","FM-15","99999","V020","999,9,C,0000,1","01524,1,9,N","040234,1,9,9","-0090,1","-0090,1","99999,9",,,,,,,,,,,,,"4,99,1,+01524,1,9",,,,"9,AGL   ,+99999,+99999","99,99,9,99,9,99,9,01524,1,99,9,99,9",,,"09932,1,99999,9",,,,,,"MET066METAR PAPT 201945Z 00000KT 25SM OVC050 M09/M09 A2933 RMK NO SPECI=",
"70249026526","2023-01-20T21:45:00","4","62.0911","-152.7349","566.3","PUNTILLA, AK US","FM-15","99999","V020","999,9,C,0000,1","01524,1,9,N","024140,1,9,9","-0070,1","-0070,1","99999,9",,,,,,,,,,,,,"4,99,1,+01524,1,9",,,,"9,AGL   ,+99999,+99999","99,99,9,99,9,99,9,01524,1,99,9,99,9",,,"09925,1,99999,9",,,,,,"MET066METAR PAPT 202145Z 00000KT 15SM OVC050 M07/M07 A2931 RMK NO SPECI=",
"70249026526","2023-01-20T23:46:00","4","62.0911","-152.7349","566.3","PUNTILLA, AK US","FM-15","99999","V020","999,9,C,0000,1","01524,1,9,N","024140,1,9,9","-0060,1","-0060,1","99999,9","24,0002,3,1","0046,3,1,004570,9,9",,,,,,,,,,,"4,99,1,+01524,1,9",,,,"9,AGL   ,+99999,+99999","99,99,9,99,9,99,9,01524,1,99,9,99,9","240,M,-0056,1","240,N,-0100,1","09915,1,99999,9",,,,,,"MET095METAR PAPT 202346Z 00000KT 15SM OVC050 M06/M06 A2928 RMK NO SPECI 410561100 70001 931000 4/018=",
"70249026526","2023-01-21T17:45:00","4","62.0911","-152.7349","566.3","PUNTILLA, AK US","FM-15","99999","V020","340,1,N,0041,1","22000,5,9,N","040234,1,9,9","-0070,1","-0070,1","99999,9",,,,,,,,,,,,,"1,99,1,+01829,1,9",,,,"9,AGL   ,+99999,+99999","02,99,5,99,9,99,9,01829,1,99,9,99,9",,,"10047,1,99999,9",,,,,,"MET072METAR PAPT 211745Z 34008KT 25SM FEW060 M07/M07 A2967 RMK NO SPECI FIRST=","D01      0ADE726"
"70249026526","2023-01-21T19:45:00","4","62.0911","-152.7349","566.3","PUNTILLA, AK US","FM-15","99999","V020","360,1,N,0026,1","22000,5,9,N","040234,1,9,9","-0110,1","-0110,1","99999,9",,,,,,,,,,,,,"1,99,1,+01829,1,9",,,,"9,AGL   ,+99999,+99999","02,99,5,99,9,99,9,01829,1,99,9,99,9",,,"10078,1,99999,9",,,,,,"MET066METAR PAPT 211945Z 36005KT 25SM FEW060 M11/M11 A2976 RMK NO SPECI=","D01      0ADE726"
"70249026526","2023-01-21T21:45:00","4","62.0911","-152.7349","566.3","PUNTILLA, AK US","FM-15","99999","V020","360,1,N,0036,1","22000,1,9,N","040234,1,9,9","-0110,1","-0110,1","99999,9",,,,,,,,,,,,,,,,,,"00,99,1,99,9,99,9,99999,9,99,9,99,9",,,"10102,1,99999,9",,,,,,"MET063METAR PAPT 212145Z 36007KT 25SM SKC M11/M11 A2983 RMK NO SPECI=",
"70249026526","2023-01-21T23:48:00","4","62.0911","-152.7349","566.3","PUNTILLA, AK US","FM-15","99999","V020","360,1,N,0021,1","22000,1,9,N","040234,1,9,9","-0160,1","-0160,1","99999,9","24,0000,9,1","0046,3,1,004570,9,9",,,,,,,,,,,,,,,,"00,99,1,99,9,99,9,99999,9,99,9,99,9","240,M,-0067,1","240,N,-0161,1","10118,1,99999,9",,,,,,"MET085METAR PAPT 212348Z 36004KT 25SM SKC M16/M16 A2988 RMK NO SPECI 410671161 70000 4/018=","Q01  00002PRCP24"
"70249026526","2023-01-22T01:47:00","4","62.0911","-152.7349","566.3","PUNTILLA, AK US","FM-15","99999","V020","350,1,N,0021,1","22000,1,9,N","040234,1,9,9","-0180,1","-0180,1","99999,9",,,,,,,,,,,,,,,,,,"00,99,1,99,9,99,9,99999,9,99,9,99,9",,,"10118,1,99999,9",,,,,,"MET068METAR PAPT 220147Z 35004KT 25SM SKC M18/M18 A2988 RMK NO SPECI LAST=",
"70249026526","2023-01-22T17:49:00","4","62.0911","-152.7349","566.3","PUNTILLA, AK US","FM-15","99999","V020","999,9,C,0000,1","03048,1,9,N","040234,1,9,9","-0200,1","-0200,1","99999,9",,,,,,,,,,,,,"4,99,1,+03048,9,9",,,,"9,AGL   ,+99999,+99999","99,99,9,99,9,99,9,03048,1,99,9,99,9",,,"10061,1,99999,9",,,,,,"MET072METAR PAPT 221749Z 00000KT 25SM OVC100 M20/M20 A2971 RMK NO SPECI FIRST=",
"70249026526","2023-01-22T19:45:00","4","62.0911","-152.7349","566.3","PUNTILLA, AK US","FM-15","99999","V020","999,9,C,0000,1","03048,1,9,N","040234,1,9,9","-0170,1","-0170,1","99999,9",,,,,,,,,,,,,"4,99,1,+03048,9,9",,,,"9,AGL   ,+99999,+99999","99,99,9,99,9,99,9,03048,1,99,9,99,9",,,"10047,1,99999,9",,,,,,"MET066METAR PAPT 221945Z 00000KT 25SM OVC100 M17/M17 A2967 RMK NO SPECI=",
"70249026526","2023-01-22T21:45:00","4","62.0911","-152.7349","566.3","PUNTILLA, AK US","FM-15","99999","V020","350,1,N,0015,1","03048,1,9,N","040234,1,9,9","-0130,1","-0130,1","99999,9",,,,,,,,,,,,,"4,99,1,+03048,9,9",,,,"9,AGL   ,+99999,+99999","99,99,9,99,9,99,9,03048,1,99,9,99,9",,,"10027,1,99999,9",,,,,,"MET066METAR PAPT 222145Z 35003KT 25SM OVC100 M13/M13 A2961 RMK NO SPECI=",
"70249026526","2023-01-22T23:45:00","4","62.0911","-152.7349","566.3","PUNTILLA, AK US","FM-15","99999","V020","999,9,C,0000,1","03048,1,9,N","040234,1,9,9","-0100,1","-0100,1","99999,9","24,0000,9,1","0046,3,1,004570,9,9",,,,,,,,,,,"3,99,1,+03048,9,9",,,,"9,AGL   ,+99999,+99999","99,99,9,99,9,99,9,03048,1,99,9,99,9","240,M,-0100,1","240,N,-0200,1","10003,1,99999,9",,,,,,"MET088METAR PAPT 222345Z 00000KT 25SM BKN100 M10/M10 A2954 RMK NO SPECI 411001200 70000 4/018=","Q01  00002PRCP24"
"70249026526","2023-01-23T01:45:00","7","62.0911","-152.7349","566.3","PUNTILLA, AK US","FM-15","PAPT ","V020","999,9,C,0000,5","03048,5,M,N","040234,5,N,5","-0130,C","-0130,C","99999,9",,,,,,,,,,"07,5,+03048,5,99,9",,,"3,99,1,+03048,5,9",,,,"9,AGL   ,+99999,+99999","99,99,9,99,9,99,9,03048,1,99,9,99,9",,,"09970,5,09323,5",,,,,,"MET08801/22/23 16:45:01 METAR PAPT 230145Z 00000KT 25SM BKN100 M13/M13 A2944 RMK NO SPECI LAST","R01   M137TMP046R02   M137DPT046"
"70249026526","2023-01-23T17:45:00","7","62.0911","-152.7349","566.3","PUNTILLA, AK US","FM-15","PAPT ","V020","030,5,N,0026,5","01829,5,M,N","024140,5,N,5","-0210,C","-0210,C","99999,9",,,,,,,,,,"08,5,+01829,5,99,9",,,"4,99,1,+01829,5,9",,,,"9,AGL   ,+99999,+99999","99,99,9,99,9,99,9,01829,1,99,9,99,9",,,"09909,5,09265,5",,,,,,"MET08901/23/23 08:45:02 METAR PAPT 231745Z 03005KT 15SM OVC060 M21/M21 A2926 RMK NO SPECI FIRST","R01   M217TMP046R02   M217DPT046"
"70249026526","2023-01-23T19:45:00","7","62.0911","-152.7349","566.3","PUNTILLA, AK US","FM-15","PAPT ","V020","010,5,N,0026,5","01829,5,M,N","040234,7,N,5","-0200,C","-0200,C","99999,9",,,,,,"1,0,03,0,0,1,5",,"71,5",,"08,5,+01829,5,99,9",,,"4,99,1,+01829,5,9",,,,"9,AGL   ,+99999,+99999","99,99,9,99,9,99,9,01829,1,99,9,99,9",,,"09919,5,09275,5",,"71,5",,,,"MET08701/23/23 10:45:02 METAR PAPT 231945Z 01005KT 25SM -SN OVC060 M20/M20 A2929 RMK NO SPECI","R01  25SM7VIS011R02   M207TMP046R03   M207DPT046"
"70249026526","2023-01-23T21:45:00","7","62.0911","-152.7349","566.3","PUNTILLA, AK US","FM-15","PAPT ","V020","010,5,N,0026,5","00762,5,M,N","040234,5,N,5","-0190,C","-0190,C","99999,9",,,,,,,,,,"08,5,+00762,5,99,9",,,"4,99,1,+00762,5,9",,,,"9,AGL   ,+99999,+99999","99,99,9,99,9,99,9,00762,1,99,9,99,9",,,"09926,5,09281,5",,,,,,"MET08301/23/23 12:45:02 METAR PAPT 232145Z 01005KT 25SM OVC025 M19/M19 A2931 RMK NO SPECI","R01   M197TMP046R02   M197DPT046"
"70249026526","2023-01-23T23:45:00","7","62.0911","-152.7349","566.3","PUNTILLA, AK US","FM-15","PAPT ","V020","010,5,N,0026,5","00610,5,M,N","024140,5,N,5","-0190,C","-0190,C","99999,9","24,0000,2,1","0046,9,5,004570,9,9",,,,,,,,"08,5,+00610,5,99,9",,,"4,99,1,+00610,5,9",,,,"9,AGL   ,+99999,+99999","99,99,9,99,9,99,9,00610,1,99,9,99,9","240,M,-0128,1","240,N,-0206,1","09932,5,09288,5",,,,,,"MET10501/23/23 14:45:02 METAR PAPT 232345Z 01005KT 15SM OVC020 M19/M19 A2933 RMK NO SPECI 411281206 70000 4/018","R01   M197TMP046R02   M197DPT046"
"70249026526","2023-01-24T01:46:00","7","62.0911","-152.7349","566.3","PUNTILLA, AK US","FM-15","PAPT ","V020","360,5,N,0021,5","00610,5,M,N","008047,5,N,5","-0180,C","-0180,C","99999,9",,,,,,"1,0,03,0,0,1,5",,"71,5",,"08,5,+00610,5,99,9",,,"4,99,1,+00610,5,9",,,,"9,AGL   ,+99999,+99999","99,99,9,99,9,99,9,00610,1,99,9,99,9",,,"09936,5,09291,5",,"71,5",,,,"MET09101/23/23 16:46:01 METAR PAPT 240146Z 36004KT 5SM -SN OVC020 M18/M18 A2934 RMK NO SPECI LAST","R01   M187TMP046R02   M187DPT046"
"70249026526","2023-01-24T08:59:00","O","62.0911","-152.7349","566.3","PUNTILLA, AK US","SOD  ","PAPT ","V020","999,9,9,9999,9","99999,9,9,9","999999,9,9,9","+9999,9","+9999,9","99999,9",,,"AU,18,SN  ,5",,,,,,,,,,,,,,,,,,,,,,,,,
"70249026526","2023-01-24T17:45:00","7","62.0911","-152.7349","566.3","PUNTILLA, AK US","FM-15","PAPT ","V020","999,9,C,0000,5","00610,5,M,N","004828,5,N,5","-0100,C","-0100,C","99999,9",,,,,,"1,0,03,0,0,1,5",,"71,5",,"08,5,+00610,5,99,9",,,"4,99,1,+00610,5,9",,,,"9,AGL   ,+99999,+99999","99,99,9,99,9,99,9,00610,1,99,9,99,9",,,"09976,5,09329,5",,"71,5",,,,"MET08601/24/23 08:45:02 METAR PAPT 241745Z 00000KT 3SM -SN OVC020 M10/M10 A2946 RMK NO SPECI","R01   M107TMP046R02   M107DPT046"
"70249026526","2023-01-24T19:56:00","7","62.0911","-152.7349","566.3","PUNTILLA, AK US","FM-15","PAPT ","V020","999,9,C,0000,5","00610,5,M,N","008047,5,N,5","-0070,C","-0070,C","99999,9",,,,,,"1,0,03,0,0,1,5",,"71,5",,"08,5,+00610,5,99,9",,,"4,99,1,+00610,5,9",,,,"9,AGL   ,+99999,+99999","99,99,9,99,9,99,9,00610,1,99,9,99,9",,,"10000,5,09352,5",,"71,5",,,,"MET08601/24/23 10:56:02 METAR PAPT 241956Z 00000KT 5SM -SN OVC020 M07/M07 A2953 RMK NO SPECI","R01   M077TMP046R02   M077DPT046"
"70249026526","2023-01-24T21:45:00","7","62.0911","-152.7349","566.3","PUNTILLA, AK US","FM-15","PAPT ","V020","999,9,C,0000,5","00610,5,M,N","008047,5,N,5","-0060,C","-0060,C","99999,9",,,,,,"1,0,03,0,0,1,5",,"71,5",,"08,5,+00610,5,99,9",,,"4,99,1,+00610,5,9",,,,"9,AGL   ,+99999,+99999","99,99,9,99,9,99,9,00610,1,99,9,99,9",,,"10007,5,09358,5",,"71,5",,,,"MET08601/24/23 12:45:02 METAR PAPT 242145Z 00000KT 5SM -SN OVC020 M06/M06 A2955 RMK NO SPECI","R01   M067TMP046R02   M067DPT046"
"70249026526","2023-01-24T23:46:00","7","62.0911","-152.7349","566.3","PUNTILLA, AK US","FM-15","PAPT ","V020","010,5,N,0015,5","00610,5,M,N","011265,5,N,5","-0040,C","-0040,C","99999,9","24,0012,3,1","0046,9,5,004570,9,9",,,,"1,0,03,0,0,1,5",,"71,5",,"08,5,+00610,5,99,9",,,"4,99,1,+00610,5,9",,,,"9,AGL   ,+99999,+99999","99,99,9,99,9,99,9,00610,1,99,9,99,9","240,M,-0044,1","240,N,-0183,1","10007,5,09358,5",,"71,5",,,,"MET11501/24/23 14:46:02 METAR PAPT 242346Z 01003KT 7SM -SN OVC020 M04/M04 A2955 RMK NO SPECI 410441183 70005 931004 4/018","R01   M047TMP046R02   M047DPT046"
"70249026526","2023-01-25T01:59:00","7","62.0911","-152.7349","566.3","PUNTILLA, AK US","FM-15","PAPT ","V020","010,5,N,0015,5","00762,5,M,N","024140,5,N,5","-0060,C","-0060,C","99999,9",,,,,,,,,,"08,5,+00762,5,99,9",,,"4,99,1,+00762,5,9",,,,"9,AGL   ,+99999,+99999","99,99,9,99,9,99,9,00762,1,99,9,99,9",,,"10003,5,09355,5",,,,,,"MET08801/24/23 16:59:01 METAR PAPT 250159Z 01003KT 15SM OVC025 M06/M06 A2954 RMK NO SPECI LAST","R01   M067TMP046R02   M067DPT046"
"70249026526","2023-01-25T08:59:00","O","62.0911","-152.7349","566.3","PUNTILLA, AK US","SOD  ","PAPT ","V020","999,9,9,9999,9","99999,9,9,9","999999,9,9,9","+9999,9","+9999,9","99999,9",,,"AU,18,SN  ,5",,,,,,,,,,,,,,,,,,,,,,,,,
"70249026526","2023-01-25T17:46:00","7","62.0911","-152.7349","566.3","PUNTILLA, AK US","FM-15","PAPT ","V020","999,9,C,0000,5","01829,5,M,N","040234,5,N,5","-0030,C","-0030,C","99999,9",,,,,,,,,,"08,5,+01829,5,99,9",,,"4,99,1,+01829,5,9",,,,"9,AGL   ,+99999,+99999","99,99,9,99,9,99,9,01829,1,99,9,99,9",,,"09986,5,09339,5",,,,,,"MET08901/25/23 08:46:02 METAR PAPT 251746Z 00000KT 25SM OVC060 M03/M03 A2949 RMK NO SPECI FIRST","R01   M037TMP046R02   M037DPT046"
"70249026526","2023-01-25T19:55:00","7","62.0911","-152.7349","566.3","PUNTILLA, AK US","FM-15","PAPT ","V020","999,9,C,0000,5","03048,5,M,N","040234,5,N,5","-0040,C","-0040,C","99999,9",,,,,,,,,,"08,5,+03048,5,99,9",,,"4,99,1,+03048,5,9",,,,"9,AGL   ,+99999,+99999","99,99,9,99,9,99,9,03048,1,99,9,99,9",,,"09990,5,09342,5",,,,,,"MET08301/25/23 10:55:02 METAR PAPT 251955Z 00000KT 25SM OVC100 M04/M04 A2950 RMK NO SPECI","R01   M047TMP046R02   M047DPT046"
"70249026526","2023-01-25T21:45:00","7","62.0911","-152.7349","566.3","PUNTILLA, AK US","FM-15","PAPT ","V020","999,9,C,0000,5","01829,5,M,N","040234,5,N,5","-0030,C","-0030,C","99999,9",,,,,,,,,,"08,5,+01829,5,99,9",,,"4,99,1,+01829,5,9",,,,"9,AGL   ,+99999,+99999","99,99,9,99,9,99,9,01829,1,99,9,99,9",,,"10003,5,09355,5",,,,,,"MET08301/25/23 12:45:02 METAR PAPT 252145Z 00000KT 25SM OVC060 M03/M03 A2954 RMK NO SPECI","R01   M037TMP046R02   M037DPT046"
"70249026526","2023-01-25T23:50:00","7","62.0911","-152.7349","566.3","PUNTILLA, AK US","FM-15","PAPT ","V020","999,9,C,0000,5","00762,5,M,N","024140,7,N,5","-0020,C","-0020,C","99999,9","24,0010,3,1","0046,9,5,004570,9,9",,,,"1,0,03,0,0,1,5",,"71,5",,"08,5,+00762,5,99,9",,,"4,99,1,+00762,5,9",,,,"9,AGL   ,+99999,+99999","99,99,9,99,9,99,9,00762,1,99,9,99,9","240,M,-0017,1","240,N,-0061,1","10017,5,09368,5",,"71,5",,,,"MET11601/25/23 14:50:02 METAR PAPT 252350Z 00000KT 15SM -SN OVC025 M02/M02 A2958 RMK NO SPECI 410171061 70004 931003 4/018","R01  15SM7VIS011R02   M027TMP046R03   M027DPT046"
"70249026526","2023-01-26T01:45:00","7","62.0911","-152.7349","566.3","PUNTILLA, AK US","FM-15","PAPT ","V020","999,9,C,0000,5","00762,5,M,N","024140,7,N,5","-0020,C","-0020,C","99999,9",,,,,,"1,0,03,0,0,1,5",,"71,5",,"08,5,+00762,5,99,9",,,"4,99,1,+00762,5,9",,,,"9,AGL   ,+99999,+99999","99,99,9,99,9,99,9,00762,1,99,9,99,9",,,"10027,5,09377,5",,"71,5",,,,"MET09201/25/23 16:45:01 METAR PAPT 260145Z 00000KT 15SM -SN OVC025 M02/M02 A2961 RMK NO SPECI LAST","R01  15SM7VIS011R02   M027TMP046R03   M027DPT046"
"70249026526","2023-01-26T08:59:00","O","62.0911","-152.7349","566.3","PUNTILLA, AK US","SOD  ","PAPT ","V020","999,9,9,9999,9","99999,9,9,9","999999,9,9,9","+9999,9","+9999,9","99999,9",,,"AU,18,SN  ,5",,,,,,,,,,,,,,,,,,,,,,,,,
"70249026526","2023-01-26T17:45:00","4","62.0911","-152.7349","566.3","PUNTILLA, AK US","FM-15","99999","V020","360,1,N,0026,1","22000,5,9,N","040234,1,9,9","-0090,1","-0090,1","99999,9",,,,,,,,,,,,,"2,99,1,+03048,1,9",,,,"9,AGL   ,+99999,+99999","04,99,5,99,9,99,9,03048,1,99,9,99,9",,,"10179,1,99999,9",,,,,,"MET072METAR PAPT 261745Z 36005KT 25SM SCT100 M09/M09 A3006 RMK NO SPECI FIRST=","D01      0ADE726"
"70249026526","2023-01-26T19:46:00","4","62.0911","-152.7349","566.3","PUNTILLA, AK US","FM-15","99999","V020","340,1,N,0021,1","03048,1,9,N","040234,1,9,9","-0120,1","-0120,1","99999,9",,,,,,,,,,,,,"3,99,1,+03048,9,9",,,,"9,AGL   ,+99999,+99999","99,99,9,99,9,99,9,03048,1,99,9,99,9",,,"10203,1,99999,9",,,,,,"MET066METAR PAPT 261946Z 34004KT 25SM BKN100 M12/M12 A3013 RMK NO SPECI=",
"70249026526","2023-01-26T21:45:00","4","62.0911","-152.7349","566.3","PUNTILLA, AK US","FM-15","99999","V020","999,9,C,0000,1","03048,1,9,N","040234,1,9,9","-0090,1","-0090,1","99999,9",,,,,,,,,,,,,"3,99,1,+03048,9,9",,,,"9,AGL   ,+99999,+99999","99,99,9,99,9,99,9,03048,1,99,9,99,9",,,"10223,1,99999,9",,,,,,"MET066METAR PAPT 262145Z 00000KT 25SM BKN100 M09/M09 A3019 RMK NO SPECI=",
"70249026526","2023-01-26T23:52:00","4","62.0911","-152.7349","566.3","PUNTILLA, AK US","FM-15","99999","V020","340,1,N,0036,1","22000,5,9,N","040234,1,9,9","-0110,1","-0110,1","99999,9","24,0017,3,1","0046,3,1,004570,9,9",,,,,,,,,,,"1,99,1,+03048,1,9",,,,"9,AGL   ,+99999,+99999","02,99,5,99,9,99,9,03048,1,99,9,99,9","240,M,-0017,1","240,N,-0122,1","10247,1,99999,9",,,,,,"MET095METAR PAPT 262352Z 34007KT 25SM FEW100 M11/M11 A3026 RMK NO SPECI 410171122 70007 931010 4/018=","D01      0ADE726"
"70249026526","2023-01-27T02:03:00","4","62.0911","-152.7349","566.3","PUNTILLA, AK US","FM-15","99999","V020","170,1,N,0021,1","03048,1,9,N","040234,1,9,9","-0130,1","-0130,1","99999,9",,,,,,,,,,,,,"3,99,1,+03048,9,9",,,,"9,AGL   ,+99999,+99999","99,99,9,99,9,99,9,03048,1,99,9,99,9",,,"10261,1,99999,9",,,,,,"MET071METAR PAPT 270203Z 17004KT 25SM BKN100 M13/M13 A3030 RMK NO SPECI LAST=",
"70249026526","2023-01-27T17:46:00","4","62.0911","-152.7349","566.3","PUNTILLA, AK US","FM-15","99999","V020","350,1,N,0021,1","22000,5,9,N","040234,1,9,9","-0130,1","-0130,1","99999,9",,,,,,,,,,,,,"1,99,1,+03048,1,9",,,,"9,AGL   ,+99999,+99999","02,99,5,99,9,99,9,03048,1,99,9,99,9",,,"10349,1,99999,9",,,,,,"MET072METAR PAPT 271746Z 35004KT 25SM FEW100 M13/M13 A3056 RMK NO SPECI FIRST=","D01      0ADE726"
"70249026526","2023-01-27T19:45:00","4","62.0911","-152.7349","566.3","PUNTILLA, AK US","FM-15","99999","V020","999,9,C,0000,1","22000,5,9,N","040234,1,9,9","-0150,1","-0150,1","99999,9",,,,,,,,,,,,,"1,99,1,+03048,1,9",,,,"9,AGL   ,+99999,+99999","02,99,5,99,9,99,9,03048,1,99,9,99,9",,,"10359,1,99999,9",,,,,,"MET066METAR PAPT 271945Z 00000KT 25SM FEW100 M15/M15 A3059 RMK NO SPECI=","D01      0ADE726"
"70249026526","2023-01-27T21:47:00","4","62.0911","-152.7349","566.3","PUNTILLA, AK US","FM-15","99999","V020","340,1,N,0021,1","22000,5,9,N","040234,1,9,9","-0090,1","-0090,1","99999,9",,,,,,,,,,,,,"1,99,1,+03048,1,9",,,,"9,AGL   ,+99999,+99999","02,99,5,99,9,99,9,03048,1,99,9,99,9",,,"10359,1,99999,9",,,,,,"MET066METAR PAPT 272147Z 34004KT 25SM FEW100 M09/M09 A3059 RMK NO SPECI=","D01      0ADE726"
"70249026526","2023-01-27T23:47:00","4","62.0911","-152.7349","566.3","PUNTILLA, AK US","FM-15","99999","V020","340,1,N,0015,1","22000,5,9,N","040234,1,9,9","-0120,1","-0120,1","99999,9","24,0000,9,1","0046,3,1,004570,9,9",,,,,,,,,,,"1,99,1,+03048,1,9",,,,"9,AGL   ,+99999,+99999","02,99,5,99,9,99,9,03048,1,99,9,99,9","240,M,-0094,1","240,N,-0133,1","10349,1,99999,9",,,,,,"MET088METAR PAPT 272347Z 34003KT 25SM FEW100 M12/M12 A3056 RMK NO SPECI 410941133 70000 4/018=","Q01  00002PRCP24D01      0ADE726"
"70249026526","2023-01-28T01:45:00","7","62.0911","-152.7349","566.3","PUNTILLA, AK US","FM-15","PAPT ","V020","340,5,N,0015,5","03048,5,M,N","040234,5,N,5","-0100,C","-0100,C","99999,9",,,,,,,,,,"08,5,+03048,5,99,9",,,"4,99,1,+03048,5,9",,,,"9,AGL   ,+99999,+99999","99,99,9,99,9,99,9,03048,1,99,9,99,9",,,"10345,5,09679,5",,,,,,"MET08801/27/23 16:45:01 METAR PAPT 280145Z 34003KT 25SM OVC100 M10/M10 A3055 RMK NO SPECI LAST","R01   M107TMP046R02   M107DPT046"
"70249026526","2023-01-28T17:50:00","7","62.0911","-152.7349","566.3","PUNTILLA, AK US","FM-15","PAPT ","V020","170,5,N,0015,5","03048,5,M,N","040234,5,N,5","-0090,C","-0090,C","99999,9",,,,,,,,,,"07,5,+03048,5,99,9",,,"3,99,1,+03048,5,9",,,,"9,AGL   ,+99999,+99999","99,99,9,99,9,99,9,03048,1,99,9,99,9",,,"10345,5,09679,5",,,,,,"MET08901/28/23 08:50:01 METAR PAPT 281750Z 17003KT 25SM BKN100 M09/M09 A3055 RMK NO SPECI FIRST","R01   M097TMP046R02   M097DPT046"
"70249026526","2023-01-28T19:45:00","7","62.0911","-152.7349","566.3","PUNTILLA, AK US","FM-15","PAPT ","V020","180,5,N,0015,5","01829,5,M,N","040234,5,N,5","-0070,C","-0070,C","99999,9",,,,,,,,,,"08,5,+01829,5,99,9",,,"4,99,1,+01829,5,9",,,,"9,AGL   ,+99999,+99999","99,99,9,99,9,99,9,01829,1,99,9,99,9",,,"10356,5,09689,5",,,,,,"MET08301/28/23 10:45:02 METAR PAPT 281945Z 18003KT 25SM OVC060 M07/M07 A3058 RMK NO SPECI","R01   M077TMP046R02   M077DPT046"
"70249026526","2023-01-28T21:49:00","7","62.0911","-152.7349","566.3","PUNTILLA, AK US","FM-15","PAPT ","V020","010,5,N,0015,5","03048,5,M,N","040234,5,N,5","-0030,C","-0030,C","99999,9",,,,,,,,,,"07,5,+03048,5,99,9",,,"3,99,1,+03048,5,9",,,,"9,AGL   ,+99999,+99999","99,99,9,99,9,99,9,03048,1,99,9,99,9",,,"10352,5,09685,5",,,,,,"MET08301/28/23 12:49:02 METAR PAPT 282149Z 01003KT 25SM BKN100 M03/M03 A3057 RMK NO SPECI","R01   M037TMP046R02   M037DPT046"
"70249026526","2023-01-28T23:51:00","7","62.0911","-152.7349","566.3","PUNTILLA, AK US","FM-15","PAPT ","V020","350,5,N,0015,5","03048,5,M,N","040234,5,N,5","-0020,C","-0020,C","99999,9","24,0000,9,1","0046,9,5,004570,9,9",,,,,,,,"07,5,+03048,5,99,9",,,"3,99,1,+03048,5,9",,,,"9,AGL   ,+99999,+99999","99,99,9,99,9,99,9,03048,1,99,9,99,9","240,M,-0017,1","240,N,-0100,1","10349,5,09682,5",,,,,,"MET10501/28/23 14:51:02 METAR PAPT 282351Z 35003KT 25SM BKN100 M02/M02 A3056 RMK NO SPECI 410171100 70000 4/018","Q01  00002PRCP24R01   M027TMP046R02   M027DPT046"
"70249026526","2023-01-29T01:45:00","7","62.0911","-152.7349","566.3","PUNTILLA, AK US","FM-15","PAPT ","V020","999,9,C,0000,5","03048,5,M,N","040234,5,N,5","-0040,C","-0040,C","99999,9",,,,,,,,,,"07,5,+03048,5,99,9",,,"3,99,1,+03048,5,9",,,,"9,AGL   ,+99999,+99999","99,99,9,99,9,99,9,03048,1,99,9,99,9",,,"10349,5,09682,5",,,,,,"MET08801/28/23 16:45:01 METAR PAPT 290145Z 00000KT 25SM BKN100 M04/M04 A3056 RMK NO SPECI LAST","R01   M047TMP046R02   M047DPT046"
"70249026526","2023-01-29T17:47:00","7","62.0911","-152.7349","566.3","PUNTILLA, AK US","FM-15","PAPT ","V020","999,9,C,0000,5","00762,5,M,N","008047,5,N,5","-0060,C","-0060,C","99999,9",,,,,,"1,0,03,0,0,1,5",,"71,5",,"08,5,+00762,5,99,9",,,"4,99,1,+00762,5,9",,,,"9,AGL   ,+99999,+99999","99,99,9,99,9,99,9,00762,1,99,9,99,9",,,"10278,5,09615,5",,"71,5",,,,"MET09201/29/23 08:47:01 METAR PAPT 291747Z 00000KT 5SM -SN OVC025 M06/M06 A3035 RMK NO SPECI FIRST","R01   M067TMP046R02   M067DPT046"
"70249026526","2023-01-29T19:46:00","7","62.0911","-152.7349","566.3","PUNTILLA, AK US","FM-15","PAPT ","V020","999,9,C,0000,5","00762,5,M,N","011265,5,N,5","-0040,C","-0040,C","99999,9",,,,,,"1,0,03,0,0,1,5",,"71,5",,"02,5,+00305,5,99,9","08,5,+00762,5,99,9",,"1,99,1,+00305,5,9","4,99,1,+00762,5,9",,,"9,AGL   ,+99999,+99999","99,99,9,99,9,99,9,00305,1,99,9,99,9",,,"10268,5,09605,5",,"71,5",,,,"MET09301/29/23 10:46:01 METAR PAPT 291946Z 00000KT 7SM -SN FEW010 OVC025 M04/M04 A3032 RMK NO SPECI","R01   M047TMP046R02   M047DPT046"
"70249026526","2023-01-29T21:45:00","4","62.0911","-152.7349","566.3","PUNTILLA, AK US","FM-15","99999","V020","050,1,N,0021,1","00762,1,9,N","011265,1,9,9","-0020,1","-0020,1","99999,9",,,,,,,,,,,,,"1,99,1,+00305,1,9","4,99,1,+00762,1,9",,,"9,AGL   ,+99999,+99999","99,99,9,99,9,99,9,00305,1,99,9,99,9",,,"10257,1,99999,9",,,,,,"MET072METAR PAPT 292145Z 05004KT 7SM FEW010 OVC025 M02/M02 A3029 RMK NO SPECI=",
"70249026526","2023-01-29T23:45:00","4","62.0911","-152.7349","566.3","PUNTILLA, AK US","FM-15","99999","V020","160,1,N,0026,1","00762,1,9,N","011265,1,9,9","-0020,1","-0020,1","99999,9","24,0000,2,1","0046,3,1,004570,9,9",,,,,,,,,,,"1,99,1,+00305,1,9","4,99,1,+00762,1,9",,,"9,AGL   ,+99999,+99999","99,99,9,99,9,99,9,00305,1,99,9,99,9","240,M,-0017,1","240,N,-0056,1","10244,1,99999,9",,,,,,"MET101METAR PAPT 292345Z 16005KT 7SM FEW010 OVC025 M02/M02 A3025 RMK NO SPECI 410171056 70000 931000 4/018=",
"70249026526","2023-01-30T01:45:00","7","62.0911","-152.7349","566.3","PUNTILLA, AK US","FM-15","PAPT ","V020","160,5,N,0021,5","00762,5,M,N","011265,5,N,5","-0020,C","-0020,C","99999,9",,,,,,,,,,"02,5,+00305,5,99,9","08,5,+00762,5,99,9",,"1,99,1,+00305,5,9","4,99,1,+00762,5,9",,,"9,AGL   ,+99999,+99999","99,99,9,99,9,99,9,00305,1,99,9,99,9",,,"10227,5,09567,5",,,,,,"MET09401/29/23 16:45:01 METAR PAPT 300145Z 16004KT 7SM FEW010 OVC025 M02/M02 A3020 RMK NO SPECI LAST","R01   M027TMP046R02   M027DPT046"
"70249026526","2023-01-30T08:59:00","O","62.0911","-152.7349","566.3","PUNTILLA, AK US","SOD  ","PAPT ","V020","999,9,9,9999,9","99999,9,9,9","999999,9,9,9","+9999,9","+9999,9","99999,9",,,"AU,18,SN  ,5",,,,,,,,,,,,,,,,,,,,,,,,,
"70249026526","2023-01-30T17:47:00","7","62.0911","-152.7349","566.3","PUNTILLA, AK US","FM-15","PAPT ","V020","999,9,C,0000,5","03048,5,M,N","024140,5,N,5","-0060,C","-0060,C","99999,9",,,,,,,,,,"02,5,+00305,5,99,9","08,5,+03048,5,99,9",,"1,99,1,+00305,5,9","4,99,1,+03048,5,9",,,"9,AGL   ,+99999,+99999","99,99,9,99,9,99,9,00305,1,99,9,99,9",,,"10135,5,09480,5",,,,,,"MET09601/30/23 08:47:01 METAR PAPT 301747Z 00000KT 15SM FEW010 OVC100 M06/M06 A2993 RMK NO SPECI FIRST","R01   M067TMP046R02   M067DPT046"
"70249026526","2023-01-30T19:45:00","7","62.0911","-152.7349","566.3","PUNTILLA, AK US","FM-15","PAPT ","V020","999,9,C,0000,5","01524,5,M,N","040234,5,N,5","-0050,C","-0050,C","99999,9",,,,,,,,,,"08,5,+01524,5,99,9",,,"4,99,1,+01524,5,9",,,,"9,AGL   ,+99999,+99999","99,99,9,99,9,99,9,01524,1,99,9,99,9",,,"10135,5,09480,5",,,,,,"MET08301/30/23 10:45:02 METAR PAPT 301945Z 00000KT 25SM OVC050 M05/M05 A2993 RMK NO SPECI","R01   M057TMP046R02   M057DPT046"
"70249026526","2023-01-30T21:45:00","7","62.0911","-152.7349","566.3","PUNTILLA, AK US","FM-15","PAPT ","V020","999,9,C,0000,5","03048,5,M,N","040234,5,N,5","-0040,C","-0040,C","99999,9",,,,,,,,,,"07,5,+03048,5,99,9",,,"3,99,1,+03048,5,9",,,,"9,AGL   ,+99999,+99999","99,99,9,99,9,99,9,03048,1,99,9,99,9",,,"10132,5,09477,5",,,,,,"MET08301/30/23 12:45:02 METAR PAPT 302145Z 00000KT 25SM BKN100 M04/M04 A2992 RMK NO SPECI","R01   M047TMP046R02   M047DPT046"
"70249026526","2023-01-30T23:53:00","4","62.0911","-152.7349","566.3","PUNTILLA, AK US","FM-15","99999","V020","340,1,N,0015,1","03048,1,9,N","040234,1,9,9","-0060,1","-0060,1","99999,9","24,0000,9,1","0046,3,1,004570,9,9",,,,,,,,,,,"1,99,1,+00762,1,9","3,99,1,+03048,1,9",,,"9,AGL   ,+99999,+99999","99,99,9,99,9,99,9,00762,1,99,9,99,9","240,M,-0022,1","240,N,-0061,1","10118,1,99999,9",,,,,,"MET095METAR PAPT 302353Z 34003KT 25SM FEW025 BKN100 M06/M06 A2988 RMK NO SPECI 410221061 70000 4/018=","Q01  00002PRCP24"
"70249026526","2023-01-31T01:46:00","7","62.0911","-152.7349","566.3","PUNTILLA, AK US","FM-15","PAPT ","V020","999,9,C,0000,5","22000,5,9,N","040234,5,N,5","-0080,C","-0080,C","99999,9",,,,,,,,,,"02,5,+00762,5,99,9","02,5,+03048,5,99,9",,"1,99,1,+00762,5,9","1,99,1,+03048,5,9",,,"9,AGL   ,+99999,+99999","02,99,5,99,9,99,9,00762,1,99,9,99,9",,,"10102,5,09448,5",,,,,,"MET09501/30/23 16:46:01 METAR PAPT 310146Z 00000KT 25SM FEW025 FEW100 M08/M08 A2983 RMK NO SPECI LAST","R01   M087TMP046R02   M087DPT046D01      0ADE726"
"70249026526","2023-01-31T17:46:00","7","62.0911","-152.7349","566.3","PUNTILLA, AK US","FM-15","PAPT ","V020","999,9,C,0000,5","03048,5,M,N","040234,5,N,5","-0090,C","-0090,C","99999,9",,,,,,,,,,"08,5,+03048,5,99,9",,,"4,99,1,+03048,5,9",,,,"9,AGL   ,+99999,+99999","99,99,9,99,9,99,9,03048,1,99,9,99,9",,,"10054,5,09403,5",,,,,,"MET08901/31/23 08:46:02 METAR PAPT 311746Z 00000KT 25SM OVC100 M09/M09 A2969 RMK NO SPECI FIRST","R01   M097TMP046R02   M097DPT046"
"70249026526","2023-01-31T19:45:00","7","62.0911","-152.7349","566.3","PUNTILLA, AK US","FM-15","PAPT ","V020","340,5,N,0015,5","01524,5,M,N","040234,5,N,5","-0060,C","-0060,C","99999,9",,,,,,,,,,"08,5,+01524,5,99,9",,,"4,99,1,+01524,5,9",,,,"9,AGL   ,+99999,+99999","99,99,9,99,9,99,9,01524,1,99,9,99,9",,,"10054,5,09403,5",,,,,,"MET08301/31/23 10:45:02 METAR PAPT 311945Z 34003KT 25SM OVC050 M06/M06 A2969 RMK NO SPECI","R01   M067TMP046R02   M067DPT046"
"70249026526","2023-01-31T21:45:00","7","62.0911","-152.7349","566.3","PUNTILLA, AK US","FM-15","PAPT ","V020","999,9,C,0000,5","01524,5,M,N","040234,5,N,5","-0020,C","-0020,C","99999,9",,,,,,,,,,"08,5,+01524,5,99,9",,,"4,99,1,+01524,5,9",,,,"9,AGL   ,+99999,+99999","99,99,9,99,9,99,9,01524,1,99,9,99,9",,,"10051,5,09400,5",,,,,,"MET08301/31/23 12:45:02 METAR PAPT 312145Z 00000KT 25SM OVC050 M02/M02 A2968 RMK NO SPECI","R01   M027TMP046R02   M027DPT046"
"70249026526","2023-01-31T23:45:00","4","62.0911","-152.7349","566.3","PUNTILLA, AK US","FM-15","99999","V020","999,9,C,0000,1","01524,1,9,N","040234,1,9,9","-0010,1","-0010,1","99999,9","24,0000,9,1","0046,3,1,004570,9,9",,,,,,,,,,,"4,99,1,+01524,1,9",,,,"9,AGL   ,+99999,+99999","99,99,9,99,9,99,9,01524,1,99,9,99,9","240,M,-0011,1","240,N,-0094,1","10047,1,99999,9",,,,,,"MET088METAR PAPT 312345Z 00000KT 25SM OVC050 M01/M01 A2967 RMK NO SPECI 410111094 70000 4/018=","Q01  00002PRCP24"
"70249026526","2023-02-01T01:45:00","7","62.0911","-152.7349","566.3","PUNTILLA, AK US","FM-15","PAPT ","V020","010,5,N,0021,5","01524,5,M,N","040234,5,N,5","-0020,C","-0020,C","99999,9",,,,,,,,,,"07,5,+01524,5,99,9",,,"3,99,1,+01524,5,9",,,,"9,AGL   ,+99999,+99999","99,99,9,99,9,99,9,01524,1,99,9,99,9",,,"10044,5,09393,5",,,,,,"MET08801/31/23 16:45:01 METAR PAPT 010145Z 01004KT 25SM BKN050 M02/M02 A2966 RMK NO SPECI LAST","R01   M027TMP046R02   M027DPT046"
"70249026526","2023-02-01T17:45:00","7","62.0911","-152.7349","566.3","PUNTILLA, AK US","FM-15","PAPT ","V020","010,5,N,0026,5","03048,5,M,N","040234,5,N,5","-0080,C","-0080,C","99999,9",,,,,,,,,,"08,5,+03048,5,99,9",,,"4,99,1,+03048,5,9",,,,"9,AGL   ,+99999,+99999","99,99,9,99,9,99,9,03048,1,99,9,99,9",,,"10017,5,09368,5",,,,,,"MET08902/01/23 08:45:02 METAR PAPT 011745Z 01005KT 25SM OVC100 M08/M08 A2958 RMK NO SPECI FIRST","R01   M087TMP046R02   M087DPT046"
"70249026526","2023-02-01T19:45:00","7","62.0911","-152.7349","566.3","PUNTILLA, AK US","FM-15","PAPT ","V020","360,5,N,0031,5","01829,5,M,N","011265,5,N,5","-0080,C","-0080,C","99999,9",,,,,,"1,0,03,0,0,1,5",,"71,5",,"08,5,+01829,5,99,9",,,"4,99,1,+01829,5,9",,,,"9,AGL   ,+99999,+99999","99,99,9,99,9,99,9,01829,1,99,9,99,9",,,"10010,5,09361,5",,"71,5",,,,"MET08602/01/23 10:45:02 METAR PAPT 011945Z 36006KT 7SM -SN OVC060 M08/M08 A2956 RMK NO SPECI","R01   M087TMP046R02   M087DPT046"
"70249026526","2023-02-01T21:46:00","7","62.0911","-152.7349","566.3","PUNTILLA, AK US","FM-15","PAPT ","V020","360,5,N,0026,5","01829,5,M,N","011265,5,N,5","-0080,C","-0080,C","99999,9",,,,,,"1,0,03,0,0,1,5",,"71,5",,"08,5,+01829,5,99,9",,,"4,99,1,+01829,5,9",,,,"9,AGL   ,+99999,+99999","99,99,9,99,9,99,9,01829,1,99,9,99,9",,,"10003,5,09355,5",,"71,5",,,,"MET08602/01/23 12:46:02 METAR PAPT 012146Z 36005KT 7SM -SN OVC060 M08/M08 A2954 RMK NO SPECI","R01   M087TMP046R02   M087DPT046"
"70249026526","2023-02-01T23:45:00","7","62.0911","-152.7349","566.3","PUNTILLA, AK US","FM-15","PAPT ","V020","999,9,C,0000,5","03048,5,M,N","024140,7,N,5","-0070,C","-0070,C","99999,9","24,0005,3,1","0046,9,5,004570,9,9",,,,"1,0,03,0,0,1,5",,"71,5",,"02,5,+01829,5,99,9","07,5,+03048,5,99,9",,"1,99,1,+01829,5,9","3,99,1,+03048,5,9",,,"9,AGL   ,+99999,+99999","99,99,9,99,9,99,9,01829,1,99,9,99,9","240,M,-0017,1","240,N,-0083,1","09997,5,09348,5",,"71,5",,,,"MET12302/01/23 14:45:02 METAR PAPT 012345Z 00000KT 15SM -SN FEW060 BKN100 M07/M07 A2952 RMK NO SPECI 410171083 70002 931000 4/018","R01  15SM7VIS011R02   M077TMP046R03   M077DPT046"
"70249026526","2023-02-02T01:45:00","7","62.0911","-152.7349","566.3","PUNTILLA, AK US","FM-15","PAPT ","V020","999,9,C,0000,5","00914,5,M,N","004828,7,N,5","-0070,C","-0070,C","99999,9",,,,,,"2,0,03,0,0,1,7",,"72,7",,"08,5,+00914,5,99,9",,,"4,99,1,+00914,5,9",,,,"9,AGL   ,+99999,+99999","99,99,9,99,9,99,9,00914,1,99,9,99,9",,,"09983,5,09336,5",,"73,7",,,,"MET09002/01/23 16:45:01 METAR PAPT 020145Z 00000KT 3SM SN OVC030 M07/M07 A2948 RMK NO SPECI LAST","R01   3SM7VIS012R02   M077TMP046R03   M077DPT046R04    SN7AWW012R05SEERMK7MVW012R06    SN7MWW012"
"70249026526","2023-02-02T08:59:00","O","62.0911","-152.7349","566.3","PUNTILLA, AK US","SOD  ","PAPT ","V020","999,9,9,9999,9","99999,9,9,9","999999,9,9,9","+9999,9","+9999,9","99999,9",,,"AU,18,SN  ,5",,,,,,,,,,,,,,,,,,,,,,,,,
"70249026526","2023-02-02T17:48:00","7","62.0911","-152.7349","566.3","PUNTILLA, AK US","FM-15","PAPT ","V020","999,9,C,0000,5","00914,5,M,N","024140,5,N,5","-0080,C","-0080,C","99999,9",,,,,,,,,,"08,5,+00914,5,99,9",,,"4,99,1,+00914,5,9",,,,"9,AGL   ,+99999,+99999","99,99,9,99,9,99,9,00914,1,99,9,99,9",,,"09936,5,09291,5",,,,,,"MET08902/02/23 08:48:02 METAR PAPT 021748Z 00000KT 15SM OVC030 M08/M08 A2934 RMK NO SPECI FIRST","R01   M087TMP046R02   M087DPT046"
"70249026526","2023-02-02T19:45:00","7","62.0911","-152.7349","566.3","PUNTILLA, AK US","FM-15","PAPT ","V020","999,9,C,0000,5","00914,5,M,N","040234,5,N,5","-0070,C","-0070,C","99999,9",,,,,,,,,,"08,5,+00914,5,99,9",,,"4,99,1,+00914,5,9",,,,"9,AGL   ,+99999,+99999","99,99,9,99,9,99,9,00914,1,99,9,99,9",,,"09936,5,09291,5",,,,,,"MET08302/02/23 10:45:02 METAR PAPT 021945Z 00000KT 25SM OVC030 M07/M07 A2934 RMK NO SPECI","R01   M077TMP046R02   M077DPT046"
"70249026526","2023-02-02T21:45:00","7","62.0911","-152.7349","566.3","PUNTILLA, AK US","FM-15","PAPT ","V020","340,5,N,0015,5","00914,5,M,N","040234,5,N,5","-0050,C","-0050,C","99999,9",,,,,,,,,,"08,5,+00914,5,99,9",,,"4,99,1,+00914,5,9",,,,"9,AGL   ,+99999,+99999","99,99,9,99,9,99,9,00914,1,99,9,99,9",,,"09936,5,09291,5",,,,,,"MET08302/02/23 12:45:02 METAR PAPT 022145Z 34003KT 25SM OVC030 M05/M05 A2934 RMK NO SPECI","R01   M057TMP046R02   M057DPT046"
"70249026526","2023-02-02T23:50:00","7","62.0911","-152.7349","566.3","PUNTILLA, AK US","FM-15","PAPT ","V020","360,5,N,0015,5","00762,5,M,N","040234,5,N,5","-0060,C","-0060,C","99999,9","24,0010,3,1","0046,9,5,004570,9,9",,,,,,,,"08,5,+00762,5,99,9",,,"4,99,1,+00762,5,9",,,,"9,AGL   ,+99999,+99999","99,99,9,99,9,99,9,00762,1,99,9,99,9",,,"09932,5,09288,5",,,,,,"MET11202/02/23 14:50:02 METAR PAPT 022350Z 36003KT 25SM OVC025 M06/M06 A2933 RMK NO SPECI 410781050 70004 931010 4/018","R01   M067TMP046R02   M067DPT046"
"70249026526","2023-02-03T01:45:00","7","62.0911","-152.7349","566.3","PUNTILLA, AK US","FM-15","PAPT ","V020","350,5,N,0021,5","00610,5,M,N","024140,5,N,5","-0070,C","-0070,C","99999,9",,,,,,,,,,"08,5,+00610,5,99,9",,,"4,99,1,+00610,5,9",,,,"9,AGL   ,+99999,+99999","99,99,9,99,9,99,9,00610,1,99,9,99,9",,,"09929,5,09284,5",,,,,,"MET08802/02/23 16:45:01 METAR PAPT 030145Z 35004KT 15SM OVC020 M07/M07 A2932 RMK NO SPECI LAST","R01   M077TMP046R02   M077DPT046"
"70249026526","2023-02-03T17:53:00","7","62.0911","-152.7349","566.3","PUNTILLA, AK US","FM-15","PAPT ","V020","999,9,C,0000,5","01219,5,M,N","040234,5,N,5","-0160,C","-0160,C","99999,9",,,,,,,,,,"08,5,+01219,5,99,9",,,"4,99,1,+01219,5,9",,,,"9,AGL   ,+99999,+99999","99,99,9,99,9,99,9,01219,1,99,9,99,9",,,"09956,5,09310,5",,,,,,"MET08902/03/23 08:53:02 METAR PAPT 031753Z 00000KT 25SM OVC040 M16/M16 A2940 RMK NO SPECI FIRST","R01   M167TMP046R02   M167DPT046"
"70249026526","2023-02-03T19:45:00","7","62.0911","-152.7349","566.3","PUNTILLA, AK US","FM-15","PAPT ","V020","999,9,C,0000,5","03048,5,M,N","040234,5,N,5","-0140,C","-0140,C","99999,9",,,,,,,,,,"07,5,+03048,5,99,9",,,"3,99,1,+03048,5,9",,,,"9,AGL   ,+99999,+99999","99,99,9,99,9,99,9,03048,1,99,9,99,9",,,"09963,5,09316,5",,,,,,"MET08902/03/23 10:45:02 METAR PAPT 031945Z 00000KT 25SM BKN100 M14/M14 A2942 RMK NO SPECI FIRST","R01   M147TMP046R02   M147DPT046"
"70249026526","2023-02-03T21:45:00","7","62.0911","-152.7349","566.3","PUNTILLA, AK US","FM-15","PAPT ","V020","999,9,C,0000,5","03048,5,M,N","040234,5,N,5","-0090,C","-0090,C","99999,9",,,,,,,,,,"07,5,+03048,5,99,9",,,"3,99,1,+03048,5,9",,,,"9,AGL   ,+99999,+99999","99,99,9,99,9,99,9,03048,1,99,9,99,9",,,"09966,5,09320,5",,,,,,"MET08302/03/23 12:45:02 METAR PAPT 032145Z 00000KT 25SM BKN100 M09/M09 A2943 RMK NO SPECI","R01   M097TMP046R02   M097DPT046"
"70249026526","2023-02-03T23:49:00","7","62.0911","-152.7349","566.3","PUNTILLA, AK US","FM-15","PAPT ","V020","999,9,C,0000,5","22000,5,9,N","040234,5,N,5","-0120,C","-0120,C","99999,9","24,0000,9,1","0046,9,5,004570,9,9",,,,,,,,"04,5,+03048,5,99,9",,,"2,99,1,+03048,5,9",,,,"9,AGL   ,+99999,+99999","04,99,5,99,9,99,9,03048,1,99,9,99,9","240,M,-0072,1","240,N,-0156,1","09966,5,09320,5",,,,,,"MET10502/03/23 14:49:02 METAR PAPT 032349Z 00000KT 25SM SCT100 M12/M12 A2943 RMK NO SPECI 410721156 70000 4/018","Q01  00002PRCP24R01   M127TMP046R02   M127DPT046D01      0ADE726"
"70249026526","2023-02-04T01:45:00","7","62.0911","-152.7349","566.3","PUNTILLA, AK US","FM-15","PAPT ","V020","999,9,C,0000,5","22000,7,9,N","040234,5,N,5","-0170,C","-0170,C","99999,9",,,,,,,,,,"00,7,+99999,9,99,9",,,"0,99,1,+99999,9,9",,,,,"00,99,1,99,9,99,9,99999,9,99,9,99,9",,,"09970,5,09323,5",,,,,,"MET08502/03/23 16:45:01 METAR PAPT 040145Z 00000KT 25SM SKC M17/M17 A2944 RMK NO SPECI LAST","R01   SKC7SKY009R02   M177TMP046R03   M177DPT046R04   SKC7GAS009"
"70249026526","2023-02-04T17:50:00","7","62.0911","-152.7349","566.3","PUNTILLA, AK US","FM-15","PAPT ","V020","999,9,C,0000,5","01829,5,M,N","040234,5,N,5","-0180,C","-0180,C","99999,9",,,,,,,,,,"08,5,+01829,5,99,9",,,"4,99,1,+01829,5,9",,,,"9,AGL   ,+99999,+99999","99,99,9,99,9,99,9,01829,1,99,9,99,9",,,"09953,5,09307,5",,,,,,"MET08902/04/23 08:50:02 METAR PAPT 041750Z 00000KT 25SM OVC060 M18/M18 A2939 RMK NO SPECI FIRST","R01   M187TMP046R02   M187DPT046"
"70249026526","2023-02-04T19:46:00","7","62.0911","-152.7349","566.3","PUNTILLA, AK US","FM-15","PAPT ","V020","999,9,C,0000,5","00914,5,M,N","024140,7,N,5","-0140,C","-0140,C","99999,9",,,,,,"1,0,03,0,0,1,5",,"71,5",,"08,5,+00914,5,99,9",,,"4,99,1,+00914,5,9",,,,"9,AGL   ,+99999,+99999","99,99,9,99,9,99,9,00914,1,99,9,99,9",,,"09946,5,09300,5",,"71,5",,,,"MET08702/04/23 10:46:02 METAR PAPT 041946Z 00000KT 15SM -SN OVC030 M14/M14 A2937 RMK NO SPECI","R01  15SM7VIS011R02   M147TMP046R03   M147DPT046"
"70249026526","2023-02-04T21:49:00","7","62.0911","-152.7349","566.3","PUNTILLA, AK US","FM-15","PAPT ","V020","340,5,N,0015,5","00914,5,M,N","024140,7,N,5","-0110,C","-0110,C","99999,9",,,,,,"1,0,03,0,0,1,5",,"71,5",,"08,5,+00914,5,99,9",,,"4,99,1,+00914,5,9",,,,"9,AGL   ,+99999,+99999","99,99,9,99,9,99,9,00914,1,99,9,99,9",,,"09939,5,09294,5",,"71,5",,,,"MET08702/04/23 12:49:02 METAR PAPT 042149Z 34003KT 15SM -SN OVC030 M11/M11 A2935 RMK NO SPECI","R01  15SM7VIS011R02   M117TMP046R03   M117DPT046"
"70249026526","2023-02-04T23:47:00","7","62.0911","-152.7349","566.3","PUNTILLA, AK US","FM-15","PAPT ","V020","999,9,C,0000,5","01219,5,M,N","008047,5,N,5","-0090,C","-0090,C","99999,9","24,0002,3,1","0046,9,5,004570,9,9",,,,"1,0,03,0,0,1,5",,"71,5",,"08,5,+01219,5,99,9",,,"4,99,1,+01219,5,9",,,,"9,AGL   ,+99999,+99999","99,99,9,99,9,99,9,01219,1,99,9,99,9","240,M,-0094,1","240,N,-0183,1","09929,5,09284,5",,"71,5",,,,"MET11502/04/23 14:47:02 METAR PAPT 042347Z 00000KT 5SM -SN OVC040 M09/M09 A2932 RMK NO SPECI 410941183 70001 931000 4/018","R01   M097TMP046R02   M097DPT046"
"70249026526","2023-02-05T01:59:00","7","62.0911","-152.7349","566.3","PUNTILLA, AK US","FM-15","PAPT ","V020","010,5,N,0015,5","99999,9,9,N","024140,7,N,5","-0090,C","-0090,C","99999,9",,,,,,"1,0,03,0,0,1,5",,,,,,,,,,,,,,,"09919,5,09275,5",,"71,1",,,,"MET09202/04/23 16:59:01 METAR PAPT 050159Z 01003KT 15SM -SN VKN060 M09/M09 A2929 RMK NO SPECI LAST","R01      7SKY009R02  15SM7VIS011R03   M097TMP046R04   M097DPT046R05      7GAS009D01      0ADE693D02      0ADE539"
"70249026526","2023-02-05T08:59:00","O","62.0911","-152.7349","566.3","PUNTILLA, AK US","SOD  ","PAPT ","V020","999,9,9,9999,9","99999,9,9,9","999999,9,9,9","+9999,9","+9999,9","99999,9",,,"AU,18,SN  ,5",,,,,,,,,,,,,,,,,,,,,,,,,
"70249026526","2023-02-05T17:45:00","7","62.0911","-152.7349","566.3","PUNTILLA, AK US","FM-15","PAPT ","V020","999,9,C,0000,5","00762,5,M,N","004828,5,N,5","-0120,C","-0120,C","99999,9",,,,,,"1,0,03,0,0,1,5",,"71,5",,"08,5,+00762,5,99,9",,,"4,99,1,+00762,5,9",,,,"9,AGL   ,+99999,+99999","99,99,9,99,9,99,9,00762,1,99,9,99,9",,,"09868,5,09227,5",,"71,5",,,,"MET09202/05/23 08:45:02 METAR PAPT 051745Z 00000KT 3SM -SN OVC025 M12/M12 A2914 RMK NO SPECI FIRST","R01   M127TMP046R02   M127DPT046"
"70249026526","2023-02-05T19:45:00","7","62.0911","-152.7349","566.3","PUNTILLA, AK US","FM-15","PAPT ","V020","999,9,C,0000,5","00914,5,M,N","011265,5,N,5","-0110,C","-0110,C","99999,9",,,,,,"1,0,03,0,0,1,5",,"71,5",,"08,5,+00914,5,99,9",,,"4,99,1,+00914,5,9",,,,"9,AGL   ,+99999,+99999","99,99,9,99,9,99,9,00914,1,99,9,99,9",,,"09851,5,09211,5",,"71,5",,,,"MET08602/05/23 10:45:02 METAR PAPT 051945Z 00000KT 7SM -SN OVC030 M11/M11 A2909 RMK NO SPECI","R01   M117TMP046R02   M117DPT046"
"70249026526","2023-02-05T21:45:00","7","62.0911","-152.7349","566.3","PUNTILLA, AK US","FM-15","PAPT ","V020","040,5,N,0015,5","00914,5,M,N","008047,5,N,5","-0090,C","-0090,C","99999,9",,,,,,"1,0,03,0,0,1,5",,"71,5",,"08,5,+00914,5,99,9",,,"4,99,1,+00914,5,9",,,,"9,AGL   ,+99999,+99999","99,99,9,99,9,99,9,00914,1,99,9,99,9",,,"09831,5,09191,5",,"71,5",,,,"MET08602/05/23 12:45:02 METAR PAPT 052145Z 04003KT 5SM -SN OVC030 M09/M09 A2903 RMK NO SPECI","R01   M097TMP046R02   M097DPT046"
"70249026526","2023-02-05T23:45:00","7","62.0911","-152.7349","566.3","PUNTILLA, AK US","FM-15","PAPT ","V020","050,5,N,0021,5","01829,5,M,N","040234,5,N,5","-0070,C","-0070,C","99999,9","24,0010,3,1","0046,9,5,004570,9,9",,,,,,,,"08,5,+01829,5,99,9",,,"4,99,1,+01829,5,9",,,,"9,AGL   ,+99999,+99999","99,99,9,99,9,99,9,01829,1,99,9,99,9","240,M,-0072,1","240,N,-0122,1","09817,5,09179,5",,,,,,"MET11202/05/23 14:45:02 METAR PAPT 052345Z 05004KT 25SM OVC060 M07/M07 A2899 RMK NO SPECI 410721122 70004 931020 4/018","R01   M077TMP046R02   M077DPT046"
"70249026526","2023-02-06T01:45:00","7","62.0911","-152.7349","566.3","PUNTILLA, AK US","FM-15","PAPT ","V020","999,9,C,0000,5","01219,5,M,N","024140,5,N,5","-0070,C","-0070,C","99999,9",,,,,,,,,,"08,5,+01219,5,99,9",,,"4,99,1,+01219,5,9",,,,"9,AGL   ,+99999,+99999","99,99,9,99,9,99,9,01219,1,99,9,99,9",,,"09783,5,09146,5",,,,,,"MET08802/05/23 16:45:01 METAR PAPT 060145Z 00000KT 15SM OVC040 M07/M07 A2889 RMK NO SPECI LAST","R01   M077TMP046R02   M077DPT046"
"70249026526","2023-02-06T08:59:00","O","62.0911","-152.7349","566.3","PUNTILLA, AK US","SOD  ","PAPT ","V020","999,9,9,9999,9","99999,9,9,9","999999,9,9,9","+9999,9","+9999,9","99999,9",,,"AU,18,SN  ,5",,,,,,,,,,,,,,,,,,,,,,,,,
"70249026526","2023-02-06T17:45:00","6","62.0911","-152.7349","566.3","PUNTILLA, AK US","FM-15","PAPT ","V020","999,9,C,0000,5","00762,5,M,N","004828,5,N,5","-0110,C","-0110,C","99999,9",,,,,,"1,0,03,0,0,1,5",,"71,5",,"08,5,+00762,5,99,9",,,"4,99,1,+00762,5,9",,,,,,,,"09763,5,09127,5",,"71,5",,,,"MET09202/06/23 08:45:02 METAR PAPT 061745Z 00000KT 3SM -SN OVC025 M11/M11 A2883 RMK NO SPECI FIRST","R01   M117TMP046R02   M117DPT046"
"70249026526","2023-02-06T19:45:00","7","62.0911","-152.7349","566.3","PUNTILLA, AK US","FM-15","PAPT ","V020","999,9,C,0000,5","00914,5,M,N","011265,5,N,5","-0100,C","-0100,C","99999,9",,,,,,"1,0,03,0,0,1,5",,"71,5",,"08,5,+00914,5,99,9",,,"4,99,1,+00914,5,9",,,,"9,AGL   ,+99999,+99999","99,99,9,99,9,99,9,00914,1,99,9,99,9",,,"09777,5,09140,5",,"71,5",,,,"MET08602/06/23 10:45:02 METAR PAPT 061945Z 00000KT 7SM -SN OVC030 M10/M10 A2887 RMK NO SPECI","R01   M107TMP046R02   M107DPT046"
"70249026526","2023-02-06T21:48:00","6","62.0911","-152.7349","566.3","PUNTILLA, AK US","FM-15","PAPT ","V020","999,9,C,0000,5","01829,5,M,N","024140,5,N,5","-0090,C","-0090,C","99999,9",,,,,,,,,,"08,5,+01829,5,99,9",,,"4,99,1,+01829,5,9",,,,,,,,"09793,5,09156,5",,,,,,"MET08302/06/23 12:48:02 METAR PAPT 062148Z 00000KT 15SM OVC060 M09/M09 A2892 RMK NO SPECI","R01   M097TMP046R02   M097DPT046"
"70249026526","2023-02-06T23:46:00","7","62.0911","-152.7349","566.3","PUNTILLA, AK US","FM-15","PAPT ","V020","999,9,C,0000,5","00762,5,M,N","004828,7,N,5","-0060,C","-0060,C","99999,9","24,0025,3,1","0051,9,5,005080,9,9",,,,"2,0,03,0,0,1,7",,"72,7",,"08,5,+00762,5,99,9",,,"4,99,1,+00762,5,9",,,,"9,AGL   ,+99999,+99999","99,99,9,99,9,99,9,00762,1,99,9,99,9","240,M,-0061,1","240,N,-0106,1","09807,5,09169,5",,"73,7",,,,"MET11402/06/23 14:46:02 METAR PAPT 062346Z 00000KT 3SM SN OVC025 M06/M06 A2896 RMK NO SPECI 410611106 70010 931020 4/020","R01   3SM7VIS012R02   M067TMP046R03   M067DPT046R04    SN7AWW012R05SEERMK7MVW012R06    SN7MWW012"
"70249026526","2023-02-07T01:51:00","7","62.0911","-152.7349","566.3","PUNTILLA, AK US","FM-15","PAPT ","V020","999,9,C,0000,5","00762,5,M,N","011265,5,N,5","-0060,C","-0060,C","99999,9",,,,,,"1,0,03,0,0,1,5",,"71,5",,"08,5,+00762,5,99,9",,,"4,99,1,+00762,5,9",,,,"9,AGL   ,+99999,+99999","99,99,9,99,9,99,9,00762,1,99,9,99,9",,,"09821,5,09182,5",,"71,5",,,,"MET09102/06/23 16:51:01 METAR PAPT 070151Z 00000KT 7SM -SN OVC025 M06/M06 A2900 RMK NO SPECI LAST","R01   M067TMP046R02   M067DPT046"
"70249026526","2023-02-07T08:59:00","O","62.0911","-152.7349","566.3","PUNTILLA, AK US","SOD  ","PAPT ","V020","999,9,9,9999,9","99999,9,9,9","999999,9,9,9","+9999,9","+9999,9","99999,9",,,"AU,18,SN  ,5",,,,,,,,,,,,,,,,,,,,,,,,,
"70249026526","2023-02-07T17:45:00","7","62.0911","-152.7349","566.3","PUNTILLA, AK US","FM-15","PAPT ","V020","360,5,N,0015,5","00914,5,M,N","004828,5,N,5","-0060,C","-0060,C","99999,9",,,,,,"1,0,03,0,0,1,5",,"71,5",,"04,5,+00152,5,99,9","08,5,+00914,5,99,9",,"2,99,1,+00152,5,9","4,99,1,+00914,5,9",,,"9,AGL   ,+99999,+99999","99,99,9,99,9,99,9,00152,1,99,9,99,9",,,"09932,5,09288,5",,"71,5",,,,"MET09902/07/23 08:45:02 METAR PAPT 071745Z 36003KT 3SM -SN SCT005 OVC030 M06/M06 A2933 RMK NO SPECI FIRST","R01   M067TMP046R02   M067DPT046"
"70249026526","2023-02-07T19:51:00","7","62.0911","-152.7349","566.3","PUNTILLA, AK US","FM-15","PAPT ","V020","999,9,C,0000,5","01219,5,M,N","024140,7,N,5","-0100,C","-0100,C","99999,9",,,,,,"1,0,03,0,0,1,5",,"71,5",,"08,5,+01219,5,99,9",,,"4,99,1,+01219,5,9",,,,"9,AGL   ,+99999,+99999","99,99,9,99,9,99,9,01219,1,99,9,99,9",,,"09942,5,09297,5",,"71,5",,,,"MET08702/07/23 10:51:02 METAR PAPT 071951Z 00000KT 15SM -SN OVC040 M10/M10 A2936 RMK NO SPECI","R01  15SM7VIS011R02   M107TMP046R03   M107DPT046"
"70249026526","2023-02-07T21:49:00","7","62.0911","-152.7349","566.3","PUNTILLA, AK US","FM-15","PAPT ","V020","999,9,C,0000,5","01219,5,M,N","024140,5,N,5","-0080,C","-0080,C","99999,9",,,,,,,,,,"08,5,+01219,5,99,9",,,"4,99,1,+01219,5,9",,,,"9,AGL   ,+99999,+99999","99,99,9,99,9,99,9,01219,1,99,9,99,9",,,"09953,5,09307,5",,,,,,"MET08302/07/23 12:49:02 METAR PAPT 072149Z 00000KT 15SM OVC040 M08/M08 A2939 RMK NO SPECI","R01   M087TMP046R02   M087DPT046"
"70249026526","2023-02-07T23:49:00","7","62.0911","-152.7349","566.3","PUNTILLA, AK US","FM-15","PAPT ","V020","010,5,N,0015,5","01219,5,M,N","024140,7,N,5","-0070,C","-0070,C","99999,9","24,0025,3,1","0053,9,5,005330,9,9",,,,"1,0,03,0,0,1,5",,"71,5",,"08,5,+01219,5,99,9",,,"4,99,1,+01219,5,9",,,,"9,AGL   ,+99999,+99999","99,99,9,99,9,99,9,01219,1,99,9,99,9","240,M,-0061,1","240,N,-0100,1","09956,5,09310,5",,"71,5",,,,"MET11602/07/23 14:49:02 METAR PAPT 072349Z 01003KT 15SM -SN OVC040 M07/M07 A2940 RMK NO SPECI 410611100 70010 931020 4/021","R01  15SM7VIS011R02   M077TMP046R03   M077DPT046"
"70249026526","2023-02-08T02:30:00","7","62.0911","-152.7349","566.3","PUNTILLA, AK US","FM-15","PAPT ","V020","010,5,N,0015,5","01219,5,M,N","024140,5,N,5","-0090,5","-0090,5","99999,9",,,,,,,,,,"08,5,+01219,5,99,9",,,"4,99,1,+01219,5,9",,,,"9,AGL   ,+99999,+99999","99,99,9,99,9,99,9,01219,1,99,9,99,9",,,"09959,5,09313,5",,,,,,"MET08802/07/23 17:30:01 METAR PAPT 080230Z 01003KT 15SM OVC040 M09/M09 A2941 RMK NO SPECI LAST",
"70249026526","2023-02-08T08:59:00","O","62.0911","-152.7349","566.3","PUNTILLA, AK US","SOD  ","PAPT ","V020","999,9,9,9999,9","99999,9,9,9","999999,9,9,9","+9999,9","+9999,9","99999,9",,,"AU,18,SN  ,5",,,,,,,,,,,,,,,,,,,,,,,,,
"70249026526","2023-02-08T17:45:00","7","62.0911","-152.7349","566.3","PUNTILLA, AK US","FM-15","PAPT ","V020","340,5,N,0026,5","03048,5,M,N","040234,5,N,5","-0160,C","-0160,C","99999,9",,,,,,,,,,"07,5,+03048,5,99,9",,,"3,99,1,+03048,5,9",,,,"9,AGL   ,+99999,+99999","99,99,9,99,9,99,9,03048,1,99,9,99,9",,,"10044,5,09393,5",,,,,,"MET08902/08/23 08:45:02 METAR PAPT 081745Z 34005KT 25SM BKN100 M16/M16 A2966 RMK NO SPECI FIRST","R01   M167TMP046R02   M167DPT046"
"70249026526","2023-02-08T19:45:00","7","62.0911","-152.7349","566.3","PUNTILLA, AK US","FM-15","PAPT ","V020","340,5,N,0026,5","03048,5,M,N","040234,5,N,5","-0110,C","-0110,C","99999,9",,,,,,,,,,"07,5,+03048,5,99,9",,,"3,99,1,+03048,5,9",,,,"9,AGL   ,+99999,+99999","99,99,9,99,9,99,9,03048,1,99,9,99,9",,,"10054,5,09403,5",,,,,,"MET08302/08/23 10:45:02 METAR PAPT 081945Z 34005KT 25SM BKN100 M11/M11 A2969 RMK NO SPECI","R01   M117TMP046R02   M117DPT046"
"70249026526","2023-02-08T21:46:00","7","62.0911","-152.7349","566.3","PUNTILLA, AK US","FM-15","PAPT ","V020","360,5,N,0031,5","22000,5,9,N","040234,5,N,5","-0140,C","-0140,C","99999,9",,,,,,,,,,"04,5,+03048,5,99,9",,,"2,99,1,+03048,5,9",,,,"9,AGL   ,+99999,+99999","04,99,5,99,9,99,9,03048,1,99,9,99,9",,,"10061,5,09409,5",,,,,,"MET08302/08/23 12:46:02 METAR PAPT 082146Z 36006KT 25SM SCT100 M14/M14 A2971 RMK NO SPECI","R01   M147TMP046R02   M147DPT046D01      0ADE726"
"70249026526","2023-02-08T23:45:00","7","62.0911","-152.7349","566.3","PUNTILLA, AK US","FM-15","PAPT ","V020","350,5,N,0015,5","22000,5,9,N","040234,5,N,5","-0160,C","-0160,C","99999,9","24,0010,3,1","0053,9,5,005330,9,9",,,,,,,,"02,5,+03048,5,99,9",,,"1,99,1,+03048,5,9",,,,"9,AGL   ,+99999,+99999","02,99,5,99,9,99,9,03048,1,99,9,99,9","240,M,-0089,1","240,N,-0161,1","10061,5,09409,5",,,,,,"MET11202/08/23 14:45:01 METAR PAPT 082345Z 35003KT 25SM FEW100 M16/M16 A2971 RMK NO SPECI 410891161 70004 931005 4/021","R01   M167TMP046R02   M167DPT046D01      0ADE726"
"70249026526","2023-02-09T01:47:00","7","62.0911","-152.7349","566.3","PUNTILLA, AK US","FM-15","PAPT ","V020","350,5,N,0026,5","22000,7,9,N","040234,5,N,5","-0200,C","-0200,C","99999,9",,,,,,,,,,"00,7,+99999,9,99,9",,,"0,99,1,+99999,9,9",,,,,"00,99,1,99,9,99,9,99999,9,99,9,99,9",,,"10061,5,09409,5",,,,,,"MET08502/08/23 16:47:01 METAR PAPT 090147Z 35005KT 25SM SKC M20/M20 A2971 RMK NO SPECI LAST","R01   SKC7SKY009R02   M207TMP046R03   M207DPT046R04   SKC7GAS009"
"70249026526","2023-02-09T17:49:00","7","62.0911","-152.7349","566.3","PUNTILLA, AK US","FM-15","PAPT ","V020","350,5,N,0015,5","22000,5,9,N","040234,5,N,5","-0280,C","-0280,C","99999,9",,,,,,,,,,"02,5,+03048,5,99,9",,,"1,99,1,+03048,5,9",,,,"9,AGL   ,+99999,+99999","02,99,5,99,9,99,9,03048,1,99,9,99,9",,,"10024,5,09374,5",,,,,,"MET08902/09/23 08:49:02 METAR PAPT 091749Z 35003KT 25SM FEW100 M28/M28 A2960 RMK NO SPECI FIRST","R01   M287TMP046R02   M287DPT046D01      0ADE726"
"70249026526","2023-02-09T19:52:00","7","62.0911","-152.7349","566.3","PUNTILLA, AK US","FM-15","PAPT ","V020","999,9,C,0000,5","22000,5,9,N","040234,5,N,5","-0230,C","-0230,C","99999,9",,,,,,,,,,"02,5,+03048,5,99,9",,,"1,99,1,+03048,5,9",,,,"9,AGL   ,+99999,+99999","02,99,5,99,9,99,9,03048,1,99,9,99,9",,,"10017,5,09368,5",,,,,,"MET08302/09/23 10:52:02 METAR PAPT 091952Z 00000KT 25SM FEW100 M23/M23 A2958 RMK NO SPECI","R01   M237TMP046R02   M237DPT046D01      0ADE726"
"70249026526","2023-02-09T21:45:00","7","62.0911","-152.7349","566.3","PUNTILLA, AK US","FM-15","PAPT ","V020","010,5,N,0015,5","22000,5,9,N","040234,5,N,5","-0140,C","-0140,C","99999,9",,,,,,,,,,"02,5,+03048,5,99,9",,,"1,99,1,+03048,5,9",,,,"9,AGL   ,+99999,+99999","02,99,5,99,9,99,9,03048,1,99,9,99,9",,,"10007,5,09358,5",,,,,,"MET08302/09/23 12:45:02 METAR PAPT 092145Z 01003KT 25SM FEW100 M14/M14 A2955 RMK NO SPECI","R01   M147TMP046R02   M147DPT046D01      0ADE726"
"70249026526","2023-02-09T23:45:00","7","62.0911","-152.7349","566.3","PUNTILLA, AK US","FM-15","PAPT ","V020","010,5,N,0015,5","22000,5,9,N","040234,5,N,5","-0160,C","-0160,C","99999,9","24,0000,9,1","0046,9,5,004570,9,9",,,,,,,,"02,5,+03048,5,99,9",,,"1,99,1,+03048,5,9",,,,"9,AGL   ,+99999,+99999","02,99,5,99,9,99,9,03048,1,99,9,99,9","240,M,-0144,1","240,N,-0283,1","10003,5,09355,5",,,,,,"MET10502/09/23 14:45:02 METAR PAPT 092345Z 01003KT 25SM FEW100 M16/M16 A2954 RMK NO SPECI 411441283 70000 4/018","Q01  00002PRCP24R01   M167TMP046R02   M167DPT046D01      0ADE726"
"70249026526","2023-02-10T01:45:00","7","62.0911","-152.7349","566.3","PUNTILLA, AK US","FM-15","PAPT ","V020","350,5,N,0021,5","22000,5,9,N","040234,5,N,5","-0170,C","-0170,C","99999,9",,,,,,,,,,"04,5,+03048,5,99,9",,,"2,99,1,+03048,5,9",,,,"9,AGL   ,+99999,+99999","04,99,5,99,9,99,9,03048,1,99,9,99,9",,,"10000,5,09352,5",,,,,,"MET08802/09/23 16:45:01 METAR PAPT 100145Z 35004KT 25SM SCT100 M17/M17 A2953 RMK NO SPECI LAST","R01   M177TMP046R02   M177DPT046D01      0ADE726"
"70249026526","2023-02-10T17:55:00","7","62.0911","-152.7349","566.3","PUNTILLA, AK US","FM-15","PAPT ","V020","999,9,C,0000,5","00914,5,M,N","004828,5,N,5","-0210,C","-0210,C","99999,9",,,,,,"0,2,00,2,0,1,5",,,,"08,5,+00914,5,99,9",,,"4,99,1,+00914,5,9",,,,"9,AGL   ,+99999,+99999","99,99,9,99,9,99,9,00914,1,99,9,99,9",,,"09956,5,09310,5",,"11,1",,,,"MET09802/10/23 08:55:02 METAR PAPT 101755Z 00000KT 3SM PRFG OVC030 M21/M21 A2940 RMK NO SPECI PRFG FIRST","R01   M217TMP046R02   M217DPT046"
"70249026526","2023-02-10T19:45:00","7","62.0911","-152.7349","566.3","PUNTILLA, AK US","FM-15","PAPT ","V020","999,9,C,0000,5","00914,5,M,N","004828,5,N,5","-0180,C","-0180,C","99999,9",,,,,,"0,0,00,1,0,1,5",,"10,5",,"08,5,+00914,5,99,9",,,"4,99,1,+00914,5,9",,,,"9,AGL   ,+99999,+99999","99,99,9,99,9,99,9,00914,1,99,9,99,9",,,"09946,5,09300,5",,"10,1",,,,"MET08802/10/23 10:45:02 METAR PAPT 101945Z 00000KT 3SM BR OVC030 M18/M18 A2937 RMK NO SPECI BR","R01   M187TMP046R02   M187DPT046"
"70249026526","2023-02-10T21:45:00","7","62.0911","-152.7349","566.3","PUNTILLA, AK US","FM-15","PAPT ","V020","999,9,C,0000,5","01219,5,M,N","011265,5,N,5","-0160,C","-0160,C","99999,9",,,,,,,,,,"08,5,+01219,5,99,9",,,"4,99,1,+01219,5,9",,,,"9,AGL   ,+99999,+99999","99,99,9,99,9,99,9,01219,1,99,9,99,9",,,"09932,5,09288,5",,,,,,"MET08202/10/23 12:45:02 METAR PAPT 102145Z 00000KT 7SM OVC040 M16/M16 A2933 RMK NO SPECI","R01   M167TMP046R02   M167DPT046"
"70249026526","2023-02-10T23:54:00","7","62.0911","-152.7349","566.3","PUNTILLA, AK US","FM-15","PAPT ","V020","999,9,C,0000,5","01219,5,M,N","004828,5,N,5","-0130,C","-0130,C","99999,9","24,0000,2,1","0046,9,5,004570,9,9",,,,"1,0,03,0,0,1,5",,"71,5",,"08,5,+01219,5,99,9",,,"4,99,1,+01219,5,9",,,,"9,AGL   ,+99999,+99999","99,99,9,99,9,99,9,01219,1,99,9,99,9","240,M,-0128,1","240,N,-0206,1","09912,5,09268,5",,"71,5",,,,"MET10802/10/23 14:54:02 METAR PAPT 102354Z 00000KT 3SM -SN OVC040 M13/M13 A2927 RMK NO SPECI 411281206 70000 4/018","R01   M137TMP046R02   M137DPT046"
"70249026526","2023-02-11T01:45:00","7","62.0911","-152.7349","566.3","PUNTILLA, AK US","FM-15","PAPT ","V020","999,9,C,0000,5","01219,5,M,N","004828,5,N,5","-0130,C","-0130,C","99999,9",,,,,,"1,0,03,0,0,1,5",,"71,5",,"08,5,+01219,5,99,9",,,"4,99,1,+01219,5,9",,,,"9,AGL   ,+99999,+99999","99,99,9,99,9,99,9,01219,1,99,9,99,9",,,"09902,5,09259,5",,"71,5",,,,"MET09102/10/23 16:45:01 METAR PAPT 110145Z 00000KT 3SM -SN OVC040 M13/M13 A2924 RMK NO SPECI LAST","R01   M137TMP046R02   M137DPT046"
"70249026526","2023-02-11T08:59:00","O","62.0911","-152.7349","566.3","PUNTILLA, AK US","SOD  ","PAPT ","V020","999,9,9,9999,9","99999,9,9,9","999999,9,9,9","+9999,9","+9999,9","99999,9",,,"AU,18,SN  ,5","AU,01,FG  ,5","AU,13,BR  ,5",,,,,,,,,,,,,,,,,,,,,,,
"70249026526","2023-02-11T17:51:00","7","62.0911","-152.7349","566.3","PUNTILLA, AK US","FM-15","PAPT ","V020","999,9,C,0000,5","00914,5,M,N","024140,5,N,5","-0140,C","-0140,C","99999,9",,,,,,,,,,"08,5,+00914,5,99,9",,,"4,99,1,+00914,5,9",,,,"9,AGL   ,+99999,+99999","99,99,9,99,9,99,9,00914,1,99,9,99,9",,,"09888,5,09246,5",,,,,,"MET08902/11/23 08:51:02 METAR PAPT 111751Z 00000KT 15SM OVC030 M14/M14 A2920 RMK NO SPECI FIRST","R01   M147TMP046R02   M147DPT046"
"70249026526","2023-02-11T19:45:00","7","62.0911","-152.7349","566.3","PUNTILLA, AK US","FM-15","PAPT ","V020","999,9,C,0000,5","01219,5,M,N","024140,7,N,5","-0130,C","-0130,C","99999,9",,,,,,"1,0,03,0,0,1,5",,"71,5",,"08,5,+01219,5,99,9",,,"4,99,1,+01219,5,9",,,,"9,AGL   ,+99999,+99999","99,99,9,99,9,99,9,01219,1,99,9,99,9",,,"09895,5,09252,5",,"71,5",,,,"MET08702/11/23 10:45:02 METAR PAPT 111945Z 00000KT 15SM -SN OVC040 M13/M13 A2922 RMK NO SPECI","R01  15SM7VIS011R02   M137TMP046R03   M137DPT046"
"70249026526","2023-02-11T21:51:00","7","62.0911","-152.7349","566.3","PUNTILLA, AK US","FM-15","PAPT ","V020","999,9,C,0000,5","00914,5,M,N","008047,5,N,5","-0080,C","-0080,C","99999,9",,,,,,"1,0,03,0,0,1,5",,"71,5",,"08,5,+00914,5,99,9",,,"4,99,1,+00914,5,9",,,,"9,AGL   ,+99999,+99999","99,99,9,99,9,99,9,00914,1,99,9,99,9",,,"09895,5,09252,5",,"71,5",,,,"MET08602/11/23 12:51:02 METAR PAPT 112151Z 00000KT 5SM -SN OVC030 M08/M08 A2922 RMK NO SPECI","R01   M087TMP046R02   M087DPT046"
"70249026526","2023-02-11T23:46:00","7","62.0911","-152.7349","566.3","PUNTILLA, AK US","FM-15","PAPT ","V020","999,9,C,0000,5","99999,9,9,N","024140,7,N,5","-0060,C","-0060,C","99999,9","24,0007,3,1","0053,9,5,005330,9,9",,,,"0,0,00,0,0,1,7",,,,,,,"3,99,1,+99999,9,9",,,,"9,AGL   ,+99999,+99999",,"240,M,-0061,1","240,N,-0139,1","09888,5,09246,5",,,,,,"MET11202/11/23 14:46:02 METAR PAPT 112346Z 00000KT 15SM BK 060 M06/M06 A2920 RMK NO SPECI 410611139 70003 931010 4/021","R01      7SKY009R02  15SM7VIS011R03   M067TMP046R04   M067DPT046R05BK 0607AWW013R06      7GAS009D01      0ADE693D02      0ADE539"
"70249026526","2023-02-12T01:51:00","7","62.0911","-152.7349","566.3","PUNTILLA, AK US","FM-15","PAPT ","V020","999,9,C,0000,5","01829,5,M,N","024140,7,N,5","-0070,C","-0070,C","99999,9",,,,,,"1,0,03,0,0,1,5",,"71,5",,"07,5,+01829,5,99,9",,,"3,99,1,+01829,5,9",,,,"9,AGL   ,+99999,+99999","99,99,9,99,9,99,9,01829,1,99,9,99,9",,,"09881,5,09239,5",,"71,5",,,,"MET09202/11/23 16:51:01 METAR PAPT 120151Z 00000KT 15SM -SN BKN060 M07/M07 A2918 RMK NO SPECI LAST","R01  15SM7VIS011R02   M077TMP046R03   M077DPT046"
"70249026526","2023-02-12T08:59:00","O","62.0911","-152.7349","566.3","PUNTILLA, AK US","SOD  ","PAPT ","V020","999,9,9,9999,9","99999,9,9,9","999999,9,9,9","+9999,9","+9999,9","99999,9",,,"AU,18,SN  ,5",,,,,,,,,,,,,,,,,,,,,,,,,
"70249026526","2023-02-12T17:50:00","7","62.0911","-152.7349","566.3","PUNTILLA, AK US","FM-15","PAPT ","V020","360,5,N,0041,5","00914,5,M,N","024140,7,N,5","-0120,C","-0120,C","99999,9",,,,,,,,,,"08,5,+00914,5,99,9",,,"4,99,1,+00914,5,9",,,,,,,,"09881,5,09239,5",,,,,"0103,5","MET09402/12/23 08:50:02 METAR PAPT 121750Z 36008G20KT 15SM - OVC030 M12/M12 A2918 RMK NO SPECI FIRST","R01  15SM7VIS011R02   M127TMP046R03   M127DPT046D01      0ADE693D02      0ADE539"
"70249026526","2023-02-12T19:59:00","7","62.0911","-152.7349","566.3","PUNTILLA, AK US","FM-15","PAPT ","V020","360,5,N,0051,5","00914,5,M,N","004828,5,N,5","-0120,C","-0120,C","99999,9",,,,,,"1,0,03,0,0,1,5",,"71,5",,"08,5,+00914,5,99,9",,,"4,99,1,+00914,5,9",,,,"9,AGL   ,+99999,+99999","99,99,9,99,9,99,9,00914,1,99,9,99,9",,,"09898,5,09255,5",,"71,5",,,"0103,5","MET08902/12/23 10:59:02 METAR PAPT 121959Z 36010G20KT 3SM -SN OVC030 M12/M12 A2923 RMK NO SPECI","R01   M127TMP046R02   M127DPT046"
"70249026526","2023-02-12T21:49:00","7","62.0911","-152.7349","566.3","PUNTILLA, AK US","FM-15","PAPT ","V020","350,5,N,0051,5","00914,5,M,N","011265,5,N,5","-0110,C","-0110,C","99999,9",,,,,,"1,0,03,0,0,1,5",,"71,5",,"08,5,+00914,5,99,9",,,"4,99,1,+00914,5,9",,,,"9,AGL   ,+99999,+99999","99,99,9,99,9,99,9,00914,1,99,9,99,9",,,"09919,5,09275,5",,"71,5",,,,"MET08602/12/23 12:49:02 METAR PAPT 122149Z 35010KT 7SM -SN OVC030 M11/M11 A2929 RMK NO SPECI","R01   M117TMP046R02   M117DPT046"
"70249026526","2023-02-12T23:45:00","7","62.0911","-152.7349","566.3","PUNTILLA, AK US","FM-15","PAPT ","V020","350,5,N,0041,5","00914,5,M,N","024140,7,N,5","-0110,C","-0110,C","99999,9","24,0012,3,1","0053,9,5,005330,9,9",,,,"1,0,03,0,0,1,5",,"71,5",,"08,5,+00914,5,99,9",,,"4,99,1,+00914,5,9",,,,"9,AGL   ,+99999,+99999","99,99,9,99,9,99,9,00914,1,99,9,99,9","240,M,-0067,1","240,N,-0122,1","09939,5,09294,5",,"71,5",,,,"MET11602/12/23 14:45:02 METAR PAPT 122345Z 35008KT 15SM -SN OVC030 M11/M11 A2935 RMK NO SPECI 410671122 70005 931010 4/021","R01  15SM7VIS011R02   M117TMP046R03   M117DPT046"
"70249026526","2023-02-13T01:45:00","7","62.0911","-152.7349","566.3","PUNTILLA, AK US","FM-15","PAPT ","V020","340,5,N,0062,5","01829,5,M,N","040234,5,N,5","-0130,C","-0130,C","99999,9",,,,,,,,,,"08,5,+01829,5,99,9",,,"4,99,1,+01829,5,9",,,,"9,AGL   ,+99999,+99999","99,99,9,99,9,99,9,01829,1,99,9,99,9",,,"09953,5,09307,5",,,,,,"MET08802/12/23 16:45:01 METAR PAPT 130145Z 34012KT 25SM OVC060 M13/M13 A2939 RMK NO SPECI LAST","R01   M137TMP046R02   M137DPT046"
"70249026526","2023-02-13T08:59:00","O","62.0911","-152.7349","566.3","PUNTILLA, AK US","SOD  ","PAPT ","V020","999,9,9,9999,9","99999,9,9,9","999999,9,9,9","+9999,9","+9999,9","99999,9",,,"AU,18,SN  ,5",,,,,,,,,,,,,,,,,,,,,,,,,
"70249026526","2023-02-13T17:45:00","7","62.0911","-152.7349","566.3","PUNTILLA, AK US","FM-15","PAPT ","V020","340,5,N,0036,5","22000,5,9,N","040234,5,N,5","-0220,C","-0220,C","99999,9",,,,,,,,,,"02,5,+03048,5,99,9",,,"1,99,1,+03048,5,9",,,,"9,AGL   ,+99999,+99999","02,99,5,99,9,99,9,03048,1,99,9,99,9",,,"10081,5,09429,5",,,,,,"MET08902/13/23 08:45:02 METAR PAPT 131745Z 34007KT 25SM FEW100 M22/M22 A2977 RMK NO SPECI FIRST","R01   M227TMP046R02   M227DPT046D01      0ADE726"
"70249026526","2023-02-13T19:50:00","7","62.0911","-152.7349","566.3","PUNTILLA, AK US","FM-15","PAPT ","V020","360,5,N,0051,5","22000,5,9,N","040234,5,N,5","-0220,C","-0220,C","99999,9",,,,,,,,,,"04,5,+03048,5,99,9",,,"2,99,1,+03048,5,9",,,,"9,AGL   ,+99999,+99999","04,99,5,99,9,99,9,03048,1,99,9,99,9",,,"10098,5,09445,5",,,,,,"MET08302/13/23 10:50:02 METAR PAPT 131950Z 36010KT 25SM SCT100 M22/M22 A2982 RMK NO SPECI","R01   M227TMP046R02   M227DPT046D01      0ADE726"
"70249026526","2023-02-13T21:52:00","7","62.0911","-152.7349","566.3","PUNTILLA, AK US","FM-15","PAPT ","V020","010,5,N,0046,5","22000,5,9,N","040234,5,N,5","-0210,C","-0210,C","99999,9",,,,,,,,,,"02,5,+03048,5,99,9",,,"1,99,1,+03048,5,9",,,,"9,AGL   ,+99999,+99999","02,99,5,99,9,99,9,03048,1,99,9,99,9",,,"10098,5,09445,5",,,,,,"MET08302/13/23 12:52:02 METAR PAPT 132152Z 01009KT 25SM FEW100 M21/M21 A2982 RMK NO SPECI","R01   M217TMP046R02   M217DPT046D01      0ADE726"
"70249026526","2023-02-13T23:48:00","7","62.0911","-152.7349","566.3","PUNTILLA, AK US","FM-15","PAPT ","V020","230,5,N,0015,5","22000,5,9,N","040234,5,N,5","-0210,C","-0210,C","99999,9","24,0007,3,1","0053,9,5,005330,9,9",,,,,,,,"02,5,+03048,5,99,9",,,"1,99,1,+03048,5,9",,,,"9,AGL   ,+99999,+99999","02,99,5,99,9,99,9,03048,1,99,9,99,9","240,M,-0128,1","240,N,-0222,1","10091,5,09438,5",,,,,,"MET11202/13/23 14:48:02 METAR PAPT 132348Z 23003KT 25SM FEW100 M21/M21 A2980 RMK NO SPECI 411281222 70003 931000 4/021","R01   M217TMP046R02   M217DPT046D01      0ADE726"
"70249026526","2023-02-14T01:45:00","7","62.0911","-152.7349","566.3","PUNTILLA, AK US","FM-15","PAPT ","V020","350,5,N,0021,5","22000,5,9,N","040234,5,N,5","-0240,C","-0240,C","99999,9",,,,,,,,,,"02,5,+03048,5,99,9",,,"1,99,1,+03048,5,9",,,,"9,AGL   ,+99999,+99999","02,99,5,99,9,99,9,03048,1,99,9,99,9",,,"10091,5,09438,5",,,,,,"MET08802/13/23 16:45:01 METAR PAPT 140145Z 35004KT 25SM FEW100 M24/M24 A2980 RMK NO SPECI LAST","R01   M247TMP046R02   M247DPT046D01      0ADE726"
"70249026526","2023-02-14T17:53:00","7","62.0911","-152.7349","566.3","PUNTILLA, AK US","FM-15","PAPT ","V020","999,9,C,0000,5","01219,5,M,N","011265,5,N,5","-0170,C","-0170,C","99999,9",,,,,,,,,,"08,5,+01219,5,99,9",,,"4,99,1,+01219,5,9",,,,"9,AGL   ,+99999,+99999","99,99,9,99,9,99,9,01219,1,99,9,99,9",,,"10034,5,09384,5",,,,,,"MET08802/14/23 08:53:02 METAR PAPT 141753Z 00000KT 7SM OVC040 M17/M17 A2963 RMK NO SPECI FIRST","R01   M177TMP046R02   M177DPT046"
"70249026526","2023-02-14T19:48:00","7","62.0911","-152.7349","566.3","PUNTILLA, AK US","FM-15","PAPT ","V020","999,9,C,0000,5","01524,5,M,N","011265,5,N,5","-0140,C","-0140,C","99999,9",,,,,,,,,,"08,5,+01524,5,99,9",,,"4,99,1,+01524,5,9",,,,"9,AGL   ,+99999,+99999","99,99,9,99,9,99,9,01524,1,99,9,99,9",,,"10030,5,09381,5",,,,,,"MET08202/14/23 10:48:02 METAR PAPT 141948Z 00000KT 7SM OVC050 M14/M14 A2962 RMK NO SPECI","R01   M147TMP046R02   M147DPT046"
"70249026526","2023-02-14T21:45:00","7","62.0911","-152.7349","566.3","PUNTILLA, AK US","FM-15","PAPT ","V020","040,5,N,0015,5","00914,5,M,N","008047,5,N,5","-0120,C","-0120,C","99999,9",,,,,,"1,0,03,0,0,1,5",,"71,5",,"08,5,+00914,5,99,9",,,"4,99,1,+00914,5,9",,,,"9,AGL   ,+99999,+99999","99,99,9,99,9,99,9,00914,1,99,9,99,9",,,"10024,5,09374,5",,"71,5",,,,"MET08602/14/23 12:45:02 METAR PAPT 142145Z 04003KT 5SM -SN OVC030 M12/M12 A2960 RMK NO SPECI","R01   M127TMP046R02   M127DPT046"
"70249026526","2023-02-14T23:45:00","7","62.0911","-152.7349","566.3","PUNTILLA, AK US","FM-15","PAPT ","V020","999,9,C,0000,5","01829,5,M,N","011265,5,N,5","-0090,C","-0090,C","99999,9","24,0005,3,1","0053,9,5,005330,9,9",,,,"1,0,03,0,0,1,5",,"71,5",,"07,5,+01829,5,99,9",,,"3,99,1,+01829,5,9",,,,"9,AGL   ,+99999,+99999","99,99,9,99,9,99,9,01829,1,99,9,99,9","240,M,-0094,1","240,N,-0244,1","10014,5,09365,5",,"71,5",,,,"MET11502/14/23 14:45:02 METAR PAPT 142345Z 00000KT 7SM -SN BKN060 M09/M09 A2957 RMK NO SPECI 410941244 70002 931000 4/021","R01   M097TMP046R02   M097DPT046"
"70249026526","2023-02-15T01:47:00","7","62.0911","-152.7349","566.3","PUNTILLA, AK US","FM-15","PAPT ","V020","999,9,C,0000,5","01829,5,M,N","024140,5,N,5","-0090,C","-0090,C","99999,9",,,,,,,,,,"07,5,+01829,5,99,9",,,"3,99,1,+01829,5,9",,,,"9,AGL   ,+99999,+99999","99,99,9,99,9,99,9,01829,1,99,9,99,9",,,"10000,5,09352,5",,,,,,"MET08802/14/23 16:47:01 METAR PAPT 150147Z 00000KT 15SM BKN060 M09/M09 A2953 RMK NO SPECI LAST","R01   M097TMP046R02   M097DPT046"
"70249026526","2023-02-15T08:59:00","O","62.0911","-152.7349","566.3","PUNTILLA, AK US","SOD  ","PAPT ","V020","999,9,9,9999,9","99999,9,9,9","999999,9,9,9","+9999,9","+9999,9","99999,9",,,"AU,18,SN  ,5",,,,,,,,,,,,,,,,,,,,,,,,,
"70249026526","2023-02-15T17:50:00","7","62.0911","-152.7349","566.3","PUNTILLA, AK US","FM-15","PAPT ","V020","999,9,C,0000,5","01829,5,M,N","011265,5,N,5","-0120,C","-0120,C","99999,9",,,,,,,,,,"07,5,+01829,5,99,9",,,"3,99,1,+01829,5,9",,,,"9,AGL   ,+99999,+99999","99,99,9,99,9,99,9,01829,1,99,9,99,9",,,"09983,5,09336,5",,,,,,"MET08802/15/23 08:50:02 METAR PAPT 151750Z 00000KT 7SM BKN060 M12/M12 A2948 RMK NO SPECI FIRST","R01   M127TMP046R02   M127DPT046"
"70249026526","2023-02-15T19:45:00","7","62.0911","-152.7349","566.3","PUNTILLA, AK US","FM-15","PAPT ","V020","010,5,N,0026,5","03048,5,M,N","024140,5,N,5","-0120,C","-0120,C","99999,9",,,,,,,,,,"07,5,+03048,5,99,9",,,"3,99,1,+03048,5,9",,,,"9,AGL   ,+99999,+99999","99,99,9,99,9,99,9,03048,1,99,9,99,9",,,"09986,5,09339,5",,,,,,"MET08302/15/23 10:45:02 METAR PAPT 151945Z 01005KT 15SM BKN100 M12/M12 A2949 RMK NO SPECI","R01   M127TMP046R02   M127DPT046"
"70249026526","2023-02-15T21:48:00","7","62.0911","-152.7349","566.3","PUNTILLA, AK US","FM-15","PAPT ","V020","360,5,N,0041,5","22000,5,9,N","040234,5,N,5","-0120,C","-0120,C","99999,9",,,,,,,,,,"04,5,+03048,5,99,9",,,"2,99,1,+03048,5,9",,,,"9,AGL   ,+99999,+99999","04,99,5,99,9,99,9,03048,1,99,9,99,9",,,"09997,5,09348,5",,,,,,"MET08302/15/23 12:48:02 METAR PAPT 152148Z 36008KT 25SM SCT100 M12/M12 A2952 RMK NO SPECI","R01   M127TMP046R02   M127DPT046D01      0ADE726"
"70249026526","2023-02-15T23:52:00","7","62.0911","-152.7349","566.3","PUNTILLA, AK US","FM-15","PAPT ","V020","360,5,N,0021,5","22000,5,9,N","040234,5,N,5","-0140,C","-0140,C","99999,9","24,0040,3,1","0058,9,5,005840,9,9",,,,,,,,"04,5,+03048,5,99,9",,,"2,99,1,+03048,5,9",,,,"9,AGL   ,+99999,+99999","04,99,5,99,9,99,9,03048,1,99,9,99,9",,,"10000,5,09352,5",,,,,,"MET11102/15/23 14:52:02 METAR PAPT 152352Z 36004KT 25SM SCT100 M14/M14 A2953 RMK NO SPECI 41094139 70016 931025 4/023","R01   M147TMP046R02   M147DPT046D01      0ADE726"
"70249026526","2023-02-16T01:45:00","7","62.0911","-152.7349","566.3","PUNTILLA, AK US","FM-15","PAPT ","V020","350,5,N,0015,5","22000,5,9,N","040234,5,N,5","-0150,C","-0150,C","99999,9",,,,,,,,,,"04,5,+03048,5,99,9",,,"2,99,1,+03048,5,9",,,,"9,AGL   ,+99999,+99999","04,99,5,99,9,99,9,03048,1,99,9,99,9",,,"10010,5,09361,5",,,,,,"MET08802/15/23 16:45:01 METAR PAPT 160145Z 35003KT 25SM SCT100 M15/M15 A2956 RMK NO SPECI LAST","R01   M157TMP046R02   M157DPT046D01      0ADE726"
"70249026526","2023-02-16T17:45:00","7","62.0911","-152.7349","566.3","PUNTILLA, AK US","FM-15","PAPT ","V020","999,9,C,0000,5","00610,5,M,N","001609,7,N,5","-0130,C","-0130,C","99999,9",,,,,,"2,0,03,0,0,1,7",,"72,7",,"08,5,+00610,5,99,9",,,"4,99,1,+00610,5,9",,,,"9,AGL   ,+99999,+99999","99,99,9,99,9,99,9,00610,1,99,9,99,9",,,"10003,5,09355,5",,"73,7",,,,"MET08502/16/23 08:45:02 METAR PAPT 161745Z 00000KT 1SM SN OVC020 M13/M13 A2954 RMK NO SPECI","R01   1SM7VIS012R02   M137TMP046R03   M137DPT046R04    SN7AWW012R05SEERMK7MVW012R06    SN7MWW012"
"70249026526","2023-02-16T19:45:00","7","62.0911","-152.7349","566.3","PUNTILLA, AK US","FM-15","PAPT ","V020","999,9,C,0000,5","00762,5,M,N","004828,7,N,5","-0110,C","-0110,C","99999,9",,,,,,"2,0,03,0,0,1,7",,"72,7",,"08,5,+00762,5,99,9",,,"4,99,1,+00762,5,9",,,,"9,AGL   ,+99999,+99999","99,99,9,99,9,99,9,00762,1,99,9,99,9",,,"10017,5,09368,5",,"73,7",,,,"MET08502/16/23 10:45:02 METAR PAPT 161945Z 00000KT 3SM SN OVC025 M11/M11 A2958 RMK NO SPECI","R01   3SM7VIS012R02   M117TMP046R03   M117DPT046R04    SN7AWW012R05SEERMK7MVW012R06    SN7MWW012"
"70249026526","2023-02-16T21:56:00","7","62.0911","-152.7349","566.3","PUNTILLA, AK US","FM-15","PAPT ","V020","160,5,N,0026,5","03048,5,M,N","004828,5,N,5","-0080,C","-0080,C","99999,9",,,,,,,,,,"02,5,+00610,5,99,9","07,5,+03048,5,99,9",,"1,99,1,+00610,5,9","3,99,1,+03048,5,9",,,"9,AGL   ,+99999,+99999","99,99,9,99,9,99,9,00610,1,99,9,99,9",,,"10020,5,09371,5",,,,,,"MET08902/16/23 12:56:02 METAR PAPT 162156Z 16005KT 3SM FEW020 BKN100 M08/M08 A2959 RMK NO SPECI","R01   M087TMP046R02   M087DPT046"
"70249026526","2023-02-16T23:48:00","7","62.0911","-152.7349","566.3","PUNTILLA, AK US","FM-15","PAPT ","V020","190,5,N,0031,5","03048,5,M,N","040234,5,N,5","-0080,C","-0080,C","99999,9","24,0007,3,1","0058,9,5,005840,9,9",,,,,,,,"02,5,+00610,5,99,9","07,5,+03048,5,99,9",,"1,99,1,+00610,5,9","3,99,1,+03048,5,9",,,"9,AGL   ,+99999,+99999","99,99,9,99,9,99,9,00610,1,99,9,99,9","240,M,-0078,1","240,N,-0150,1","10020,5,09371,5",,,,,,"MET11902/16/23 14:48:02 METAR PAPT 162348Z 19006KT 25SM FEW020 BKN100 M08/M08 A2959 RMK NO SPECI 410781150 70003 931010 4/023","R01   M087TMP046R02   M087DPT046"
"70249026526","2023-02-17T01:45:00","7","62.0911","-152.7349","566.3","PUNTILLA, AK US","FM-15","PAPT ","V020","999,9,C,0000,5","03048,5,M,N","040234,5,N,5","-0110,C","-0110,C","99999,9",,,,,,,,,,"02,5,+00610,5,99,9","07,5,+03048,5,99,9",,"1,99,1,+00610,5,9","3,99,1,+03048,5,9",,,"9,AGL   ,+99999,+99999","99,99,9,99,9,99,9,00610,1,99,9,99,9",,,"10024,5,09374,5",,,,,,"MET09502/16/23 16:45:01 METAR PAPT 170145Z 00000KT 25SM FEW020 BKN100 M11/M11 A2960 RMK NO SPECI LAST","R01   M117TMP046R02   M117DPT046"
"70249026526","2023-02-17T17:56:00","7","62.0911","-152.7349","566.3","PUNTILLA, AK US","FM-15","PAPT ","V020","999,9,C,0000,5","01219,5,M,N","024140,5,N,5","-0120,C","-0120,C","99999,9",,,,,,,,,,"08,5,+01219,5,99,9",,,"4,99,1,+01219,5,9",,,,"9,AGL   ,+99999,+99999","99,99,9,99,9,99,9,01219,1,99,9,99,9",,,"09990,5,09342,5",,,,,,"MET08802/17/23 08:56:02 METAR PAPT 171756Z 00000KT 15SM OVC040 M12/M12 A2950 RMK NO SPECI LAST","R01   M127TMP046R02   M127DPT046"
"70249026526","2023-02-17T19:51:00","7","62.0911","-152.7349","566.3","PUNTILLA, AK US","FM-15","PAPT ","V020","999,9,C,0000,5","01219,5,M,N","040234,5,N,5","-0110,C","-0110,C","99999,9",,,,,,,,,,"08,5,+01219,5,99,9",,,"4,99,1,+01219,5,9",,,,"9,AGL   ,+99999,+99999","99,99,9,99,9,99,9,01219,1,99,9,99,9",,,"10000,5,09352,5",,,,,,"MET08302/17/23 10:51:02 METAR PAPT 171951Z 00000KT 25SM OVC040 M11/M11 A2953 RMK NO SPECI","R01   M117TMP046R02   M117DPT046"
"70249026526","2023-02-17T21:51:00","7","62.0911","-152.7349","566.3","PUNTILLA, AK US","FM-15","PAPT ","V020","999,9,C,0000,5","00914,5,M,N","040234,5,N,5","-0070,C","-0070,C","99999,9",,,,,,,,,,"07,5,+00914,5,99,9",,,"3,99,1,+00914,5,9",,,,"9,AGL   ,+99999,+99999","99,99,9,99,9,99,9,00914,1,99,9,99,9",,,"10017,5,09368,5",,,,,,"MET08302/17/23 12:51:02 METAR PAPT 172151Z 00000KT 25SM BKN030 M07/M07 A2958 RMK NO SPECI","R01   M077TMP046R02   M077DPT046"
"70249026526","2023-02-17T23:53:00","7","62.0911","-152.7349","566.3","PUNTILLA, AK US","FM-15","PAPT ","V020","999,9,C,0000,5","22000,5,9,N","040234,5,N,5","-0080,C","-0080,C","99999,9","24,0015,3,1","0061,9,5,006100,9,9",,,,,,,,"04,5,+00914,5,99,9",,,"2,99,1,+00914,5,9",,,,"9,AGL   ,+99999,+99999","04,99,5,99,9,99,9,00914,1,99,9,99,9","240,M,-0078,1","240,N,-0117,1","10024,5,09374,5",,,,,,"MET11202/17/23 14:53:02 METAR PAPT 172353Z 00000KT 25SM SCT030 M08/M08 A2960 RMK NO SPECI 410781117 70006 931010 4/024","R01   M087TMP046R02   M087DPT046D01      0ADE726"
"70249026526","2023-02-18T01:45:00","7","62.0911","-152.7349","566.3","PUNTILLA, AK US","FM-15","PAPT ","V020","340,5,N,0026,5","22000,5,9,N","040234,5,N,5","-0120,C","-0120,C","99999,9",,,,,,,,,,"02,5,+00914,5,99,9",,,"1,99,1,+00914,5,9",,,,"9,AGL   ,+99999,+99999","02,99,5,99,9,99,9,00914,1,99,9,99,9",,,"10030,5,09381,5",,,,,,"MET08802/17/23 16:45:01 METAR PAPT 180145Z 34005KT 25SM FEW030 M12/M12 A2962 RMK NO SPECI LAST","R01   M127TMP046R02   M127DPT046D01      0ADE726"
"70249026526","2023-02-18T17:46:00","7","62.0911","-152.7349","566.3","PUNTILLA, AK US","FM-15","PAPT ","V020","999,9,C,0000,5","00762,5,M,N","001609,7,N,5","-0110,C","-0110,C","99999,9",,,,,,"2,0,03,0,0,1,7",,"72,7",,"08,5,+00762,5,99,9",,,"4,99,1,+00762,5,9",,,,"9,AGL   ,+99999,+99999","99,99,9,99,9,99,9,00762,1,99,9,99,9",,,"09986,5,09339,5",,"73,7",,,,"MET09102/18/23 08:46:02 METAR PAPT 181746Z 00000KT 1SM SN OVC025 M11/M11 A2949 RMK NO SPECI FIRST","R01   1SM7VIS012R02   M117TMP046R03   M117DPT046R04    SN7AWW012R05SEERMK7MVW012R06    SN7MWW012"
"70249026526","2023-02-18T19:45:00","7","62.0911","-152.7349","566.3","PUNTILLA, AK US","FM-15","PAPT ","V020","999,9,C,0000,5","00762,5,M,N","004828,7,N,5","-0110,C","-0110,C","99999,9",,,,,,"2,0,03,0,0,1,7",,"72,7",,"08,5,+00762,5,99,9",,,"4,99,1,+00762,5,9",,,,"9,AGL   ,+99999,+99999","99,99,9,99,9,99,9,00762,1,99,9,99,9",,,"09980,5,09332,5",,"73,7",,,,"MET08502/18/23 10:45:02 METAR PAPT 181945Z 00000KT 3SM SN OVC025 M11/M11 A2947 RMK NO SPECI","R01   3SM7VIS012R02   M117TMP046R03   M117DPT046R04    SN7AWW012R05SEERMK7MVW012R06    SN7MWW012"
"70249026526","2023-02-18T21:47:00","7","62.0911","-152.7349","566.3","PUNTILLA, AK US","FM-15","PAPT ","V020","999,9,C,0000,5","00914,5,M,N","004828,7,N,5","-0070,C","-0070,C","99999,9",,,,,,"2,0,03,0,0,1,7",,"72,7",,"08,5,+00914,5,99,9",,,"4,99,1,+00914,5,9",,,,"9,AGL   ,+99999,+99999","99,99,9,99,9,99,9,00914,1,99,9,99,9",,,"09986,5,09339,5",,"73,7",,,,"MET08502/18/23 12:47:02 METAR PAPT 182147Z 00000KT 3SM SN OVC030 M07/M07 A2949 RMK NO SPECI","R01   3SM7VIS012R02   M077TMP046R03   M077DPT046R04    SN7AWW012R05SEERMK7MVW012R06    SN7MWW012"
"70249026526","2023-02-18T23:45:00","7","62.0911","-152.7349","566.3","PUNTILLA, AK US","FM-15","PAPT ","V020","030,5,N,0015,5","00914,5,M,N","008047,5,N,5","-0060,C","-0060,C","99999,9","24,0015,3,1","0061,9,5,006100,9,9",,,,"1,0,03,0,0,1,5",,"71,5",,"08,5,+00914,5,99,9",,,"4,99,1,+00914,5,9",,,,"9,AGL   ,+99999,+99999","99,99,9,99,9,99,9,00914,1,99,9,99,9","240,M,-0056,1","240,N,-0122,1","09986,5,09339,5",,"71,5",,,,"MET11502/18/23 14:45:02 METAR PAPT 182345Z 03003KT 5SM -SN OVC030 M06/M06 A2949 RMK NO SPECI 410561122 70006 931010 4/024","R01   M067TMP046R02   M067DPT046"
"70249026526","2023-02-19T02:16:00","7","62.0911","-152.7349","566.3","PUNTILLA, AK US","FM-15","PAPT ","V020","999,9,C,0000,5","00914,5,M,N","004828,5,N,5","-0070,5","-0070,5","99999,9",,,,,,"1,0,03,0,0,1,5",,"71,5",,"08,5,+00914,5,99,9",,,"4,99,1,+00914,5,9",,,,"9,AGL   ,+99999,+99999","99,99,9,99,9,99,9,00914,1,99,9,99,9",,,"09986,5,09339,5",,"71,5",,,,"MET09102/18/23 17:16:01 METAR PAPT 190216Z 00000KT 3SM -SN OVC030 M07/M07 A2949 RMK NO SPECI LAST",
"70249026526","2023-02-19T08:59:00","O","62.0911","-152.7349","566.3","PUNTILLA, AK US","SOD  ","PAPT ","V020","999,9,9,9999,9","99999,9,9,9","999999,9,9,9","+9999,9","+9999,9","99999,9",,,"AU,18,SN  ,5",,,,,,,,,,,,,,,,,,,,,,,,,
"70249026526","2023-02-19T17:45:00","7","62.0911","-152.7349","566.3","PUNTILLA, AK US","FM-15","PAPT ","V020","360,5,N,0021,5","22000,5,9,N","040234,5,N,5","-0130,C","-0130,C","99999,9",,,,,,,,,,"02,5,+03048,5,99,9",,,"1,99,1,+03048,5,9",,,,"9,AGL   ,+99999,+99999","02,99,5,99,9,99,9,03048,1,99,9,99,9",,,"10102,5,09448,5",,,,,,"MET08302/19/23 08:45:02 METAR PAPT 191745Z 36004KT 25SM FEW100 M13/M13 A2983 RMK NO SPECI","R01   M137TMP046R02   M137DPT046D01      0ADE726"
"70249026526","2023-02-19T19:45:00","7","62.0911","-152.7349","566.3","PUNTILLA, AK US","FM-15","PAPT ","V020","030,5,N,0021,5","22000,5,9,N","040234,5,N,5","-0110,C","-0110,C","99999,9",,,,,,,,,,"02,5,+03048,5,99,9",,,"1,99,1,+03048,5,9",,,,"9,AGL   ,+99999,+99999","02,99,5,99,9,99,9,03048,1,99,9,99,9",,,"10125,5,09470,5",,,,,,"MET08302/19/23 10:45:02 METAR PAPT 191945Z 03004KT 25SM FEW100 M11/M11 A2990 RMK NO SPECI","R01   M117TMP046R02   M117DPT046D01      0ADE726"
"70249026526","2023-02-19T21:48:00","7","62.0911","-152.7349","566.3","PUNTILLA, AK US","FM-15","PAPT ","V020","350,5,N,0026,5","22000,7,9,N","040234,5,N,5","-0070,C","-0070,C","99999,9",,,,,,,,,,"00,7,+99999,9,99,9",,,"0,99,1,+99999,9,9",,,,,"00,99,1,99,9,99,9,99999,9,99,9,99,9",,,"10132,5,09477,5",,,,,,"MET08002/19/23 12:48:02 METAR PAPT 192148Z 35005KT 25SM SKC M07/M07 A2992 RMK NO SPECI","R01   SKC7SKY009R02   M077TMP046R03   M077DPT046R04   SKC7GAS009"
"70249026526","2023-02-19T23:45:00","7","62.0911","-152.7349","566.3","PUNTILLA, AK US","FM-15","PAPT ","V020","999,9,C,0000,5","22000,7,9,N","040234,5,N,5","-0060,C","-0060,C","99999,9","24,0000,2,1","0061,9,5,006100,9,9",,,,,,,,"00,7,+99999,9,99,9",,,"0,99,1,+99999,9,9",,,,,"00,99,1,99,9,99,9,99999,9,99,9,99,9","240,M,-0056,1","240,N,-0133,1","10135,5,09480,5",,,,,,"MET10202/19/23 14:45:02 METAR PAPT 192345Z 00000KT 25SM SKC M06/M06 A2993 RMK NO SPECI 410561133 70000 4/024","R01   SKC7SKY009R02   M067TMP046R03   M067DPT046R04   SKC7GAS009"
"70249026526","2023-02-20T01:45:00","7","62.0911","-152.7349","566.3","PUNTILLA, AK US","FM-15","PAPT ","V020","340,5,N,0015,5","22000,7,9,N","040234,5,N,5","-0140,C","-0140,C","99999,9",,,,,,,,,,"00,7,+99999,9,99,9",,,"0,99,1,+99999,9,9",,,,,"00,99,1,99,9,99,9,99999,9,99,9,99,9",,,"10142,5,09486,5",,,,,,"MET08502/19/23 16:45:01 METAR PAPT 200145Z 34003KT 25SM SKC M14/M14 A2995 RMK NO SPECI LAST","R01   SKC7SKY009R02   M147TMP046R03   M147DPT046R04   SKC7GAS009"
"70249026526","2023-02-20T17:47:00","7","62.0911","-152.7349","566.3","PUNTILLA, AK US","FM-15","PAPT ","V020","340,5,N,0015,5","01829,5,M,N","040234,5,N,5","-0100,C","-0100,C","99999,9",,,,,,,,,,"07,5,+01829,5,99,9",,,"3,99,1,+01829,5,9",,,,"9,AGL   ,+99999,+99999","99,99,9,99,9,99,9,01829,1,99,9,99,9",,,"10210,5,09551,5",,,,,,"MET08902/20/23 08:47:02 METAR PAPT 201747Z 34003KT 25SM BKN060 M10/M10 A3015 RMK NO SPECI FIRST","R01   M107TMP046R02   M107DPT046"
"70249026526","2023-02-20T19:45:00","7","62.0911","-152.7349","566.3","PUNTILLA, AK US","FM-15","PAPT ","V020","340,5,N,0015,5","01829,5,M,N","040234,5,N,5","-0080,C","-0080,C","99999,9",,,,,,,,,,"07,5,+01829,5,99,9",,,"3,99,1,+01829,5,9",,,,"9,AGL   ,+99999,+99999","99,99,9,99,9,99,9,01829,1,99,9,99,9",,,"10240,5,09579,5",,,,,,"MET08302/20/23 10:45:02 METAR PAPT 201945Z 34003KT 25SM BKN060 M08/M08 A3024 RMK NO SPECI","R01   M087TMP046R02   M087DPT046"
"70249026526","2023-02-20T21:47:00","7","62.0911","-152.7349","566.3","PUNTILLA, AK US","FM-15","PAPT ","V020","360,5,N,0026,5","22000,5,9,N","040234,5,N,5","-0060,C","-0060,C","99999,9",,,,,,,,,,"02,5,+03048,5,99,9",,,"1,99,1,+03048,5,9",,,,"9,AGL   ,+99999,+99999","02,99,5,99,9,99,9,03048,1,99,9,99,9",,,"10240,5,09579,5",,,,,,"MET08302/20/23 12:47:02 METAR PAPT 202147Z 36005KT 25SM FEW100 M06/M06 A3024 RMK NO SPECI","R01   M067TMP046R02   M067DPT046D01      0ADE726"
"70249026526","2023-02-20T23:51:00","7","62.0911","-152.7349","566.3","PUNTILLA, AK US","FM-15","PAPT ","V020","360,5,N,0021,5","22000,5,9,N","040234,5,N,5","-0070,C","-0070,C","99999,9","24,0000,9,1","0061,9,5,006100,9,9",,,,,,,,"04,5,+03048,5,99,9",,,"2,99,1,+03048,5,9",,,,"9,AGL   ,+99999,+99999","04,99,5,99,9,99,9,03048,1,99,9,99,9","240,M,-0061,1","240,N,-0139,1","10237,5,09576,5",,,,,,"MET10502/20/23 14:51:02 METAR PAPT 202351Z 36004KT 25SM SCT100 M07/M07 A3023 RMK NO SPECI 410611139 70000 4/024","Q01  00002PRCP24R01   M077TMP046R02   M077DPT046D01      0ADE726"
"70249026526","2023-02-21T01:48:00","7","62.0911","-152.7349","566.3","PUNTILLA, AK US","FM-15","PAPT ","V020","350,5,N,0026,5","22000,5,9,N","040234,5,N,5","-0110,C","-0110,C","99999,9",,,,,,,,,,"02,5,+03048,5,99,9",,,"1,99,1,+03048,5,9",,,,"9,AGL   ,+99999,+99999","02,99,5,99,9,99,9,03048,1,99,9,99,9",,,"10244,5,09583,5",,,,,,"MET08802/20/23 16:48:01 METAR PAPT 210148Z 35005KT 25SM FEW100 M11/M11 A3025 RMK NO SPECI LAST","R01   M117TMP046R02   M117DPT046D01      0ADE726"
"70249026526","2023-02-21T17:46:00","7","62.0911","-152.7349","566.3","PUNTILLA, AK US","FM-15","PAPT ","V020","350,5,N,0015,5","22000,5,9,N","040234,5,N,5","-0180,C","-0180,C","99999,9",,,,,,,,,,"04,5,+03048,5,99,9",,,"2,99,1,+03048,5,9",,,,"9,AGL   ,+99999,+99999","04,99,5,99,9,99,9,03048,1,99,9,99,9",,,"10339,5,09672,5",,,,,,"MET08902/21/23 08:46:02 METAR PAPT 211746Z 35003KT 25SM SCT100 M18/M18 A3053 RMK NO SPECI FIRST","R01   M187TMP046R02   M187DPT046D01      0ADE726"
"70249026526","2023-02-21T19:45:00","7","62.0911","-152.7349","566.3","PUNTILLA, AK US","FM-15","PAPT ","V020","999,9,C,0000,5","03048,5,M,N","040234,5,N,5","-0160,C","-0160,C","99999,9",,,,,,,,,,"07,5,+03048,5,99,9",,,"3,99,1,+03048,5,9",,,,"9,AGL   ,+99999,+99999","99,99,9,99,9,99,9,03048,1,99,9,99,9",,,"10335,5,09669,5",,,,,,"MET08302/21/23 10:45:02 METAR PAPT 211945Z 00000KT 25SM BKN100 M16/M16 A3052 RMK NO SPECI","R01   M167TMP046R02   M167DPT046"
"70249026526","2023-02-21T21:45:00","7","62.0911","-152.7349","566.3","PUNTILLA, AK US","FM-15","PAPT ","V020","999,9,C,0000,5","03048,5,M,N","040234,5,N,5","-0050,C","-0050,C","99999,9",,,,,,,,,,"07,5,+03048,5,99,9",,,"3,99,1,+03048,5,9",,,,"9,AGL   ,+99999,+99999","99,99,9,99,9,99,9,03048,1,99,9,99,9",,,"10335,5,09669,5",,,,,,"MET08302/21/23 12:45:02 METAR PAPT 212145Z 00000KT 25SM BKN100 M05/M05 A3052 RMK NO SPECI","R01   M057TMP046R02   M057DPT046"
"70249026526","2023-02-21T23:45:00","7","62.0911","-152.7349","566.3","PUNTILLA, AK US","FM-15","PAPT ","V020","360,5,N,0015,5","03048,5,M,N","040234,5,N,5","-0070,C","-0070,C","99999,9","24,0000,9,1","0061,9,5,006100,9,9",,,,,,,,"07,5,+03048,5,99,9",,,"3,99,1,+03048,5,9",,,,"9,AGL   ,+99999,+99999","99,99,9,99,9,99,9,03048,1,99,9,99,9","240,M,-0050,1","240,N,-0183,1","10332,5,09666,5",,,,,,"MET10502/21/23 14:45:02 METAR PAPT 212345Z 36003KT 25SM BKN100 M07/M07 A3051 RMK NO SPECI 410501183 70000 4/024","Q01  00002PRCP24R01   M077TMP046R02   M077DPT046"
"70249026526","2023-02-22T01:45:00","7","62.0911","-152.7349","566.3","PUNTILLA, AK US","FM-15","PAPT ","V020","160,5,N,0031,5","03048,5,M,N","040234,5,N,5","-0080,C","-0080,C","99999,9",,,,,,,,,,"08,5,+03048,5,99,9",,,"4,99,1,+03048,5,9",,,,"9,AGL   ,+99999,+99999","99,99,9,99,9,99,9,03048,1,99,9,99,9",,,"10322,5,09656,5",,,,,,"MET08802/21/23 16:45:01 METAR PAPT 220145Z 16006KT 25SM OVC100 M08/M08 A3048 RMK NO SPECI LAST","R01   M087TMP046R02   M087DPT046"
"70249026526","2023-02-22T17:49:00","7","62.0911","-152.7349","566.3","PUNTILLA, AK US","FM-15","PAPT ","V020","999,9,C,0000,5","03048,5,M,N","040234,5,N,5","-0190,C","-0190,C","99999,9",,,,,,,,,,"08,5,+03048,5,99,9",,,"4,99,1,+03048,5,9",,,,"9,AGL   ,+99999,+99999","99,99,9,99,9,99,9,03048,1,99,9,99,9",,,"10281,5,09618,5",,,,,,"MET08902/22/23 08:49:02 METAR PAPT 221749Z 00000KT 25SM OVC100 M19/M19 A3036 RMK NO SPECI FIRST","R01   M197TMP046R02   M197DPT046"
"70249026526","2023-02-22T19:45:00","7","62.0911","-152.7349","566.3","PUNTILLA, AK US","FM-15","PAPT ","V020","350,5,N,0015,5","03048,5,M,N","040234,5,N,5","-0140,C","-0140,C","99999,9",,,,,,,,,,"08,5,+03048,5,99,9",,,"4,99,1,+03048,5,9",,,,"9,AGL   ,+99999,+99999","99,99,9,99,9,99,9,03048,1,99,9,99,9",,,"10284,5,09621,5",,,,,,"MET08302/22/23 10:45:02 METAR PAPT 221945Z 35003KT 25SM OVC100 M14/M14 A3037 RMK NO SPECI","R01   M147TMP046R02   M147DPT046"
"70249026526","2023-02-22T21:47:00","7","62.0911","-152.7349","566.3","PUNTILLA, AK US","FM-15","PAPT ","V020","170,5,N,0026,5","03048,5,M,N","040234,5,N,5","-0070,C","-0070,C","99999,9",,,,,,,,,,"08,5,+03048,5,99,9",,,"4,99,1,+03048,5,9",,,,"9,AGL   ,+99999,+99999","99,99,9,99,9,99,9,03048,1,99,9,99,9",,,"10278,5,09615,5",,,,,,"MET08302/22/23 12:47:02 METAR PAPT 222147Z 17005KT 25SM OVC100 M07/M07 A3035 RMK NO SPECI","R01   M077TMP046R02   M077DPT046"
"70249026526","2023-02-22T23:54:00","7","62.0911","-152.7349","566.3","PUNTILLA, AK US","FM-15","PAPT ","V020","170,5,N,0026,5","03048,5,M,N","040234,5,N,5","-0060,C","-0060,C","99999,9","24,0000,9,1","0061,9,5,006100,9,9",,,,,,,,"08,5,+03048,5,99,9",,,"4,99,1,+03048,5,9",,,,"9,AGL   ,+99999,+99999","99,99,9,99,9,99,9,03048,1,99,9,99,9","240,M,-0056,1","240,N,-0194,1","10268,5,09605,5",,,,,,"MET10502/22/23 14:54:02 METAR PAPT 222354Z 17005KT 25SM OVC100 M06/M06 A3032 RMK NO SPECI 410561194 70000 4/024","Q01  00002PRCP24R01   M067TMP046R02   M067DPT046"
"70249026526","2023-02-23T01:49:00","7","62.0911","-152.7349","566.3","PUNTILLA, AK US","FM-15","PAPT ","V020","170,5,N,0026,5","03048,5,M,N","040234,5,N,5","-0060,C","-0060,C","99999,9",,,,,,,,,,"08,5,+03048,5,99,9",,,"4,99,1,+03048,5,9",,,,"9,AGL   ,+99999,+99999","99,99,9,99,9,99,9,03048,1,99,9,99,9",,,"10257,5,09595,5",,,,,,"MET08802/22/23 16:49:01 METAR PAPT 230149Z 17005KT 25SM OVC100 M06/M06 A3029 RMK NO SPECI LAST","R01   M067TMP046R02   M067DPT046"
"70249026526","2023-02-23T17:45:00","7","62.0911","-152.7349","566.3","PUNTILLA, AK US","FM-15","PAPT ","V020","160,5,N,0026,5","00305,5,M,N","001609,7,N,5","-0070,C","-0070,C","99999,9",,,,,,"2,0,03,0,0,1,7",,"72,7",,"08,5,+00305,5,99,9",,,"4,99,1,+00305,5,9",,,,"9,AGL   ,+99999,+99999","99,99,9,99,9,99,9,00305,1,99,9,99,9",,,"10156,5,09499,5",,"73,7",,,,"MET09102/23/23 08:45:02 METAR PAPT 231745Z 16005KT 1SM SN OVC010 M07/M07 A2999 RMK NO SPECI FIRST","R01   1SM7VIS012R02   M077TMP046R03   M077DPT046R04    SN7AWW012R05SEERMK7MVW012R06    SN7MWW012"
"70249026526","2023-02-23T19:45:00","7","62.0911","-152.7349","566.3","PUNTILLA, AK US","FM-15","PAPT ","V020","160,5,N,0026,5","00914,5,M,N","004828,5,N,5","-0070,C","-0070,C","99999,9",,,,,,"1,0,03,0,0,1,5",,"71,5",,"08,5,+00914,5,99,9",,,"4,99,1,+00914,5,9",,,,"9,AGL   ,+99999,+99999","99,99,9,99,9,99,9,00914,1,99,9,99,9",,,"10152,5,09496,5",,"71,5",,,,"MET08602/23/23 10:45:02 METAR PAPT 231945Z 16005KT 3SM -SN OVC030 M07/M07 A2998 RMK NO SPECI","R01   M077TMP046R02   M077DPT046"
"70249026526","2023-02-23T21:49:00","7","62.0911","-152.7349","566.3","PUNTILLA, AK US","FM-15","PAPT ","V020","160,5,N,0021,5","03048,5,M,N","040234,5,N,5","-0040,C","-0040,C","99999,9",,,,,,,,,,"02,5,+00914,5,99,9","08,5,+03048,5,99,9",,"1,99,1,+00914,5,9","4,99,1,+03048,5,9",,,"9,AGL   ,+99999,+99999","99,99,9,99,9,99,9,00914,1,99,9,99,9",,,"10149,5,09493,5",,,,,,"MET09002/23/23 12:49:02 METAR PAPT 232149Z 16004KT 25SM FEW030 OVC100 M04/M04 A2997 RMK NO SPECI","R01   M047TMP046R02   M047DPT046"
"70249026526","2023-02-23T23:45:00","7","62.0911","-152.7349","566.3","PUNTILLA, AK US","FM-15","PAPT ","V020","160,5,N,0015,5","03048,5,M,N","040234,5,N,5","-0030,C","-0030,C","99999,9","24,0043,3,1","0066,9,5,006600,9,9",,,,,,,,"02,5,+00914,5,99,9","08,5,+03048,5,99,9",,"1,99,1,+00914,5,9","4,99,1,+03048,5,9",,,"9,AGL   ,+99999,+99999","99,99,9,99,9,99,9,00914,1,99,9,99,9","240,M,-0033,1","240,N,-0072,1","10142,5,09486,5",,,,,,"MET11902/23/23 14:45:02 METAR PAPT 232345Z 16003KT 25SM FEW030 OVC100 M03/M03 A2995 RMK NO SPECI 410331072 70017 931020 4/026","R01   M037TMP046R02   M037DPT046"
"70249026526","2023-02-24T01:45:00","7","62.0911","-152.7349","566.3","PUNTILLA, AK US","FM-15","PAPT ","V020","999,9,C,0000,5","03048,5,M,N","040234,5,N,5","-0060,C","-0060,C","99999,9",,,,,,,,,,"02,5,+00914,5,99,9","07,5,+03048,5,99,9",,"1,99,1,+00914,5,9","3,99,1,+03048,5,9",,,"9,AGL   ,+99999,+99999","99,99,9,99,9,99,9,00914,1,99,9,99,9",,,"10139,5,09483,5",,,,,,"MET09502/23/23 16:45:01 METAR PAPT 240145Z 00000KT 25SM FEW030 BKN100 M06/M06 A2994 RMK NO SPECI LAST","R01   M067TMP046R02   M067DPT046"
"70249026526","2023-02-24T08:59:00","O","62.0911","-152.7349","566.3","PUNTILLA, AK US","SOD  ","PAPT ","V020","999,9,9,9999,9","99999,9,9,9","999999,9,9,9","+9999,9","+9999,9","99999,9",,,"AU,18,SN  ,5",,,,,,,,,,,,,,,,,,,,,,,,,
"70249026526","2023-02-24T17:50:00","7","62.0911","-152.7349","566.3","PUNTILLA, AK US","FM-15","PAPT ","V020","999,9,C,0000,5","22000,5,9,N","040234,5,N,5","-0120,C","-0120,C","99999,9",,,,,,,,,,"02,5,+03048,5,99,9",,,"1,99,1,+03048,5,9",,,,"9,AGL   ,+99999,+99999","02,99,5,99,9,99,9,03048,1,99,9,99,9",,,"10095,5,09442,5",,,,,,"MET08902/24/23 08:50:02 METAR PAPT 241750Z 00000KT 25SM FEW100 M12/M12 A2981 RMK NO SPECI FIRST","R01   M127TMP046R02   M127DPT046D01      0ADE726"
"70249026526","2023-02-24T19:46:00","7","62.0911","-152.7349","566.3","PUNTILLA, AK US","FM-15","PAPT ","V020","360,5,N,0015,5","22000,5,9,N","040234,5,N,5","-0070,C","-0070,C","99999,9",,,,,,,,,,"02,5,+03048,5,99,9",,,"1,99,1,+03048,5,9",,,,"9,AGL   ,+99999,+99999","02,99,5,99,9,99,9,03048,1,99,9,99,9",,,"10088,5,09435,5",,,,,,"MET08302/24/23 10:46:02 METAR PAPT 241946Z 36003KT 25SM FEW100 M07/M07 A2979 RMK NO SPECI","R01   M077TMP046R02   M077DPT046D01      0ADE726"
"70249026526","2023-02-24T21:45:00","7","62.0911","-152.7349","566.3","PUNTILLA, AK US","FM-15","PAPT ","V020","160,5,N,0015,5","22000,7,9,N","040234,5,N,5","-0030,C","-0030,C","99999,9",,,,,,,,,,"00,7,+99999,9,99,9",,,"0,99,1,+99999,9,9",,,,,"00,99,1,99,9,99,9,99999,9,99,9,99,9",,,"10078,5,09425,5",,,,,,"MET08002/24/23 12:45:01 METAR PAPT 242145Z 16003KT 25SM SKC M03/M03 A2976 RMK NO SPECI","R01   SKC7SKY009R02   M037TMP046R03   M037DPT046R04   SKC7GAS009"
"70249026526","2023-02-24T23:48:00","7","62.0911","-152.7349","566.3","PUNTILLA, AK US","FM-15","PAPT ","V020","999,9,C,0000,5","22000,5,9,N","040234,5,N,5","-0020,C","-0020,C","99999,9","24,0000,9,1","0066,9,5,006600,9,9",,,,,,,,"02,5,+03048,5,99,9",,,"1,99,1,+03048,5,9",,,,"9,AGL   ,+99999,+99999","02,99,5,99,9,99,9,03048,1,99,9,99,9","240,M,-0022,1","240,N,-0117,1","10061,5,09409,5",,,,,,"MET10502/24/23 14:48:01 METAR PAPT 242348Z 00000KT 25SM FEW100 M02/M02 A2971 RMK NO SPECI 410221117 70000 4/026","Q01  00002PRCP24R01   M027TMP046R02   M027DPT046D01      0ADE726"
"70249026526","2023-02-25T01:45:00","7","62.0911","-152.7349","566.3","PUNTILLA, AK US","FM-15","PAPT ","V020","999,9,C,0000,5","03048,5,M,N","040234,5,N,5","-0040,C","-0040,C","99999,9",,,,,,,,,,"08,5,+03048,5,99,9",,,"4,99,1,+03048,5,9",,,,"9,AGL   ,+99999,+99999","99,99,9,99,9,99,9,03048,1,99,9,99,9",,,"10061,5,09409,5",,,,,,"MET08802/24/23 16:45:01 METAR PAPT 250145Z 00000KT 25SM OVC100 M04/M04 A2971 RMK NO SPECI LAST","R01   M047TMP046R02   M047DPT046"
"70249026526","2023-02-25T17:55:00","7","62.0911","-152.7349","566.3","PUNTILLA, AK US","FM-15","PAPT ","V020","360,5,N,0031,5","22000,7,9,N","040234,5,N,5","-0090,C","-0090,C","99999,9",,,,,,,,,,"00,7,+99999,9,99,9",,,"0,99,1,+99999,9,9",,,,,"00,99,1,99,9,99,9,99999,9,99,9,99,9",,,"10054,5,09403,5",,,,,,"MET08602/25/23 08:55:02 METAR PAPT 251755Z 36006KT 25SM SKC M09/M09 A2969 RMK NO SPECI FIRST","R01   SKC7SKY009R02   M097TMP046R03   M097DPT046R04   SKC7GAS009"
"70249026526","2023-02-25T19:45:00","7","62.0911","-152.7349","566.3","PUNTILLA, AK US","FM-15","PAPT ","V020","350,5,N,0026,5","22000,7,9,N","040234,5,N,5","-0080,C","-0080,C","99999,9",,,,,,,,,,"00,7,+99999,9,99,9",,,"0,99,1,+99999,9,9",,,,,"00,99,1,99,9,99,9,99999,9,99,9,99,9",,,"10047,5,09397,5",,,,,,"MET08002/25/23 10:45:02 METAR PAPT 251945Z 35005KT 25SM SKC M08/M08 A2967 RMK NO SPECI","R01   SKC7SKY009R02   M087TMP046R03   M087DPT046R04   SKC7GAS009"
"70249026526","2023-02-25T23:45:00","7","62.0911","-152.7349","566.3","PUNTILLA, AK US","FM-15","PAPT ","V020","360,5,N,0026,5","22000,5,9,N","040234,5,N,5","-0070,C","-0070,C","99999,9","24,0000,9,1","0066,9,5,006600,9,9",,,,,,,,"02,5,+03048,5,99,9",,,"1,99,1,+03048,5,9",,,,"9,AGL   ,+99999,+99999","02,99,5,99,9,99,9,03048,1,99,9,99,9","240,M,-0044,1","240,N,-0094,1","10030,5,09381,5",,,,,,"MET10502/25/23 14:45:02 METAR PAPT 252345Z 36005KT 25SM FEW100 M07/M07 A2962 RMK NO SPECI 410441094 70000 4/026","Q01  00002PRCP24R01   M077TMP046R02   M077DPT046D01      0ADE726"
"70249026526","2023-02-26T01:45:00","7","62.0911","-152.7349","566.3","PUNTILLA, AK US","FM-15","PAPT ","V020","020,5,N,0026,5","22000,5,9,N","040234,5,N,5","-0090,C","-0090,C","99999,9",,,,,,,,,,"02,5,+03048,5,99,9",,,"1,99,1,+03048,5,9",,,,"9,AGL   ,+99999,+99999","02,99,5,99,9,99,9,03048,1,99,9,99,9",,,"10017,5,09368,5",,,,,,"MET08802/25/23 16:45:01 METAR PAPT 260145Z 02005KT 25SM FEW100 M09/M09 A2958 RMK NO SPECI LAST","R01   M097TMP046R02   M097DPT046D01      0ADE726"
"70249026526","2023-02-26T17:51:00","7","62.0911","-152.7349","566.3","PUNTILLA, AK US","FM-15","PAPT ","V020","360,5,N,0026,5","22000,7,9,N","040234,5,N,5","-0160,C","-0160,C","99999,9",,,,,,,,,,"00,7,+99999,9,99,9",,,"0,99,1,+99999,9,9",,,,,"00,99,1,99,9,99,9,99999,9,99,9,99,9",,,"10024,5,09374,5",,,,,,"MET08602/26/23 08:51:02 METAR PAPT 261751Z 36005KT 25SM SKC M16/M16 A2960 RMK NO SPECI FIRST","R01   SKC7SKY009R02   M167TMP046R03   M167DPT046R04   SKC7GAS009"
"70249026526","2023-02-26T19:51:00","7","62.0911","-152.7349","566.3","PUNTILLA, AK US","FM-15","PAPT ","V020","360,5,N,0026,5","22000,7,9,N","040234,5,N,5","-0140,C","-0140,C","99999,9",,,,,,,,,,"00,7,+99999,9,99,9",,,"0,99,1,+99999,9,9",,,,,"00,99,1,99,9,99,9,99999,9,99,9,99,9",,,"10030,5,09381,5",,,,,,"MET08002/26/23 10:51:02 METAR PAPT 261951Z 36005KT 25SM SKC M14/M14 A2962 RMK NO SPECI","R01   SKC7SKY009R02   M147TMP046R03   M147DPT046R04   SKC7GAS009"
"70249026526","2023-02-26T21:45:00","7","62.0911","-152.7349","566.3","PUNTILLA, AK US","FM-15","PAPT ","V020","360,5,N,0031,5","22000,7,9,N","040234,5,N,5","-0130,C","-0130,C","99999,9",,,,,,,,,,"00,7,+99999,9,99,9",,,"0,99,1,+99999,9,9",,,,,"00,99,1,99,9,99,9,99999,9,99,9,99,9",,,"10034,5,09384,5",,,,,,"MET08002/26/23 12:45:02 METAR PAPT 262145Z 36006KT 25SM SKC M13/M13 A2963 RMK NO SPECI","R01   SKC7SKY009R02   M137TMP046R03   M137DPT046R04   SKC7GAS009"
"70249026526","2023-02-26T23:45:00","7","62.0911","-152.7349","566.3","PUNTILLA, AK US","FM-15","PAPT ","V020","360,5,N,0031,5","22000,5,9,N","040234,5,N,5","-0110,C","-0110,C","99999,9","24,0000,9,1","0066,9,5,006600,9,9",,,,,,,,"02,5,+03048,5,99,9",,,"1,99,1,+03048,5,9",,,,"9,AGL   ,+99999,+99999","02,99,5,99,9,99,9,03048,1,99,9,99,9","240,M,-0089,1","240,N,-0161,1","10030,5,09381,5",,,,,,"MET10502/26/23 14:45:02 METAR PAPT 262345Z 36006KT 25SM FEW100 M11/M11 A2962 RMK NO SPECI 410891161 70000 4/026","Q01  00002PRCP24R01   M117TMP046R02   M117DPT046D01      0ADE726"
"70249026526","2023-02-27T01:49:00","7","62.0911","-152.7349","566.3","PUNTILLA, AK US","FM-15","PAPT ","V020","360,5,N,0026,5","22000,5,9,N","040234,5,N,5","-0140,C","-0140,C","99999,9",,,,,,,,,,"02,5,+03048,5,99,9",,,"1,99,1,+03048,5,9",,,,"9,AGL   ,+99999,+99999","02,99,5,99,9,99,9,03048,1,99,9,99,9",,,"10027,5,09377,5",,,,,,"MET08802/26/23 16:49:01 METAR PAPT 270149Z 36005KT 25SM FEW100 M14/M14 A2961 RMK NO SPECI LAST","R01   M147TMP046R02   M147DPT046D01      0ADE726"
"70249026526","2023-02-27T17:45:00","7","62.0911","-152.7349","566.3","PUNTILLA, AK US","FM-15","PAPT ","V020","999,9,C,0000,5","22000,7,9,N","040234,5,N,5","-0220,C","-0220,C","99999,9",,,,,,,,,,"00,7,+99999,9,99,9",,,"0,99,1,+99999,9,9",,,,,"00,99,1,99,9,99,9,99999,9,99,9,99,9",,,"10058,5,09406,5",,,,,,"MET08602/27/23 08:45:02 METAR PAPT 271745Z 00000KT 25SM SKC M22/M22 A2970 RMK NO SPECI FIRST","R01   SKC7SKY009R02   M227TMP046R03   M227DPT046R04   SKC7GAS009"
"70249026526","2023-02-27T19:46:00","7","62.0911","-152.7349","566.3","PUNTILLA, AK US","FM-15","PAPT ","V020","360,5,N,0021,5","22000,7,9,N","040234,5,N,5","-0180,C","-0180,C","99999,9",,,,,,,,,,"00,7,+99999,9,99,9",,,"0,99,1,+99999,9,9",,,,,"00,99,1,99,9,99,9,99999,9,99,9,99,9",,,"10064,5,09413,5",,,,,,"MET08002/27/23 10:46:02 METAR PAPT 271946Z 36004KT 25SM SKC M18/M18 A2972 RMK NO SPECI","R01   SKC7SKY009R02   M187TMP046R03   M187DPT046R04   SKC7GAS009"
"70249026526","2023-02-27T21:45:00","7","62.0911","-152.7349","566.3","PUNTILLA, AK US","FM-15","PAPT ","V020","360,5,N,0021,5","22000,7,9,N","040234,5,N,5","-0150,C","-0150,C","99999,9",,,,,,,,,,"00,7,+99999,9,99,9",,,"0,99,1,+99999,9,9",,,,,"00,99,1,99,9,99,9,99999,9,99,9,99,9",,,"10061,5,09409,5",,,,,,"MET08002/27/23 12:45:02 METAR PAPT 272145Z 36004KT 25SM SKC M15/M15 A2971 RMK NO SPECI","R01   SKC7SKY009R02   M157TMP046R03   M157DPT046R04   SKC7GAS009"
"70249026526","2023-02-27T23:50:00","4","62.0911","-152.7349","566.3","PUNTILLA, AK US","FM-15","99999","V020","360,1,N,0021,1","22000,1,9,N","040234,1,9,9","-0130,1","-0130,1","99999,9","24,0000,9,1","0066,3,1,006600,9,9",,,,,,,,,,,,,,,,"00,99,1,99,9,99,9,99999,9,99,9,99,9","240,M,-0128,1","240,N,-0217,1","10061,1,99999,9",,,,,,"MET085METAR PAPT 272350Z 36004KT 25SM SKC M13/M13 A2971 RMK NO SPECI 411281217 70000 4/026=","Q01  00002PRCP24"
"70249026526","2023-02-28T01:45:00","7","62.0911","-152.7349","566.3","PUNTILLA, AK US","FM-15","PAPT ","V020","360,5,N,0015,5","22000,7,9,N","040234,5,N,5","-0210,C","-0210,C","99999,9",,,,,,,,,,"00,7,+99999,9,99,9",,,"0,99,1,+99999,9,9",,,,,"00,99,1,99,9,99,9,99999,9,99,9,99,9",,,"10054,5,09403,5",,,,,,"MET08502/27/23 16:45:01 METAR PAPT 280145Z 36003KT 25SM SKC M21/M21 A2969 RMK NO SPECI LAST","R01   SKC7SKY009R02   M217TMP046R03   M217DPT046R04   SKC7GAS009"
"70249026526","2023-02-28T17:50:00","7","62.0911","-152.7349","566.3","PUNTILLA, AK US","FM-15","PAPT ","V020","180,5,N,0031,5","00305,5,M,N","001609,7,N,5","-0160,C","-0160,C","99999,9",,,,,,"2,0,03,0,0,1,7",,"72,7",,"08,5,+00305,5,99,9",,,"4,99,1,+00305,5,9",,,,"9,AGL   ,+99999,+99999","99,99,9,99,9,99,9,00305,1,99,9,99,9",,,"09953,5,09307,5",,"73,7",,,,"MET09102/28/23 08:50:02 METAR PAPT 281750Z 18006KT 1SM SN OVC010 M16/M16 A2939 RMK NO SPECI FIRST","R01   1SM7VIS012R02   M167TMP046R03   M167DPT046R04    SN7AWW012R05SEERMK7MVW012R06    SN7MWW012"
"70249026526","2023-02-28T19:46:00","7","62.0911","-152.7349","566.3","PUNTILLA, AK US","FM-15","PAPT ","V020","180,5,N,0041,5","00305,5,M,N","001609,7,N,5","-0160,C","-0160,C","99999,9",,,,,,"2,0,03,0,0,1,7",,"72,7",,"08,5,+00305,5,99,9",,,"4,99,1,+00305,5,9",,,,"9,AGL   ,+99999,+99999","99,99,9,99,9,99,9,00305,1,99,9,99,9",,,"09936,5,09291,5",,"73,7",,,,"MET08502/28/23 10:46:02 METAR PAPT 281946Z 18008KT 1SM SN OVC010 M16/M16 A2934 RMK NO SPECI","R01   1SM7VIS012R02   M167TMP046R03   M167DPT046R04    SN7AWW012R05SEERMK7MVW012R06    SN7MWW012"
"70249026526","2023-02-28T21:47:00","7","62.0911","-152.7349","566.3","PUNTILLA, AK US","FM-15","PAPT ","V020","180,5,N,0051,5","03048,5,M,N","040234,5,N,5","-0140,C","-0140,C","99999,9",,,,,,,,,,"04,5,+01219,5,99,9","08,5,+03048,5,99,9",,"2,99,1,+01219,5,9","4,99,1,+03048,5,9",,,"9,AGL   ,+99999,+99999","99,99,9,99,9,99,9,01219,1,99,9,99,9",,,"09932,5,09288,5",,,,,,"MET09002/28/23 12:47:02 METAR PAPT 282147Z 18010KT 25SM SCT040 OVC100 M14/M14 A2933 RMK NO SPECI","R01   M147TMP046R02   M147DPT046"
"70249026526","2023-02-28T23:48:00","4","62.0911","-152.7349","566.3","PUNTILLA, AK US","FM-15","99999","V020","170,1,N,0041,1","00762,1,9,N","001609,1,9,9","-0130,1","-0130,1","99999,9","24,0027,3,1","0069,3,1,006860,9,9",,,,,,,,,,,"4,99,1,+00762,1,9",,,,"9,AGL   ,+99999,+99999","99,99,9,99,9,99,9,00762,1,99,9,99,9","240,M,-0133,1","240,N,-0206,1","09919,1,99999,9",,"73,1",,,,"MET097METAR PAPT 282348Z 17008KT 1SM SN OVC025 M13/M13 A2929 RMK NO SPECI 411331206 70011 931020 4/027=",
"70249026526","2023-03-01T01:47:00","4","62.0911","-152.7349","566.3","PUNTILLA, AK US","FM-15","99999","V020","170,1,N,0021,1","00914,1,9,N","004828,1,9,9","-0130,1","-0130,1","99999,9",,,,,,,,,,,,,"4,99,1,+00914,1,9",,,,"9,AGL   ,+99999,+99999","99,99,9,99,9,99,9,00914,1,99,9,99,9",,,"09902,1,99999,9",,"73,1",,,,"MET073METAR PAPT 010147Z 17004KT 3SM SN OVC030 M13/M13 A2924 RMK NO SPECI LAST=",
"70249026526","2023-03-01T17:46:00","7","62.0911","-152.7349","566.3","PUNTILLA, AK US","FM-15","PAPT ","V020","360,5,N,0015,5","03048,5,M,N","040234,5,N,5","-0180,C","-0180,C","99999,9",,,,,,,,,,"07,5,+03048,5,99,9",,,"3,99,1,+03048,5,9",,,,"9,AGL   ,+99999,+99999","99,99,9,99,9,99,9,03048,1,99,9,99,9",,,"09753,5,09118,5",,,,,,"MET08903/01/23 08:46:02 METAR PAPT 011746Z 36003KT 25SM BKN100 M18/M18 A2880 RMK NO SPECI FIRST","R01   M187TMP046R02   M187DPT046"
"70249026526","2023-03-01T19:46:00","7","62.0911","-152.7349","566.3","PUNTILLA, AK US","FM-15","PAPT ","V020","999,9,C,0000,5","03048,5,M,N","040234,5,N,5","-0130,C","-0130,C","99999,9",,,,,,,,,,"07,5,+03048,5,99,9",,,"3,99,1,+03048,5,9",,,,"9,AGL   ,+99999,+99999","99,99,9,99,9,99,9,03048,1,99,9,99,9",,,"09739,5,09105,5",,,,,,"MET08303/01/23 10:46:02 METAR PAPT 011946Z 00000KT 25SM BKN100 M13/M13 A2876 RMK NO SPECI","R01   M137TMP046R02   M137DPT046"
"70249026526","2023-03-01T21:45:00","7","62.0911","-152.7349","566.3","PUNTILLA, AK US","FM-15","PAPT ","V020","360,5,N,0031,5","03048,7,M,N","040234,5,N,5","-0080,C","-0080,C","99999,9",,,,,,,,,,"07,7,+03048,7,99,9",,,"3,99,1,+03048,7,9",,,,,,,,"09736,5,09102,5",,,,,,"MET09003/01/23 12:45:02 METAR PAPT 012145Z 36006KT 25SM SCTO50 BKN100 M08/M08 A2875 RMK NO SPECI","R01SCTO507SKY009R02   M087TMP046R03   M087DPT046R04SCTO507GAS009D01      0ADE693D02      0ADE539"
"70249026526","2023-03-02T17:50:00","7","62.0911","-152.7349","566.3","PUNTILLA, AK US","FM-15","PAPT ","V020","050,5,N,0036,5","02134,5,M,N","040234,5,N,5","-0110,C","-0110,C","99999,9",,,,,,,,,,"07,5,+02134,5,99,9",,,"3,99,1,+02134,5,9",,,,"9,AGL   ,+99999,+99999","99,99,9,99,9,99,9,02134,1,99,9,99,9",,,"09898,5,09255,5",,,,,,"MET08903/02/23 08:50:01 METAR PAPT 021750Z 05007KT 25SM BKN070 M11/M11 A2923 RMK NO SPECI FIRST","R01   M117TMP046R02   M117DPT046"
"70249026526","2023-03-02T21:47:00","6","62.0911","-152.7349","566.3","PUNTILLA, AK US","FM-15","PAPT ","V020","010,5,N,0031,5","03048,5,M,N","040234,5,N,5","-0110,C","-0110,C","99999,9",,,,,,,,,,"07,5,+03048,5,99,9",,,"3,99,1,+03048,5,9",,,,,,,,"09922,5,09278,5",,,,,"0077,5","MET08603/02/23 12:47:02 METAR PAPT 022147Z 01006G15KT 25SM BKN100 M11/M11 A2930 RMK NO SPECI","R01   M117TMP046R02   M117DPT046"
"70249026526","2023-03-02T23:46:00","7","62.0911","-152.7349","566.3","PUNTILLA, AK US","FM-15","PAPT ","V020","020,5,N,0031,5","22000,5,9,N","040234,5,N,5","-0080,C","-0080,C","99999,9","24,0000,9,1","0058,9,5,005840,9,9",,,,,,,,"02,5,+03048,5,99,9",,,"1,99,1,+03048,5,9",,,,"9,AGL   ,+99999,+99999","02,99,5,99,9,99,9,03048,1,99,9,99,9","240,M,-0078,1","240,N,-0106,1","09929,5,09284,5",,,,,"0062,7","MET11503/02/23 14:46:02 METAR PAPT 022346Z 02006G12KT 25SM FEW100 M08/M08 A2932 RMK NO SPECI 410781106 70000 931000 4/023","Q01  00002PRCP24R01   M087TMP046R02   M087DPT046R03 G12KT7OCW039D01      0ADE726"
"70249026526","2023-03-03T01:51:00","7","62.0911","-152.7349","566.3","PUNTILLA, AK US","FM-15","PAPT ","V020","020,5,N,0036,5","22000,5,9,N","040234,5,N,5","-0110,C","-0110,C","99999,9",,,,,,,,,,"02,5,+03048,5,99,9",,,"1,99,1,+03048,5,9",,,,"9,AGL   ,+99999,+99999","02,99,5,99,9,99,9,03048,1,99,9,99,9",,,"09939,5,09294,5",,,,,"0088,5","MET09103/02/23 16:51:01 METAR PAPT 030151Z 02007G17KT 25SM FEW100 M11/M11 A2935 RMK NO SPECI LAST","R01   M117TMP046R02   M117DPT046D01      0ADE726"
"70249026526","2023-03-03T19:49:00","7","62.0911","-152.7349","566.3","PUNTILLA, AK US","FM-15","PAPT ","V020","350,5,N,0031,5","22000,5,9,N","040234,7,N,5","-0140,C","-0140,C","99999,9",,,,,,"2,5,03,0,0,1,5",,"27,5",,"02,5,+03048,5,99,9",,,"1,99,1,+03048,5,9",,,,"9,AGL   ,+99999,+99999","02,99,5,99,9,99,9,03048,1,99,9,99,9",,,"10108,5,09454,5",,"38,1",,,"0124,5","MET09103/03/23 10:49:01 METAR PAPT 031949Z 35006G24KT 25SM BLSN FEW100 M14/M14 A2985 RMK NO SPECI","R01  25SM7VIS011R02   M147TMP046R03   M147DPT046D01      0ADE726"
"70249026526","2023-03-03T21:59:00","7","62.0911","-152.7349","566.3","PUNTILLA, AK US","FM-15","PAPT ","V020","350,5,N,0031,5","22000,5,9,N","040234,7,N,5","-0130,C","-0130,C","99999,9",,,,,,"2,5,03,0,0,1,5",,"27,5",,"02,5,+03048,5,99,9",,,"1,99,1,+03048,5,9",,,,"9,AGL   ,+99999,+99999","02,99,5,99,9,99,9,03048,1,99,9,99,9",,,"10129,5,09474,5",,"38,1",,,"0093,5","MET09103/03/23 12:59:01 METAR PAPT 032159Z 35006G18KT 25SM BLSN FEW100 M13/M13 A2991 RMK NO SPECI","R01  25SM7VIS011R02   M137TMP046R03   M137DPT046D01      0ADE726"
"70249026526","2023-03-03T23:42:00","7","62.0911","-152.7349","566.3","PUNTILLA, AK US","FM-15","PAPT ","V020","350,5,N,0021,5","22000,5,9,N","040234,7,N,5","-0130,C","-0130,C","99999,9","24,0000,9,1","0058,9,5,005840,9,9",,,,"2,5,03,0,0,1,5",,"27,5",,"02,5,+03048,5,99,9",,,"1,99,1,+03048,5,9",,,,"9,AGL   ,+99999,+99999","02,99,5,99,9,99,9,03048,1,99,9,99,9","240,M,-0106,1","240,N,-0144,1","10139,5,09483,5",,"38,1",,,"0103,5","MET12003/03/23 14:42:01 METAR PAPT 032342Z 35004G20KT 25SM BLSN FEW100 M13/M13 A2994 RMK NO SPECI 411061144 70000 931000 4/023","Q01  00002PRCP24R01  25SM7VIS011R02   M137TMP046R03   M137DPT046D01      0ADE726"
"70249026526","2023-03-04T01:59:00","7","62.0911","-152.7349","566.3","PUNTILLA, AK US","FM-15","PAPT ","V020","350,5,N,0031,5","22000,5,9,N","040234,7,N,5","-0140,C","-0140,C","99999,9",,,,,,"2,5,03,0,0,1,5",,"27,5",,"02,5,+03048,5,99,9",,,"1,99,1,+03048,5,9",,,,"9,AGL   ,+99999,+99999","02,99,5,99,9,99,9,03048,1,99,9,99,9",,,"10166,5,09509,5",,"38,1",,,,"MET09303/03/23 16:59:01 METAR PAPT 040159Z 35006KT 25SM BLSN FEW100 M14/M14 A3002 RMK NO SPECI LAST","R01  25SM7VIS011R02   M147TMP046R03   M147DPT046D01      0ADE726"
"70249026526","2023-03-04T08:59:00","O","62.0911","-152.7349","566.3","PUNTILLA, AK US","SOD  ","PAPT ","V020","999,9,9,9999,9","99999,9,9,9","999999,9,9,9","+9999,9","+9999,9","99999,9",,,"AU,09,BLSN,5",,,,,,,,,,,,,,,,,,,,,,,,,
"70249026526","2023-03-04T17:45:00","7","62.0911","-152.7349","566.3","PUNTILLA, AK US","FM-15","PAPT ","V020","350,5,N,0026,5","22000,5,9,N","040234,5,N,5","-0210,C","-0210,C","99999,9",,,,,,,,,,"02,5,+03048,5,99,9",,,"1,99,1,+03048,5,9",,,,"9,AGL   ,+99999,+99999","02,99,5,99,9,99,9,03048,1,99,9,99,9",,,"10261,5,09599,5",,,,,,"MET08903/04/23 08:45:02 METAR PAPT 041745Z 35005KT 25SM FEW100 M21/M21 A3030 RMK NO SPECI FIRST","R01   M217TMP046R02   M217DPT046D01      0ADE726"
"70249026526","2023-03-04T19:49:00","7","62.0911","-152.7349","566.3","PUNTILLA, AK US","FM-15","PAPT ","V020","010,5,N,0021,5","22000,5,9,N","040234,5,N,5","-0140,C","-0140,C","99999,9",,,,,,,,,,"04,5,+03048,5,99,9",,,"2,99,1,+03048,5,9",,,,"9,AGL   ,+99999,+99999","04,99,5,99,9,99,9,03048,1,99,9,99,9",,,"10257,5,09595,5",,,,,,"MET08303/04/23 10:49:02 METAR PAPT 041949Z 01004KT 25SM SCT100 M14/M14 A3029 RMK NO SPECI","R01   M147TMP046R02   M147DPT046D01      0ADE726"
"70249026526","2023-03-04T21:46:00","7","62.0911","-152.7349","566.3","PUNTILLA, AK US","FM-15","PAPT ","V020","360,5,N,0015,5","99999,9,9,N","040234,5,N,5","-0090,C","-0090,C","99999,9",,,,,,,,,,,,,"3,99,1,+99999,9,9",,,,"9,AGL   ,+99999,+99999",,,,"10261,5,09599,5",,,,,,"MET08203/04/23 12:46:02 METAR PAPT 042146Z 36003KT 25SM BKN08 M09/M09 A3030 RMK NO SPECI","R01   M097TMP046R02   M097DPT046"
"70249026526","2023-03-04T23:56:00","7","62.0911","-152.7349","566.3","PUNTILLA, AK US","FM-15","PAPT ","V020","350,5,N,0015,5","22000,5,9,N","040234,5,N,5","-0070,C","-0070,C","99999,9","24,0000,9,1","0058,9,5,005840,9,9",,,,,,,,"04,5,+02438,5,99,9",,,"2,99,1,+02438,5,9",,,,"9,AGL   ,+99999,+99999","04,99,5,99,9,99,9,02438,1,99,9,99,9","240,M,-0072,1","240,N,-0211,1","10261,5,09599,5",,,,,,"MET11203/04/23 14:56:02 METAR PAPT 042356Z 35003KT 25SM SCT080 M07/M07 A3030 RMK NO SPECI 410721211 70000 931000 4/023","Q01  00002PRCP24R01   M077TMP046R02   M077DPT046D01      0ADE726"
"70249026526","2023-03-05T17:59:00","7","62.0911","-152.7349","566.3","PUNTILLA, AK US","FM-15","PAPT ","V020","360,5,N,0015,5","22000,5,9,N","040234,5,N,5","-0180,C","-0180,C","99999,9",,,,,,,,,,"02,5,+03048,5,99,9",,,"1,99,1,+03048,5,9",,,,"9,AGL   ,+99999,+99999","02,99,5,99,9,99,9,03048,1,99,9,99,9",,,"10257,5,09595,5",,,,,,"MET08903/05/23 08:59:02 METAR PAPT 051759Z 36003KT 25SM FEW100 M18/M18 A3029 RMK NO SPECI FIRST","R01   M187TMP046R02   M187DPT046D01      0ADE726"
"70249026526","2023-03-05T19:49:00","7","62.0911","-152.7349","566.3","PUNTILLA, AK US","FM-15","PAPT ","V020","360,5,N,0015,5","22000,5,9,N","040234,5,N,5","-0100,C","-0100,C","99999,9",,,,,,,,,,"04,5,+03048,5,99,9",,,"2,99,1,+03048,5,9",,,,"9,AGL   ,+99999,+99999","04,99,5,99,9,99,9,03048,1,99,9,99,9",,,"10257,5,09595,5",,,,,,"MET08303/05/23 10:49:02 METAR PAPT 051949Z 36003KT 25SM SCT100 M10/M10 A3029 RMK NO SPECI","R01   M107TMP046R02   M107DPT046D01      0ADE726"
"70249026526","2023-03-05T21:56:00","7","62.0911","-152.7349","566.3","PUNTILLA, AK US","FM-15","PAPT ","V020","999,9,9,9999,9","03048,5,M,N","040234,5,N,5","-0010,C","-0010,C","99999,9",,,,,,,,,,"07,5,+03048,5,99,9",,,"3,99,1,+03048,5,9",,,,,,,,"10251,5,09589,5",,,,,,"MET08303/05/23 12:56:02 METAR PAPT 052156Z 0000PKT 25SM BKN100 M01/M01 A3027 RMK NO SPECI","R01    0P7WNS036R02   M017TMP046R03   M017DPT046D01      0ADE693D02      0ADE539"
"70249026526","2023-03-07T17:57:00","7","62.0911","-152.7349","566.3","PUNTILLA, AK US","FM-15","PAPT ","V020","350,5,N,0015,5","22000,5,9,N","040234,5,N,5","-0110,C","-0110,C","99999,9",,,,,,,,,,"02,5,+03048,5,99,9",,,"1,99,1,+03048,5,9",,,,"9,AGL   ,+99999,+99999","02,99,5,99,9,99,9,03048,1,99,9,99,9",,,"10230,5,09570,5",,,,,,"MET08903/07/23 08:57:01 METAR PAPT 071757Z 35003KT 25SM FEW100 M11/M11 A3021 RMK NO SPECI FIRST","R01   M117TMP046R02   M117DPT046D01      0ADE726"
"70249026526","2023-03-07T19:59:00","7","62.0911","-152.7349","566.3","PUNTILLA, AK US","FM-15","PAPT ","V020","010,5,N,0021,5","22000,5,9,N","040234,5,N,5","-0010,C","-0010,C","99999,9",,,,,,,,,,"02,5,+03048,5,99,9",,,"1,99,1,+03048,5,9",,,,"9,AGL   ,+99999,+99999","02,99,5,99,9,99,9,03048,1,99,9,99,9",,,"10230,5,09570,5",,,,,,"MET08303/07/23 10:59:02 METAR PAPT 071959Z 01004KT 25SM FEW100 M01/M01 A3021 RMK NO SPECI","R01   M017TMP046R02   M017DPT046D01      0ADE726"
"70249026526","2023-03-07T23:51:00","7","62.0911","-152.7349","566.3","PUNTILLA, AK US","FM-15","PAPT ","V020","040,5,N,0021,5","22000,5,9,N","040234,5,N,5","+0060,C","+0060,C","99999,9","24,0000,9,1","0051,9,5,005080,9,9",,,,,,,,"04,5,+03048,5,99,9",,,"2,99,1,+03048,5,9",,,,"9,AGL   ,+99999,+99999","04,99,5,99,9,99,9,03048,1,99,9,99,9","240,M,+0056,1","240,N,-0106,1","10220,5,09560,5",,,,,,"MET11003/07/23 14:51:02 METAR PAPT 072351Z 04004KT 25SM SCT100 06/06 A3018 RMK NO SPECI 400561106 70000 931000 4/020","Q01  00002PRCP24R01    067TMP046R02    067DPT046D01      0ADE726"
"70249026526","2023-03-08T02:00:00","7","62.0911","-152.7349","566.3","PUNTILLA, AK US","FM-15","PAPT ","V020","360,5,N,0021,5","22000,5,9,N","040234,5,N,5","+0020,C","+0020,C","99999,9",,,,,,,,,,"02,5,+02438,5,99,9","04,5,+03048,5,99,9",,"1,99,1,+02438,5,9","2,99,1,+03048,5,9",,,"9,AGL   ,+99999,+99999","04,99,5,99,9,99,9,02438,1,99,9,99,9",,,"10220,5,09560,5",,,,,,"MET09303/07/23 17:00:01 METAR PAPT 080200Z 36004KT 25SM FEW080 SCT100 02/02 A3018 RMK NO SPECI LAST","R01    027TMP046R02    027DPT046D01      0ADE726"
"70249026526","2023-03-08T17:59:00","7","62.0911","-152.7349","566.3","PUNTILLA, AK US","FM-15","PAPT ","V020","999,9,C,0000,5","22000,5,9,N","040234,5,N,5","-0040,C","-0040,C","99999,9",,,,,,,,,,"02,5,+03048,5,99,9",,,"1,99,1,+03048,5,9",,,,"9,AGL   ,+99999,+99999","02,99,5,99,9,99,9,03048,1,99,9,99,9",,,"10196,5,09538,5",,,,,,"MET08903/08/23 08:59:01 METAR PAPT 081759Z 00000KT 25SM FEW100 M04/M04 A3011 RMK NO SPECI FIRST","R01   M047TMP046R02   M047DPT046D01      0ADE726"
"70249026526","2023-03-08T19:45:00","7","62.0911","-152.7349","566.3","PUNTILLA, AK US","FM-15","PAPT ","V020","190,5,N,0021,5","22000,5,9,N","040234,5,N,5","+0010,C","+0010,C","99999,9",,,,,,,,,,"02,5,+03048,5,99,9",,,"1,99,1,+03048,5,9",,,,"9,AGL   ,+99999,+99999","02,99,5,99,9,99,9,03048,1,99,9,99,9",,,"10196,5,09538,5",,,,,,"MET08103/08/23 10:45:02 METAR PAPT 081945Z 19004KT 25SM FEW100 01/01 A3011 RMK NO SPECI","R01    017TMP046R02    017DPT046D01      0ADE726"
"70249026526","2023-03-08T21:55:00","7","62.0911","-152.7349","566.3","PUNTILLA, AK US","FM-15","PAPT ","V020","999,9,C,0000,5","22000,5,9,N","040234,5,N,5","+0090,C","+0080,C","99999,9",,,,,,,,,,"02,5,+02438,5,99,9",,,"1,99,1,+02438,5,9",,,,"9,AGL   ,+99999,+99999","02,99,5,99,9,99,9,02438,1,99,9,99,9",,,"10193,5,09535,5",,,,,,"MET08103/08/23 12:55:02 METAR PAPT 082155Z 00000KT 25SM FEW080 09/08 A3010 RMK NO SPECI","R01    097TMP046R02    087DPT046D01      0ADE726"
"70249026526","2023-03-09T17:48:00","7","62.0911","-152.7349","566.3","PUNTILLA, AK US","FM-15","PAPT ","V020","160,5,N,0031,5","22000,5,9,N","040234,5,N,5","-0020,C","-0020,C","99999,9",,,,,,,,,,"02,5,+02438,5,99,9",,,"1,99,1,+02438,5,9",,,,"9,AGL   ,+99999,+99999","02,99,5,99,9,99,9,02438,1,99,9,99,9",,,"10251,5,09589,5",,,,,,"MET08903/09/23 08:48:02 METAR PAPT 091748Z 16006KT 25SM FEW080 M02/M02 A3027 RMK NO SPECI FIRST","R01   M027TMP046R02   M027DPT046D01      0ADE726"
"70249026526","2023-03-09T19:47:00","7","62.0911","-152.7349","566.3","PUNTILLA, AK US","FM-15","PAPT ","V020","360,5,V,0041,5","22000,5,9,N","040234,5,N,5","+0010,C","+0010,C","99999,9",,,,,,,,,,"02,5,+00762,5,99,9",,,"1,99,1,+00762,5,9",,,,"9,AGL   ,+99999,+99999","02,99,5,99,9,99,9,00762,1,99,9,99,9",,,"10247,5,09586,5",,,,,,"MET08103/09/23 10:47:02 METAR PAPT 091947Z 36008KT 25SM FEW025 01/01 A3026 RMK NO SPECI","R01    017TMP046R02    017DPT046D01      0ADE726"
"70249026526","2023-03-09T21:50:00","7","62.0911","-152.7349","566.3","PUNTILLA, AK US","FM-15","PAPT ","V020","020,5,N,0062,5","22000,7,9,N","040234,5,N,5","+0010,C","+0010,C","99999,9",,,,,,,,,,"00,7,+99999,9,99,9",,,"0,99,1,+99999,9,9",,,,,"00,99,1,99,9,99,9,99999,9,99,9,99,9",,,"10251,5,09589,5",,,,,,"MET07803/09/23 12:50:02 METAR PAPT 092150Z 02012KT 25SM SKC 01/01 A3027 RMK NO SPECI","R01   SKC7SKY009R02    017TMP046R03    017DPT046R04   SKC7GAS009"
"70249026526","2023-03-10T01:47:00","7","62.0911","-152.7349","566.3","PUNTILLA, AK US","FM-15","PAPT ","V020","010,5,N,0026,5","22000,7,9,N","040234,5,N,5","-0010,C","-0010,C","99999,9",,,,,,,,,,"00,7,+99999,9,99,9",,,"0,99,1,+99999,9,9",,,,,"00,99,1,99,9,99,9,99999,9,99,9,99,9",,,"10244,5,09583,5",,,,,,"MET08503/09/23 16:47:01 METAR PAPT 100147Z 01005KT 25SM SKC M01/M01 A3025 RMK NO SPECI LAST","R01   SKC7SKY009R02   M017TMP046R03   M017DPT046R04   SKC7GAS009"
"70249026526","2023-03-10T17:57:00","7","62.0911","-152.7349","566.3","PUNTILLA, AK US","FM-15","PAPT ","V020","200,5,N,0036,5","22000,7,9,N","040234,5,N,5","-0040,C","-0040,C","99999,9",,,,,,,,,,"00,7,+99999,9,99,9",,,"0,99,1,+99999,9,9",,,,,"00,99,1,99,9,99,9,99999,9,99,9,99,9",,,"10217,5,09557,5",,,,,,"MET08603/10/23 08:57:02 METAR PAPT 101757Z 20007KT 25SM SKC M04/M04 A3017 RMK NO SPECI FIRST","R01   SKC7SKY009R02   M047TMP046R03   M047DPT046R04   SKC7GAS009"
"70249026526","2023-03-10T19:56:00","7","62.0911","-152.7349","566.3","PUNTILLA, AK US","FM-15","PAPT ","V020","010,5,N,0057,5","22000,7,9,N","040234,5,N,5","-0020,C","-0020,C","99999,9",,,,,,,,,,"00,7,+99999,9,99,9",,,"0,99,1,+99999,9,9",,,,,"00,99,1,99,9,99,9,99999,9,99,9,99,9",,,"10227,5,09567,5",,,,,,"MET08003/10/23 10:56:02 METAR PAPT 101956Z 01011KT 25SM SKC M02/M02 A3020 RMK NO SPECI","R01   SKC7SKY009R02   M027TMP046R03   M027DPT046R04   SKC7GAS009"
"70249026526","2023-03-10T21:55:00","7","62.0911","-152.7349","566.3","PUNTILLA, AK US","FM-15","PAPT ","V020","160,5,N,0031,5","22000,7,9,N","040234,5,N,5","-0020,C","-0020,C","99999,9",,,,,,,,,,"00,7,+99999,9,99,9",,,"0,99,1,+99999,9,9",,,,,"00,99,1,99,9,99,9,99999,9,99,9,99,9",,,"10227,5,09567,5",,,,,,"MET08003/10/23 12:55:02 METAR PAPT 102155Z 16006KT 25SM SKC M02/M02 A3020 RMK NO SPECI","R01   SKC7SKY009R02   M027TMP046R03   M027DPT046R04   SKC7GAS009"
"70249026526","2023-03-10T23:59:00","7","62.0911","-152.7349","566.3","PUNTILLA, AK US","FM-15","PAPT ","V020","350,5,N,0021,5","22000,7,9,N","040234,5,N,5","-0010,C","-0010,C","99999,9","24,0000,9,1","0051,9,5,005080,9,9",,,,,,,,"00,7,+99999,9,99,9",,,"0,99,1,+99999,9,9",,,,,"00,99,1,99,9,99,9,99999,9,99,9,99,9","240,M,+0006,1","240,N,-0044,1","10227,5,09567,5",,,,,,"MET10903/10/23 14:59:02 METAR PAPT 102359Z 35004KT 25SM SKC M01/M01 A3020 RMK NO SPECI 400061044 70000 931000 4/020","Q01  00002PRCP24R01   SKC7SKY009R02   M017TMP046R03   M017DPT046R04   SKC7GAS009"
"70249026526","2023-03-11T01:59:00","7","62.0911","-152.7349","566.3","PUNTILLA, AK US","FM-15","PAPT ","V020","010,5,N,0031,5","22000,7,9,N","040234,5,N,5","-0040,C","-0040,C","99999,9",,,,,,,,,,"00,7,+99999,9,99,9",,,"0,99,1,+99999,9,9",,,,,"00,99,1,99,9,99,9,99999,9,99,9,99,9",,,"10227,5,09567,5",,,,,,"MET08503/10/23 16:59:01 METAR PAPT 110159Z 01006KT 25SM SKC M04/M04 A3020 RMK NO SPECI LAST","R01   SKC7SKY009R02   M047TMP046R03   M047DPT046R04   SKC7GAS009"
"70249026526","2023-03-11T17:54:00","7","62.0911","-152.7349","566.3","PUNTILLA, AK US","FM-15","PAPT ","V020","999,9,C,0000,5","22000,7,9,N","040234,5,N,5","-0160,C","-0160,C","99999,9",,,,,,,,,,"00,7,+99999,9,99,9",,,"0,99,1,+99999,9,9",,,,,"00,99,1,99,9,99,9,99999,9,99,9,99,9",,,"10213,5,09554,5",,,,,,"MET08603/11/23 08:54:02 METAR PAPT 111754Z 00000KT 25SM SKC M16/M16 A3016 RMK NO SPECI FIRST","R01   SKC7SKY009R02   M167TMP046R03   M167DPT046R04   SKC7GAS009"
"70249026526","2023-03-11T20:10:00","7","62.0911","-152.7349","566.3","PUNTILLA, AK US","FM-15","PAPT ","V020","360,5,N,0021,5","22000,7,9,N","040234,5,N,5","-0090,5","-0090,5","99999,9",,,,,,,,,,"00,7,+99999,9,99,9",,,"0,99,1,+99999,9,9",,,,,"00,99,1,99,9,99,9,99999,9,99,9,99,9",,,"10207,5,09547,5",,,,,,"MET08003/11/23 11:10:02 METAR PAPT 112010Z 36004KT 25SM SKC M09/M09 A3014 RMK NO SPECI","R01   SKC7SKY009R02   SKC7GAS009"
"70249026526","2023-03-11T21:47:00","7","62.0911","-152.7349","566.3","PUNTILLA, AK US","FM-15","PAPT ","V020","010,5,N,0031,5","22000,7,9,N","040234,5,N,5","-0050,C","-0050,C","99999,9",,,,,,,,,,"00,7,+99999,9,99,9",,,"0,99,1,+99999,9,9",,,,,"00,99,1,99,9,99,9,99999,9,99,9,99,9",,,"10200,5,09541,5",,,,,,"MET08003/11/23 12:47:02 METAR PAPT 112147Z 01006KT 25SM SKC M05/M05 A3012 RMK NO SPECI","R01   SKC7SKY009R02   M057TMP046R03   M057DPT046R04   SKC7GAS009"
"70249026526","2023-03-11T23:46:00","7","62.0911","-152.7349","566.3","PUNTILLA, AK US","FM-15","PAPT ","V020","160,5,N,0015,5","22000,7,9,N","040234,5,N,5","-0010,C","-0010,C","99999,9","24,0000,9,1","0051,9,5,005080,9,9",,,,,,,,"00,7,+99999,9,99,9",,,"0,99,1,+99999,9,9",,,,,"00,99,1,99,9,99,9,99999,9,99,9,99,9","240,M,-0011,1","240,N,-0161,1","10193,5,09535,5",,,,,,"MET10903/11/23 14:46:02 METAR PAPT 112346Z 16003KT 25SM SKC M01/M01 A3010 RMK NO SPECI 410111161 70000 931000 4/020","Q01  00002PRCP24R01   SKC7SKY009R02   M017TMP046R03   M017DPT046R04   SKC7GAS009"
"70249026526","2023-03-12T01:47:00","7","62.0911","-152.7349","566.3","PUNTILLA, AK US","FM-15","PAPT ","V020","220,5,N,0015,5","22000,7,9,N","040234,5,N,5","-0060,C","-0060,C","99999,9",,,,,,,,,,"00,7,+99999,9,99,9",,,"0,99,1,+99999,9,9",,,,,"00,99,1,99,9,99,9,99999,9,99,9,99,9",,,"10176,5,09518,5",,,,,,"MET08503/11/23 16:47:01 METAR PAPT 120147Z 22003KT 25SM SKC M06/M06 A3005 RMK NO SPECI LAST","R01   SKC7SKY009R02   M067TMP046R03   M067DPT046R04   SKC7GAS009"
"70249026526","2023-03-12T16:59:00","7","62.0911","-152.7349","566.3","PUNTILLA, AK US","FM-15","PAPT ","V020","350,5,N,0021,5","22000,5,9,N","040234,5,N,5","-0090,C","-0090,C","99999,9",,,,,,,,,,"04,5,+03048,5,99,9",,,"2,99,1,+03048,5,9",,,,"9,AGL   ,+99999,+99999","04,99,5,99,9,99,9,03048,1,99,9,99,9",,,"10115,5,09461,5",,,,,,"MET08903/12/23 07:59:02 METAR PAPT 121659Z 35004KT 25SM SCT100 M09/M09 A2987 RMK NO SPECI FIRST","R01   M097TMP046R02   M097DPT046D01      0ADE726"
"70249026526","2023-03-12T18:50:00","7","62.0911","-152.7349","566.3","PUNTILLA, AK US","FM-15","PAPT ","V020","020,5,N,0031,5","03048,5,M,N","040234,5,N,5","-0070,C","-0070,C","99999,9",,,,,,,,,,"07,5,+03048,5,99,9",,,"3,99,1,+03048,5,9",,,,"9,AGL   ,+99999,+99999","99,99,9,99,9,99,9,03048,1,99,9,99,9",,,"10112,5,09458,5",,,,,,"MET08303/12/23 09:50:02 METAR PAPT 121850Z 02006KT 25SM BKN100 M07/M07 A2986 RMK NO SPECI","R01   M077TMP046R02   M077DPT046"
"70249026526","2023-03-12T20:59:00","7","62.0911","-152.7349","566.3","PUNTILLA, AK US","FM-15","PAPT ","V020","350,5,N,0051,5","03048,5,M,N","040234,5,N,5","-0020,C","-0020,C","99999,9",,,,,,,,,,"02,5,+02438,5,99,9","07,5,+03048,5,99,9",,"1,99,1,+02438,5,9","3,99,1,+03048,5,9",,,"9,AGL   ,+99999,+99999","99,99,9,99,9,99,9,02438,1,99,9,99,9",,,"10102,5,09448,5",,,,,"0103,5","MET09303/12/23 11:59:02 METAR PAPT 122059Z 35010G20KT 25SM FEW080 BKN100 M02/M02 A2983 RMK NO SPECI","R01   M027TMP046R02   M027DPT046"
"70249026526","2023-03-12T22:51:00","7","62.0911","-152.7349","566.3","PUNTILLA, AK US","FM-15","PAPT ","V020","360,5,N,0041,5","03048,5,M,N","040234,5,N,5","-0030,C","-0030,C","99999,9","24,0000,9,1","0051,9,5,005080,9,9",,,,,,,,"02,5,+02438,5,99,9","07,5,+03048,5,99,9",,"1,99,1,+02438,5,9","3,99,1,+03048,5,9",,,"9,AGL   ,+99999,+99999","99,99,9,99,9,99,9,02438,1,99,9,99,9","240,M,-0022,1","240,N,-0089,1","10095,5,09442,5",,,,,"0082,5","MET12203/12/23 13:51:02 METAR PAPT 122251Z 36008G16KT 25SM FEW080 BKN100 M03/M03 A2981 RMK NO SPECI 410221089 70000 931000 4/020","Q01  00002PRCP24R01   M037TMP046R02   M037DPT046"
"70249026526","2023-03-13T01:05:00","7","62.0911","-152.7349","566.3","PUNTILLA, AK US","FM-15","PAPT ","V020","350,5,N,0051,5","22000,5,9,N","040234,5,N,5","-0040,5","-0040,5","99999,9",,,,,,,,,,"02,5,+01524,5,99,9","04,5,+03048,5,99,9",,"1,99,1,+01524,5,9","2,99,1,+03048,5,9",,,"9,AGL   ,+99999,+99999","04,99,5,99,9,99,9,01524,1,99,9,99,9",,,"10091,5,09438,5",,,,,"0103,5","MET09803/12/23 16:05:01 METAR PAPT 130105Z 35010G20KT 25SM FEW050 SCT100 M04/M04 A2980 RMK NO SPECI LAST","D01      0ADE726"
"70249026526","2023-03-13T16:50:00","7","62.0911","-152.7349","566.3","PUNTILLA, AK US","FM-15","PAPT ","V020","230,5,N,0015,5","22000,5,9,N","040234,5,N,5","-0160,C","-0160,C","99999,9",,,,,,,,,,"02,5,+03048,5,99,9",,,"1,99,1,+03048,5,9",,,,"9,AGL   ,+99999,+99999","02,99,5,99,9,99,9,03048,1,99,9,99,9",,,"10098,5,09445,5",,,,,,"MET08903/13/23 07:50:02 METAR PAPT 131650Z 23003KT 25SM FEW100 M16/M16 A2982 RMK NO SPECI FIRST","R01   M167TMP046R02   M167DPT046D01      0ADE726"
"70249026526","2023-03-13T20:55:00","7","62.0911","-152.7349","566.3","PUNTILLA, AK US","FM-15","PAPT ","V020","030,5,N,0051,5","03048,5,M,N","040234,5,N,5","-0110,C","-0110,C","99999,9",,,,,,,,,,"07,5,+03048,5,99,9",,,"3,99,1,+03048,5,9",,,,"9,AGL   ,+99999,+99999","99,99,9,99,9,99,9,03048,1,99,9,99,9",,,"10068,5,09416,5",,,,,,"MET08303/13/23 11:55:02 METAR PAPT 132055Z 03010KT 25SM BKN100 M11/M11 A2973 RMK NO SPECI","R01   M117TMP046R02   M117DPT046"
"70249026526","2023-03-13T22:42:00","7","62.0911","-152.7349","566.3","PUNTILLA, AK US","FM-15","PAPT ","V020","010,5,N,0051,5","22000,5,9,N","040234,5,N,5","-0100,C","-0100,C","99999,9","24,0000,9,1","0051,9,5,005080,9,9",,,,,,,,"02,5,+03048,5,99,9",,,"1,99,1,+03048,5,9",,,,"9,AGL   ,+99999,+99999","02,99,5,99,9,99,9,03048,1,99,9,99,9","240,M,-0044,1","240,N,-0156,1","10051,5,09400,5",,,,,,"MET11203/13/23 13:42:02 METAR PAPT 132242Z 01010KT 25SM FEW100 M10/M10 A2968 RMK NO SPECI 410441156 70000 931000 4/020","Q01  00002PRCP24R01   M107TMP046R02   M107DPT046D01      0ADE726"
"70249026526","2023-03-14T00:48:00","7","62.0911","-152.7349","566.3","PUNTILLA, AK US","FM-15","PAPT ","V020","360,5,N,0041,5","22000,5,9,N","040234,5,N,5","-0170,C","-0170,C","99999,9",,,,,,,,,,"04,5,+03048,5,99,9",,,"2,99,1,+03048,5,9",,,,"9,AGL   ,+99999,+99999","04,99,5,99,9,99,9,03048,1,99,9,99,9",,,"10030,5,09381,5",,,,,,"MET08303/13/23 15:48:01 METAR PAPT 140048Z 36008KT 25SM SCT100 M17/M17 A2962 RMK NO SPECI","R01   M177TMP046R02   M177DPT046D01      0ADE726"
"70249026526","2023-03-14T20:57:00","7","62.0911","-152.7349","566.3","PUNTILLA, AK US","FM-15","PAPT ","V020","010,5,N,0031,5","22000,5,9,N","040234,5,N,5","-0150,C","-0150,C","99999,9",,,,,,,,,,"04,5,+03048,5,99,9",,,"2,99,1,+03048,5,9",,,,"9,AGL   ,+99999,+99999","04,99,5,99,9,99,9,03048,1,99,9,99,9",,,"09949,5,09304,5",,,,,,"MET08303/14/23 11:57:02 METAR PAPT 142057Z 01006KT 25SM SCT100 M15/M15 A2938 RMK NO SPECI","R01   M157TMP046R02   M157DPT046D01      0ADE726"
"70249026526","2023-03-14T22:54:00","7","62.0911","-152.7349","566.3","PUNTILLA, AK US","FM-15","PAPT ","V020","030,5,N,0031,5","22000,5,9,N","040234,5,N,5","-0130,C","-0130,C","99999,9","24,0000,9,1","0051,9,5,005080,9,9",,,,,,,,"02,5,+03048,5,99,9",,,"1,99,1,+03048,5,9",,,,"9,AGL   ,+99999,+99999","02,99,5,99,9,99,9,03048,1,99,9,99,9",,,"09946,5,09300,5",,,,,,"MET11203/14/23 13:54:02 METAR PAPT 142254Z 03006KT 25SM FEW100 M13/M13 A2937 RMK NO SPECI 411331019 70000 931000 4/020","Q01  00002PRCP24R01   M137TMP046R02   M137DPT046D01      0ADE726"
"70249026526","2023-03-15T00:53:00","7","62.0911","-152.7349","566.3","PUNTILLA, AK US","FM-15","PAPT ","V020","010,5,N,0026,5","22000,5,9,N","040234,5,N,5","-0130,C","-0130,C","99999,9",,,,,,,,,,"02,5,+03048,5,99,9",,,"1,99,1,+03048,5,9",,,,"9,AGL   ,+99999,+99999","02,99,5,99,9,99,9,03048,1,99,9,99,9",,,"09942,5,09297,5",,,,,,"MET08803/14/23 15:53:01 METAR PAPT 150053Z 01005KT 25SM FEW100 M13/M13 A2936 RMK NO SPECI LAST","R01   M137TMP046R02   M137DPT046D01      0ADE726"
"70249026526","2023-03-15T17:00:00","7","62.0911","-152.7349","566.3","PUNTILLA, AK US","FM-15","PAPT ","V020","999,9,C,0000,5","22000,5,9,N","040234,5,N,5","-0260,C","-0260,C","99999,9",,,,,,,,,,"04,5,+03048,5,99,9",,,"2,99,1,+03048,5,9",,,,"9,AGL   ,+99999,+99999","04,99,5,99,9,99,9,03048,1,99,9,99,9",,,"09936,5,09291,5",,,,,,"MET08903/15/23 08:00:02 METAR PAPT 151700Z 00000KT 25SM SCT100 M26/M26 A2934 RMK NO SPECI FIRST","R01   M267TMP046R02   M267DPT046D01      0ADE726"
"70249026526","2023-03-15T20:49:00","7","62.0911","-152.7349","566.3","PUNTILLA, AK US","FM-15","PAPT ","V020","040,5,N,0021,5","22000,5,9,N","040234,5,N,5","-0130,C","-0130,C","99999,9",,,,,,,,,,"04,5,+03048,5,99,9",,,"2,99,1,+03048,5,9",,,,"9,AGL   ,+99999,+99999","04,99,5,99,0,99,0,03048,1,99,1,99,1",,,"09936,5,09291,5",,,,,,"MET08303/15/23 11:49:02 METAR PAPT 152049Z 04004KT 25SM SCT100 M13/M13 A2934 RMK NO SPECI","R01   M137TMP046R02   M137DPT046D01      0ADE726"
"70249026526","2023-03-15T22:52:00","7","62.0911","-152.7349","566.3","PUNTILLA, AK US","FM-15","PAPT ","V020","101,5,N,0026,5","22000,5,9,N","040234,5,N,5","-0090,C","-0090,C","99999,9","24,0000,9,1","0051,9,5,005080,9,9",,,,,,,,"02,5,+03048,5,99,9",,,"1,99,1,+03048,5,9",,,,"9,AGL   ,+99999,+99999","02,99,5,99,9,99,9,03048,1,99,9,99,9","240,M,-0089,1","240,N,-0256,1","09936,5,09291,5",,,,,,"MET11203/15/23 13:52:02 METAR PAPT 152252Z 10105KT 25SM FEW100 M09/M09 A2934 RMK NO SPECI 410891256 70000 931000 4/020","Q01  00002PRCP24R01   M097TMP046R02   M097DPT046D01      0ADE726"
"70249026526","2023-03-16T17:00:00","7","62.0911","-152.7349","566.3","PUNTILLA, AK US","FM-15","PAPT ","V020","350,5,N,0015,5","22000,5,9,N","040234,5,N,5","-0260,C","-0260,C","99999,9",,,,,,,,,,"02,5,+03048,5,99,9",,,"1,99,1,+03048,5,9",,,,"9,AGL   ,+99999,+99999","02,99,5,99,9,99,9,03048,1,99,9,99,9",,,"09970,5,09323,5",,,,,,"MET08903/16/23 08:00:02 METAR PAPT 161700Z 35003KT 25SM FEW100 M26/M26 A2944 RMK NO SPECI FIRST","R01   M267TMP046R02   M267DPT046D01      0ADE726"
"70249026526","2023-03-16T18:51:00","7","62.0911","-152.7349","566.3","PUNTILLA, AK US","FM-15","PAPT ","V020","999,9,C,0000,5","22000,5,9,N","040234,5,N,5","-0150,C","-0150,C","99999,9",,,,,,,,,,"02,5,+03048,5,99,9",,,"1,99,1,+03048,5,9",,,,"9,AGL   ,+99999,+99999","02,99,5,99,9,99,9,03048,1,99,9,99,9",,,"09976,5,09329,5",,,,,,"MET08303/16/23 09:51:02 METAR PAPT 161851Z 00000KT 25SM FEW100 M15/M15 A2946 RMK NO SPECI","R01   M157TMP046R02   M157DPT046D01      0ADE726"
"70249026526","2023-03-16T21:05:00","7","62.0911","-152.7349","566.3","PUNTILLA, AK US","FM-15","PAPT ","V020","040,5,N,0021,5","22000,5,9,N","040234,5,N,5","-0090,5","-0090,5","99999,9",,,,,,,,,,"02,5,+03048,5,99,9",,,"1,99,1,+03048,5,9",,,,"9,AGL   ,+99999,+99999","02,99,5,99,9,99,9,03048,1,99,9,99,9",,,"09986,5,09339,5",,,,,,"MET08303/16/23 12:05:02 METAR PAPT 162105Z 04004KT 25SM FEW100 M09/M09 A2949 RMK NO SPECI","D01      0ADE726"
"70249026526","2023-03-17T01:15:00","7","62.0911","-152.7349","566.3","PUNTILLA, AK US","FM-15","PAPT ","V020","220,5,N,0021,5","22000,5,9,N","040234,5,N,5","-0060,5","-0060,5","99999,9",,,,,,,,,,"02,5,+02438,5,99,9",,,"1,99,1,+02438,5,9",,,,"9,AGL   ,+99999,+99999","02,99,5,99,9,99,9,02438,1,99,9,99,9",,,"09993,5,09345,5",,,,,,"MET08803/16/23 16:15:01 METAR PAPT 170115Z 22004KT 25SM FEW080 M06/M06 A2951 RMK NO SPECI LAST","D01      0ADE726"
"70249026526","2023-03-17T16:48:00","7","62.0911","-152.7349","566.3","PUNTILLA, AK US","FM-15","PAPT ","V020","350,5,N,0026,5","03048,5,M,N","040234,5,N,5","-0180,C","-0180,C","99999,9",,,,,,,,,,"02,5,+02438,5,99,9","07,5,+03048,5,99,9",,"1,99,1,+02438,5,9","3,99,1,+03048,5,9",,,"9,AGL   ,+99999,+99999","99,99,9,99,9,99,9,02438,1,99,9,99,9",,,"09976,5,09329,5",,,,,,"MET09603/17/23 07:48:02 METAR PAPT 171648Z 35005KT 25SM FEW080 BKN100 M18/M18 A2946 RMK NO SPECI FIRST","R01   M187TMP046R02   M187DPT046"
"70249026526","2023-03-17T20:46:00","7","62.0911","-152.7349","566.3","PUNTILLA, AK US","FM-15","PAPT ","V020","999,9,C,0000,5","00914,5,M,N","016093,5,N,5","-0040,C","-0040,C","99999,9",,,,,,,,,,"08,5,+00914,5,99,9",,,"4,99,1,+00914,5,9",,,,"9,AGL   ,+99999,+99999","99,99,9,99,9,99,9,00914,1,99,9,99,9",,,"09963,5,09316,5",,,,,,"MET08303/17/23 11:46:01 METAR PAPT 172046Z 00000KT 10SM OVC030 M04/M04 A2942 RMK NO SPECI","R01   M047TMP046R02   M047DPT046"
"70249026526","2023-03-17T23:00:00","7","62.0911","-152.7349","566.3","PUNTILLA, AK US","FM-15","PAPT ","V020","999,9,C,0000,5","00762,5,M,N","004828,5,N,5","-0030,C","-0030,C","99999,9","24,0000,2,1","0051,9,5,005080,9,9",,,,"1,0,03,0,0,1,5",,"71,5",,"08,5,+00762,5,99,9",,,"4,99,1,+00762,5,9",,,,"9,AGL   ,+99999,+99999","99,99,9,99,9,99,9,00762,1,99,9,99,9","240,M,-0028,1","240,N,-0183,1","09953,5,09307,5",,"71,5",,,,"MET11503/17/23 14:00:02 METAR PAPT 172300Z 00000KT 3SM -SN OVC025 M03/M03 A2939 RMK NO SPECI 410281183 70000 931000 4/020","R01   M037TMP046R02   M037DPT046"
"70249026526","2023-03-18T00:57:00","7","62.0911","-152.7349","566.3","PUNTILLA, AK US","FM-15","PAPT ","V020","999,9,C,0000,5","00244,5,M,N","001609,7,N,5","-0040,C","-0040,C","99999,9",,,,,,"2,0,03,0,0,1,7",,"72,7",,"08,5,+00244,5,99,9",,,"4,99,1,+00244,5,9",,,,"9,AGL   ,+99999,+99999","99,99,9,99,9,99,9,00244,1,99,9,99,9",,,"09949,5,09304,5",,"73,7",,,,"MET09003/17/23 15:57:01 METAR PAPT 180057Z 00000KT 1SM SN OVC008 M04/M04 A2938 RMK NO SPECI LAST","R01   1SM7VIS012R02   M047TMP046R03   M047DPT046R04    SN7AWW012R05SEERMK7MVW012R06    SN7MWW012"
"70249026526","2023-03-18T08:59:00","O","62.0911","-152.7349","566.3","PUNTILLA, AK US","SOD  ","PAPT ","V020","999,9,9,9999,9","99999,9,9,9","999999,9,9,9","+9999,9","+9999,9","99999,9",,,"AU,18,SN  ,5",,,,,,,,,,,,,,,,,,,,,,,,,
"70249026526","2023-03-18T16:40:00","7","62.0911","-152.7349","566.3","PUNTILLA, AK US","FM-15","PAPT ","V020","360,5,N,0031,5","00244,5,M,N","040234,5,N,5","-0130,5","-0130,5","99999,9",,,,,,,,,,"07,5,+00244,5,99,9",,,"3,99,1,+00244,5,9",,,,"9,AGL   ,+99999,+99999","99,99,9,99,9,99,9,00244,1,99,9,99,9",,,"10064,5,09413,5",,,,,,"MET08903/18/23 07:40:01 METAR PAPT 181640Z 36006KT 25SM BKN008 M13/M13 A2972 RMK NO SPECI FIRST",
"70249026526","2023-03-18T18:58:00","7","62.0911","-152.7349","566.3","PUNTILLA, AK US","FM-15","PAPT ","V020","220,5,N,0015,5","22000,5,9,N","040234,5,N,5","+0070,C","-0070,C","99999,9",,,,,,,,,,"04,5,+03048,5,99,9",,,"2,99,1,+03048,5,9",,,,"9,AGL   ,+99999,+99999","04,99,5,99,9,99,9,03048,1,99,9,99,9",,,"10041,5,09390,5",,,,,,"MET08203/18/23 09:58:01 METAR PAPT 181858Z 22003KT 25SM SCT100 07/M07 A2965 RMK NO SPECI","R01    077TMP046R02   M077DPT046D01      0ADE726"
"70249026526","2023-03-18T21:15:00","7","62.0911","-152.7349","566.3","PUNTILLA, AK US","FM-15","PAPT ","V020","999,9,C,0000,5","03048,5,M,N","040234,5,N,5","+0010,5","+0010,5","99999,9",,,,,,,,,,"08,5,+03048,5,99,9",,,"4,99,1,+03048,5,9",,,,"9,AGL   ,+99999,+99999","99,99,9,99,9,99,9,03048,1,99,9,99,9",,,"10010,5,09361,5",,,,,,"MET08103/18/23 12:15:02 METAR PAPT 182115Z 00000KT 25SM OVC100 01/01 A2956 RMK NO SPECI",
"70249026526","2023-03-18T22:50:00","7","62.0911","-152.7349","566.3","PUNTILLA, AK US","FM-15","PAPT ","V020","040,5,N,0031,5","03048,5,M,N","040234,5,N,5","-0010,C","-0010,C","99999,9","24,0015,3,1","0053,9,5,005330,9,9",,,,,,,,"02,5,+01524,5,99,9","08,5,+03048,5,99,9",,"1,99,1,+01524,5,9","4,99,1,+03048,5,9",,,"9,AGL   ,+99999,+99999","99,99,9,99,9,99,9,01524,1,99,9,99,9","240,M,+0012,1","240,N,-0128,1","10000,5,09352,5",,,,,,"MET11903/18/23 13:50:02 METAR PAPT 182250Z 04006KT 25SM FEW050 OVC100 M01/M01 A2953 RMK NO SPECI 400121128 70006 931010 4/021","R01   M017TMP046R02   M017DPT046"
"70249026526","2023-03-19T00:43:00","7","62.0911","-152.7349","566.3","PUNTILLA, AK US","FM-15","PAPT ","V020","220,5,N,0021,5","00244,5,M,N","001609,7,N,5","-0020,C","-0020,C","99999,9",,,,,,"2,0,03,0,0,1,7",,"72,7",,"08,5,+00244,5,99,9",,,"4,99,1,+00244,5,9",,,,"9,AGL   ,+99999,+99999","99,99,9,99,9,99,9,00244,1,99,9,99,9",,,"09980,5,09332,5",,"73,7",,,,"MET09003/18/23 15:43:01 METAR PAPT 190043Z 22004KT 1SM SN OVC008 M02/M02 A2947 RMK NO SPECI LAST","R01   1SM7VIS012R02   M027TMP046R03   M027DPT046R04    SN7AWW012R05SEERMK7MVW012R06    SN7MWW012"
"70249026526","2023-03-19T16:59:00","7","62.0911","-152.7349","566.3","PUNTILLA, AK US","FM-15","PAPT ","V020","190,5,N,0051,5","01829,5,M,N","040234,5,N,5","-0040,C","-0040,C","99999,9",,,,,,,,,,"04,5,+00762,5,99,9","07,5,+01829,5,99,9",,"2,99,1,+00762,5,9","3,99,1,+01829,5,9",,,"9,AGL   ,+99999,+99999","99,99,9,99,9,99,9,00762,1,99,9,99,9",,,"10027,5,09377,5",,,,,"0103,5","MET09903/19/23 07:59:01 METAR PAPT 191659Z 19010G20KT 25SM SCT025 BKN060 M04/M04 A2961 RMK NO SPECI FIRST","R01   M047TMP046R02   M047DPT046"
"70249026526","2023-03-19T18:59:00","7","62.0911","-152.7349","566.3","PUNTILLA, AK US","FM-15","PAPT ","V020","160,5,N,0062,5","02438,5,M,N","040234,5,N,5","-0010,C","-0010,C","99999,9",,,,,,,,,,"04,5,+01524,5,99,9","07,5,+02438,5,99,9",,"2,99,1,+01524,5,9","3,99,1,+02438,5,9",,,"9,AGL   ,+99999,+99999","99,99,9,99,9,99,9,01524,1,99,9,99,9",,,"10051,5,09400,5",,,,,,"MET09003/19/23 09:59:01 METAR PAPT 191859Z 16012KT 25SM SCT050 BKN080 M01/M01 A2968 RMK NO SPECI","R01   M017TMP046R02   M017DPT046"
"70249026526","2023-03-19T20:40:00","7","62.0911","-152.7349","566.3","PUNTILLA, AK US","FM-15","PAPT ","V020","180,5,N,0072,5","02438,5,M,N","040234,5,N,5","-0010,5","-0010,5","99999,9",,,,,,,,,,"02,5,+01829,5,99,9","07,5,+02438,5,99,9",,"1,99,1,+01829,5,9","3,99,1,+02438,5,9",,,"9,AGL   ,+99999,+99999","99,99,9,99,9,99,9,01829,1,99,9,99,9",,,"10061,5,09409,5",,,,,,"MET09003/19/23 11:40:01 METAR PAPT 192040Z 18014KT 25SM FEW060 BKN080 M01/M01 A2971 RMK NO SPECI",
"70249026526","2023-03-19T22:54:00","7","62.0911","-152.7349","566.3","PUNTILLA, AK US","FM-15","PAPT ","V020","160,5,N,0051,5","01829,5,M,N","040234,5,N,5","+0010,C","+0010,C","99999,9","24,0015,3,1","0053,9,5,005330,9,9",,,,,,,,"07,5,+01829,5,99,9",,,"3,99,1,+01829,5,9",,,,"9,AGL   ,+99999,+99999","99,99,9,99,9,99,9,01829,1,99,9,99,9","240,M,+0012,1","240,N,-0039,1","10071,5,09419,5",,,,,,"MET11003/19/23 13:54:01 METAR PAPT 192254Z 16010KT 25SM BKN060 01/01 A2974 RMK NO SPECI 400121039 70006 931010 4/021","R01    017TMP046R02    017DPT046"
"70249026526","2023-03-20T00:52:00","7","62.0911","-152.7349","566.3","PUNTILLA, AK US","FM-15","PAPT ","V020","170,5,N,0051,5","02134,5,M,N","040234,5,N,5","-0010,C","-0010,C","99999,9",,,,,,,,,,"07,5,+02134,5,99,9",,,"3,99,1,+02134,5,9",,,,"9,AGL   ,+99999,+99999","99,99,9,99,9,99,9,02134,1,99,9,99,9",,,"10078,5,09425,5",,,,,,"MET08803/19/23 15:52:01 METAR PAPT 200052Z 17010KT 25SM BKN070 M01/M01 A2976 RMK NO SPECI LAST","R01   M017TMP046R02   M017DPT046"
"70249026526","2023-03-20T16:49:00","7","62.0911","-152.7349","566.3","PUNTILLA, AK US","FM-15","PAPT ","V020","999,9,C,0000,5","01524,5,M,N","016093,5,N,5","-0130,C","-0130,C","99999,9",,,,,,"1,0,03,0,0,1,5",,"71,5",,"07,5,+01524,5,99,9",,,"3,99,1,+01524,5,9",,,,"9,AGL   ,+99999,+99999","99,99,9,99,9,99,9,01524,1,99,9,99,9",,,"10044,5,09393,5",,"71,5",,,,"MET09303/20/23 07:49:02 METAR PAPT 201649Z 00000KT 10SM -SN BKN050 M13/M13 A2966 RMK NO SPECI FIRST","R01   M137TMP046R02   M137DPT046"
"70249026526","2023-03-20T18:59:00","7","62.0911","-152.7349","566.3","PUNTILLA, AK US","FM-15","PAPT ","V020","160,5,N,0026,5","01219,5,M,N","016093,5,N,5","-0060,C","-0060,C","99999,9",,,,,,"1,0,03,0,0,1,5",,"71,5",,"04,5,+00610,5,99,9","07,5,+01219,5,99,9",,"2,99,1,+00610,5,9","3,99,1,+01219,5,9",,,"9,AGL   ,+99999,+99999","99,99,9,99,9,99,9,00610,1,99,9,99,9",,,"10030,5,09381,5",,"71,5",,,,"MET09403/20/23 09:59:02 METAR PAPT 201859Z 16005KT 10SM -SN SCT020 BKN040 M06/M06 A2962 RMK NO SPECI","R01   M067TMP046R02   M067DPT046"
"70249026526","2023-03-20T20:40:00","7","62.0911","-152.7349","566.3","PUNTILLA, AK US","FM-15","PAPT ","V020","190,5,N,0046,5","01372,5,M,N","016093,5,N,5","-0030,5","-0030,5","99999,9",,,,,,,,,,"04,5,+00610,5,99,9","08,5,+01372,5,99,9",,"2,99,1,+00610,5,9","4,99,1,+01372,5,9",,,"9,AGL   ,+99999,+99999","99,99,9,99,9,99,9,00610,1,99,9,99,9",,,"10027,5,09377,5",,,,,,"MET09003/20/23 11:40:02 METAR PAPT 202040Z 19009KT 10SM SCT020 OVC045 M03/M03 A2961 RMK NO SPECI",
"70249026526","2023-03-20T23:00:00","7","62.0911","-152.7349","566.3","PUNTILLA, AK US","FM-15","PAPT ","V020","200,5,N,0062,5","01219,5,M,N","016093,5,N,5","-0030,C","-0030,C","99999,9","24,0000,2,1","0053,9,5,005330,9,9",,,,,,,,"04,5,+00610,5,99,9","08,5,+01219,5,99,9",,"2,99,1,+00610,5,9","4,99,1,+01219,5,9",,,"9,AGL   ,+99999,+99999","99,99,9,99,9,99,9,00610,1,99,9,99,9","240,M,-0011,1","240,N,-0128,1","10020,5,09371,5",,,,,,"MET11903/20/23 14:00:02 METAR PAPT 202300Z 20012KT 10SM SCT020 OVC040 M03/M03 A2959 RMK NO SPECI 410111128 70000 931000 4/021","R01   M037TMP046R02   M037DPT046"
"70249026526","2023-03-21T00:59:00","7","62.0911","-152.7349","566.3","PUNTILLA, AK US","FM-15","PAPT ","V020","190,5,N,0072,5","01219,5,M,N","011265,5,N,5","-0030,C","-0030,C","99999,9",,,,,,,,,,"04,5,+00610,5,99,9","08,5,+01219,5,99,9",,"2,99,1,+00610,5,9","4,99,1,+01219,5,9",,,"9,AGL   ,+99999,+99999","99,99,9,99,9,99,9,00610,1,99,9,99,9",,,"10010,5,09361,5",,,,,,"MET09403/20/23 15:59:01 METAR PAPT 210059Z 19014KT 7SM SCT020 OVC040 M03/M03 A2956 RMK NO SPECI LAST","R01   M037TMP046R02   M037DPT046"
"70249026526","2023-03-21T08:59:00","O","62.0911","-152.7349","566.3","PUNTILLA, AK US","SOD  ","PAPT ","V020","999,9,9,9999,9","99999,9,9,9","999999,9,9,9","+9999,9","+9999,9","99999,9",,,"AU,18,SN  ,5",,,,,,,,,,,,,,,,,,,,,,,,,
"70249026526","2023-03-21T16:44:00","7","62.0911","-152.7349","566.3","PUNTILLA, AK US","FM-15","PAPT ","V020","190,5,N,0041,5","00549,5,M,N","008047,7,N,5","-0040,C","-0040,C","99999,9",,,,,,"2,0,03,0,0,1,7",,"72,7",,"07,5,+00549,5,99,9","08,5,+01067,5,99,9",,"3,99,1,+00549,5,9","4,99,1,+01067,5,9",,,"9,AGL   ,+99999,+99999","99,99,9,99,9,99,9,00549,1,99,9,99,9",,,"09986,5,09339,5",,"73,7",,,,"MET09803/21/23 07:44:02 METAR PAPT 211644Z 19008KT 5SM SN BKN018 OVC035 M04/M04 A2949 RMK NO SPECI FIRST","R01   5SM7VIS012R02   M047TMP046R03   M047DPT046R04    SN7AWW012R05SEERMK7MVW012R06    SN7MWW012"
"70249026526","2023-03-21T18:40:00","7","62.0911","-152.7349","566.3","PUNTILLA, AK US","FM-15","PAPT ","V020","180,5,N,0041,5","01219,5,M,N","008047,5,N,5","-0040,5","-0040,5","99999,9",,,,,,"1,0,03,0,0,1,5",,"71,5",,"04,5,+00549,5,99,9","08,5,+01219,5,99,9",,"2,99,1,+00549,5,9","4,99,1,+01219,5,9",,,"9,AGL   ,+99999,+99999","99,99,9,99,9,99,9,00549,1,99,9,99,9",,,"09983,5,09336,5",,"71,5",,,,"MET09303/21/23 09:40:02 METAR PAPT 211840Z 18008KT 5SM -SN SCT018 OVC040 M04/M04 A2948 RMK NO SPECI",
"70249026526","2023-03-21T20:47:00","4","62.0911","-152.7349","566.3","PUNTILLA, AK US","FM-15","99999","V020","180,1,N,0041,1","01219,1,9,N","016093,1,9,9","-0020,1","-0020,1","99999,9",,,,,,,,,,,,,"2,99,1,+00610,1,9","4,99,1,+01219,1,9",,,"9,AGL   ,+99999,+99999","99,99,9,99,9,99,9,00610,1,99,9,99,9",,,"09976,1,99999,9",,"71,1",,,,"MET077METAR PAPT 212047Z 18008KT 10SM -SN SCT020 OVC040 M02/M02 A2946 RMK SPECI NO=",
"70249026526","2023-03-21T22:44:00","7","62.0911","-152.7349","566.3","PUNTILLA, AK US","FM-15","PAPT ","V020","170,5,N,0051,5","01372,7,M,N","024140,5,N,5","-0020,C","-0020,C","99999,9","24,0000,2,1","0053,9,5,005330,9,9",,,,,,,,"04,7,+00610,7,99,9","08,7,+01372,7,99,9",,"2,99,1,+00610,7,9","4,99,1,+01372,7,9",,,"9,AGL   ,+99999,+99999","04,99,5,99,9,99,9,00610,1,99,9,99,9","240,M,-0017,1","240,N,-0044,1","09970,5,09323,5",,,,,,"MET11903/21/23 13:44:02 METAR PAPT 212244Z 17010KT 15SM SCT0205OVC045 M02/M02 A2944 RMK NO SPECI 410171044 70000 931000 4/021","R01SCT0207SKY009R02   M027TMP046R03   M027DPT046R04SCT0207GAS009D01      0ADE693D02      0ADE539D03      0ADE726"
"70249026526","2023-03-22T08:59:00","O","62.0911","-152.7349","566.3","PUNTILLA, AK US","SOD  ","PAPT ","V020","999,9,9,9999,9","99999,9,9,9","999999,9,9,9","+9999,9","+9999,9","99999,9",,,"AU,18,SN  ,5",,,,,,,,,,,,,,,,,,,,,,,,,
"70249026526","2023-03-22T20:48:00","7","62.0911","-152.7349","566.3","PUNTILLA, AK US","FM-15","PAPT ","V020","170,5,N,0021,5","00457,5,M,N","001609,5,N,5","-0020,C","-0020,C","99999,9",,,,,,"1,0,03,0,0,1,5",,"71,5",,"08,5,+00457,5,99,9",,,"4,99,1,+00457,5,9",,,,"9,AGL   ,+99999,+99999","99,99,9,99,9,99,9,00457,1,99,9,99,9",,,"09881,5,09239,5",,"71,5",,,,"MET08603/22/23 11:48:02 METAR PAPT 222048Z 17004KT 1SM -SN OVC015 M02/M02 A2918 RMK NO SPECI","R01   M027TMP046R02   M027DPT046"
"70249026526","2023-03-22T23:15:00","7","62.0911","-152.7349","566.3","PUNTILLA, AK US","FM-15","PAPT ","V020","170,5,N,0021,5","00457,5,M,N","001609,5,N,5","-0010,5","-0010,5","99999,9",,,,,,"1,0,03,0,0,1,5",,"71,5",,"08,5,+00457,5,99,9",,,"4,99,1,+00457,5,9",,,,"9,AGL   ,+99999,+99999","99,99,9,99,9,99,9,00457,1,99,9,99,9",,,"09878,5,09236,5",,"71,5",,,,"MET08603/22/23 14:15:02 METAR PAPT 222315Z 17004KT 1SM -SN OVC015 M01/M01 A2917 RMK NO SPECI",
"70249026526","2023-03-23T00:48:00","7","62.0911","-152.7349","566.3","PUNTILLA, AK US","FM-15","PAPT ","V020","170,5,N,0026,5","00457,5,M,N","001609,5,N,5","-0010,C","-0010,C","99999,9","24,0038,3,1","0058,9,5,005840,9,9",,,,"1,0,03,0,0,1,5",,"71,5",,"08,5,+00457,5,99,9",,,"4,99,1,+00457,5,9",,,,"9,AGL   ,+99999,+99999","99,99,9,99,9,99,9,00457,1,99,9,99,9","240,M,-0011,1","240,N,-0056,1","09878,5,09236,5",,"71,5",,,,"MET12003/22/23 15:48:01 METAR PAPT 230048Z 17005KT 1SM -SN OVC015 M01/M01 A2917 RMK NO SPECI 410111056 70015 931020 4/023 LAST","R01   M017TMP046R02   M017DPT046"
"70249026526","2023-03-23T08:59:00","O","62.0911","-152.7349","566.3","PUNTILLA, AK US","SOD  ","PAPT ","V020","999,9,9,9999,9","99999,9,9,9","999999,9,9,9","+9999,9","+9999,9","99999,9",,,"AU,18,SN  ,5",,,,,,,,,,,,,,,,,,,,,,,,,
"70249026526","2023-03-23T16:40:00","7","62.0911","-152.7349","566.3","PUNTILLA, AK US","FM-15","PAPT ","V020","999,9,C,0000,5","01219,5,M,N","016093,5,N,5","-0060,5","-0060,5","99999,9",,,,,,,,,,"07,5,+01219,5,99,9",,,"3,99,1,+01219,5,9",,,,"9,AGL   ,+99999,+99999","99,99,9,99,9,99,9,01219,1,99,9,99,9",,,"09973,5,09326,5",,,,,,"MET08903/23/23 07:40:02 METAR PAPT 231640Z 00000KT 10SM BKN040 M06/M06 A2945 RMK NO SPECI FIRST",
"70249026526","2023-03-23T18:49:00","7","62.0911","-152.7349","566.3","PUNTILLA, AK US","FM-15","PAPT ","V020","010,5,N,0046,5","01829,5,M,N","032187,5,N,5","-0040,C","-0040,C","99999,9",,,,,,,,,,"07,5,+01829,5,99,9",,,"3,99,1,+01829,5,9",,,,"9,AGL   ,+99999,+99999","99,99,9,99,9,99,9,01829,1,99,9,99,9",,,"09993,5,09345,5",,,,,,"MET08303/23/23 09:49:02 METAR PAPT 231849Z 01009KT 20SM BKN060 M04/M04 A2951 RMK NO SPECI","R01   M047TMP046R02   M047DPT046"
"70249026526","2023-03-23T20:48:00","7","62.0911","-152.7349","566.3","PUNTILLA, AK US","FM-15","PAPT ","V020","350,5,N,0031,5","01829,5,M,N","032187,5,N,5","-0020,C","-0020,C","99999,9",,,,,,,,,,"07,5,+01829,5,99,9",,,"3,99,1,+01829,5,9",,,,"9,AGL   ,+99999,+99999","99,99,9,99,9,99,9,01829,1,99,9,99,9",,,"10014,5,09365,5",,,,,,"MET08303/23/23 11:48:02 METAR PAPT 232048Z 35006KT 20SM BKN060 M02/M02 A2957 RMK NO SPECI","R01   M027TMP046R02   M027DPT046"
"70249026526","2023-03-23T22:44:00","7","62.0911","-152.7349","566.3","PUNTILLA, AK US","FM-15","PAPT ","V020","350,5,N,0026,5","02134,5,M,N","040234,5,N,5","+0010,C","+0010,C","99999,9","24,0066,3,1","0069,9,5,006860,9,9",,,,,,,,"07,5,+02134,5,99,9",,,"3,99,1,+02134,5,9",,,,"9,AGL   ,+99999,+99999","99,99,9,99,9,99,9,02134,1,99,9,99,9","240,N,-0056,1",,"10034,5,09384,5",,,,,,"MET11003/23/23 13:44:02 METAR PAPT 232244Z 35005KT 25SM BKN070 01/01 A2963 RMK NO SPECI 400011056 70026 931155 4/027","R01    017TMP046R02    017DPT046"
"70249026526","2023-03-24T00:49:00","7","62.0911","-152.7349","566.3","PUNTILLA, AK US","FM-15","PAPT ","V020","210,5,N,0021,5","22000,5,9,N","040234,5,N,5","-0010,C","-0010,C","99999,9",,,,,,,,,,"02,5,+02438,5,99,9","04,5,+03048,5,99,9",,"1,99,1,+02438,5,9","2,99,1,+03048,5,9",,,"9,AGL   ,+99999,+99999","04,99,5,99,9,99,9,02438,1,99,9,99,9",,,"10054,5,09403,5",,,,,,"MET09503/23/23 15:49:01 METAR PAPT 240049Z 21004KT 25SM FEW080 SCT100 M01/M01 A2969 RMK NO SPECI LAST","R01   M017TMP046R02   M017DPT046D01      0ADE726"
"70249026526","2023-03-24T16:48:00","7","62.0911","-152.7349","566.3","PUNTILLA, AK US","FM-15","PAPT ","V020","999,9,C,0000,5","00091,5,W,N","000805,5,N,5","-0090,C","-0090,C","99999,9",,,,,,,,,,"09,5,+00091,5,99,9",,,"5,99,1,+00091,5,9",,,,"9,AGL   ,+99999,+99999","09,99,1,99,9,99,9,00091,1,99,9,99,9",,,"10108,5,09454,5",,,,,,"MET08903/24/23 07:48:02 METAR PAPT 241648Z 00000KT 1/2SM VV003 M09/M09 A2985 RMK NO SPECI FIRST","R01   M097TMP046R02   M097DPT046"
"70249026526","2023-03-24T18:49:00","7","62.0911","-152.7349","566.3","PUNTILLA, AK US","FM-15","PAPT ","V020","999,9,C,0000,5","00366,5,M,N","003219,5,N,5","-0070,C","-0070,C","99999,9",,,,,,,,,,"08,5,+00366,5,99,9",,,"4,99,1,+00366,5,9",,,,"9,AGL   ,+99999,+99999","99,99,9,99,9,99,9,00366,1,99,9,99,9",,,"10119,5,09464,5",,,,,,"MET08203/24/23 09:49:02 METAR PAPT 241849Z 00000KT 2SM OVC012 M07/M07 A2988 RMK NO SPECI","R01   M077TMP046R02   M077DPT046"
"70249026526","2023-03-24T20:43:00","7","62.0911","-152.7349","566.3","PUNTILLA, AK US","FM-15","PAPT ","V020","350,5,N,0041,6","01219,5,M,N","011265,5,N,5","-0060,C","-0060,C","99999,9",,,,,,"2,5,03,0,0,1,6",,"27,6",,"04,5,+00762,5,99,9","07,5,+01219,5,99,9",,"2,99,1,+00762,5,9","3,99,1,+01219,5,9",,,"9,AGL   ,+99999,+99999","99,99,9,99,9,99,9,00762,1,99,9,99,9",,,"10139,5,09483,5",,"38,1",,,"0082,5","MET09703/24/23 11:43:02 METAR PAPT 242043Z 35008G16KT 7SM BLSN SCT025 BKN040 M06/M06 A2994 RMK NO SPECI","R01    087WNS020R02   M067TMP046R03   M067DPT046R04  BLSN7AWW020R05SEERMK7MVW020R06  BLSN7MWW020"
"70249026526","2023-03-24T22:44:00","7","62.0911","-152.7349","566.3","PUNTILLA, AK US","FM-15","PAPT ","V020","350,5,N,0077,5","22000,5,9,N","040234,7,N,5","-0050,C","-0050,C","99999,9","24,0030,3,1","0066,9,5,006600,9,9",,,,"2,5,03,0,0,1,5",,"27,5",,"04,5,+02134,5,99,9",,,"2,99,1,+02134,5,9",,,,"9,AGL   ,+99999,+99999","04,99,5,99,9,99,9,02134,1,99,9,99,9","240,M,-0011,1","240,N,-0094,1","10163,5,09506,5",,"38,1",,,,"MET11703/24/23 13:44:02 METAR PAPT 242244Z 35015KT 25SM BLSN SCT070 M05/M05 A3001 RMK NO SPECI 410111094 70012 931010 4/026","R01  25SM7VIS011R02   M057TMP046R03   M057DPT046D01      0ADE726"
"70249026526","2023-03-25T00:51:00","7","62.0911","-152.7349","566.3","PUNTILLA, AK US","FM-15","PAPT ","V020","350,5,N,0026,5","22000,5,9,N","040234,5,N,5","-0040,C","-0040,C","99999,9",,,,,,,,,,"02,5,+02438,5,99,9",,,"1,99,1,+02438,5,9",,,,"9,AGL   ,+99999,+99999","02,99,5,99,9,99,9,02438,1,99,9,99,9",,,"10166,5,09509,5",,,,,,"MET08803/24/23 15:51:01 METAR PAPT 250051Z 35005KT 25SM FEW080 M04/M04 A3002 RMK NO SPECI LAST","R01   M047TMP046R02   M047DPT046D01      0ADE726"
"70249026526","2023-03-25T08:59:00","O","62.0911","-152.7349","566.3","PUNTILLA, AK US","SOD  ","PAPT ","V020","999,9,9,9999,9","99999,9,9,9","999999,9,9,9","+9999,9","+9999,9","99999,9",,,"AU,09,BLSN,5",,,,,,,,,,,,,,,,,,,,,,,,,
"70249026526","2023-03-25T16:40:00","7","62.0911","-152.7349","566.3","PUNTILLA, AK US","FM-15","PAPT ","V020","360,5,N,0051,5","22000,7,9,N","040234,5,N,5","-0140,5","-0140,5","99999,9",,,,,,,,,,"00,7,+99999,9,99,9",,,"0,99,1,+99999,9,9",,,,,"00,99,1,99,9,99,9,99999,9,99,9,99,9",,,"10288,5,09624,5",,,,,,"MET08603/25/23 07:40:02 METAR PAPT 251640Z 36010KT 25SM SKC M14/M14 A3038 RMK NO SPECI FIRST","R01   SKC7SKY009R02   SKC7GAS009"
"70249026526","2023-03-25T18:49:00","7","62.0911","-152.7349","566.3","PUNTILLA, AK US","FM-15","PAPT ","V020","010,5,N,0021,5","22000,5,9,N","040234,5,N,5","-0090,C","-0090,C","99999,9",,,,,,,,,,"02,5,+03048,5,99,9",,,"1,99,1,+03048,5,9",,,,"9,AGL   ,+99999,+99999","02,99,5,99,9,99,9,03048,1,99,9,99,9",,,"10295,5,09631,5",,,,,,"MET08303/25/23 09:49:02 METAR PAPT 251849Z 01004KT 25SM FEW100 M09/M09 A3040 RMK NO SPECI","R01   M097TMP046R02   M097DPT046D01      0ADE726"
"70249026526","2023-03-25T20:46:00","7","62.0911","-152.7349","566.3","PUNTILLA, AK US","FM-15","PAPT ","V020","020,5,N,0015,5","22000,5,9,N","040234,5,N,5","-0050,C","-0050,C","99999,9",,,,,,,,,,"02,5,+03048,5,99,9",,,"1,99,1,+03048,5,9",,,,"9,AGL   ,+99999,+99999","02,99,5,99,9,99,9,03048,1,99,9,99,9",,,"10295,5,09631,5",,,,,,"MET08303/25/23 11:46:02 METAR PAPT 252046Z 02003KT 25SM FEW100 M05/M05 A3040 RMK NO SPECI","R01   M057TMP046R02   M057DPT046D01      0ADE726"
"70249026526","2023-03-25T23:15:00","7","62.0911","-152.7349","566.3","PUNTILLA, AK US","FM-15","PAPT ","V020","040,5,N,0021,5","22000,5,9,N","040234,5,N,5","-0030,5","-0030,5","99999,9","24,0000,9,1","0061,9,5,006100,9,9",,,,,,,,"02,5,+03048,5,99,9",,,"1,99,1,+03048,5,9",,,,"9,AGL   ,+99999,+99999","02,99,5,99,9,99,9,03048,1,99,9,99,9","240,M,-0033,1","240,N,-0139,1","10301,5,09637,5",,,,,,"MET11203/25/23 14:15:02 METAR PAPT 252315Z 04004KT 25SM FEW100 M03/M03 A3042 RMK NO SPECI 410331139 70000 931000 4/024","Q01  00002PRCP24D01      0ADE726"
"70249026526","2023-03-26T00:41:00","7","62.0911","-152.7349","566.3","PUNTILLA, AK US","FM-15","PAPT ","V020","360,5,N,0021,5","22000,5,9,N","040234,5,N,5","-0020,C","-0020,C","99999,9",,,,,,,,,,,,,"2,99,1,+99999,9,9",,,,"9,AGL   ,+99999,+99999",,,,"10305,5,09640,5",,,,,,"MET08703/25/23 15:41:01 METAR PAPT 260041Z 36004KT 25SM SCT00 M02/M02 A3043 RMK NO SPECI LAST","R01   M027TMP046R02   M027DPT046"
"70249026526","2023-03-26T16:46:00","7","62.0911","-152.7349","566.3","PUNTILLA, AK US","FM-15","PAPT ","V020","999,9,C,0000,5","22000,5,9,N","040234,5,N,5","-0140,C","-0140,C","99999,9",,,,,,,,,,"04,5,+03048,5,99,9",,,"2,99,1,+03048,5,9",,,,"9,AGL   ,+99999,+99999","04,99,5,99,9,99,9,03048,1,99,9,99,9",,,"10301,5,09637,5",,,,,,"MET08903/26/23 07:46:02 METAR PAPT 261646Z 00000KT 25SM SCT100 M14/M14 A3042 RMK NO SPECI FIRST","R01   M147TMP046R02   M147DPT046D01      0ADE726"
"70249026526","2023-03-26T18:48:00","7","62.0911","-152.7349","566.3","PUNTILLA, AK US","FM-15","PAPT ","V020","030,5,N,0021,5","03048,5,M,N","040234,5,N,5","-0060,C","-0060,C","99999,9",,,,,,,,,,"08,5,+03048,5,99,9",,,"4,99,1,+03048,5,9",,,,"9,AGL   ,+99999,+99999","99,99,9,99,9,99,9,03048,1,99,9,99,9",,,"10301,5,09637,5",,,,,,"MET08303/26/23 09:48:02 METAR PAPT 261848Z 03004KT 25SM OVC100 M06/M06 A3042 RMK NO SPECI","R01   M067TMP046R02   M067DPT046"
"70249026526","2023-03-26T20:49:00","7","62.0911","-152.7349","566.3","PUNTILLA, AK US","FM-15","PAPT ","V020","160,5,N,0031,5","03048,5,M,N","040234,5,N,5","-0030,C","-0030,C","99999,9",,,,,,,,,,"08,5,+03048,5,99,9",,,"4,99,1,+03048,5,9",,,,"9,AGL   ,+99999,+99999","99,99,9,99,9,99,9,03048,1,99,9,99,9",,,"10301,5,09637,5",,,,,,"MET08303/26/23 11:49:02 METAR PAPT 262049Z 16006KT 25SM OVC100 M03/M03 A3042 RMK NO SPECI","R01   M037TMP046R02   M037DPT046"
"70249026526","2023-03-26T22:45:00","7","62.0911","-152.7349","566.3","PUNTILLA, AK US","FM-15","PAPT ","V020","170,5,N,0041,5","03048,5,M,N","040234,5,N,5","-0010,C","-0010,C","99999,9","24,0000,9,1","0061,9,5,006100,9,9",,,,,,,,"02,5,+02438,5,99,9","08,5,+03048,5,99,9",,"1,99,1,+02438,5,9","4,99,1,+03048,5,9",,,"9,AGL   ,+99999,+99999","99,99,9,99,9,99,9,02438,1,99,9,99,9","240,M,-0011,1","240,N,-0139,1","10298,5,09634,5",,,,,,"MET11903/26/23 13:45:02 METAR PAPT 262245Z 17008KT 25SM FEW080 OVC100 M01/M01 A3041 RMK NO SPECI 410111139 70000 931000 4/024","Q01  00002PRCP24R01   M017TMP046R02   M017DPT046"
"70249026526","2023-03-27T00:48:00","7","62.0911","-152.7349","566.3","PUNTILLA, AK US","FM-15","PAPT ","V020","170,5,N,0041,5","03048,5,M,N","040234,5,N,5","-0020,C","-0020,C","99999,9",,,,,,,,,,"04,5,+02438,5,99,9","07,5,+03048,5,99,9",,"2,99,1,+02438,5,9","3,99,1,+03048,5,9",,,"9,AGL   ,+99999,+99999","99,99,9,99,9,99,9,02438,1,99,9,99,9",,,"10298,5,09634,5",,,,,,"MET09503/26/23 15:48:01 METAR PAPT 270048Z 17008KT 25SM SCT080 BKN100 M02/M02 A3041 RMK NO SPECI LAST","R01   M027TMP046R02   M027DPT046"
"70249026526","2023-03-27T16:48:00","7","62.0911","-152.7349","566.3","PUNTILLA, AK US","FM-15","PAPT ","V020","340,5,N,0021,5","03048,5,M,N","040234,5,N,5","-0110,C","-0110,C","99999,9",,,,,,,,,,"02,5,+01829,5,99,9","07,5,+03048,5,99,9",,"1,99,1,+01829,5,9","3,99,1,+03048,5,9",,,"9,AGL   ,+99999,+99999","99,99,9,99,9,99,9,01829,1,99,9,99,9",,,"10301,5,09637,5",,,,,,"MET09603/27/23 07:48:02 METAR PAPT 271648Z 34004KT 25SM FEW060 BKN100 M11/M11 A3042 RMK NO SPECI FIRST","R01   M117TMP046R02   M117DPT046"
"70249026526","2023-03-27T18:46:00","7","62.0911","-152.7349","566.3","PUNTILLA, AK US","FM-15","PAPT ","V020","170,5,N,0036,5","22000,5,9,N","040234,5,N,5","-0030,C","-0030,C","99999,9",,,,,,,,,,"02,5,+02134,5,99,9",,,"1,99,1,+02134,5,9",,,,"9,AGL   ,+99999,+99999","02,99,5,99,9,99,9,02134,1,99,9,99,9",,,"10298,5,09634,5",,,,,,"MET08303/27/23 09:46:02 METAR PAPT 271846Z 17007KT 25SM FEW070 M03/M03 A3041 RMK NO SPECI","R01   M037TMP046R02   M037DPT046D01      0ADE726"
"70249026526","2023-03-27T20:49:00","7","62.0911","-152.7349","566.3","PUNTILLA, AK US","FM-15","PAPT ","V020","200,5,N,0036,5","22000,5,9,N","040234,5,N,5","-0010,C","-0010,C","99999,9",,,,,,,,,,"02,5,+02438,5,99,9",,,"1,99,1,+02438,5,9",,,,"9,AGL   ,+99999,+99999","02,99,5,99,9,99,9,02438,1,99,9,99,9",,,"10298,5,09634,5",,,,,,"MET08303/27/23 11:49:02 METAR PAPT 272049Z 20007KT 25SM FEW080 M01/M01 A3041 RMK NO SPECI","R01   M017TMP046R02   M017DPT046D01      0ADE726"
"70249026526","2023-03-27T22:49:00","7","62.0911","-152.7349","566.3","PUNTILLA, AK US","FM-15","PAPT ","V020","210,5,N,0036,5","22000,5,9,N","040234,5,N,5","+0010,C","+0010,C","99999,9","24,0000,9,1","0056,9,5,005590,9,9",,,,,,,,"02,5,+02438,5,99,9","04,5,+03048,5,99,9",,"1,99,1,+02438,5,9","2,99,1,+03048,5,9",,,"9,AGL   ,+99999,+99999","04,99,5,99,9,99,9,02438,1,99,9,99,9","240,M,+0012,1","240,N,-0111,1","10295,5,09631,5",,,,,,"MET11703/27/23 13:49:02 METAR PAPT 272249Z 21007KT 25SM FEW080 SCT100 01/01 A3040 RMK NO SPECI 400121111 70000 931000 4/022","Q01  00002PRCP24R01    017TMP046R02    017DPT046D01      0ADE726"
"70249026526","2023-03-28T00:48:00","7","62.0911","-152.7349","566.3","PUNTILLA, AK US","FM-15","PAPT ","V020","200,5,N,0041,5","22000,5,9,N","040234,5,N,5","-0020,C","-0020,C","99999,9",,,,,,,,,,"04,5,+03048,5,99,9",,,"2,99,1,+03048,5,9",,,,"9,AGL   ,+99999,+99999","04,99,5,99,9,99,9,03048,1,99,9,99,9",,,"10284,5,09621,5",,,,,,"MET08803/27/23 15:48:01 METAR PAPT 280048Z 20008KT 25SM SCT100 M02/M02 A3037 RMK NO SPECI LAST","R01   M027TMP046R02   M027DPT046D01      0ADE726"
"70249026526","2023-03-28T16:49:00","7","62.0911","-152.7349","566.3","PUNTILLA, AK US","FM-15","PAPT ","V020","360,5,N,0051,5","22000,5,9,N","040234,5,N,5","-0070,C","-0070,C","99999,9",,,,,,,,,,"02,5,+01524,5,99,9","04,5,+03048,5,99,9",,"1,99,1,+01524,5,9","2,99,1,+03048,5,9",,,"9,AGL   ,+99999,+99999","04,99,5,99,9,99,9,01524,1,99,9,99,9",,,"10268,5,09605,5",,,,,,"MET09603/28/23 07:49:02 METAR PAPT 281649Z 36010KT 25SM FEW050 SCT100 M07/M07 A3032 RMK NO SPECI FIRST","R01   M077TMP046R02   M077DPT046D01      0ADE726"
"70249026526","2023-03-28T18:44:00","7","62.0911","-152.7349","566.3","PUNTILLA, AK US","FM-15","PAPT ","V020","010,5,N,0051,5","22000,5,9,N","040234,5,N,5","-0030,C","-0030,C","99999,9",,,,,,,,,,"02,5,+03048,5,99,9",,,"1,99,1,+03048,5,9",,,,"9,AGL   ,+99999,+99999","02,99,5,99,9,99,9,03048,1,99,9,99,9",,,"10264,5,09602,5",,,,,,"MET08303/28/23 09:44:02 METAR PAPT 281844Z 01010KT 25SM FEW100 M03/M03 A3031 RMK NO SPECI","R01   M037TMP046R02   M037DPT046D01      0ADE726"
"70249026526","2023-03-28T20:54:00","4","62.0911","-152.7349","566.3","PUNTILLA, AK US","FM-15","99999","V020","350,1,N,0036,1","22000,5,9,N","040234,1,9,9","-0010,1","-0010,1","99999,9",,,,,,,,,,,,,"1,99,1,+03048,1,9",,,,"9,AGL   ,+99999,+99999","02,99,5,99,9,99,9,03048,1,99,9,99,9",,,"10264,1,99999,9",,,,,,"MET066METAR PAPT 282054Z 35007KT 25SM FEW100 M01/M01 A3031 RMK NO SPECI=","D01      0ADE726"
"70249026526","2023-03-28T22:45:00","7","62.0911","-152.7349","566.3","PUNTILLA, AK US","FM-15","PAPT ","V020","360,5,N,0041,5","22000,7,9,N","040234,5,N,5","-0010,C","-0010,C","99999,9","24,0000,9,1","0056,9,5,005590,9,9",,,,,,,,"00,7,+99999,9,99,9",,,"0,99,1,+99999,9,9",,,,,"00,99,1,99,9,99,9,99999,9,99,9,99,9","240,M,-0011,1","240,N,-0067,1","10257,5,09595,5",,,,,,"MET10903/28/23 13:45:02 METAR PAPT 282245Z 36008KT 25SM SKC M01/M01 A3029 RMK NO SPECI 410111067 70000 931000 4/022","Q01  00002PRCP24R01   SKC7SKY009R02   M017TMP046R03   M017DPT046R04   SKC7GAS009"
"70249026526","2023-03-29T00:49:00","7","62.0911","-152.7349","566.3","PUNTILLA, AK US","FM-15","PAPT ","V020","360,5,N,0026,5","22000,5,9,N","040234,5,N,5","-0010,C","-0010,C","99999,9",,,,,,,,,,"02,5,+03048,5,99,9",,,"1,99,1,+03048,5,9",,,,"9,AGL   ,+99999,+99999","02,99,5,99,9,99,9,03048,1,99,9,99,9",,,"10244,5,09583,5",,,,,,"MET08803/28/23 15:49:01 METAR PAPT 290049Z 36005KT 25SM FEW100 M01/M01 A3025 RMK NO SPECI LAST","R01   M017TMP046R02   M017DPT046D01      0ADE726"
"70249026526","2023-03-29T16:49:00","7","62.0911","-152.7349","566.3","PUNTILLA, AK US","FM-15","PAPT ","V020","220,5,N,0015,5","02134,5,M,N","016093,5,N,5","-0120,C","-0120,C","99999,9",,,,,,,,,,"04,5,+01524,5,99,9","08,5,+02134,5,99,9",,"2,99,1,+01524,5,9","4,99,1,+02134,5,9",,,"9,AGL   ,+99999,+99999","99,99,9,99,9,99,9,01524,1,99,9,99,9",,,"10146,5,09490,5",,,,,,"MET09603/29/23 07:49:02 METAR PAPT 291649Z 22003KT 10SM SCT050 OVC070 M12/M12 A2996 RMK NO SPECI FIRST","R01   M127TMP046R02   M127DPT046"
"70249026526","2023-03-29T18:48:00","7","62.0911","-152.7349","566.3","PUNTILLA, AK US","FM-15","PAPT ","V020","170,5,N,0015,5","01372,5,M,N","040234,5,N,5","-0060,C","-0060,C","99999,9",,,,,,,,,,"08,5,+01372,5,99,9",,,"4,99,1,+01372,5,9",,,,"9,AGL   ,+99999,+99999","99,99,9,99,9,99,9,01372,1,99,9,99,9",,,"10132,5,09477,5",,,,,,"MET08303/29/23 09:48:02 METAR PAPT 291848Z 17003KT 25SM OVC045 M06/M06 A2992 RMK NO SPECI","R01   M067TMP046R02   M067DPT046"
"70249026526","2023-03-29T20:50:00","7","62.0911","-152.7349","566.3","PUNTILLA, AK US","FM-15","PAPT ","V020","170,5,N,0021,5","00914,5,M,N","016093,5,N,5","-0020,C","-0020,C","99999,9",,,,,,"1,0,03,0,0,1,5",,"71,5",,"08,5,+00914,5,99,9",,,"4,99,1,+00914,5,9",,,,"9,AGL   ,+99999,+99999","99,99,9,99,9,99,9,00914,1,99,9,99,9",,,"10119,5,09464,5",,"71,5",,,,"MET08703/29/23 11:50:02 METAR PAPT 292050Z 17004KT 10SM -SN OVC030 M02/M02 A2988 RMK NO SPECI","R01   M027TMP046R02   M027DPT046"
"70249026526","2023-03-29T22:58:00","7","62.0911","-152.7349","566.3","PUNTILLA, AK US","FM-15","PAPT ","V020","170,5,N,0015,5","00914,5,M,N","016093,5,N,5","-0010,C","-0010,C","99999,9","24,0000,2,1","0051,9,5,005080,9,9",,,,"1,0,03,0,0,1,5",,"71,5",,"08,5,+00914,5,99,9",,,"4,99,1,+00914,5,9",,,,"9,AGL   ,+99999,+99999","99,99,9,99,9,99,9,00914,1,99,9,99,9","240,M,-0011,1","240,N,-0117,1","10098,5,09445,5",,"71,5",,,,"MET11603/29/23 13:58:02 METAR PAPT 292258Z 17003KT 10SM -SN OVC030 M01/M01 A2982 RMK NO SPECI 410111117 70000 931000 4/020","R01   M017TMP046R02   M017DPT046"
"70249026526","2023-03-30T00:51:00","7","62.0911","-152.7349","566.3","PUNTILLA, AK US","FM-15","PAPT ","V020","180,5,N,0031,5","00914,5,M,N","032187,5,N,5","-0020,C","-0020,C","99999,9",,,,,,,,,,"02,5,+00610,5,99,9","07,5,+00914,5,99,9",,"1,99,1,+00610,5,9","3,99,1,+00914,5,9",,,"9,AGL   ,+99999,+99999","99,99,9,99,9,99,9,00610,1,99,9,99,9",,,"10078,5,09425,5",,,,,,"MET09503/29/23 15:51:01 METAR PAPT 300051Z 18006KT 20SM FEW020 BKN030 M02/M02 A2976 RMK NO SPECI LAST","R01   M027TMP046R02   M027DPT046"
"70249026526","2023-03-30T08:59:00","O","62.0911","-152.7349","566.3","PUNTILLA, AK US","SOD  ","PAPT ","V020","999,9,9,9999,9","99999,9,9,9","999999,9,9,9","+9999,9","+9999,9","99999,9",,,"AU,18,SN  ,5",,,,,,,,,,,,,,,,,,,,,,,,,
"70249026526","2023-03-30T16:52:00","7","62.0911","-152.7349","566.3","PUNTILLA, AK US","FM-15","PAPT ","V020","350,5,N,0010,5","22000,5,9,N","016093,5,N,5","-0100,C","-0100,C","99999,9",,,,,,"1,0,03,0,0,1,5",,"71,5",,"04,5,+03048,5,99,9",,,"2,99,1,+03048,5,9",,,,"9,AGL   ,+99999,+99999","04,99,5,99,9,99,9,03048,1,99,9,99,9",,,"09986,5,09339,5",,"71,5",,,,"MET09303/30/23 07:52:02 METAR PAPT 301652Z 35002KT 10SM -SN SCT100 M10/M10 A2949 RMK NO SPECI FIRST","R01   M107TMP046R02   M107DPT046D01      0ADE726"
"70249026526","2023-03-30T18:53:00","7","62.0911","-152.7349","566.3","PUNTILLA, AK US","FM-15","PAPT ","V020","360,5,N,0021,5","22000,5,9,N","016093,5,N,5","-0070,C","-0070,C","99999,9",,,,,,,,,,"04,5,+03048,5,99,9",,,"2,99,1,+03048,5,9",,,,"9,AGL   ,+99999,+99999","04,99,5,99,9,99,9,03048,1,99,9,99,9",,,"09986,5,09339,5",,,,,,"MET08303/30/23 09:53:02 METAR PAPT 301853Z 36004KT 10SM SCT100 M07/M07 A2949 RMK NO SPECI","R01   M077TMP046R02   M077DPT046D01      0ADE726"
"70249026526","2023-03-30T22:47:00","4","62.0911","-152.7349","566.3","PUNTILLA, AK US","FM-15","99999","V020","010,1,N,0026,1","99999,9,9,N","040234,1,9,9","-0010,5","-0010,5","99999,9","24,0000,2,1","0051,3,1,005080,9,9",,,,,,,,,,,"1,99,1,+99999,9,9",,,,"9,AGL   ,+99999,+99999",,"240,M,-0006,1","240,N,-0100,1","09959,5,99999,9",,,,,,"MET103METAR PAPT 302247Z 01005KT 25SM FEW 040 SCT100 M01/M01 A2941 RMK NO SPECI 410061100 70000 931000 4/020=","D01      0ADE693D02      0ADE539"
"70249026526","2023-03-31T00:50:00","7","62.0911","-152.7349","566.3","PUNTILLA, AK US","FM-15","PAPT ","V020","010,5,N,0026,5","22000,7,9,N","016093,5,N,5","+0000,C","+0000,C","99999,9",,,,,,,,,,"04,7,+03048,7,99,9",,,"2,99,1,+03048,7,9",,,,"9,AGL   ,+99999,+99999",,,,"09959,5,09313,5",,,,,,"MET09403/30/23 15:50:01 METAR PAPT 310050Z 01005KT 10SM FEW 030 SCT100 00/00 A2941 RMK NO SPECI LAST","R01FEW 037SKY009R02    007TMP046R03    007DPT046R04FEW 037GAS009D01      0ADE693D02      0ADE539"
"70249026526","2023-03-31T08:59:00","O","62.0911","-152.7349","566.3","PUNTILLA, AK US","SOD  ","PAPT ","V020","999,9,9,9999,9","99999,9,9,9","999999,9,9,9","+9999,9","+9999,9","99999,9",,,"AU,18,SN  ,5",,,,,,,,,,,,,,,,,,,,,,,,,
"70249026526","2023-03-31T16:53:00","7","62.0911","-152.7349","566.3","PUNTILLA, AK US","FM-15","PAPT ","V020","350,5,N,0041,5","22000,6,9,N","032187,5,N,5","-0030,C","-0030,C","99999,9",,,,,,,,,,"04,6,+01067,6,99,9",,,"2,99,1,+01067,6,9",,,,"9,AGL   ,+99999,+99999","04,99,5,99,9,99,9,01067,1,99,9,99,9",,,"09936,5,09291,5",,,,,,"MET09603/31/23 07:53:02 METAR PAPT 311653Z 35008KT 20SM SCT035 BRK070 M03/M03 A2934 RMK NO SPECI FIRST","R01SCT0357SKY010R02   M037TMP046R03   M037DPT046R04SCT0357GAS010D01      0ADE693D02      0ADE539D03      0ADE726"
"70249026526","2023-03-31T18:53:00","7","62.0911","-152.7349","566.3","PUNTILLA, AK US","FM-15","PAPT ","V020","350,5,N,0051,5","22000,6,9,N","032187,5,N,5","-0010,C","-0010,C","99999,9",,,,,,,,,,"04,6,+01067,6,99,9",,,"2,99,1,+01067,6,9",,,,"9,AGL   ,+99999,+99999","04,99,5,99,9,99,9,01067,1,99,9,99,9",,,"09939,5,09294,5",,,,,,"MET09003/31/23 09:53:02 METAR PAPT 311853Z 35010KT 20SM SCT035 BRK100 M01/M01 A2935 RMK NO SPECI","R01SCT0357SKY010R02   M017TMP046R03   M017DPT046R04SCT0357GAS010D01      0ADE693D02      0ADE539D03      0ADE726"
"70249026526","2023-03-31T20:58:00","7","62.0911","-152.7349","566.3","PUNTILLA, AK US","FM-15","PAPT ","V020","350,5,N,0077,5","22000,7,9,N","040234,5,N,5","+0000,C","+0000,C","99999,9",,,,,,,,,,"04,7,+03048,7,99,9",,,"2,99,1,+03048,7,9",,,,"9,AGL   ,+99999,+99999",,,,"09949,5,09304,5",,,,,,"MET09103/31/23 11:58:02 METAR PAPT 312058Z 35015KT 25SM FEW 050 SCT100 M00/M00 A2938 RMK NO SPECI","R01FEW 057SKY009R02   M007TMP046R03   M007DPT046R04FEW 057GAS009D01      0ADE693D02      0ADE539"
"70249026526","2023-03-31T22:54:00","4","62.0911","-152.7349","566.3","PUNTILLA, AK US","FM-15","99999","V020","350,1,N,0062,1","99999,9,9,N","040234,1,9,9","-0010,5","-0010,5","99999,9","24,0000,9,1","0051,3,1,005080,9,9",,,,,,,,,,,"1,99,1,+99999,9,9",,,,"9,AGL   ,+99999,+99999",,"240,M,+0000,1","240,N,-0028,1","09949,5,99999,9",,,,,,"MET103METAR PAPT 312254Z 35012KT 25SM FEW 050 SCT100 M01/M01 A2938 RMK NO SPECI 400001028 70000 931000 4/020=","Q01  00002PRCP24D01      0ADE693D02      0ADE539"
"70249026526","2023-04-01T00:49:00","4","62.0911","-152.7349","566.3","PUNTILLA, AK US","FM-15","99999","V020","350,1,N,0077,1","02134,1,9,N","040234,1,9,9","-0010,1","-0010,1","99999,9",,,,,,,,,,,,,"2,99,1,+00914,1,9","3,99,1,+02134,1,9",,,"9,AGL   ,+99999,+99999","99,99,9,99,9,99,9,00914,1,99,9,99,9",,,"09956,1,99999,9",,,,,,"MET078METAR PAPT 010049Z 35015KT 25SM SCT030 BKN070 M01/M01 A2940 RMK NO SPECI LAST=",
"70249026526","2023-04-01T14:54:00","4","62.0911","-152.7349","566.3","PUNTILLA, AK US","FM-15","99999","V020","340,1,N,0077,1","02134,1,9,N","040234,1,9,9","-0050,1","-0050,1","99999,9",,,,,,,,,,,,,"2,99,1,+00914,1,9","4,99,1,+02134,1,9",,,"9,AGL   ,+99999,+99999","99,99,9,99,9,99,9,00914,1,99,9,99,9",,,"10047,1,99999,9",,,,,,"MET079METAR PAPT 011454Z 34015KT 25SM SCT030 OVC070 M05/M05 A2967 RMK NO SPECI FIRST=",
"70249026526","2023-04-01T16:54:00","4","62.0911","-152.7349","566.3","PUNTILLA, AK US","FM-15","99999","V020","340,1,N,0088,1","22000,5,9,N","040234,1,9,9","-0050,1","-0050,1","99999,9",,,,,,,,,,,,,"1,99,1,+00914,1,9","2,99,1,+02134,1,9",,,"9,AGL   ,+99999,+99999","04,99,5,99,9,99,9,00914,1,99,9,99,9",,,"10068,1,99999,9",,,,,,"MET073METAR PAPT 011654Z 34017KT 25SM FEW030 SCT070 M05/M05 A2973 RMK NO SPECI=","D01      0ADE726"
"70249026526","2023-04-01T18:51:00","4","62.0911","-152.7349","566.3","PUNTILLA, AK US","FM-15","99999","V020","350,1,N,0051,1","22000,5,9,N","040234,1,9,9","-0030,1","-0030,1","99999,9",,,,,,,,,,,,,"2,99,1,+01372,1,9",,,,"9,AGL   ,+99999,+99999","04,99,5,99,9,99,9,01372,1,99,9,99,9",,,"10081,1,99999,9",,,,,,"MET066METAR PAPT 011851Z 35010KT 25SM SCT045 M03/M03 A2977 RMK NO SPECI=","D01      0ADE726"
"70249026526","2023-04-01T20:47:00","4","62.0911","-152.7349","566.3","PUNTILLA, AK US","FM-15","99999","V020","340,1,N,0062,1","22000,5,9,N","040234,1,9,9","-0010,1","-0010,1","99999,9",,,,,,,,,,,,,"2,99,1,+01372,1,9",,,,"9,AGL   ,+99999,+99999","04,99,5,99,9,99,9,01372,1,99,9,99,9",,,"10095,1,99999,9",,,,,,"MET066METAR PAPT 012047Z 34012KT 25SM SCT045 M01/M01 A2981 RMK NO SPECI=","D01      0ADE726"
"70249026526","2023-04-01T22:59:00","4","62.0911","-152.7349","566.3","PUNTILLA, AK US","FM-15","99999","V020","350,1,N,0036,1","22000,5,9,N","040234,1,9,9","+0010,1","+0010,1","99999,9","24,0000,9,1","0051,3,1,005080,9,9",,,,,,,,,,,"1,99,1,+01524,1,9",,,,"9,AGL   ,+99999,+99999","02,99,5,99,9,99,9,01524,1,99,9,99,9","240,M,+0006,1","240,N,-0006,1","10105,1,99999,9",,,,,,"MET093METAR PAPT 012259Z 35007KT 25SM FEW050 01/01 A2984 RMK NO SPECI 400061006 70000 931000 4/020=","Q01  00002PRCP24D01      0ADE726"
"70249026526","2023-04-02T00:58:00","4","62.0911","-152.7349","566.3","PUNTILLA, AK US","FM-15","99999","V020","010,1,N,0026,1","22000,1,9,N","040234,1,9,9","-0010,1","-0010,1","99999,9",,,,,,,,,,,,,,,,,,"00,99,1,99,9,99,9,99999,9,99,9,99,9",,,"10108,1,99999,9",,,,,,"MET063METAR PAPT 020058Z 01005KT 25SM SKC M01/M01 A2985 RMK NO SPECI=",
"70249026526","2023-04-02T02:58:00","4","62.0911","-152.7349","566.3","PUNTILLA, AK US","FM-15","99999","V020","010,1,N,0021,1","22000,5,9,N","040234,1,9,9","-0030,1","-0030,1","99999,9",,,,,,,,,,,,,"2,99,1,+03048,1,9",,,,"9,AGL   ,+99999,+99999","04,99,5,99,9,99,9,03048,1,99,9,99,9",,,"10112,1,99999,9",,,,,,"MET066METAR PAPT 020258Z 01004KT 25SM SCT100 M03/M03 A2986 RMK NO SPECI=","D01      0ADE726"
"70249026526","2023-04-02T14:52:00","4","62.0911","-152.7349","566.3","PUNTILLA, AK US","FM-15","99999","V020","350,1,N,0021,1","22000,5,9,N","040234,1,9,9","-0110,1","-0110,1","99999,9",,,,,,,,,,,,,"1,99,1,+01524,1,9",,,,"9,AGL   ,+99999,+99999","02,99,5,99,9,99,9,01524,1,99,9,99,9",,,"10122,1,99999,9",,,,,,"MET072METAR PAPT 021452Z 35004KT 25SM FEW050 M11/M11 A2989 RMK NO SPECI FIRST=","D01      0ADE726"
"70249026526","2023-04-02T16:49:00","4","62.0911","-152.7349","566.3","PUNTILLA, AK US","FM-15","99999","V020","350,1,N,0021,1","22000,5,9,N","040234,1,9,9","-0100,1","-0100,1","99999,9",,,,,,,,,,,,,"1,99,1,+01524,1,9",,,,"9,AGL   ,+99999,+99999","02,99,5,99,9,99,9,01524,1,99,9,99,9",,,"10125,1,99999,9",,,,,,"MET066METAR PAPT 021649Z 35004KT 25SM FEW050 M10/M10 A2990 RMK NO SPECI=","D01      0ADE726"
"70249026526","2023-04-02T18:48:00","4","62.0911","-152.7349","566.3","PUNTILLA, AK US","FM-15","99999","V020","360,1,N,0015,1","22000,5,9,N","040234,1,9,9","-0030,1","-0030,1","99999,9",,,,,,,,,,,,,"1,99,1,+02134,1,9",,,,"9,AGL   ,+99999,+99999","02,99,5,99,9,99,9,02134,1,99,9,99,9",,,"10129,1,99999,9",,,,,,"MET066METAR PAPT 021848Z 36003KT 25SM FEW070 M03/M03 A2991 RMK NO SPECI=","D01      0ADE726"
"70249026526","2023-04-02T20:53:00","4","62.0911","-152.7349","566.3","PUNTILLA, AK US","FM-15","99999","V020","360,1,N,0015,1","22000,5,9,N","040234,1,9,9","-0010,1","-0010,1","99999,9",,,,,,,,,,,,,"1,99,1,+03048,1,9",,,,"9,AGL   ,+99999,+99999","02,99,5,99,9,99,9,03048,1,99,9,99,9",,,"10135,1,99999,9",,,,,,"MET066METAR PAPT 022053Z 36003KT 25SM FEW100 M01/M01 A2993 RMK NO SPECI=","D01      0ADE726"
"70249026526","2023-04-02T22:49:00","4","62.0911","-152.7349","566.3","PUNTILLA, AK US","FM-15","99999","V020","360,1,N,0010,1","22000,5,9,N","040234,1,9,9","+0030,1","+9999,9","99999,9","24,0000,9,1","0048,3,1,004830,9,9",,,,,,,,,,,"1,99,1,+03048,1,9",,,,"9,AGL   ,+99999,+99999","02,99,5,99,9,99,9,03048,1,99,9,99,9","240,M,+0033,1","240,N,-0111,1","10139,1,99999,9",,,,,,"MET091METAR PAPT 022249Z 36002KT 25SM FEW100 03/ A2994 RMK NO SPECI 400331111 70000 931000 4/019=","Q01  00002PRCP24D01      0ADE726"
"70249026526","2023-04-03T01:04:00","4","62.0911","-152.7349","566.3","PUNTILLA, AK US","FM-15","99999","V020","180,1,N,0015,1","22000,5,9,N","040234,1,9,9","+0030,1","-0010,1","99999,9",,,,,,,,,,,,,"1,99,1,+03048,1,9",,,,"9,AGL   ,+99999,+99999","02,99,5,99,9,99,9,03048,1,99,9,99,9",,,"10139,1,99999,9",,,,,,"MET065METAR PAPT 030104Z 18003KT 25SM FEW100 03/M01 A2994 RMK NO SPECI=","D01      0ADE726"
"70249026526","2023-04-03T02:46:00","4","62.0911","-152.7349","566.3","PUNTILLA, AK US","FM-15","99999","V020","340,1,N,0015,1","22000,5,9,N","040234,1,9,9","+0000,1","-0040,1","99999,9",,,,,,,,,,,,,"1,99,1,+03048,1,9",,,,"9,AGL   ,+99999,+99999","02,99,5,99,9,99,9,03048,1,99,9,99,9",,,"10146,1,99999,9",,,,,,"MET070METAR PAPT 030246Z 34003KT 25SM FEW100 00/M04 A2996 RMK NO SPECI LAST=","D01      0ADE726"
"70249026526","2023-04-03T14:52:00","7","62.0911","-152.7349","566.3","PUNTILLA, AK US","FM-15","PAPT ","V020","350,5,N,0010,5","22000,5,9,N","040234,5,N,5","-0180,C","+9999,9","99999,9",,,,,,,,,,"02,5,+03048,5,99,9",,,"1,99,1,+03048,5,9",,,,"9,AGL   ,+99999,+99999","02,99,5,99,9,99,9,03048,1,99,9,99,9",,,"10146,5,09490,5",,,,,,"MET08504/03/23 05:52:01 METAR PAPT 031452Z 35002KT 25SM FEW100 M18/A2996 RMK NO SPECI FIRST","R01   M187TMP046D01      0ADE726"
"70249026526","2023-04-03T16:49:00","7","62.0911","-152.7349","566.3","PUNTILLA, AK US","FM-15","PAPT ","V020","350,5,N,0010,5","22000,5,9,N","040234,5,N,5","-0170,C","+9999,9","99999,9",,,,,,,,,,"02,5,+03048,5,99,9",,,"1,99,1,+03048,5,9",,,,"9,AGL   ,+99999,+99999","02,99,5,99,9,99,9,03048,1,99,9,99,9",,,"10146,5,09490,5",,,,,,"MET07904/03/23 07:49:02 METAR PAPT 031649Z 35002KT 25SM FEW100 M17/A2996 RMK NO SPECI","R01   M177TMP046D01      0ADE726"
"70249026526","2023-04-03T18:51:00","7","62.0911","-152.7349","566.3","PUNTILLA, AK US","FM-15","PAPT ","V020","340,5,N,0010,5","03048,5,M,N","040234,5,N,5","-0070,C","-0070,C","99999,9",,,,,,,,,,"08,5,+03048,5,99,9",,,"4,99,1,+03048,5,9",,,,"9,AGL   ,+99999,+99999","99,99,9,99,9,99,9,03048,1,99,9,99,9",,,"10146,5,09490,5",,,,,,"MET08304/03/23 09:51:02 METAR PAPT 031851Z 34002KT 25SM OVC100 M07/M07 A2996 RMK NO SPECI","R01   M077TMP046R02   M077DPT046"
"70249026526","2023-04-03T20:50:00","7","62.0911","-152.7349","566.3","PUNTILLA, AK US","FM-15","PAPT ","V020","170,5,N,0015,5","02134,5,M,N","040234,5,N,5","-0030,C","-0040,C","99999,9",,,,,,,,,,"08,5,+02134,5,99,9",,,"4,99,1,+02134,5,9",,,,"9,AGL   ,+99999,+99999","99,99,9,99,9,99,9,02134,1,99,9,99,9",,,"10119,5,09464,5",,,,,,"MET08304/03/23 11:50:02 METAR PAPT 032050Z 17003KT 25SM OVC070 M03/M04 A2988 RMK NO SPECI","R01   M037TMP046R02   M047DPT046"
"70249026526","2023-04-03T22:47:00","7","62.0911","-152.7349","566.3","PUNTILLA, AK US","FM-15","PAPT ","V020","190,5,N,0015,5","02134,5,M,N","024140,5,N,5","-0030,C","-0030,C","99999,9","24,0000,9,1","0048,9,5,004830,9,9",,,,,,,,"08,5,+02134,5,99,9",,,"4,99,1,+02134,5,9",,,,"9,AGL   ,+99999,+99999","99,99,9,99,9,99,9,02134,1,99,9,99,9","240,M,-0028,1","240,N,-0183,1","10119,5,09464,5",,,,,,"MET11204/03/23 13:47:02 METAR PAPT 032247Z 19003KT 15SM OVC070 M03/M03 A2988 RMK NO SPECI 410281183 70000 931000 4/019","Q01  00002PRCP24R01   M037TMP046R02   M037DPT046"
"70249026526","2023-04-04T02:56:00","7","62.0911","-152.7349","566.3","PUNTILLA, AK US","FM-15","PAPT ","V020","190,5,N,0051,5","00762,5,M,N","004828,5,N,5","-0040,C","-0050,C","99999,9",,,,,,,,,,"08,5,+00762,5,99,9",,,"4,99,1,+00762,5,9",,,,"9,AGL   ,+99999,+99999","99,99,9,99,9,99,9,00762,1,99,9,99,9",,,"10105,5,09451,5",,,,,,"MET08704/03/23 17:56:02 METAR PAPT 040256Z 19010KT 3SM OVC025 M04/M05 A2984 RMK NO SPECI LAST","R01   M047TMP046R02   M057DPT046"
"70249026526","2023-04-04T14:53:00","7","62.0911","-152.7349","566.3","PUNTILLA, AK US","FM-15","PAPT ","V020","180,5,N,0021,6","00457,5,M,N","003219,5,N,5","-0060,C","-0070,C","99999,9",,,,,,"1,0,03,0,0,1,6","2,5,03,0,0,1,6","27,6","71,6","08,5,+00457,5,99,9",,,"4,99,1,+00457,5,9",,,,"9,AGL   ,+99999,+99999","99,99,9,99,9,99,9,00457,1,99,9,99,9",,,"10071,5,09419,5",,"38,1","71,6",,,"MET11204/04/23 05:53:02 METAR PAPT 041453Z 18004KT 2SM -SN BLSN OVC015 M06/M07 A2974 RMK NO SPECI FIRST NO SPECI FIRST","R01    047WNS020R02   M067TMP046R03   M077DPT046R04-SN BL7AWW020R05SEERMK7MVW020R06-SN BL7MWW020"
"70249026526","2023-04-04T18:50:00","7","62.0911","-152.7349","566.3","PUNTILLA, AK US","FM-15","PAPT ","V020","170,5,N,0026,5","00610,5,M,N","008047,5,N,5","-0040,C","-0050,C","99999,9",,,,,,,,,,"04,5,+00305,5,99,9","08,5,+00610,5,99,9",,"2,99,1,+00305,5,9","4,99,1,+00610,5,9",,,"9,AGL   ,+99999,+99999","99,99,9,99,9,99,9,00305,1,99,9,99,9",,,"10058,5,09406,5",,,,,,"MET10404/04/23 09:50:02 METAR PAPT 041850Z 17005KT 5SM SCT010 OVC020 M04/M05 A2970 RMK NO SPECI NO SPECI FIRST","R01   M047TMP046R02   M057DPT046"
"70249026526","2023-04-04T20:48:00","7","62.0911","-152.7349","566.3","PUNTILLA, AK US","FM-15","PAPT ","V020","180,5,N,0026,5","00762,5,M,N","024140,5,N,5","-0030,C","-0030,C","99999,9",,,,,,,,,,"04,5,+00305,5,99,9","08,5,+00762,5,99,9",,"2,99,1,+00305,5,9","4,99,1,+00762,5,9",,,"9,AGL   ,+99999,+99999","99,99,9,99,9,99,9,00305,1,99,9,99,9",,,"10054,5,09403,5",,,,,,"MET10504/04/23 11:48:02 METAR PAPT 042048Z 18005KT 15SM SCT010 OVC025 M03/M03 A2969 RMK NO SPECI NO SPECI FIRST","R01   M037TMP046R02   M037DPT046"
"70249026526","2023-04-05T00:54:00","7","62.0911","-152.7349","566.3","PUNTILLA, AK US","FM-15","PAPT ","V020","210,5,N,0015,5","00610,5,M,N","040234,5,N,5","-0010,C","-0010,C","99999,9",,,,,,,,,,"08,5,+00610,5,99,9",,,"4,99,1,+00610,5,9",,,,"9,AGL   ,+99999,+99999","99,99,9,99,9,99,9,00610,1,99,9,99,9",,,"10037,5,09387,5",,,,,,"MET09804/04/23 15:54:01 METAR PAPT 050054Z 21003KT 25SM OVC020 M01/M01 A2964 RMK NO SPECI NO SPECI FIRST","R01   M017TMP046R02   M017DPT046"
"70249026526","2023-04-05T02:58:00","7","62.0911","-152.7349","566.3","PUNTILLA, AK US","FM-15","PAPT ","V020","220,5,N,0015,5","00762,5,M,N","040234,5,N,5","-0020,C","-0020,C","99999,9",,,,,,,,,,"08,5,+00762,5,99,9",,,"4,99,1,+00762,5,9",,,,"9,AGL   ,+99999,+99999","99,99,9,99,9,99,9,00762,1,99,9,99,9",,,"10030,5,09381,5",,,,,,"MET10304/04/23 17:58:02 METAR PAPT 050258Z 22003KT 25SM OVC025 M02/M02 A2962 RMK NO SPECI LAST NO SPECI FIRST","R01   M027TMP046R02   M027DPT046"
"70249026526","2023-04-05T14:57:00","7","62.0911","-152.7349","566.3","PUNTILLA, AK US","FM-15","PAPT ","V020","230,5,N,0026,5","00610,5,M,N","040234,5,N,5","-0050,C","-0060,C","99999,9",,,,,,,,,,"08,5,+00610,5,99,9",,,"4,99,1,+00610,5,9",,,,"9,AGL   ,+99999,+99999","99,99,9,99,9,99,9,00610,1,99,9,99,9",,,"10030,5,09381,5",,,,,,"MET10404/05/23 05:57:02 METAR PAPT 051457Z 23005KT 25SM OVC020 M05/M06 A2962 RMK NO SPECI FIRST NO SPECI FIRST","R01   M057TMP046R02   M067DPT046"
"70249026526","2023-04-05T18:50:00","7","62.0911","-152.7349","566.3","PUNTILLA, AK US","FM-15","PAPT ","V020","999,9,C,0000,5","00610,5,M,N","040234,5,N,5","-0020,C","-0020,C","99999,9",,,,,,,,,,"08,5,+00610,5,99,9",,,"4,99,1,+00610,5,9",,,,"9,AGL   ,+99999,+99999","99,99,9,99,9,99,9,00610,1,99,9,99,9",,,"09993,5,09345,5",,,,,,"MET09804/05/23 09:50:02 METAR PAPT 051850Z 00000KT 25SM OVC020 M02/M02 A2951 RMK NO SPECI NO SPECI FIRST","R01   M027TMP046R02   M027DPT046"
"70249026526","2023-04-05T20:57:00","7","62.0911","-152.7349","566.3","PUNTILLA, AK US","FM-15","PAPT ","V020","340,5,N,0026,5","22000,6,9,N","040234,5,N,5","-0010,C","-0010,C","99999,9",,,,,,,,,,"04,6,+00610,6,99,9",,,"2,99,1,+00610,6,9",,,,"9,AGL   ,+99999,+99999","04,99,5,99,9,99,9,00610,1,99,9,99,9",,,"09983,5,09336,5",,,,,,"MET09604/05/23 11:57:02 METAR PAPT 052057Z 34005KT 25SM SCT020 BRK070 M01/M01 A2948 RMK NO SPECI FIRST","R01SCT0207SKY010R02   M017TMP046R03   M017DPT046R04SCT0207GAS010D01      0ADE693D02      0ADE539D03      0ADE726"
"70249026526","2023-04-05T23:07:00","7","62.0911","-152.7349","566.3","PUNTILLA, AK US","FM-15","PAPT ","V020","340,5,N,0026,5","22000,6,9,N","040234,5,N,5","+0010,5","+0010,5","99999,9","24,0000,9,1","0048,9,5,004830,9,9",,,,,,,,"04,6,+00610,6,99,9",,,"2,99,1,+00610,6,9",,,,"9,AGL   ,+99999,+99999","04,99,5,99,9,99,9,00610,1,99,9,99,9","240,M,+0011,1","240,N,-0056,1","09980,5,09332,5",,,,,,"MET12304/05/23 14:07:02 METAR PAPT 052307Z 34005KT 25SM SCT020 BRK070 01/01 A2947 RMK 400111056 70000 931000 4/019 NO SPECI FIRST","Q01  00002PRCP24R01SCT0207SKY010R02SCT0207GAS010D01      0ADE693D02      0ADE539D03      0ADE726"
"70249026526","2023-04-06T00:51:00","7","62.0911","-152.7349","566.3","PUNTILLA, AK US","FM-15","PAPT ","V020","360,5,N,0026,5","22000,5,9,N","040234,5,N,5","-0010,C","-0010,C","99999,9",,,,,,,,,,"02,5,+00762,5,99,9","04,5,+02134,5,99,9",,"1,99,1,+00762,5,9","2,99,1,+02134,5,9",,,"9,AGL   ,+99999,+99999","04,99,5,99,9,99,9,00762,1,99,9,99,9",,,"09970,5,09323,5",,,,,,"MET09604/05/23 15:51:01 METAR PAPT 060051Z 36005KT 25SM FEW025 SCT070 M01/M01 A2944 RMK NO SPECI FIRST","R01   M017TMP046R02   M017DPT046D01      0ADE726"
"70249026526","2023-04-06T02:58:00","7","62.0911","-152.7349","566.3","PUNTILLA, AK US","FM-15","PAPT ","V020","360,5,N,0026,5","22000,5,9,N","024140,5,N,5","-0020,C","-0020,C","99999,9",,,,,,,,,,"04,5,+02134,5,99,9",,,"2,99,1,+02134,5,9",,,,"9,AGL   ,+99999,+99999","04,99,5,99,9,99,9,02134,1,99,9,99,9",,,"09963,5,09316,5",,,,,,"MET07904/05/23 17:58:02 METAR PAPT 060258Z 36005KT 15SM SCT070 M02/M02 A2942 RMK LAST","R01   M027TMP046R02   M027DPT046D01      0ADE726"
"70249026526","2023-04-06T14:51:00","7","62.0911","-152.7349","566.3","PUNTILLA, AK US","FM-15","PAPT ","V020","020,5,N,0026,5","22000,5,9,N","040234,5,N,5","-0140,C","-0150,C","99999,9",,,,,,,,,,"02,5,+03048,5,99,9",,,"1,99,1,+03048,5,9",,,,"9,AGL   ,+99999,+99999","02,99,5,99,9,99,9,03048,1,99,9,99,9",,,"09942,5,09297,5",,,,,,"MET08004/06/23 05:51:02 METAR PAPT 061451Z 02005KT 25SM FEW100 M14/M15 A2936 RMK FIRST","R01   M147TMP046R02   M157DPT046D01      0ADE726"
"70249026526","2023-04-06T16:51:00","7","62.0911","-152.7349","566.3","PUNTILLA, AK US","FM-15","PAPT ","V020","020,5,N,0026,5","22000,5,9,N","040234,5,N,5","-0140,C","-0150,C","99999,9",,,,,,,,,,"02,5,+03048,5,99,9",,,"1,99,1,+03048,5,9",,,,"9,AGL   ,+99999,+99999","02,99,5,99,9,99,9,03048,1,99,9,99,9",,,"09932,5,09288,5",,,,,,"MET07404/06/23 07:51:02 METAR PAPT 061651Z 02005KT 25SM FEW100 M14/M15 A2933 RMK","R01   M147TMP046R02   M157DPT046D01      0ADE726"
"70249026526","2023-04-06T18:49:00","7","62.0911","-152.7349","566.3","PUNTILLA, AK US","FM-15","PAPT ","V020","999,9,N,9999,9","22000,5,9,N","040234,5,N,5","-0110,C","-0120,C","99999,9",,,,,,,,,,"02,5,+03048,5,99,9",,,"1,99,1,+03048,5,9",,,,,,,,"09919,5,09275,5",,,,,,"MET07404/06/23 09:49:02 METAR PAPT 061849Z      KT 25SM FEW100 M11/M12 A2929 RMK","R01   M117TMP046R02   M127DPT046D01      0ADE693D02      0ADE539"
"70249026526","2023-04-06T20:48:00","7","62.0911","-152.7349","566.3","PUNTILLA, AK US","FM-15","PAPT ","V020","999,9,N,9999,9","22000,7,9,N","040234,5,N,5","-0070,C","-0080,C","99999,9",,,,,,,,,,"00,7,+99999,9,99,9",,,"0,99,1,+99999,9,9",,,,,,,,"09915,5,09272,5",,,,,,"MET07104/06/23 11:48:02 METAR PAPT 062048Z      KT 25SM SKC M07/M08 A2928 RMK","R01   SKC7SKY009R02   M077TMP046R03   M087DPT046R04   SKC7GAS009D01      0ADE693D02      0ADE539"
"70249026526","2023-04-06T22:57:00","7","62.0911","-152.7349","566.3","PUNTILLA, AK US","FM-15","PAPT ","V020","360,5,N,0026,5","22000,7,9,N","040234,5,N,5","-0060,C","-0070,C","99999,9","24,0000,9,1","0048,9,5,004830,9,9",,,,,,,,"00,7,+99999,9,99,9",,,"0,99,1,+99999,9,9",,,,,"00,99,1,99,9,99,9,99999,9,99,9,99,9",,,"09912,5,09268,5",,,,,,"MET10904/06/23 13:57:02 METAR PAPT 062257Z 36005KT 25SM SKC M06/M07 A2927 RMK NO SPECI 411391061 70000 931000 4/019","Q01  00002PRCP24R01   SKC7SKY009R02   M067TMP046R03   M077DPT046R04   SKC7GAS009"
"70249026526","2023-04-07T01:00:00","7","62.0911","-152.7349","566.3","PUNTILLA, AK US","FM-15","PAPT ","V020","220,5,N,0015,5","22000,7,9,N","040234,5,N,5","-0060,C","-0060,C","99999,9",,,,,,,,,,"00,7,+99999,9,99,9",,,"0,99,1,+99999,9,9",,,,,"00,99,1,99,9,99,9,99999,9,99,9,99,9",,,"09898,5,09255,5",,,,,,"MET08004/06/23 16:00:01 METAR PAPT 070100Z 22003KT 25SM SKC M06/M06 A2923 RMK NO SPECI","R01   SKC7SKY009R02   M067TMP046R03   M067DPT046R04   SKC7GAS009"
"70249026526","2023-04-07T02:55:00","7","62.0911","-152.7349","566.3","PUNTILLA, AK US","FM-15","PAPT ","V020","350,5,N,0051,5","22000,7,9,N","040234,5,N,5","-0080,C","-0090,C","99999,9",,,,,,,,,,"00,7,+99999,9,99,9",,,"0,99,1,+99999,9,9",,,,,"00,99,1,99,9,99,9,99999,9,99,9,99,9",,,"09898,5,09255,5",,,,,,"MET08504/06/23 17:55:01 METAR PAPT 070255Z 35010KT 25SM SKC M08/M09 A2923 RMK NO SPECI LAST","R01   SKC7SKY009R02   M087TMP046R03   M097DPT046R04   SKC7GAS009"
"70249026526","2023-04-07T14:54:00","7","62.0911","-152.7349","566.3","PUNTILLA, AK US","FM-15","PAPT ","V020","350,5,N,0015,5","22000,7,9,N","040234,5,N,5","-0120,C","-0140,C","99999,9",,,,,,,,,,"00,7,+99999,9,99,9",,,"0,99,1,+99999,9,9",,,,,"00,99,1,99,9,99,9,99999,9,99,9,99,9",,,"09898,5,09255,5",,,,,,"MET08604/07/23 05:54:02 METAR PAPT 071454Z 35003KT 25SM SKC M12/M14 A2923 RMK NO SPECI FIRST","R01   SKC7SKY009R02   M127TMP046R03   M147DPT046R04   SKC7GAS009"
"70249026526","2023-04-07T16:48:00","7","62.0911","-152.7349","566.3","PUNTILLA, AK US","FM-15","PAPT ","V020","360,5,N,0010,5","22000,7,9,N","040234,5,N,5","-0230,C","-0260,C","99999,9",,,,,,,,,,"00,7,+99999,9,99,9",,,"0,99,1,+99999,9,9",,,,,"00,99,1,99,9,99,9,99999,9,99,9,99,9",,,"09902,5,09259,5",,,,,,"MET08004/07/23 07:48:02 METAR PAPT 071648Z 36002KT 25SM SKC M23/M26 A2924 RMK NO SPECI","R01   SKC7SKY009R02   M237TMP046R03   M267DPT046R04   SKC7GAS009"
"70249026526","2023-04-07T18:52:00","7","62.0911","-152.7349","566.3","PUNTILLA, AK US","FM-15","PAPT ","V020","020,5,N,0015,5","22000,7,9,N","040234,5,N,5","-0150,C","-0170,C","99999,9",,,,,,,,,,"00,7,+99999,9,99,9",,,"0,99,1,+99999,9,9",,,,,"00,99,1,99,9,99,9,99999,9,99,9,99,9",,,"09905,5,09262,5",,,,,,"MET08004/07/23 09:52:02 METAR PAPT 071852Z 02003KT 25SM SKC M15/M17 A2925 RMK NO SPECI","R01   SKC7SKY009R02   M157TMP046R03   M177DPT046R04   SKC7GAS009"
"70249026526","2023-04-07T20:57:00","7","62.0911","-152.7349","566.3","PUNTILLA, AK US","FM-15","PAPT ","V020","030,5,N,0015,5","22000,7,9,N","040234,5,N,5","-0100,C","-0110,C","99999,9",,,,,,,,,,"00,7,+99999,9,99,9",,,"0,99,1,+99999,9,9",,,,,"00,99,1,99,9,99,9,99999,9,99,9,99,9",,,"09905,5,09262,5",,,,,,"MET08004/07/23 11:57:02 METAR PAPT 072057Z 03003KT 25SM SKC M10/M11 A2925 RMK NO SPECI","R01   SKC7SKY009R02   M107TMP046R03   M117DPT046R04   SKC7GAS009"
"70249026526","2023-04-07T22:53:00","7","62.0911","-152.7349","566.3","PUNTILLA, AK US","FM-15","PAPT ","V020","020,5,N,0015,5","22000,5,9,N","040234,5,N,5","-0070,C","-0080,C","99999,9","24,0000,9,1","0048,9,5,004830,9,9",,,,,,,,"02,5,+03048,5,99,9",,,"1,99,1,+03048,5,9",,,,"9,AGL   ,+99999,+99999","02,99,5,99,9,99,9,03048,1,99,9,99,9","240,M,+0072,1","240,N,-0233,1","09905,5,09262,5",,,,,,"MET11204/07/23 13:53:02 METAR PAPT 072253Z 02003KT 25SM FEW100 M07/M08 A2925 RMK NO SPECI 400721233 70000 931000 4/019","Q01  00002PRCP24R01   M077TMP046R02   M087DPT046D01      0ADE726"
"70249026526","2023-04-08T00:51:00","7","62.0911","-152.7349","566.3","PUNTILLA, AK US","FM-15","PAPT ","V020","350,5,N,0015,5","22000,5,9,N","040234,5,N,5","-0050,C","-0060,C","99999,9",,,,,,,,,,"02,5,+03048,5,99,9",,,"1,99,1,+03048,5,9",,,,"9,AGL   ,+99999,+99999","02,99,5,99,9,99,9,03048,1,99,9,99,9",,,"09902,5,09259,5",,,,,,"MET08304/07/23 15:51:01 METAR PAPT 080051Z 35003KT 25SM FEW100 M05/M06 A2924 RMK NO SPECI","R01   M057TMP046R02   M067DPT046D01      0ADE726"
"70249026526","2023-04-08T03:00:00","7","62.0911","-152.7349","566.3","PUNTILLA, AK US","FM-15","PAPT ","V020","350,5,N,0021,5","22000,7,9,N","040234,5,N,5","-0060,C","-0060,C","99999,9",,,,,,,,,,"00,7,+99999,9,99,9",,,"0,99,1,+99999,9,9",,,,,"00,99,1,99,9,99,9,99999,9,99,9,99,9",,,"09902,5,09259,5",,,,,,"MET08504/07/23 18:00:01 METAR PAPT 080300Z 35004KT 25SM SKC M06/M06 A2924 RMK NO SPECI LAST","R01   SKC7SKY009R02   M067TMP046R03   M067DPT046R04   SKC7GAS009"
"70249026526","2023-04-08T14:50:00","7","62.0911","-152.7349","566.3","PUNTILLA, AK US","FM-15","PAPT ","V020","350,5,N,0015,5","22000,5,9,N","040234,5,N,5","-0230,C","-0260,C","99999,9",,,,,,,,,,"02,5,+03048,5,99,9",,,"1,99,1,+03048,5,9",,,,"9,AGL   ,+99999,+99999","02,99,5,99,9,99,9,03048,1,99,9,99,9",,,"09909,5,09265,5",,,,,,"MET08904/08/23 05:50:02 METAR PAPT 081450Z 35003KT 25SM FEW100 M23/M26 A2926 RMK NO SPECI FIRST","R01   M237TMP046R02   M267DPT046D01      0ADE726"
"70249026526","2023-04-08T16:51:00","7","62.0911","-152.7349","566.3","PUNTILLA, AK US","FM-15","PAPT ","V020","350,5,N,0015,5","22000,5,9,N","040234,5,N,5","-0170,C","-0190,C","99999,9",,,,,,,,,,"02,5,+03048,5,99,9",,,"1,99,1,+03048,5,9",,,,"9,AGL   ,+99999,+99999","02,99,5,99,9,99,9,03048,1,99,9,99,9",,,"09905,5,09262,5",,,,,,"MET08304/08/23 07:51:02 METAR PAPT 081651Z 35003KT 25SM FEW100 M17/M19 A2925 RMK NO SPECI","R01   M177TMP046R02   M197DPT046D01      0ADE726"
"70249026526","2023-04-08T18:51:00","7","62.0911","-152.7349","566.3","PUNTILLA, AK US","FM-15","PAPT ","V020","360,5,N,0041,5","22000,5,9,N","040234,5,N,5","-0120,C","-0140,C","99999,9",,,,,,,,,,"02,5,+01219,5,99,9","02,5,+03048,5,99,9",,"1,99,1,+01219,5,9","1,99,1,+03048,5,9",,,"9,AGL   ,+99999,+99999","02,99,5,99,9,99,9,01219,1,99,9,99,9",,,"09898,5,09255,5",,,,,,"MET09004/08/23 09:51:02 METAR PAPT 081851Z 36008KT 25SM FEW040 FEW100 M12/M14 A2923 RMK NO SPECI","R01   M127TMP046R02   M147DPT046D01      0ADE726"
"70249026526","2023-04-08T20:52:00","7","62.0911","-152.7349","566.3","PUNTILLA, AK US","FM-15","PAPT ","V020","360,5,N,0041,5","22000,5,9,N","040234,5,N,5","-0090,C","-0100,C","99999,9",,,,,,,,,,"02,5,+03048,5,99,9",,,"1,99,1,+03048,5,9",,,,"9,AGL   ,+99999,+99999","02,99,5,99,9,99,9,03048,1,99,9,99,9",,,"09892,5,09249,5",,,,,,"MET08304/08/23 11:52:02 METAR PAPT 082052Z 36008KT 25SM FEW100 M09/M10 A2921 RMK NO SPECI","R01   M097TMP046R02   M107DPT046D01      0ADE726"
"70249026526","2023-04-08T22:50:00","7","62.0911","-152.7349","566.3","PUNTILLA, AK US","FM-15","PAPT ","V020","360,5,N,0026,5","22000,7,9,N","040234,5,N,5","-0070,C","-0080,C","99999,9","24,0000,9,1","0048,9,5,004830,9,9",,,,,,,,"00,7,+99999,9,99,9",,,"0,99,1,+99999,9,9",,,,,"00,99,1,99,9,99,9,99999,9,99,9,99,9","240,M,-0072,1","240,N,-0233,1","09892,5,09249,5",,,,,,"MET10904/08/23 13:50:02 METAR PAPT 082250Z 36005KT 25SM SKC M07/M08 A2921 RMK NO SPECI 410721233 70000 931000 4/019","Q01  00002PRCP24R01   SKC7SKY009R02   M077TMP046R03   M087DPT046R04   SKC7GAS009"
"70249026526","2023-04-09T00:49:00","7","62.0911","-152.7349","566.3","PUNTILLA, AK US","FM-15","PAPT ","V020","350,5,N,0021,5","22000,7,9,N","040234,5,N,5","-0080,C","-0090,C","99999,9",,,,,,,,,,"00,7,+99999,9,99,9",,,"0,99,1,+99999,9,9",,,,,"00,99,1,99,9,99,9,99999,9,99,9,99,9",,,"09892,5,09249,5",,,,,,"MET08004/08/23 15:49:01 METAR PAPT 090049Z 35004KT 25SM SKC M08/M09 A2921 RMK NO SPECI","R01   SKC7SKY009R02   M087TMP046R03   M097DPT046R04   SKC7GAS009"
"70249026526","2023-04-09T02:52:00","7","62.0911","-152.7349","566.3","PUNTILLA, AK US","FM-15","PAPT ","V020","020,5,N,0015,5","22000,5,9,N","040234,5,N,5","-0100,C","-0110,C","99999,9",,,,,,,,,,"02,5,+01219,5,99,9",,,"1,99,1,+01219,5,9",,,,"9,AGL   ,+99999,+99999","02,99,5,99,9,99,9,01219,1,99,9,99,9",,,"09895,5,09252,5",,,,,,"MET08804/08/23 17:52:01 METAR PAPT 090252Z 02003KT 25SM FEW040 M10/M11 A2922 RMK NO SPECI LAST","R01   M107TMP046R02   M117DPT046D01      0ADE726"
"70249026526","2023-04-09T14:52:00","7","62.0911","-152.7349","566.3","PUNTILLA, AK US","FM-15","PAPT ","V020","360,5,N,0010,5","22000,7,9,N","040234,5,N,5","-0170,C","-0190,C","99999,9",,,,,,,,,,"00,7,+99999,9,99,9",,,"0,99,1,+99999,9,9",,,,,"00,99,1,99,9,99,9,99999,9,99,9,99,9",,,"09902,5,09259,5",,,,,,"MET08604/09/23 05:52:02 METAR PAPT 091452Z 36002KT 25SM SKC M17/M19 A2924 RMK NO SPECI FIRST","R01   SKC7SKY009R02   M177TMP046R03   M197DPT046R04   SKC7GAS009"
"70249026526","2023-04-09T18:52:00","7","62.0911","-152.7349","566.3","PUNTILLA, AK US","FM-15","PAPT ","V020","360,5,N,0041,5","22000,7,9,N","040234,5,N,5","-0140,C","-0150,C","99999,9",,,,,,,,,,"00,7,+99999,9,99,9",,,"0,99,1,+99999,9,9",,,,,"00,99,1,99,9,99,9,99999,9,99,9,99,9",,,"09898,5,09255,5",,,,,,"MET08004/09/23 09:52:02 METAR PAPT 091852Z 36008KT 25SM SKC M14/M15 A2923 RMK NO SPECI","R01   SKC7SKY009R02   M147TMP046R03   M157DPT046R04   SKC7GAS009"
"70249026526","2023-04-09T20:53:00","7","62.0911","-152.7349","566.3","PUNTILLA, AK US","FM-15","PAPT ","V020","360,5,N,0051,5","22000,7,9,N","040234,5,N,5","-0130,C","-0140,C","99999,9",,,,,,,,,,"00,7,+99999,9,99,9",,,"0,99,1,+99999,9,9",,,,,"00,99,1,99,9,99,9,99999,9,99,9,99,9",,,"09898,5,09255,5",,,,,,"MET08004/09/23 11:53:02 METAR PAPT 092053Z 36010KT 25SM SKC M13/M14 A2923 RMK NO SPECI","R01   SKC7SKY009R02   M137TMP046R03   M147DPT046R04   SKC7GAS009"
"70249026526","2023-04-09T22:55:00","7","62.0911","-152.7349","566.3","PUNTILLA, AK US","FM-15","PAPT ","V020","170,5,N,0026,5","22000,5,9,N","040234,5,N,5","-0110,C","-0120,C","99999,9","24,0000,9,1","0046,9,5,004570,9,9",,,,,,,,"02,5,+03048,5,99,9",,,"1,99,1,+03048,5,9",,,,"9,AGL   ,+99999,+99999","02,99,5,99,9,99,9,03048,1,99,9,99,9","240,M,-0106,1","240,N,-0172,1","09895,5,09252,5",,,,,,"MET11204/09/23 13:55:02 METAR PAPT 092255Z 17005KT 25SM FEW100 M11/M12 A2922 RMK NO SPECI 411061172 70000 931000 4/018","Q01  00002PRCP24R01   M117TMP046R02   M127DPT046D01      0ADE726"
"70249026526","2023-04-10T00:57:00","7","62.0911","-152.7349","566.3","PUNTILLA, AK US","FM-15","PAPT ","V020","020,5,N,0015,5","22000,5,9,N","040234,5,N,5","-0080,C","-0090,C","99999,9",,,,,,,,,,"02,5,+03048,5,99,9",,,"1,99,1,+03048,5,9",,,,"9,AGL   ,+99999,+99999","02,99,5,99,9,99,9,03048,1,99,9,99,9",,,"09902,5,09259,5",,,,,,"MET08304/09/23 15:57:01 METAR PAPT 100057Z 02003KT 25SM FEW100 M08/M09 A2924 RMK NO SPECI","R01   M087TMP046R02   M097DPT046D01      0ADE726"
"70249026526","2023-04-10T02:52:00","7","62.0911","-152.7349","566.3","PUNTILLA, AK US","FM-15","PAPT ","V020","360,5,N,0026,5","22000,5,9,N","040234,5,N,5","-0110,C","-0120,C","99999,9",,,,,,,,,,"02,5,+03048,5,99,9",,,"1,99,1,+03048,5,9",,,,"9,AGL   ,+99999,+99999","02,99,5,99,9,99,9,03048,1,99,9,99,9",,,"09905,5,09262,5",,,,,,"MET08804/09/23 17:52:01 METAR PAPT 100252Z 36005KT 25SM FEW100 M11/M12 A2925 RMK NO SPECI LAST","R01   M117TMP046R02   M127DPT046D01      0ADE726"
"70249026526","2023-04-10T14:54:00","7","62.0911","-152.7349","566.3","PUNTILLA, AK US","FM-15","PAPT ","V020","360,5,N,0041,5","22000,5,9,N","040234,5,N,5","-0210,C","-0230,C","99999,9",,,,,,,,,,"02,5,+02134,5,99,9",,,"1,99,1,+02134,5,9",,,,"9,AGL   ,+99999,+99999","02,99,5,99,9,99,9,02134,1,99,9,99,9",,,"09905,5,09262,5",,,,,,"MET08904/10/23 05:54:02 METAR PAPT 101454Z 36008KT 25SM FEW070 M21/M23 A2925 RMK NO SPECI FIRST","R01   M217TMP046R02   M237DPT046D01      0ADE726"
"70249026526","2023-04-10T18:57:00","7","62.0911","-152.7349","566.3","PUNTILLA, AK US","FM-15","PAPT ","V020","360,5,N,0041,5","22000,5,9,N","040234,5,N,5","-0170,C","-0190,C","99999,9",,,,,,,,,,"02,5,+03048,5,99,9",,,"1,99,1,+03048,5,9",,,,"9,AGL   ,+99999,+99999","02,99,5,99,9,99,9,03048,1,99,9,99,9",,,"10024,5,09374,5",,,,,,"MET08304/10/23 09:57:02 METAR PAPT 101857Z 36008KT 25SM FEW100 M17/M19 A2960 RMK NO SPECI","R01   M177TMP046R02   M197DPT046D01      0ADE726"
"70249026526","2023-04-10T20:55:00","7","62.0911","-152.7349","566.3","PUNTILLA, AK US","FM-15","PAPT ","V020","010,5,N,0031,5","22000,5,9,N","040234,5,N,5","-0130,C","-0140,C","99999,9",,,,,,,,,,"02,5,+03048,5,99,9",,,"1,99,1,+03048,5,9",,,,"9,AGL   ,+99999,+99999","02,99,5,99,9,99,9,03048,1,99,9,99,9",,,"10037,5,09387,5",,,,,,"MET08304/10/23 11:55:02 METAR PAPT 102055Z 01006KT 25SM FEW100 M13/M14 A2964 RMK NO SPECI","R01   M137TMP046R02   M147DPT046D01      0ADE726"
"70249026526","2023-04-10T22:49:00","7","62.0911","-152.7349","566.3","PUNTILLA, AK US","FM-15","PAPT ","V020","360,5,N,0046,5","22000,5,9,N","040234,5,N,5","-0100,C","-0110,C","99999,9","24,0000,9,1","0046,9,5,004570,9,9",,,,,,,,"02,5,+03048,5,99,9",,,"1,99,1,+03048,5,9",,,,"9,AGL   ,+99999,+99999","02,99,5,99,9,99,9,03048,1,99,9,99,9","240,M,-0100,1","240,N,-0206,1","10037,5,09387,5",,,,,,"MET11204/10/23 13:49:02 METAR PAPT 102249Z 36009KT 25SM FEW100 M10/M11 A2964 RMK NO SPECI 411001206 70000 931000 4/018","Q01  00002PRCP24R01   M107TMP046R02   M117DPT046D01      0ADE726"
"70249026526","2023-04-11T00:55:00","7","62.0911","-152.7349","566.3","PUNTILLA, AK US","FM-15","PAPT ","V020","360,5,N,0046,5","22000,7,9,N","040234,5,N,5","-0080,C","-0090,C","99999,9",,,,,,,,,,"00,7,+99999,9,99,9",,,"0,99,1,+99999,9,9",,,,,"00,99,1,99,9,99,9,99999,9,99,9,99,9",,,"10054,5,09403,5",,,,,,"MET08004/10/23 15:55:01 METAR PAPT 110055Z 36009KT 25SM SKC M08/M09 A2969 RMK NO SPECI","R01   SKC7SKY009R02   M087TMP046R03   M097DPT046R04   SKC7GAS009"
"70249026526","2023-04-11T02:59:00","7","62.0911","-152.7349","566.3","PUNTILLA, AK US","FM-15","PAPT ","V020","360,5,N,0021,5","22000,7,9,N","040234,5,N,5","-0080,C","-0090,C","99999,9",,,,,,,,,,"00,7,+99999,9,99,9",,,"0,99,1,+99999,9,9",,,,,"00,99,1,99,9,99,9,99999,9,99,9,99,9",,,"10064,5,09413,5",,,,,,"MET08504/10/23 17:59:01 METAR PAPT 110259Z 36004KT 25SM SKC M08/M09 A2972 RMK NO SPECI LAST","R01   SKC7SKY009R02   M087TMP046R03   M097DPT046R04   SKC7GAS009"
"70249026526","2023-04-11T14:52:00","7","62.0911","-152.7349","566.3","PUNTILLA, AK US","FM-15","PAPT ","V020","999,9,C,0000,5","99999,9,9,N","040234,7,N,5","-0180,C","-0200,C","99999,9",,,,,,"0,0,00,1,0,2,5",,,,,,,,,,,,,,,"10068,5,09416,5",,,,,,"MET08904/11/23 05:52:02 METAR PAPT 111452Z 00000KT 25SM BRK100 M18/M20 A2973 RMK NO SPECI FIRST","R01      7SKY009R02  25SM7VIS011R03   M187TMP046R04   M207DPT046R05      7GAS009D01      0ADE693D02      0ADE539"
"70249026526","2023-04-11T16:56:00","7","62.0911","-152.7349","566.3","PUNTILLA, AK US","FM-15","PAPT ","V020","999,9,C,0000,5","02134,5,M,N","032187,5,N,5","-0160,C","-0180,C","99999,9",,,,,,,,,,"08,5,+02134,5,99,9",,,"4,99,1,+02134,5,9",,,,"9,AGL   ,+99999,+99999","99,99,9,99,9,99,9,02134,1,99,9,99,9",,,"10068,5,09416,5",,,,,,"MET08304/11/23 07:56:02 METAR PAPT 111656Z 00000KT 20SM OVC070 M16/M18 A2973 RMK NO SPECI","R01   M167TMP046R02   M187DPT046"
"70249026526","2023-04-11T18:55:00","6","62.0911","-152.7349","566.3","PUNTILLA, AK US","FM-15","PAPT ","V020","180,5,N,0010,5","02438,5,M,N","024140,5,N,5","-0120,C","-0130,C","99999,9",,,,,,,,,,"02,5,+01372,5,99,9","08,5,+02438,5,99,9",,"1,99,1,+01372,5,9","4,99,1,+02438,5,9",,,,,,,"10064,5,09413,5",,,,,,"MET09004/11/23 09:55:02 METAR PAPT 111855Z 18002KT 15SM FEW045 OVC080 M12/M13 A2972 RMK NO SPECI","R01   M127TMP046R02   M137DPT046"
"70249026526","2023-04-11T20:50:00","7","62.0911","-152.7349","566.3","PUNTILLA, AK US","FM-15","PAPT ","V020","170,5,N,0021,5","00762,5,M,N","003219,5,N,5","-0080,C","-0090,C","99999,9",,,,,,"1,0,03,0,0,1,5",,"71,5",,"08,5,+00762,5,99,9",,,"4,99,1,+00762,5,9",,,,"9,AGL   ,+99999,+99999","99,99,9,99,9,99,9,00762,1,99,9,99,9",,,"10064,5,09413,5",,"71,5",,,,"MET08604/11/23 11:50:02 METAR PAPT 112050Z 17004KT 2SM -SN OVC025 M08/M09 A2972 RMK NO SPECI","R01   M087TMP046R02   M097DPT046"
"70249026526","2023-04-11T22:47:00","7","62.0911","-152.7349","566.3","PUNTILLA, AK US","FM-15","PAPT ","V020","180,5,N,0026,5","02438,5,M,N","003219,5,N,5","-0070,C","-0080,C","99999,9","24,0000,2,1","0046,9,5,004570,9,9",,,,"1,0,03,0,0,1,7","0,0,00,1,0,2,7",,,"08,5,+02438,5,99,9",,,"4,99,1,+02438,5,9",,,,,,"240,M,-0072,1","240,N,-0183,1","10061,5,09409,5",,"71,1",,,,"MET12204/11/23 13:47:02 METAR PAPT 112247Z 18005KT 2SM -SN BRK025 OVC080 M07/M08 A2971 RMK NO SPECI 410721183 70000 931000 4/018","R01   M077TMP046R02   M087DPT046R03-SN BR7AWW013R04SEERMK7MVW013R05-SN BR7MWW013D01      0ADE693D02      0ADE539"
"70249026526","2023-04-12T00:47:00","7","62.0911","-152.7349","566.3","PUNTILLA, AK US","FM-15","PAPT ","V020","190,5,N,0026,5","02438,5,M,N","008047,5,N,5","-0060,C","-0060,C","99999,9",,,,,,"0,0,00,1,0,2,7",,,,"08,5,+02438,5,99,9",,,"4,99,1,+02438,5,9",,,,,,,,"10061,5,09409,5",,,,,,"MET08904/11/23 15:47:01 METAR PAPT 120047Z 19005KT 5SM BRK030 OVC080 M06/M06 A2971 RMK NO SPECI","R01   M067TMP046R02   M067DPT046R03BRK0307AWW013R04SEERMK7MVW013R05BRK0307MWW013D01      0ADE693D02      0ADE539"
"70249026526","2023-04-12T02:57:00","7","62.0911","-152.7349","566.3","PUNTILLA, AK US","FM-15","PAPT ","V020","190,5,N,0021,5","02438,5,M,N","040234,5,N,5","-0050,C","-0060,C","99999,9",,,,,,,,,,"04,5,+00914,5,99,9","07,5,+02438,5,99,9",,"2,99,1,+00914,5,9","3,99,1,+02438,5,9",,,"9,AGL   ,+99999,+99999","99,99,9,99,9,99,9,00914,1,99,9,99,9",,,"10054,5,09403,5",,,,,,"MET09504/11/23 17:57:01 METAR PAPT 120257Z 19004KT 25SM SCT030 BKN080 M05/M06 A2969 RMK NO SPECI LAST","R01   M057TMP046R02   M067DPT046"
"70249026526","2023-04-12T08:59:00","O","62.0911","-152.7349","566.3","PUNTILLA, AK US","SOD  ","PAPT ","V020","999,9,9,9999,9","99999,9,9,9","999999,9,9,9","+9999,9","+9999,9","99999,9",,,"AU,18,SN  ,5","AU,13,BR  ,5",,,,,,,,,,,,,,,,,,,,,,,,
"70249026526","2023-04-12T14:49:00","7","62.0911","-152.7349","566.3","PUNTILLA, AK US","FM-15","PAPT ","V020","340,5,N,0010,5","22000,5,9,N","040234,5,N,5","-0170,C","-0190,C","99999,9",,,,,,,,,,"02,5,+01219,5,99,9","04,5,+03048,5,99,9",,"1,99,1,+01219,5,9","2,99,1,+03048,5,9",,,"9,AGL   ,+99999,+99999","04,99,5,99,9,99,9,01219,1,99,9,99,9",,,"10041,5,09390,5",,,,,,"MET09004/12/23 05:49:02 METAR PAPT 121449Z 34002KT 25SM FEW040 SCT100 M17/M19 A2965 RMK NO SPECI","R01   M177TMP046R02   M197DPT046D01      0ADE726"
"70249026526","2023-04-12T16:51:00","7","62.0911","-152.7349","566.3","PUNTILLA, AK US","FM-15","PAPT ","V020","340,5,N,0010,5","22000,5,9,N","040234,5,N,5","-0160,C","-0170,C","99999,9",,,,,,,,,,"02,5,+01524,5,99,9","04,5,+03048,5,99,9",,"1,99,1,+01524,5,9","2,99,1,+03048,5,9",,,"9,AGL   ,+99999,+99999","04,99,5,99,9,99,9,01524,1,99,9,99,9",,,"10037,5,09387,5",,,,,,"MET09004/12/23 07:51:02 METAR PAPT 121651Z 34002KT 25SM FEW050 SCT100 M16/M17 A2964 RMK NO SPECI","R01   M167TMP046R02   M177DPT046D01      0ADE726"
"70249026526","2023-04-12T18:49:00","7","62.0911","-152.7349","566.3","PUNTILLA, AK US","FM-15","PAPT ","V020","180,5,N,0010,5","22000,5,9,N","040234,5,N,5","-0060,C","-0070,C","99999,9",,,,,,,,,,"02,5,+01524,5,99,9","04,5,+03048,5,99,9",,"1,99,1,+01524,5,9","2,99,1,+03048,5,9",,,"9,AGL   ,+99999,+99999","04,99,5,99,9,99,9,01524,1,99,9,99,9",,,"10034,5,09384,5",,,,,,"MET09004/12/23 09:49:02 METAR PAPT 121849Z 18002KT 25SM FEW050 SCT100 M06/M07 A2963 RMK NO SPECI","R01   M067TMP046R02   M077DPT046D01      0ADE726"
"70249026526","2023-04-12T20:48:00","7","62.0911","-152.7349","566.3","PUNTILLA, AK US","FM-15","PAPT ","V020","200,5,N,0015,5","22000,5,9,N","040234,5,N,5","+0020,C","+0000,C","99999,9",,,,,,,,,,"02,5,+02134,5,99,9","04,5,+03048,5,99,9",,"1,99,1,+02134,5,9","2,99,1,+03048,5,9",,,"9,AGL   ,+99999,+99999","04,99,5,99,9,99,9,02134,1,99,9,99,9",,,"10027,5,09377,5",,,,,,"MET08804/12/23 11:48:02 METAR PAPT 122048Z 20003KT 25SM FEW070 SCT100 02/00 A2961 RMK NO SPECI","R01    027TMP046R02    007DPT046D01      0ADE726"
"70249026526","2023-04-12T23:02:00","7","62.0911","-152.7349","566.3","PUNTILLA, AK US","FM-15","PAPT ","V020","180,5,N,0010,5","03048,5,M,N","040234,5,N,5","+0020,5","+0000,5","99999,9","24,0000,9,1","0046,9,5,004570,9,9",,,,,,,,"02,5,+02134,5,99,9","07,5,+03048,5,99,9",,"1,99,1,+02134,5,9","3,99,1,+03048,5,9",,,"9,AGL   ,+99999,+99999","99,99,9,99,9,99,9,02134,1,99,9,99,9","240,M,+0022,1","240,N,-0172,1","10017,5,09368,5",,,,,,"MET11704/12/23 14:02:02 METAR PAPT 122302Z 18002KT 25SM FEW070 BKN100 02/00 A2958 RMK NO SPECI 400221172 70000 931000 4/018","Q01  00002PRCP24"
"70249026526","2023-04-13T00:54:00","7","62.0911","-152.7349","566.3","PUNTILLA, AK US","FM-15","PAPT ","V020","350,5,N,0015,5","00762,5,M,N","016093,5,N,5","+0000,C","+0000,C","99999,9",,,,,,"1,0,03,0,0,1,5",,"71,5",,"08,5,+00762,5,99,9",,,"4,99,1,+00762,5,9",,,,"9,AGL   ,+99999,+99999","99,99,9,99,9,99,9,00762,1,99,9,99,9",,,"10010,5,09361,5",,"71,5",,,,"MET08504/12/23 15:54:01 METAR PAPT 130054Z 35003KT 10SM -SN OVC025 00/00 A2956 RMK NO SPECI","R01    007TMP046R02    007DPT046"
"70249026526","2023-04-13T02:50:00","7","62.0911","-152.7349","566.3","PUNTILLA, AK US","FM-15","PAPT ","V020","360,5,N,0021,5","00762,5,M,N","024140,7,N,5","-0020,C","-0020,C","99999,9",,,,,,"1,0,03,0,0,1,5",,"71,5",,"07,5,+00762,5,99,9",,,"3,99,1,+00762,5,9",,,,"9,AGL   ,+99999,+99999","99,99,9,99,9,99,9,00762,1,99,9,99,9",,,"10007,5,09358,5",,"71,5",,,,"MET09204/12/23 17:50:01 METAR PAPT 130250Z 36004KT 15SM -SN BKN025 M02/M02 A2955 RMK NO SPECI LAST","R01  15SM7VIS011R02   M027TMP046R03   M027DPT046"
"70249026526","2023-04-13T08:59:00","O","62.0911","-152.7349","566.3","PUNTILLA, AK US","SOD  ","PAPT ","V020","999,9,9,9999,9","99999,9,9,9","999999,9,9,9","+9999,9","+9999,9","99999,9",,,"AU,18,SN  ,5",,,,,,,,,,,,,,,,,,,,,,,,,
"70249026526","2023-04-13T14:49:00","7","62.0911","-152.7349","566.3","PUNTILLA, AK US","FM-15","PAPT ","V020","360,5,N,0041,5","22000,7,9,N","040234,5,N,5","-0140,C","-0150,C","99999,9",,,,,,,,,,"00,7,+99999,9,99,9",,,"0,99,1,+99999,9,9",,,,,"00,99,1,99,9,99,9,99999,9,99,9,99,9",,,"10007,5,09358,5",,,,,,"MET08604/13/23 05:49:01 METAR PAPT 131449Z 36008KT 25SM SKC M14/M15 A2955 RMK NO SPECI FIRST","R01   SKC7SKY009R02   M147TMP046R03   M157DPT046R04   SKC7GAS009"
"70249026526","2023-04-13T16:51:00","7","62.0911","-152.7349","566.3","PUNTILLA, AK US","FM-15","PAPT ","V020","360,5,N,0026,5","22000,7,9,N","040234,5,N,5","-0140,C","-0150,C","99999,9",,,,,,,,,,"00,7,+99999,9,99,9",,,"0,99,1,+99999,9,9",,,,,"00,99,1,99,9,99,9,99999,9,99,9,99,9",,,"10000,5,09352,5",,,,,,"MET08004/13/23 07:51:02 METAR PAPT 131651Z 36005KT 25SM SKC M14/M15 A2953 RMK NO SPECI","R01   SKC7SKY009R02   M147TMP046R03   M157DPT046R04   SKC7GAS009"
"70249026526","2023-04-13T18:49:00","7","62.0911","-152.7349","566.3","PUNTILLA, AK US","FM-15","PAPT ","V020","340,5,N,0015,5","22000,5,9,N","040234,5,N,5","-0070,C","-0080,C","99999,9",,,,,,,,,,"02,5,+01524,5,99,9",,,"1,99,1,+01524,5,9",,,,"9,AGL   ,+99999,+99999","02,99,5,99,9,99,9,01524,1,99,9,99,9",,,"09997,5,09348,5",,,,,,"MET08304/13/23 09:49:02 METAR PAPT 131849Z 34003KT 25SM FEW050 M07/M08 A2952 RMK NO SPECI","R01   M077TMP046R02   M087DPT046D01      0ADE726"
"70249026526","2023-04-13T20:52:00","7","62.0911","-152.7349","566.3","PUNTILLA, AK US","FM-15","PAPT ","V020","350,5,N,0021,5","22000,5,9,N","040234,5,N,5","-0070,C","-0070,C","99999,9",,,,,,,,,,"02,5,+01219,5,99,9",,,"1,99,1,+01219,5,9",,,,"9,AGL   ,+99999,+99999","02,99,5,99,9,99,9,01219,1,99,9,99,9",,,"09993,5,09345,5",,,,,,"MET08304/13/23 11:52:02 METAR PAPT 132052Z 35004KT 25SM FEW040 M07/M07 A2951 RMK NO SPECI","R01   M077TMP046R02   M077DPT046D01      0ADE726"
"70249026526","2023-04-13T22:47:00","7","62.0911","-152.7349","566.3","PUNTILLA, AK US","FM-15","PAPT ","V020","360,5,N,0021,5","22000,7,9,N","040234,5,N,5","-0020,C","-0020,C","99999,9","24,0000,2,1","0046,9,5,004570,9,9",,,,,,,,"00,7,+99999,9,99,9",,,"0,99,1,+99999,9,9",,,,,"00,99,1,99,9,99,9,99999,9,99,9,99,9","240,M,-0022,1","240,N,-0139,1","09990,5,09342,5",,,,,,"MET10904/13/23 13:47:02 METAR PAPT 132247Z 36004KT 25SM SKC M02/M02 A2950 RMK NO SPECI 410221139 70000 931000 4/018","R01   SKC7SKY009R02   M027TMP046R03   M027DPT046R04   SKC7GAS009"
"70249026526","2023-04-14T00:50:00","7","62.0911","-152.7349","566.3","PUNTILLA, AK US","FM-15","PAPT ","V020","010,5,N,0026,5","22000,5,9,N","040234,5,N,5","-0020,C","-0020,C","99999,9",,,,,,,,,,"02,5,+03048,5,99,9",,,"1,99,1,+03048,5,9",,,,"9,AGL   ,+99999,+99999","02,99,5,99,9,99,9,03048,1,99,9,99,9",,,"09990,5,09342,5",,,,,,"MET08304/13/23 15:50:01 METAR PAPT 140050Z 01005KT 25SM FEW100 M02/M02 A2950 RMK NO SPECI","R01   M027TMP046R02   M027DPT046D01      0ADE726"
"70249026526","2023-04-14T02:51:00","7","62.0911","-152.7349","566.3","PUNTILLA, AK US","FM-15","PAPT ","V020","350,5,N,0026,5","22000,5,9,N","040234,5,N,5","-0030,C","-0030,C","99999,9",,,,,,,,,,"02,5,+03048,5,99,9",,,"1,99,1,+03048,5,9",,,,"9,AGL   ,+99999,+99999","02,99,5,99,9,99,9,03048,1,99,9,99,9",,,"09986,5,09339,5",,,,,,"MET08804/13/23 17:51:01 METAR PAPT 140251Z 35005KT 25SM FEW100 M03/M03 A2949 RMK NO SPECI LAST","R01   M037TMP046R02   M037DPT046D01      0ADE726"
"70249026526","2023-04-14T14:51:00","7","62.0911","-152.7349","566.3","PUNTILLA, AK US","FM-15","PAPT ","V020","230,5,N,0010,5","00914,5,W,N","011265,5,N,5","-0130,C","-0140,C","99999,9",,,,,,"1,0,03,0,0,1,5",,"71,5",,"09,5,+00914,5,99,9",,,"5,99,1,+00914,5,9",,,,"9,AGL   ,+99999,+99999","09,99,1,99,9,99,9,00914,1,99,9,99,9",,,"10003,5,09355,5",,"71,5",,,,"MET09104/14/23 05:51:02 METAR PAPT 141451Z 23002KT 7SM -SN VV030 M13/M14 A2954 RMK NO SPECI FIRST","R01   M137TMP046R02   M147DPT046"
"70249026526","2023-04-14T16:57:00","7","62.0911","-152.7349","566.3","PUNTILLA, AK US","FM-15","PAPT ","V020","230,5,N,0010,5","00274,5,W,N","001609,7,N,5","-0110,C","-0120,C","99999,9",,,,,,"2,0,03,0,0,1,7",,"72,7",,"09,5,+00274,5,99,9",,,"5,99,1,+00274,5,9",,,,"9,AGL   ,+99999,+99999","09,99,1,99,9,99,9,00274,1,99,9,99,9",,,"10003,5,09355,5",,"73,7",,,,"MET08404/14/23 07:57:02 METAR PAPT 141657Z 23002KT 1SM SN VV009 M11/M12 A2954 RMK NO SPECI","R01   1SM7VIS012R02   M117TMP046R03   M127DPT046R04    SN7AWW012R05SEERMK7MVW012R06    SN7MWW012"
"70249026526","2023-04-14T18:52:00","7","62.0911","-152.7349","566.3","PUNTILLA, AK US","FM-15","PAPT ","V020","999,9,C,0000,5","00610,5,W,N","003219,5,N,5","-0080,C","-0090,C","99999,9",,,,,,"1,0,03,0,0,1,5",,"71,5",,"09,5,+00610,5,99,9",,,"5,99,1,+00610,5,9",,,,"9,AGL   ,+99999,+99999","09,99,1,99,9,99,9,00610,1,99,9,99,9",,,"10000,5,09352,5",,"71,5",,,,"MET08504/14/23 09:52:02 METAR PAPT 141852Z 00000KT 2SM -SN VV020 M08/M09 A2953 RMK NO SPECI","R01   M087TMP046R02   M097DPT046"
"70249026526","2023-04-14T20:53:00","7","62.0911","-152.7349","566.3","PUNTILLA, AK US","FM-15","PAPT ","V020","360,5,N,0000,5","00457,5,W,N","001609,5,N,5","-0070,C","-0080,C","99999,9",,,,,,"1,0,03,0,0,1,5",,"71,5",,"09,5,+00457,5,99,9",,,"5,99,1,+00457,5,9",,,,"9,AGL   ,+99999,+99999","09,99,1,99,9,99,9,00457,1,99,9,99,9",,,"10000,5,09352,5",,"71,5",,,,"MET08504/14/23 11:53:02 METAR PAPT 142053Z 36000KT 1SM -SN VV015 M07/M08 A2953 RMK NO SPECI","R01   M077TMP046R02   M087DPT046"
"70249026526","2023-04-14T22:51:00","7","62.0911","-152.7349","566.3","PUNTILLA, AK US","FM-15","PAPT ","V020","010,5,N,0015,5","00305,5,W,N","001609,5,N,5","-0050,C","-0060,C","99999,9","24,0017,3,1","0048,9,5,004830,9,9",,,,"1,0,03,0,0,1,5",,"71,5",,"09,5,+00305,5,99,9",,,"5,99,1,+00305,5,9",,,,"9,AGL   ,+99999,+99999","09,99,1,99,9,99,9,00305,1,99,9,99,9","240,M,-0050,1","240,N,-0128,1","10003,5,09355,5",,"71,5",,,,"MET11404/14/23 13:51:02 METAR PAPT 142251Z 01003KT 1SM -SN VV010 M05/M06 A2954 RMK NO SPECI 410501128 70007 931013 4/019","R01   M057TMP046R02   M067DPT046"
"70249026526","2023-04-15T00:51:00","7","62.0911","-152.7349","566.3","PUNTILLA, AK US","FM-15","PAPT ","V020","010,5,N,0021,5","00305,5,W,N","003219,5,N,5","-0050,C","-0060,C","99999,9",,,,,,"1,0,03,0,0,1,5",,"71,5",,"09,5,+00305,5,99,9",,,"5,99,1,+00305,5,9",,,,"9,AGL   ,+99999,+99999","09,99,1,99,9,99,9,00305,1,99,9,99,9",,,"10007,5,09358,5",,"71,5",,,,"MET08504/14/23 15:51:01 METAR PAPT 150051Z 01004KT 2SM -SN VV010 M05/M06 A2955 RMK NO SPECI","R01   M057TMP046R02   M067DPT046"
"70249026526","2023-04-15T02:52:00","7","62.0911","-152.7349","566.3","PUNTILLA, AK US","FM-15","PAPT ","V020","350,5,N,0026,5","00152,5,W,N","001609,5,N,5","-0030,C","-0040,C","99999,9",,,,,,"1,0,03,0,0,1,5",,"71,5",,"09,5,+00152,5,99,9",,,"5,99,1,+00152,5,9",,,,"9,AGL   ,+99999,+99999","09,99,1,99,9,99,9,00152,1,99,9,99,9",,,"10007,5,09358,5",,"71,5",,,,"MET09004/14/23 17:52:01 METAR PAPT 150252Z 35005KT 1SM -SN VV005 M03/M04 A2955 RMK NO SPECI LAST","R01   M037TMP046R02   M047DPT046"
"70249026526","2023-04-15T08:59:00","O","62.0911","-152.7349","566.3","PUNTILLA, AK US","SOD  ","PAPT ","V020","999,9,9,9999,9","99999,9,9,9","999999,9,9,9","+9999,9","+9999,9","99999,9",,,"AU,18,SN  ,5",,,,,,,,,,,,,,,,,,,,,,,,,
"70249026526","2023-04-15T14:49:00","7","62.0911","-152.7349","566.3","PUNTILLA, AK US","FM-15","PAPT ","V020","340,5,N,0010,5","22000,5,9,N","040234,5,N,5","-0120,C","-0130,C","99999,9",,,,,,,,,,"04,5,+03048,5,99,9",,,"2,99,1,+03048,5,9",,,,"9,AGL   ,+99999,+99999","04,99,5,99,9,99,9,03048,1,99,9,99,9",,,"10003,5,09355,5",,,,,,"MET08904/15/23 05:49:02 METAR PAPT 151449Z 34002KT 25SM SCT100 M12/M13 A2954 RMK NO SPECI FIRST","R01   M127TMP046R02   M137DPT046D01      0ADE726"
"70249026526","2023-04-15T16:51:00","7","62.0911","-152.7349","566.3","PUNTILLA, AK US","FM-15","PAPT ","V020","340,5,N,0010,5","22000,5,9,N","040234,5,N,5","-0100,C","-0110,C","99999,9",,,,,,,,,,"04,5,+03048,5,99,9",,,"2,99,1,+03048,5,9",,,,"9,AGL   ,+99999,+99999","04,99,5,99,9,99,9,03048,1,99,9,99,9",,,"10017,5,09368,5",,,,,,"MET08304/15/23 07:51:02 METAR PAPT 151651Z 34002KT 25SM SCT100 M10/M11 A2958 RMK NO SPECI","R01   M107TMP046R02   M117DPT046D01      0ADE726"
"70249026526","2023-04-15T18:49:00","7","62.0911","-152.7349","566.3","PUNTILLA, AK US","FM-15","PAPT ","V020","340,5,N,0010,5","22000,5,9,N","040234,5,N,5","-0020,C","-0020,C","99999,9",,,,,,,,,,"02,5,+03048,5,99,9",,,"1,99,1,+03048,5,9",,,,"9,AGL   ,+99999,+99999","02,99,5,99,9,99,9,03048,1,99,9,99,9",,,"10014,5,09365,5",,,,,,"MET08304/15/23 09:49:02 METAR PAPT 151849Z 34002KT 25SM FEW100 M02/M02 A2957 RMK NO SPECI","R01   M027TMP046R02   M027DPT046D01      0ADE726"
"70249026526","2023-04-15T20:50:00","7","62.0911","-152.7349","566.3","PUNTILLA, AK US","FM-15","PAPT ","V020","030,5,N,0015,5","22000,5,9,N","040234,5,N,5","+0010,C","-0020,C","99999,9",,,,,,,,,,"04,5,+03048,5,99,9",,,"2,99,1,+03048,5,9",,,,"9,AGL   ,+99999,+99999","04,99,5,99,9,99,9,03048,1,99,9,99,9",,,"09993,5,09345,5",,,,,,"MET08204/15/23 11:50:02 METAR PAPT 152050Z 03003KT 25SM SCT100 01/M02 A2951 RMK NO SPECI","R01    017TMP046R02   M027DPT046D01      0ADE726"
"70249026526","2023-04-15T22:51:00","7","62.0911","-152.7349","566.3","PUNTILLA, AK US","FM-15","PAPT ","V020","010,5,N,0026,5","22000,5,9,N","040234,5,N,5","+0030,C","+0020,C","99999,9","24,0033,3,1","0053,9,5,005330,9,9",,,,,,,,"04,5,+03048,5,99,9",,,"2,99,1,+03048,5,9",,,,"9,AGL   ,+99999,+99999","04,99,5,99,9,99,9,03048,1,99,9,99,9","240,M,+0028,1","240,N,-0117,1","09993,5,09345,5",,,,,,"MET11004/15/23 13:51:02 METAR PAPT 152251Z 01005KT 25SM SCT100 03/02 A2951 RMK NO SPECI 400281117 70013 931022 4/021","R01    037TMP046R02    027DPT046D01      0ADE726"
"70249026526","2023-04-16T00:55:00","7","62.0911","-152.7349","566.3","PUNTILLA, AK US","FM-15","PAPT ","V020","360,5,N,0031,5","22000,5,9,N","040234,5,N,5","+0010,C","-0020,C","99999,9",,,,,,,,,,"04,5,+03048,5,99,9",,,"2,99,1,+03048,5,9",,,,"9,AGL   ,+99999,+99999","04,99,5,99,9,99,9,03048,1,99,9,99,9",,,"09997,5,09348,5",,,,,,"MET08204/15/23 15:55:01 METAR PAPT 160055Z 36006KT 25SM SCT100 01/M02 A2952 RMK NO SPECI","R01    017TMP046R02   M027DPT046D01      0ADE726"
"70249026526","2023-04-16T02:46:00","7","62.0911","-152.7349","566.3","PUNTILLA, AK US","FM-15","PAPT ","V020","360,5,N,0041,5","22000,5,9,N","040234,5,N,5","-0010,C","-0010,C","99999,9",,,,,,,,,,"04,5,+03048,5,99,9",,,"2,99,1,+03048,5,9",,,,"9,AGL   ,+99999,+99999","04,99,5,99,9,99,9,03048,1,99,9,99,9",,,"10000,5,09352,5",,,,,,"MET08804/15/23 17:46:01 METAR PAPT 160246Z 36008KT 25SM SCT100 M01/M01 A2953 RMK NO SPECI LAST","R01   M017TMP046R02   M017DPT046D01      0ADE726"
"70249026526","2023-04-16T14:49:00","7","62.0911","-152.7349","566.3","PUNTILLA, AK US","FM-15","PAPT ","V020","360,5,N,0041,5","22000,6,9,N","040234,5,N,5","-0060,C","-0070,C","99999,9",,,,,,,,,,"04,6,+01524,6,99,9",,,"2,99,1,+01524,6,9",,,,"9,AGL   ,+99999,+99999","04,99,5,99,9,99,9,01524,1,99,9,99,9",,,"10037,5,09387,5",,,,,,"MET09004/16/23 05:49:02 METAR PAPT 161449Z 36008KT 25SM SCT050 BRK100 M06/M07 A2964 RMK NO SPECI","R01SCT0507SKY010R02   M067TMP046R03   M077DPT046R04SCT0507GAS010D01      0ADE693D02      0ADE539D03      0ADE726"
"70249026526","2023-04-16T16:49:00","7","62.0911","-152.7349","566.3","PUNTILLA, AK US","FM-15","PAPT ","V020","350,5,N,0036,5","22000,6,9,N","011265,5,N,5","-0040,C","-0050,C","99999,9",,,,,,,,,,"04,6,+01524,6,99,9",,,"2,99,1,+01524,6,9",,,,"9,AGL   ,+99999,+99999","04,99,5,99,9,99,9,01524,1,99,9,99,9",,,"10041,5,09390,5",,,,,,"MET08904/16/23 07:49:02 METAR PAPT 161649Z 35007KT 7SM SCT050 BRK100 M04/M05 A2965 RMK NO SPECI","R01SCT0507SKY010R02   M047TMP046R03   M057DPT046R04SCT0507GAS010D01      0ADE693D02      0ADE539D03      0ADE726"
"70249026526","2023-04-16T18:53:00","7","62.0911","-152.7349","566.3","PUNTILLA, AK US","FM-15","PAPT ","V020","350,5,N,0041,5","22000,5,9,N","032187,5,N,5","-0010,C","-0010,C","99999,9",,,,,,,,,,"04,5,+02134,5,99,9",,,"2,99,1,+02134,5,9",,,,"9,AGL   ,+99999,+99999","04,99,5,99,9,99,9,02134,1,99,9,99,9",,,"10044,5,09393,5",,,,,,"MET08304/16/23 09:53:02 METAR PAPT 161853Z 35008KT 20SM SCT070 M01/M01 A2966 RMK NO SPECI","R01   M017TMP046R02   M017DPT046D01      0ADE726"
"70249026526","2023-04-16T20:54:00","7","62.0911","-152.7349","566.3","PUNTILLA, AK US","FM-15","PAPT ","V020","010,5,N,0041,5","22000,5,9,N","024140,5,N,5","-0010,C","-0010,C","99999,9",,,,,,,,,,"04,5,+02134,5,99,9",,,"2,99,1,+02134,5,9",,,,"9,AGL   ,+99999,+99999","04,99,5,99,9,99,9,02134,1,99,9,99,9",,,"10047,5,09397,5",,,,,,"MET08304/16/23 11:54:02 METAR PAPT 162054Z 01008KT 15SM SCT070 M01/M01 A2967 RMK NO SPECI","R01   M017TMP046R02   M017DPT046D01      0ADE726"
"70249026526","2023-04-16T22:55:00","7","62.0911","-152.7349","566.3","PUNTILLA, AK US","FM-15","PAPT ","V020","010,5,N,0051,5","22000,5,9,N","032187,5,N,5","+0000,C","-0010,C","99999,9","24,0000,9,1","0048,9,5,004830,9,9",,,,,,,,"02,5,+02134,5,99,9",,,"1,99,1,+02134,5,9",,,,"9,AGL   ,+99999,+99999","02,99,5,99,9,99,9,02134,1,99,9,99,9","240,M,+0000,1","240,N,-0061,1","10051,5,09400,5",,,,,,"MET11104/16/23 13:55:02 METAR PAPT 162255Z 01010KT 20SM FEW070 00/M01 A2968 RMK NO SPECI 400001061 70000 931000 4/019","Q01  00002PRCP24R01    007TMP046R02   M017DPT046D01      0ADE726"
"70249026526","2023-04-17T00:48:00","7","62.0911","-152.7349","566.3","PUNTILLA, AK US","FM-15","PAPT ","V020","010,5,N,0031,5","22000,5,9,N","040234,5,N,5","-0010,C","-0010,C","99999,9",,,,,,,,,,"02,5,+03048,5,99,9",,,"1,99,1,+03048,5,9",,,,"9,AGL   ,+99999,+99999","02,99,5,99,9,99,9,03048,1,99,9,99,9",,,"10051,5,09400,5",,,,,,"MET08304/16/23 15:48:01 METAR PAPT 170048Z 01006KT 25SM FEW100 M01/M01 A2968 RMK NO SPECI","R01   M017TMP046R02   M017DPT046D01      0ADE726"
"70249026526","2023-04-17T02:48:00","7","62.0911","-152.7349","566.3","PUNTILLA, AK US","FM-15","PAPT ","V020","010,5,N,0021,5","22000,5,9,N","040234,5,N,5","-0020,C","-0020,C","99999,9",,,,,,,,,,"02,5,+03048,5,99,9",,,"1,99,1,+03048,5,9",,,,"9,AGL   ,+99999,+99999","02,99,5,99,9,99,9,03048,1,99,9,99,9",,,"10061,5,09409,5",,,,,,"MET08804/16/23 17:48:01 METAR PAPT 170248Z 01004KT 25SM FEW100 M02/M02 A2971 RMK NO SPECI LAST","R01   M027TMP046R02   M027DPT046D01      0ADE726"
"70249026526","2023-04-17T14:51:00","7","62.0911","-152.7349","566.3","PUNTILLA, AK US","FM-15","PAPT ","V020","350,5,N,0036,5","22000,5,9,N","040234,5,N,5","-0080,C","-0090,C","99999,9",,,,,,,,,,"02,5,+03048,5,99,9",,,"1,99,1,+03048,5,9",,,,"9,AGL   ,+99999,+99999","02,99,5,99,9,99,9,03048,1,99,9,99,9",,,"10088,5,09435,5",,,,,,"MET08904/17/23 05:51:01 METAR PAPT 171451Z 35007KT 25SM FEW100 M08/M09 A2979 RMK NO SPECI FIRST","R01   M087TMP046R02   M097DPT046D01      0ADE726"
"70249026526","2023-04-17T16:49:00","7","62.0911","-152.7349","566.3","PUNTILLA, AK US","FM-15","PAPT ","V020","020,5,N,0041,5","22000,5,9,N","040234,5,N,5","-0070,C","-0080,C","99999,9",,,,,,,,,,"02,5,+03048,5,99,9",,,"1,99,1,+03048,5,9",,,,"9,AGL   ,+99999,+99999","02,99,5,99,9,99,9,03048,1,99,9,99,9",,,"10088,5,09435,5",,,,,,"MET08304/17/23 07:49:01 METAR PAPT 171649Z 02008KT 25SM FEW100 M07/M08 A2979 RMK NO SPECI","R01   M077TMP046R02   M087DPT046D01      0ADE726"
"70249026526","2023-04-17T18:50:00","7","62.0911","-152.7349","566.3","PUNTILLA, AK US","FM-15","PAPT ","V020","020,5,N,0031,5","22000,5,9,N","040234,5,N,5","-0060,C","-0070,C","99999,9",,,,,,,,,,"02,5,+03048,5,99,9",,,"1,99,1,+03048,5,9",,,,"9,AGL   ,+99999,+99999","02,99,5,99,9,99,9,03048,1,99,9,99,9",,,"10091,5,09438,5",,,,,,"MET08304/17/23 09:50:02 METAR PAPT 171850Z 02006KT 25SM FEW100 M06/M07 A2980 RMK NO SPECI","R01   M067TMP046R02   M077DPT046D01      0ADE726"
"70249026526","2023-04-17T20:48:00","7","62.0911","-152.7349","566.3","PUNTILLA, AK US","FM-15","PAPT ","V020","020,5,N,0041,5","22000,5,9,N","040234,5,N,5","-0040,C","-0050,C","99999,9",,,,,,,,,,"02,5,+03048,5,99,9",,,"1,99,1,+03048,5,9",,,,"9,AGL   ,+99999,+99999","02,99,5,99,9,99,9,03048,1,99,9,99,9",,,"10091,5,09438,5",,,,,,"MET08304/17/23 11:48:02 METAR PAPT 172048Z 02008KT 25SM FEW100 M04/M05 A2980 RMK NO SPECI","R01   M047TMP046R02   M057DPT046D01      0ADE726"
"70249026526","2023-04-17T22:47:00","7","62.0911","-152.7349","566.3","PUNTILLA, AK US","FM-15","PAPT ","V020","010,5,N,0041,5","22000,5,9,N","040234,5,N,5","-0040,C","-0040,C","99999,9","24,0000,9,1","0048,9,5,004830,9,9",,,,,,,,"02,5,+03048,5,99,9",,,"1,99,1,+03048,5,9",,,,"9,AGL   ,+99999,+99999","02,99,5,99,9,99,9,03048,1,99,9,99,9","240,M,-0039,1","240,N,-0083,1","10095,5,09442,5",,,,,,"MET11204/17/23 13:47:02 METAR PAPT 172247Z 01008KT 25SM FEW100 M04/M04 A2981 RMK NO SPECI 410391083 70000 931000 4/019","Q01  00002PRCP24R01   M047TMP046R02   M047DPT046D01      0ADE726"
"70249026526","2023-04-18T02:47:00","7","62.0911","-152.7349","566.3","PUNTILLA, AK US","FM-15","PAPT ","V020","020,5,N,0062,5","22000,5,9,N","040234,5,N,5","-0070,C","-0080,C","99999,9",,,,,,,,,,"02,5,+03048,5,99,9",,,"1,99,1,+03048,5,9",,,,"9,AGL   ,+99999,+99999","02,99,5,99,9,99,9,03048,1,99,9,99,9",,,"10098,5,09445,5",,,,,,"MET08804/17/23 17:47:01 METAR PAPT 180247Z 02012KT 25SM FEW100 M07/M08 A2982 RMK NO SPECI LAST","R01   M077TMP046R02   M087DPT046D01      0ADE726"
"70249026526","2023-04-18T14:50:00","7","62.0911","-152.7349","566.3","PUNTILLA, AK US","FM-15","PAPT ","V020","350,5,N,0041,5","22000,7,9,N","040234,5,N,5","-0110,C","-0120,C","99999,9",,,,,,,,,,"00,7,+99999,9,99,9",,,"0,99,1,+99999,9,9",,,,,"00,99,1,99,9,99,9,99999,9,99,9,99,9",,,"10098,5,09445,5",,,,,,"MET08604/18/23 05:50:01 METAR PAPT 181450Z 35008KT 25SM SKC M11/M12 A2982 RMK NO SPECI FIRST","R01   SKC7SKY009R02   M117TMP046R03   M127DPT046R04   SKC7GAS009"
"70249026526","2023-04-18T16:50:00","7","62.0911","-152.7349","566.3","PUNTILLA, AK US","FM-15","PAPT ","V020","020,5,N,0051,5","22000,7,9,N","040234,5,N,5","-0090,C","-0110,C","99999,9",,,,,,,,,,"00,7,+99999,9,99,9",,,"0,99,1,+99999,9,9",,,,,"00,99,1,99,9,99,9,99999,9,99,9,99,9",,,"10098,5,09445,5",,,,,,"MET08004/18/23 07:50:02 METAR PAPT 181650Z 02010KT 25SM SKC M09/M11 A2982 RMK NO SPECI","R01   SKC7SKY009R02   M097TMP046R03   M117DPT046R04   SKC7GAS009"
"70249026526","2023-04-18T18:51:00","7","62.0911","-152.7349","566.3","PUNTILLA, AK US","FM-15","PAPT ","V020","010,5,N,0046,5","22000,7,9,N","040234,5,N,5","-0040,C","-0050,C","99999,9",,,,,,,,,,"00,7,+99999,9,99,9",,,"0,99,1,+99999,9,9",,,,,"00,99,1,99,9,99,9,99999,9,99,9,99,9",,,"10078,5,09425,5",,,,,,"MET08004/18/23 09:51:01 METAR PAPT 181851Z 01009KT 25SM SKC M04/M05 A2976 RMK NO SPECI","R01   SKC7SKY009R02   M047TMP046R03   M057DPT046R04   SKC7GAS009"
"70249026526","2023-04-18T20:49:00","7","62.0911","-152.7349","566.3","PUNTILLA, AK US","FM-15","PAPT ","V020","360,5,N,0077,5","22000,7,9,N","040234,5,N,5","-0020,C","-0030,C","99999,9",,,,,,,,,,"00,7,+99999,9,99,9",,,"0,99,1,+99999,9,9",,,,,"00,99,1,99,9,99,9,99999,9,99,9,99,9",,,"10078,5,09425,5",,,,,,"MET08004/18/23 11:49:02 METAR PAPT 182049Z 36015KT 25SM SKC M02/M03 A2976 RMK NO SPECI","R01   SKC7SKY009R02   M027TMP046R03   M037DPT046R04   SKC7GAS009"
"70249026526","2023-04-18T22:49:00","6","62.0911","-152.7349","566.3","PUNTILLA, AK US","FM-15","PAPT ","V020","010,5,N,0077,5","22000,5,9,N","040234,5,N,5","-0010,C","-0010,C","99999,9",,"0048,9,5,999999,9,9",,,,,,,,"02,5,+03048,5,99,9",,,"1,99,1,+03048,5,9",,,,,,,,"10078,5,09425,5",,,,,,"MET11204/18/23 13:49:02 METAR PAPT 182249Z 01015KT 25SM FEW100 M01/M01 A2976 RMK NO SPECI 410111111 70000 931000 4/019","R01   M017TMP046R02   M017DPT046"
"70249026526","2023-04-19T00:48:00","7","62.0911","-152.7349","566.3","PUNTILLA, AK US","FM-15","PAPT ","V020","360,5,N,0051,5","22000,5,9,N","040234,5,N,5","-0010,C","-0010,C","99999,9",,,,,,,,,,"04,5,+03048,5,99,9",,,"2,99,1,+03048,5,9",,,,"9,AGL   ,+99999,+99999","04,99,5,99,9,99,9,03048,1,99,9,99,9",,,"10085,5,09432,5",,,,,,"MET08304/18/23 15:48:01 METAR PAPT 190048Z 36010KT 25SM SCT100 M01/M01 A2978 RMK NO SPECI","R01   M017TMP046R02   M017DPT046D01      0ADE726"
"70249026526","2023-04-19T02:56:00","7","62.0911","-152.7349","566.3","PUNTILLA, AK US","FM-15","PAPT ","V020","350,5,N,0041,5","22000,5,9,N","040234,5,N,5","-0020,C","-0020,C","99999,9",,,,,,,,,,"04,5,+03048,5,99,9",,,"2,99,1,+03048,5,9",,,,"9,AGL   ,+99999,+99999","04,99,5,99,9,99,9,03048,1,99,9,99,9",,,"10095,5,09442,5",,,,,,"MET08804/18/23 17:56:01 METAR PAPT 190256Z 35008KT 25SM SCT100 M02/M02 A2981 RMK NO SPECI LAST","R01   M027TMP046R02   M027DPT046D01      0ADE726"
"70249026526","2023-04-19T14:56:00","7","62.0911","-152.7349","566.3","PUNTILLA, AK US","FM-15","PAPT ","V020","340,5,N,0010,5","22000,7,9,N","040234,5,N,5","-0150,C","-0170,C","99999,9",,,,,,,,,,"00,7,+99999,9,99,9",,,"0,99,1,+99999,9,9",,,,,"00,99,1,99,9,99,9,99999,9,99,9,99,9",,,"10142,5,09486,5",,,,,,"MET08604/19/23 05:56:01 METAR PAPT 191456Z 34002KT 25SM SKC M15/M17 A2995 RMK NO SPECI FIRST","R01   SKC7SKY009R02   M157TMP046R03   M177DPT046R04   SKC7GAS009"
"70249026526","2023-04-19T16:46:00","7","62.0911","-152.7349","566.3","PUNTILLA, AK US","FM-15","PAPT ","V020","010,5,N,0026,5","22000,5,9,N","040234,5,N,5","-0110,C","-0120,C","99999,9",,,,,,,,,,"02,5,+03048,5,99,9",,,"1,99,1,+03048,5,9",,,,"9,AGL   ,+99999,+99999","02,99,5,99,9,99,9,03048,1,99,9,99,9",,,"10156,5,09499,5",,,,,,"MET08304/19/23 07:46:02 METAR PAPT 191646Z 01005KT 25SM FEW100 M11/M12 A2999 RMK NO SPECI","R01   M117TMP046R02   M127DPT046D01      0ADE726"
"70249026526","2023-04-19T18:53:00","7","62.0911","-152.7349","566.3","PUNTILLA, AK US","FM-15","PAPT ","V020","020,5,N,0015,5","22000,5,9,N","040234,5,N,5","-0040,C","-0050,C","99999,9",,,,,,,,,,"02,5,+03048,5,99,9",,,"1,99,1,+03048,5,9",,,,"9,AGL   ,+99999,+99999","02,99,5,99,9,99,9,03048,1,99,9,99,9",,,"10163,5,09506,5",,,,,,"MET08304/19/23 09:53:02 METAR PAPT 191853Z 02003KT 25SM FEW100 M04/M05 A3001 RMK NO SPECI","R01   M047TMP046R02   M057DPT046D01      0ADE726"
"70249026526","2023-04-19T20:50:00","7","62.0911","-152.7349","566.3","PUNTILLA, AK US","FM-15","PAPT ","V020","020,5,N,0026,5","22000,5,9,N","040234,5,N,5","+0000,C","-0010,C","99999,9",,,,,,,,,,"02,5,+03048,5,99,9",,,"1,99,1,+03048,5,9",,,,"9,AGL   ,+99999,+99999","02,99,5,99,9,99,9,03048,1,99,9,99,9",,,"10166,5,09509,5",,,,,,"MET08204/19/23 11:50:02 METAR PAPT 192050Z 02005KT 25SM FEW100 00/M01 A3002 RMK NO SPECI","R01    007TMP046R02   M017DPT046D01      0ADE726"
"70249026526","2023-04-19T22:49:00","7","62.0911","-152.7349","566.3","PUNTILLA, AK US","FM-15","PAPT ","V020","020,5,N,0021,5","22000,5,9,N","040234,5,N,5","+0040,C","-0030,C","99999,9","24,0000,9,1","0046,9,5,004570,9,9",,,,,,,,"02,5,+03048,5,99,9",,,"1,99,1,+03048,5,9",,,,"9,AGL   ,+99999,+99999","02,99,5,99,9,99,9,03048,1,99,9,99,9","240,M,+0039,1","240,N,-0115,1","10169,5,09512,5",,,,,,"MET11104/19/23 13:49:02 METAR PAPT 192249Z 02004KT 25SM FEW100 04/M03 A3003 RMK NO SPECI 400391115 70000 931000 4/018","Q01  00002PRCP24R01    047TMP046R02   M037DPT046D01      0ADE726"
"70249026526","2023-04-20T00:46:00","7","62.0911","-152.7349","566.3","PUNTILLA, AK US","FM-15","PAPT ","V020","020,5,N,0031,5","22000,5,9,N","040234,5,N,5","+0040,C","-0040,C","99999,9",,,,,,,,,,"02,5,+03048,5,99,9",,,"1,99,1,+03048,5,9",,,,"9,AGL   ,+99999,+99999","02,99,5,99,9,99,9,03048,1,99,9,99,9",,,"10173,5,09515,5",,,,,,"MET08204/19/23 15:46:01 METAR PAPT 200046Z 02006KT 25SM FEW100 04/M04 A3004 RMK NO SPECI","R01    047TMP046R02   M047DPT046D01      0ADE726"
"70249026526","2023-04-20T02:59:00","7","62.0911","-152.7349","566.3","PUNTILLA, AK US","FM-15","PAPT ","V020","010,5,N,0026,5","22000,7,9,N","040234,5,N,5","+0040,C","+0010,C","99999,9",,,,,,,,,,"00,7,+99999,9,99,9",,,"0,99,1,+99999,9,9",,,,,"00,99,1,99,9,99,9,99999,9,99,9,99,9",,,"10173,5,09515,5",,,,,,"MET08304/19/23 17:59:01 METAR PAPT 200259Z 01005KT 25SM SKC 04/01 A3004 RMK NO SPECI LAST","R01   SKC7SKY009R02    047TMP046R03    017DPT046R04   SKC7GAS009"
"70249026526","2023-04-20T14:52:00","7","62.0911","-152.7349","566.3","PUNTILLA, AK US","FM-15","PAPT ","V020","340,5,N,0015,5","22000,7,9,N","040234,5,N,5","-0120,C","-0130,C","99999,9",,,,,,,,,,"00,7,+99999,9,99,9",,,"0,99,1,+99999,9,9",,,,,"00,99,1,99,9,99,9,99999,9,99,9,99,9",,,"10251,5,09589,5",,,,,,"MET08604/20/23 05:52:01 METAR PAPT 201452Z 34003KT 25SM SKC M12/M13 A3027 RMK NO SPECI FIRST","R01   SKC7SKY009R02   M127TMP046R03   M137DPT046R04   SKC7GAS009"
"70249026526","2023-04-20T16:57:00","7","62.0911","-152.7349","566.3","PUNTILLA, AK US","FM-15","PAPT ","V020","010,5,N,0015,5","22000,7,9,N","040234,5,N,5","-0120,C","-0130,C","99999,9",,,,,,,,,,"00,7,+99999,9,99,9",,,"0,99,1,+99999,9,9",,,,,"00,99,1,99,9,99,9,99999,9,99,9,99,9",,,"10251,5,09589,5",,,,,,"MET08004/20/23 07:57:02 METAR PAPT 201657Z 01003KT 25SM SKC M12/M13 A3027 RMK NO SPECI","R01   SKC7SKY009R02   M127TMP046R03   M137DPT046R04   SKC7GAS009"
"70249026526","2023-04-20T18:51:00","7","62.0911","-152.7349","566.3","PUNTILLA, AK US","FM-15","PAPT ","V020","020,5,N,0026,5","22000,7,9,N","040234,5,N,5","-0020,C","-0020,C","99999,9",,,,,,,,,,"00,7,+99999,9,99,9",,,"0,99,1,+99999,9,9",,,,,"00,99,1,99,9,99,9,99999,9,99,9,99,9",,,"10254,5,09592,5",,,,,,"MET08004/20/23 09:51:02 METAR PAPT 201851Z 02005KT 25SM SKC M02/M02 A3028 RMK NO SPECI","R01   SKC7SKY009R02   M027TMP046R03   M027DPT046R04   SKC7GAS009"
"70249026526","2023-04-20T20:50:00","7","62.0911","-152.7349","566.3","PUNTILLA, AK US","FM-15","PAPT ","V020","010,5,N,0026,5","22000,7,9,N","040234,5,N,5","+0030,C","-0010,C","99999,9",,,,,,,,,,"00,7,+99999,9,99,9",,,"0,99,1,+99999,9,9",,,,,"00,99,1,99,9,99,9,99999,9,99,9,99,9",,,"10254,5,09592,5",,,,,,"MET07904/20/23 11:50:02 METAR PAPT 202050Z 01005KT 25SM SKC 03/M01 A3028 RMK NO SPECI","R01   SKC7SKY009R02    037TMP046R03   M017DPT046R04   SKC7GAS009"
"70249026526","2023-04-20T22:57:00","7","62.0911","-152.7349","566.3","PUNTILLA, AK US","FM-15","PAPT ","V020","020,5,N,0031,5","22000,7,9,N","040234,5,N,5","+0050,C","-0040,C","99999,9","24,0000,9,1","0043,9,5,004320,9,9",,,,,,,,"00,7,+99999,9,99,9",,,"0,99,1,+99999,9,9",,,,,"00,99,1,99,9,99,9,99999,9,99,9,99,9","240,M,+0050,1","240,N,-0117,1","10254,5,09592,5",,,,,,"MET10804/20/23 13:57:02 METAR PAPT 202257Z 02006KT 25SM SKC 05/M04 A3028 RMK NO SPECI 400501117 70000 931000 4/017","Q01  00002PRCP24R01   SKC7SKY009R02    057TMP046R03   M047DPT046R04   SKC7GAS009"
"70249026526","2023-04-21T00:48:00","7","62.0911","-152.7349","566.3","PUNTILLA, AK US","FM-15","PAPT ","V020","010,5,N,0041,5","22000,7,9,N","040234,5,N,5","+0070,C","-0030,C","99999,9",,,,,,,,,,"00,7,+99999,9,99,9",,,"0,99,1,+99999,9,9",,,,,"00,99,1,99,9,99,9,99999,9,99,9,99,9",,,"10254,5,09592,5",,,,,,"MET07904/20/23 15:48:01 METAR PAPT 210048Z 01008KT 25SM SKC 07/M03 A3028 RMK NO SPECI","R01   SKC7SKY009R02    077TMP046R03   M037DPT046R04   SKC7GAS009"
"70249026526","2023-04-21T02:48:00","7","62.0911","-152.7349","566.3","PUNTILLA, AK US","FM-15","PAPT ","V020","360,5,N,0031,5","22000,7,9,N","040234,5,N,5","+0070,C","-0020,C","99999,9",,,,,,,,,,"00,7,+99999,9,99,9",,,"0,99,1,+99999,9,9",,,,,"00,99,1,99,9,99,9,99999,9,99,9,99,9",,,"10251,5,09589,5",,,,,,"MET08404/20/23 17:48:01 METAR PAPT 210248Z 36006KT 25SM SKC 07/M02 A3027 RMK NO SPECI LAST","R01   SKC7SKY009R02    077TMP046R03   M027DPT046R04   SKC7GAS009"
"70249026526","2023-04-21T14:50:00","7","62.0911","-152.7349","566.3","PUNTILLA, AK US","FM-15","PAPT ","V020","360,5,N,0010,5","22000,7,9,N","040234,5,N,5","-0110,C","-0120,C","99999,9",,,,,,,,,,"00,7,+99999,9,99,9",,,"0,99,1,+99999,9,9",,,,,"00,99,1,99,9,99,9,99999,9,99,9,99,9",,,"10251,5,09589,5",,,,,,"MET08604/21/23 05:50:02 METAR PAPT 211450Z 36002KT 25SM SKC M11/M12 A3027 RMK NO SPECI FIRST","R01   SKC7SKY009R02   M117TMP046R03   M127DPT046R04   SKC7GAS009"
"70249026526","2023-04-21T16:49:00","7","62.0911","-152.7349","566.3","PUNTILLA, AK US","FM-15","PAPT ","V020","360,5,N,0010,5","22000,7,9,N","040234,5,N,5","-0060,C","-0070,C","99999,9",,,,,,,,,,"00,7,+99999,9,99,9",,,"0,99,1,+99999,9,9",,,,,"00,99,1,99,9,99,9,99999,9,99,9,99,9",,,"10240,5,09579,5",,,,,,"MET08004/21/23 07:49:02 METAR PAPT 211649Z 36002KT 25SM SKC M06/M07 A3024 RMK NO SPECI","R01   SKC7SKY009R02   M067TMP046R03   M077DPT046R04   SKC7GAS009"
"70249026526","2023-04-21T18:52:00","7","62.0911","-152.7349","566.3","PUNTILLA, AK US","FM-15","PAPT ","V020","020,5,N,0021,5","22000,7,9,N","040234,5,N,5","-0010,C","-0020,C","99999,9",,,,,,,,,,"00,7,+99999,9,99,9",,,"0,99,1,+99999,9,9",,,,,"00,99,1,99,9,99,9,99999,9,99,9,99,9",,,"10237,5,09576,5",,,,,,"MET08004/21/23 09:52:02 METAR PAPT 211852Z 02004KT 25SM SKC M01/M02 A3023 RMK NO SPECI","R01   SKC7SKY009R02   M017TMP046R03   M027DPT046R04   SKC7GAS009"
"70249026526","2023-04-21T20:50:00","7","62.0911","-152.7349","566.3","PUNTILLA, AK US","FM-15","PAPT ","V020","020,5,N,0026,5","22000,7,9,N","040234,5,N,5","+0040,C","+0020,C","99999,9",,,,,,,,,,"00,7,+99999,9,99,9",,,"0,99,1,+99999,9,9",,,,,"00,99,1,99,9,99,9,99999,9,99,9,99,9",,,"10224,5,09563,5",,,,,,"MET07804/21/23 11:50:02 METAR PAPT 212050Z 02005KT 25SM SKC 04/02 A3019 RMK NO SPECI","R01   SKC7SKY009R02    047TMP046R03    027DPT046R04   SKC7GAS009"
"70249026526","2023-04-21T22:51:00","7","62.0911","-152.7349","566.3","PUNTILLA, AK US","FM-15","PAPT ","V020","030,5,N,0021,5","22000,7,9,N","040234,5,N,5","+0070,C","-0030,C","99999,9","24,0000,9,1","0041,9,5,004060,9,9",,,,,,,,"00,7,+99999,9,99,9",,,"0,99,1,+99999,9,9",,,,,"00,99,1,99,9,99,9,99999,9,99,9,99,9","240,M,+0067,1","240,N,-0106,1","10213,5,09554,5",,,,,,"MET10804/21/23 13:51:02 METAR PAPT 212251Z 03004KT 25SM SKC 07/M03 A3016 RMK NO SPECI 400671106 70000 931000 4/016","Q01  00002PRCP24R01   SKC7SKY009R02    077TMP046R03   M037DPT046R04   SKC7GAS009"
"70249026526","2023-04-22T01:00:00","7","62.0911","-152.7349","566.3","PUNTILLA, AK US","FM-15","PAPT ","V020","360,5,N,0031,5","22000,7,9,N","040234,5,N,5","+0070,C","-0020,C","99999,9",,,,,,,,,,"00,7,+99999,9,99,9",,,"0,99,1,+99999,9,9",,,,,"00,99,1,99,9,99,9,99999,9,99,9,99,9",,,"10200,5,09541,5",,,,,,"MET07904/21/23 16:00:01 METAR PAPT 220100Z 36006KT 25SM SKC 07/M02 A3012 RMK NO SPECI","R01   SKC7SKY009R02    077TMP046R03   M027DPT046R04   SKC7GAS009"
"70249026526","2023-04-22T02:50:00","7","62.0911","-152.7349","566.3","PUNTILLA, AK US","FM-15","PAPT ","V020","010,5,N,0026,5","22000,7,9,N","040234,5,N,5","+0090,C","-0080,C","99999,9",,,,,,,,,,"00,7,+99999,9,99,9",,,"0,99,1,+99999,9,9",,,,,"00,99,1,99,9,99,9,99999,9,99,9,99,9",,,"10190,5,09531,5",,,,,,"MET08404/21/23 17:50:01 METAR PAPT 220250Z 01005KT 25SM SKC 09/M08 A3009 RMK NO SPECI LAST","R01   SKC7SKY009R02    097TMP046R03   M087DPT046R04   SKC7GAS009"
"70249026526","2023-04-22T14:53:00","7","62.0911","-152.7349","566.3","PUNTILLA, AK US","FM-15","PAPT ","V020","360,5,N,0051,5","22000,5,9,N","040234,5,N,5","+0010,C","-0020,C","99999,9",,,,,,,,,,"04,5,+03048,5,99,9",,,"2,99,1,+03048,5,9",,,,"9,AGL   ,+99999,+99999","04,99,5,99,9,99,9,03048,1,99,9,99,9",,,"10122,5,09467,5",,,,,,"MET08804/22/23 05:53:02 METAR PAPT 221453Z 36010KT 25SM SCT100 01/M02 A2989 RMK NO SPECI FIRST","R01    017TMP046R02   M027DPT046D01      0ADE726"
"70249026526","2023-04-22T16:50:00","7","62.0911","-152.7349","566.3","PUNTILLA, AK US","FM-15","PAPT ","V020","350,5,N,0077,5","99999,9,9,N","040234,7,N,5","+0020,C","-0060,C","99999,9",,,,,,"0,0,00,1,0,2,5",,,,,,,,,,,,,,,"10115,5,09461,5",,,,,,"MET08204/22/23 07:50:02 METAR PAPT 221650Z 35015KT 25SM BRK100 02/M06 A2987 RMK NO SPECI","R01      7SKY009R02  25SM7VIS011R03    027TMP046R04   M067DPT046R05      7GAS009D01      0ADE693D02      0ADE539"
"70249026526","2023-04-22T18:48:00","7","62.0911","-152.7349","566.3","PUNTILLA, AK US","FM-15","PAPT ","V020","350,5,N,0062,5","22000,5,9,N","040234,5,N,5","+0040,C","-0070,C","99999,9",,,,,,,,,,"02,5,+03048,5,99,9",,,"1,99,1,+03048,5,9",,,,"9,AGL   ,+99999,+99999","02,99,5,99,9,99,9,03048,1,99,9,99,9",,,"10105,5,09451,5",,,,,,"MET08204/22/23 09:48:02 METAR PAPT 221848Z 35012KT 25SM FEW100 04/M07 A2984 RMK NO SPECI","R01    047TMP046R02   M077DPT046D01      0ADE726"
"70249026526","2023-04-22T20:49:00","7","62.0911","-152.7349","566.3","PUNTILLA, AK US","FM-15","PAPT ","V020","350,5,N,0129,5","22000,5,9,N","040234,5,N,5","+0040,C","-0030,C","99999,9",,,,,,,,,,"02,5,+03048,5,99,9",,,"1,99,1,+03048,5,9",,,,"9,AGL   ,+99999,+99999","02,99,5,99,9,99,9,03048,1,99,9,99,9",,,"10105,5,09451,5",,,,,,"MET08204/22/23 11:49:02 METAR PAPT 222049Z 35025KT 25SM FEW100 04/M03 A2984 RMK NO SPECI","R01    047TMP046R02   M037DPT046D01      0ADE726"
"70249026526","2023-04-22T22:50:00","7","62.0911","-152.7349","566.3","PUNTILLA, AK US","FM-15","PAPT ","V020","350,5,N,0129,5","22000,5,9,N","040234,5,N,5","+0050,C","-0060,C","99999,9","24,0000,9,1","0038,9,5,003810,9,9",,,,,,,,"04,5,+02134,5,99,9",,,"2,99,1,+02134,5,9",,,,"9,AGL   ,+99999,+99999","04,99,5,99,9,99,9,02134,1,99,9,99,9","240,M,+0050,1","240,N,+0011,1","10098,5,09445,5",,,,,,"MET11104/22/23 13:50:02 METAR PAPT 222250Z 35025KT 25SM SCT070 05/M06 A2982 RMK NO SPECI 400500011 70000 931000 4/015","Q01  00002PRCP24R01    057TMP046R02   M067DPT046D01      0ADE726"
"70249026526","2023-04-23T00:48:00","7","62.0911","-152.7349","566.3","PUNTILLA, AK US","FM-15","PAPT ","V020","350,5,N,0103,5","22000,5,9,N","040234,5,N,5","+0020,C","-0040,C","99999,9",,,,,,,,,,"04,5,+01829,5,99,9",,,"2,99,1,+01829,5,9",,,,"9,AGL   ,+99999,+99999","04,99,5,99,9,99,9,01829,1,99,9,99,9",,,"10095,5,09442,5",,,,,,"MET08204/22/23 15:48:01 METAR PAPT 230048Z 35020KT 25SM SCT060 02/M04 A2981 RMK NO SPECI","R01    027TMP046R02   M047DPT046D01      0ADE726"
"70249026526","2023-04-23T02:49:00","7","62.0911","-152.7349","566.3","PUNTILLA, AK US","FM-15","PAPT ","V020","350,5,N,0129,5","22000,5,9,N","040234,5,N,5","-0010,C","-0020,C","99999,9",,,,,,,,,,"02,5,+01829,5,99,9",,,"1,99,1,+01829,5,9",,,,"9,AGL   ,+99999,+99999","02,99,5,99,9,99,9,01829,1,99,9,99,9",,,"10095,5,09442,5",,,,,,"MET08804/22/23 17:49:01 METAR PAPT 230249Z 35025KT 25SM FEW060 M01/M02 A2981 RMK NO SPECI LAST","R01   M017TMP046R02   M027DPT046D01      0ADE726"
"70249026526","2023-04-23T08:59:00","O","62.0911","-152.7349","566.3","PUNTILLA, AK US","SOD  ","PAPT ","V020","999,9,9,9999,9","99999,9,9,9","999999,9,9,9","+9999,9","+9999,9","99999,9",,,"AU,13,BR  ,5",,,,,,,,,,,,,,,,,,,,,,,,,
"70249026526","2023-04-23T14:55:00","7","62.0911","-152.7349","566.3","PUNTILLA, AK US","FM-15","PAPT ","V020","350,5,N,0010,5","22000,5,9,N","040234,5,N,5","-0080,C","-0090,C","99999,9",,,,,,,,,,"04,5,+02134,5,99,9",,,"2,99,1,+02134,5,9",,,,"9,AGL   ,+99999,+99999","04,99,5,99,9,99,9,02134,1,99,9,99,9",,,"10068,5,09416,5",,,,,,"MET08904/23/23 05:55:02 METAR PAPT 231455Z 35002KT 25SM SCT070 M08/M09 A2973 RMK NO SPECI FIRST","R01   M087TMP046R02   M097DPT046D01      0ADE726"
"70249026526","2023-04-23T16:50:00","7","62.0911","-152.7349","566.3","PUNTILLA, AK US","FM-15","PAPT ","V020","360,5,N,0051,5","22000,5,9,N","040234,5,N,5","-0080,C","-0090,C","99999,9",,,,,,,,,,"04,5,+02134,5,99,9",,,"2,99,1,+02134,5,9",,,,"9,AGL   ,+99999,+99999","04,99,5,99,9,99,9,02134,1,99,9,99,9",,,"10064,5,09413,5",,,,,,"MET08304/23/23 07:50:02 METAR PAPT 231650Z 36010KT 25SM SCT070 M08/M09 A2972 RMK NO SPECI","R01   M087TMP046R02   M097DPT046D01      0ADE726"
"70249026526","2023-04-23T18:51:00","7","62.0911","-152.7349","566.3","PUNTILLA, AK US","FM-15","PAPT ","V020","360,5,N,0077,5","22000,5,9,N","040234,5,N,5","-0080,C","-0090,C","99999,9",,,,,,,,,,"02,5,+03048,5,99,9",,,"1,99,1,+03048,5,9",,,,"9,AGL   ,+99999,+99999","02,99,5,99,9,99,9,03048,1,99,9,99,9",,,"10064,5,09413,5",,,,,,"MET08304/23/23 09:51:02 METAR PAPT 231851Z 36015KT 25SM FEW100 M08/M09 A2972 RMK NO SPECI","R01   M087TMP046R02   M097DPT046D01      0ADE726"
"70249026526","2023-04-23T20:51:00","7","62.0911","-152.7349","566.3","PUNTILLA, AK US","FM-15","PAPT ","V020","360,5,N,0077,5","22000,5,9,N","040234,5,N,5","-0080,C","-0090,C","99999,9",,,,,,,,,,"02,5,+03048,5,99,9",,,"1,99,1,+03048,5,9",,,,"9,AGL   ,+99999,+99999","02,99,5,99,9,99,9,03048,1,99,9,99,9",,,"10061,5,09409,5",,,,,,"MET08304/23/23 11:51:02 METAR PAPT 232051Z 36015KT 25SM FEW100 M08/M09 A2971 RMK NO SPECI","R01   M087TMP046R02   M097DPT046D01      0ADE726"
"70249026526","2023-04-23T22:47:00","7","62.0911","-152.7349","566.3","PUNTILLA, AK US","FM-15","PAPT ","V020","360,5,N,0103,5","22000,5,9,N","040234,5,N,5","-0080,C","-0090,C","99999,9","24,0000,9,1","0038,9,5,003810,9,9",,,,,,,,"04,5,+03048,5,99,9",,,"2,99,1,+03048,5,9",,,,"9,AGL   ,+99999,+99999","04,99,5,99,9,99,9,03048,1,99,9,99,9","240,M,-0078,1","240,N,-0083,1","10058,5,09406,5",,,,,,"MET11204/23/23 13:47:02 METAR PAPT 232247Z 36020KT 25SM SCT100 M08/M09 A2970 RMK NO SPECI 410781083 70000 931000 4/015","Q01  00002PRCP24R01   M087TMP046R02   M097DPT046D01      0ADE726"
"70249026526","2023-04-24T00:49:00","7","62.0911","-152.7349","566.3","PUNTILLA, AK US","FM-15","PAPT ","V020","350,5,N,0103,5","22000,7,9,N","040234,5,N,5","-0070,C","-0080,C","99999,9",,,,,,,,,,"00,7,+99999,9,99,9",,,"0,99,1,+99999,9,9",,,,,"00,99,1,99,9,99,9,99999,9,99,9,99,9",,,"10047,5,09397,5",,,,,,"MET08004/23/23 15:49:01 METAR PAPT 240049Z 35020KT 25SM SKC M07/M08 A2967 RMK NO SPECI","R01   SKC7SKY009R02   M077TMP046R03   M087DPT046R04   SKC7GAS009"
"70249026526","2023-04-24T02:51:00","7","62.0911","-152.7349","566.3","PUNTILLA, AK US","FM-15","PAPT ","V020","360,5,N,0103,5","22000,7,9,N","040234,5,N,5","-0080,C","-0090,C","99999,9",,,,,,,,,,"00,7,+99999,9,99,9",,,"0,99,1,+99999,9,9",,,,,"00,99,1,99,9,99,9,99999,9,99,9,99,9",,,"10044,5,09393,5",,,,,,"MET08504/23/23 17:51:01 METAR PAPT 240251Z 36020KT 25SM SKC M08/M09 A2966 RMK NO SPECI LAST","R01   SKC7SKY009R02   M087TMP046R03   M097DPT046R04   SKC7GAS009"
"70249026526","2023-04-24T16:51:00","7","62.0911","-152.7349","566.3","PUNTILLA, AK US","FM-15","PAPT ","V020","360,5,N,0010,5","22000,5,9,N","040234,5,N,5","-0130,C","-0150,C","99999,9",,,,,,,,,,"02,5,+03048,5,99,9",,,"1,99,1,+03048,5,9",,,,"9,AGL   ,+99999,+99999","02,99,5,99,9,99,9,03048,1,99,9,99,9",,,"10003,5,09355,5",,,,,,"MET08904/24/23 07:51:02 METAR PAPT 241651Z 36002KT 25SM FEW100 M13/M15 A2954 RMK NO SPECI FIRST","R01   M137TMP046R02   M157DPT046D01      0ADE726"
"70249026526","2023-04-24T18:58:00","7","62.0911","-152.7349","566.3","PUNTILLA, AK US","FM-15","PAPT ","V020","010,5,N,0010,5","22000,7,9,N","040234,5,N,5","-0080,C","-0090,C","99999,9",,,,,,,,,,"00,7,+99999,9,99,9",,,"0,99,1,+99999,9,9",,,,,"00,99,1,99,9,99,9,99999,9,99,9,99,9",,,"10003,5,09355,5",,,,,,"MET08004/24/23 09:58:02 METAR PAPT 241858Z 01002KT 25SM SKC M08/M09 A2954 RMK NO SPECI","R01   SKC7SKY009R02   M087TMP046R03   M097DPT046R04   SKC7GAS009"
"70249026526","2023-04-24T20:47:00","7","62.0911","-152.7349","566.3","PUNTILLA, AK US","FM-15","PAPT ","V020","010,5,N,0031,5","22000,7,9,N","040234,5,N,5","-0050,C","-0060,C","99999,9",,,,,,,,,,"00,7,+99999,9,99,9",,,"0,99,1,+99999,9,9",,,,,"00,99,1,99,9,99,9,99999,9,99,9,99,9",,,"10000,5,09352,5",,,,,,"MET08004/24/23 11:47:02 METAR PAPT 242047Z 01006KT 25SM SKC M05/M06 A2953 RMK NO SPECI","R01   SKC7SKY009R02   M057TMP046R03   M067DPT046R04   SKC7GAS009"
"70249026526","2023-04-24T22:46:00","7","62.0911","-152.7349","566.3","PUNTILLA, AK US","FM-15","PAPT ","V020","010,5,N,0031,5","22000,7,9,N","040234,5,N,5","-0020,C","-0020,C","99999,9","24,0000,9,1","0038,9,5,003810,9,9",,,,,,,,"00,7,+99999,9,99,9",,,"0,99,1,+99999,9,9",,,,,"00,99,1,99,9,99,9,99999,9,99,9,99,9","240,M,-0017,1","240,N,-0133,1","10000,5,09352,5",,,,,,"MET10904/24/23 13:46:02 METAR PAPT 242246Z 01006KT 25SM SKC M02/M02 A2953 RMK NO SPECI 410171133 70000 931000 4/015","Q01  00002PRCP24R01   SKC7SKY009R02   M027TMP046R03   M027DPT046R04   SKC7GAS009"
"70249026526","2023-04-25T14:49:00","7","62.0911","-152.7349","566.3","PUNTILLA, AK US","FM-15","PAPT ","V020","190,5,N,0041,5","03048,5,M,N","016093,5,N,5","-0010,C","-0010,C","99999,9",,,,,,"0,0,00,1,0,2,7",,,,"08,5,+03048,5,99,9",,,"4,99,1,+03048,5,9",,,,,,,,"10037,5,09387,5",,,,,,"MET09604/25/23 05:49:02 METAR PAPT 251449Z 19008KT 10SM BRK050 OVC100 M01/M01 A2964 RMK NO SPECI FIRST","R01   M017TMP046R02   M017DPT046R03BRK0507AWW013R04SEERMK7MVW013R05BRK0507MWW013D01      0ADE693D02      0ADE539"
"70249026526","2023-04-25T16:50:00","7","62.0911","-152.7349","566.3","PUNTILLA, AK US","FM-15","PAPT ","V020","190,5,N,0051,5","03048,5,M,N","011265,5,N,5","-0010,C","-0010,C","99999,9",,,,,,"0,0,00,1,0,2,7",,,,"08,5,+03048,5,99,9",,,"4,99,1,+03048,5,9",,,,,,,,"10037,5,09387,5",,,,,,"MET08904/25/23 07:50:02 METAR PAPT 251650Z 19010KT 7SM BRK030 OVC100 M01/M01 A2964 RMK NO SPECI","R01   M017TMP046R02   M017DPT046R03BRK0307AWW013R04SEERMK7MVW013R05BRK0307MWW013D01      0ADE693D02      0ADE539"
"70249026526","2023-04-25T18:46:00","7","62.0911","-152.7349","566.3","PUNTILLA, AK US","FM-15","PAPT ","V020","190,5,N,0077,5","03048,5,M,N","011265,5,N,5","+0010,C","-0040,C","99999,9",,,,,,"1,0,03,0,0,1,7","0,0,00,1,0,2,7",,,"08,5,+03048,5,99,9",,,"4,99,1,+03048,5,9",,,,,,,,"10037,5,09387,5",,"71,1",,,,"MET09204/25/23 09:46:02 METAR PAPT 251846Z 19015KT 7SM -SN BRK030 OVC100 01/M04 A2964 RMK NO SPECI","R01    017TMP046R02   M047DPT046R03-SN BR7AWW013R04SEERMK7MVW013R05-SN BR7MWW013D01      0ADE693D02      0ADE539"
"70249026526","2023-04-25T20:47:00","7","62.0911","-152.7349","566.3","PUNTILLA, AK US","FM-15","PAPT ","V020","190,5,N,0077,5","03048,5,M,N","011265,5,N,5","+0010,C","-0020,C","99999,9",,,,,,"0,0,00,1,0,2,7",,,,"08,5,+03048,5,99,9",,,"4,99,1,+03048,5,9",,,,,,,,"10037,5,09387,5",,,,,,"MET08804/25/23 11:47:02 METAR PAPT 252047Z 19015KT 7SM BRK040 OVC100 01/M02 A2964 RMK NO SPECI","R01    017TMP046R02   M027DPT046R03BRK0407AWW013R04SEERMK7MVW013R05BRK0407MWW013D01      0ADE693D02      0ADE539"
"70249026526","2023-04-25T22:47:00","7","62.0911","-152.7349","566.3","PUNTILLA, AK US","FM-15","PAPT ","V020","190,5,N,0077,5","00762,5,W,N","003219,5,N,5","+0010,C","-0040,C","99999,9","24,0000,2,1","0038,9,5,003810,9,9",,,,"1,0,03,0,0,1,5","2,5,03,0,0,1,5","27,5","71,5","09,5,+00762,5,99,9",,,"5,99,1,+00762,5,9",,,,"9,AGL   ,+99999,+99999","09,99,1,99,9,99,9,00762,1,99,9,99,9","240,M,+0011,1","240,N,-0011,1","10034,5,09384,5",,"38,1","71,5",,,"MET11804/25/23 13:47:02 METAR PAPT 252247Z 19015KT 2SM -SN BLSN VV025 01/M04 A2963 RMK NO SPECI 400111011 70000 931000 4/015","R01    017TMP046R02   M047DPT046"
"70249026526","2023-04-26T00:49:00","7","62.0911","-152.7349","566.3","PUNTILLA, AK US","FM-15","PAPT ","V020","190,5,N,0077,5","00762,5,W,N","004828,5,N,5","-0010,C","-0010,C","99999,9",,,,,,"1,0,03,0,0,1,5",,"71,5",,"09,5,+00762,5,99,9",,,"5,99,1,+00762,5,9",,,,"9,AGL   ,+99999,+99999","09,99,1,99,9,99,9,00762,1,99,9,99,9",,,"10030,5,09381,5",,"71,5",,,,"MET08504/25/23 15:49:01 METAR PAPT 260049Z 19015KT 3SM -SN VV025 M01/M01 A2962 RMK NO SPECI","R01   M017TMP046R02   M017DPT046"
"70249026526","2023-04-26T02:50:00","7","62.0911","-152.7349","566.3","PUNTILLA, AK US","FM-15","PAPT ","V020","180,5,N,0077,5","03048,5,M,N","008047,5,N,5","-0010,C","-0010,C","99999,9",,,,,,"0,0,00,1,0,2,7",,,,"08,5,+03048,5,99,9",,,"4,99,1,+03048,5,9",,,,,,,,"10027,5,09377,5",,,,,,"MET09404/25/23 17:50:01 METAR PAPT 260250Z 18015KT 5SM BRK030 OVC100 M01/M01 A2961 RMK NO SPECI LAST","R01   M017TMP046R02   M017DPT046R03BRK0307AWW013R04SEERMK7MVW013R05BRK0307MWW013D01      0ADE693D02      0ADE539"
"70249026526","2023-04-26T08:59:00","O","62.0911","-152.7349","566.3","PUNTILLA, AK US","SOD  ","PAPT ","V020","999,9,9,9999,9","99999,9,9,9","999999,9,9,9","+9999,9","+9999,9","99999,9",,,"AU,18,SN  ,5","AU,09,BLSN,5",,,,,,,,,,,,,,,,,,,,,,,,
"70249026526","2023-04-26T14:54:00","7","62.0911","-152.7349","566.3","PUNTILLA, AK US","FM-15","PAPT ","V020","230,5,N,0026,5","22000,5,9,N","040234,5,N,5","-0060,C","-0070,C","99999,9",,,,,,,,,,"04,5,+02743,5,99,9",,,"2,99,1,+02743,5,9",,,,"9,AGL   ,+99999,+99999","04,99,5,99,9,99,9,02743,1,99,9,99,9",,,"09993,5,09345,5",,,,,,"MET08904/26/23 05:54:02 METAR PAPT 261454Z 23005KT 25SM SCT090 M06/M07 A2951 RMK NO SPECI FIRST","R01   M067TMP046R02   M077DPT046D01      0ADE726"
"70249026526","2023-04-26T16:48:00","7","62.0911","-152.7349","566.3","PUNTILLA, AK US","FM-15","PAPT ","V020","150,5,N,0010,5","22000,5,9,N","040234,5,N,5","-0020,C","-0030,C","99999,9",,,,,,,,,,"02,5,+03048,5,99,9",,,"1,99,1,+03048,5,9",,,,"9,AGL   ,+99999,+99999","02,99,5,99,9,99,9,03048,1,99,9,99,9",,,"09983,5,09336,5",,,,,,"MET08304/26/23 07:48:02 METAR PAPT 261648Z 15002KT 25SM FEW100 M02/M03 A2948 RMK NO SPECI","R01   M027TMP046R02   M037DPT046D01      0ADE726"
"70249026526","2023-04-26T18:48:00","7","62.0911","-152.7349","566.3","PUNTILLA, AK US","FM-15","PAPT ","V020","010,5,N,0021,5","22000,5,9,N","040234,5,N,5","-0010,C","-0010,C","99999,9",,,,,,,,,,"02,5,+03048,5,99,9",,,"1,99,1,+03048,5,9",,,,"9,AGL   ,+99999,+99999","02,99,5,99,9,99,9,03048,1,99,9,99,9",,,"09980,5,09332,5",,,,,,"MET08304/26/23 09:48:02 METAR PAPT 261848Z 01004KT 25SM FEW100 M01/M01 A2947 RMK NO SPECI","R01   M017TMP046R02   M017DPT046D01      0ADE726"
"70249026526","2023-04-26T20:52:00","7","62.0911","-152.7349","566.3","PUNTILLA, AK US","FM-15","PAPT ","V020","360,5,N,0021,5","22000,5,9,N","040234,5,N,5","+0030,C","+0010,C","99999,9",,,,,,,,,,"02,5,+03048,5,99,9",,,"1,99,1,+03048,5,9",,,,"9,AGL   ,+99999,+99999","02,99,5,99,9,99,9,03048,1,99,9,99,9",,,"09976,5,09329,5",,,,,,"MET08104/26/23 11:52:02 METAR PAPT 262052Z 36004KT 25SM FEW100 03/01 A2946 RMK NO SPECI","R01    037TMP046R02    017DPT046D01      0ADE726"
"70249026526","2023-04-26T22:47:00","7","62.0911","-152.7349","566.3","PUNTILLA, AK US","FM-15","PAPT ","V020","020,5,N,0026,5","22000,5,9,N","040234,5,N,5","+0040,C","-0030,C","99999,9","24,0000,2,1","0036,9,5,003560,9,9",,,,,,,,"04,5,+03048,5,99,9",,,"2,99,1,+03048,5,9",,,,"9,AGL   ,+99999,+99999","04,99,5,99,9,99,9,03048,1,99,9,99,9","240,M,+0039,1","240,N,-0061,1","09970,5,09323,5",,,,,,"MET11104/26/23 13:47:02 METAR PAPT 262247Z 02005KT 25SM SCT100 04/M03 A2944 RMK NO SPECI 400391061 70000 931000 4/014","R01    047TMP046R02   M037DPT046D01      0ADE726"
"70249026526","2023-04-27T00:48:00","7","62.0911","-152.7349","566.3","PUNTILLA, AK US","FM-15","PAPT ","V020","350,5,N,0026,5","22000,5,9,N","040234,5,N,5","+0050,C","-0020,C","99999,9",,,,,,,,,,"02,5,+01829,5,99,9","04,5,+03048,5,99,9",,"1,99,1,+01829,5,9","2,99,1,+03048,5,9",,,"9,AGL   ,+99999,+99999","04,99,5,99,9,99,9,01829,1,99,9,99,9",,,"09963,5,09316,5",,,,,,"MET08904/26/23 15:48:01 METAR PAPT 270048Z 35005KT 25SM FEW060 SCT100 05/M02 A2942 RMK NO SPECI","R01    057TMP046R02   M027DPT046D01      0ADE726"
"70249026526","2023-04-27T02:48:00","7","62.0911","-152.7349","566.3","PUNTILLA, AK US","FM-15","PAPT ","V020","170,5,N,0077,5","22000,5,9,N","040234,5,N,5","+0040,C","-0030,C","99999,9",,,,,,,,,,"02,5,+01829,5,99,9","04,5,+03048,5,99,9",,"1,99,1,+01829,5,9","2,99,1,+03048,5,9",,,"9,AGL   ,+99999,+99999","04,99,5,99,9,99,9,01829,1,99,9,99,9",,,"09959,5,09313,5",,,,,,"MET09404/26/23 17:48:01 METAR PAPT 270248Z 17015KT 25SM FEW060 SCT100 04/M03 A2941 RMK NO SPECI LAST","R01    047TMP046R02   M037DPT046D01      0ADE726"
"70249026526","2023-04-27T14:47:00","7","62.0911","-152.7349","566.3","PUNTILLA, AK US","FM-15","PAPT ","V020","220,5,N,0021,5","03048,5,M,N","040234,7,N,5","-0020,C","-0020,C","99999,9",,,,,,"0,0,00,1,0,2,5",,,,"08,5,+03048,5,99,9",,,"4,99,1,+03048,5,9",,,,,,,,"09983,5,09336,5",,,,,,"MET09504/27/23 05:47:01 METAR PAPT 271447Z 22004KT 25SM BRK025 OVC100 M02/M02 A2948 RMK NO SPECIFIRST","R01  25SM7VIS011R02   M027TMP046R03   M027DPT046D01      0ADE693D02      0ADE539"
"70249026526","2023-04-27T16:52:00","7","62.0911","-152.7349","566.3","PUNTILLA, AK US","FM-15","PAPT ","V020","020,5,N,0026,5","22000,5,9,N","040234,5,N,5","-0010,C","-0010,C","99999,9",,,,,,,,,,"02,5,+00610,5,99,9","04,5,+02134,5,99,9",,"1,99,1,+00610,5,9","2,99,1,+02134,5,9",,,"9,AGL   ,+99999,+99999","04,99,5,99,9,99,9,00610,1,99,9,99,9",,,"09990,5,09342,5",,,,,,"MET09004/27/23 07:52:01 METAR PAPT 271652Z 02005KT 25SM FEW020 SCT070 M01/M01 A2950 RMK NO SPECI","R01   M017TMP046R02   M017DPT046D01      0ADE726"
"70249026526","2023-04-27T18:46:00","7","62.0911","-152.7349","566.3","PUNTILLA, AK US","FM-15","PAPT ","V020","170,5,N,0021,5","99999,9,9,N","040234,7,N,5","+0030,C","-0030,C","99999,9",,,,,,"0,0,00,1,0,2,5",,,,,,,,,,,,,,,"09993,5,09345,5",,,,,,"MET08204/27/23 09:46:01 METAR PAPT 271846Z 17004KT 25SM BRK040 03/M03 A2951 RMK NO SPECI","R01      7SKY009R02  25SM7VIS011R03    037TMP046R04   M037DPT046R05      7GAS009D01      0ADE693D02      0ADE539"
"70249026526","2023-04-27T20:47:00","7","62.0911","-152.7349","566.3","PUNTILLA, AK US","FM-15","PAPT ","V020","020,5,N,0026,5","99999,9,9,N","040234,7,N,5","+0030,C","-0030,C","99999,9",,,,,,"0,0,00,1,0,2,5",,,,,,,,,,,,,,,"10000,5,09352,5",,,,,,"MET08204/27/23 11:47:02 METAR PAPT 272047Z 02005KT 25SM BRK050 03/M03 A2953 RMK NO SPECI","R01      7SKY009R02  25SM7VIS011R03    037TMP046R04   M037DPT046R05      7GAS009D01      0ADE693D02      0ADE539"
"70249026526","2023-04-27T22:52:00","7","62.0911","-152.7349","566.3","PUNTILLA, AK US","FM-15","PAPT ","V020","190,5,N,0015,5","99999,9,9,N","040234,7,N,5","+0050,C","-0010,C","99999,9","24,0000,9,1","0033,9,5,003300,9,9",,,,"0,0,00,1,0,2,5",,,,,,,,,,,,,"240,M,+0050,1","240,N,-0017,1","10003,5,09355,5",,,,,,"MET11104/27/23 13:52:01 METAR PAPT 272252Z 19003KT 25SM BRK050 05/M01 A2954 RMK NO SPECI 400501017 70000 931000 4/013","Q01  00002PRCP24R01      7SKY009R02  25SM7VIS011R03    057TMP046R04   M017DPT046R05      7GAS009D01      0ADE693D02      0ADE539"
"70249026526","2023-04-28T00:52:00","7","62.0911","-152.7349","566.3","PUNTILLA, AK US","FM-15","PAPT ","V020","350,5,N,0026,5","99999,9,9,N","040234,7,N,5","+0050,C","-0010,C","99999,9",,,,,,"0,0,00,1,0,2,5",,,,,,,,,,,,,,,"10014,5,09365,5",,,,,,"MET08204/27/23 15:52:01 METAR PAPT 280052Z 35005KT 25SM BRK050 05/M01 A2957 RMK NO SPECI","R01      7SKY009R02  25SM7VIS011R03    057TMP046R04   M017DPT046R05      7GAS009D01      0ADE693D02      0ADE539"
"70249026526","2023-04-28T02:47:00","7","62.0911","-152.7349","566.3","PUNTILLA, AK US","FM-15","PAPT ","V020","360,5,N,0031,5","99999,9,9,N","040234,7,N,5","+0040,C","+0020,C","99999,9",,,,,,"0,0,00,1,0,2,5",,,,,,,,,,,,,,,"10020,5,09371,5",,,,,,"MET08604/27/23 17:47:02 METAR PAPT 280247Z 36006KT 25SM BRK050 04/02 A2959 RMK NO SPECI LAST","R01      7SKY009R02  25SM7VIS011R03    047TMP046R04    027DPT046R05      7GAS009D01      0ADE693D02      0ADE539"
"70249026526","2023-04-28T08:59:00","O","62.0911","-152.7349","566.3","PUNTILLA, AK US","SOD  ","PAPT ","V020","999,9,9,9999,9","99999,9,9,9","999999,9,9,9","+9999,9","+9999,9","99999,9",,,"AU,13,BR  ,5",,,,,,,,,,,,,,,,,,,,,,,,,
"70249026526","2023-04-28T14:53:00","7","62.0911","-152.7349","566.3","PUNTILLA, AK US","FM-15","PAPT ","V020","160,5,N,0026,5","99999,9,9,N","016093,5,N,5","-0010,C","-0010,C","99999,9",,,,,,"0,0,00,1,0,2,7",,,,,,,,,,,,,,,"10078,5,09425,5",,,,,,"MET08904/28/23 05:53:02 METAR PAPT 281453Z 16005KT 10SM BRK030 M01/M01 A2976 RMK NO SPECI FIRST","R01      7SKY009R02   M017TMP046R03   M017DPT046R04BRK0307AWW013R05      7GAS009R06SEERMK7MVW013R07BRK0307MWW013D01      0ADE693D02      0ADE539"
"70249026526","2023-04-28T16:48:00","7","62.0911","-152.7349","566.3","PUNTILLA, AK US","FM-15","PAPT ","V020","170,5,N,0031,5","99999,9,9,N","011265,5,N,5","-0010,C","-0010,C","99999,9",,,,,,"0,0,00,1,0,2,7",,,,,,,,,,,,,,,"10085,5,09432,5",,,,,,"MET08204/28/23 07:48:02 METAR PAPT 281648Z 17006KT 7SM BRK030 M01/M01 A2978 RMK NO SPECI","R01      7SKY009R02   M017TMP046R03   M017DPT046R04BRK0307AWW013R05      7GAS009R06SEERMK7MVW013R07BRK0307MWW013D01      0ADE693D02      0ADE539"
"70249026526","2023-04-28T18:50:00","7","62.0911","-152.7349","566.3","PUNTILLA, AK US","FM-15","PAPT ","V020","190,5,N,0051,5","99999,9,9,N","011265,5,N,5","+0010,C","-0020,C","99999,9",,,,,,"1,0,03,0,0,1,7","0,0,00,1,0,2,7",,,,,,,,,,,,,,"10095,5,09442,5",,"71,1",,,,"MET08504/28/23 09:50:02 METAR PAPT 281850Z 19010KT 7SM -SN BRK030 01/M02 A2981 RMK NO SPECI","R01      7SKY009R02    017TMP046R03   M027DPT046R04-SN BR7AWW013R05      7GAS009R06SEERMK7MVW013R07-SN BR7MWW013D01      0ADE693D02      0ADE539"
"70249026526","2023-04-28T20:58:00","7","62.0911","-152.7349","566.3","PUNTILLA, AK US","FM-15","PAPT ","V020","180,5,N,0062,5","99999,9,9,N","024140,7,N,5","+0020,C","-0040,C","99999,9",,,,,,"0,0,00,1,0,2,5",,,,,,,,,,,,,,,"10105,5,09451,5",,,,,,"MET08204/28/23 11:58:02 METAR PAPT 282058Z 18012KT 15SM BRK050 02/M04 A2984 RMK NO SPECI","R01      7SKY009R02  15SM7VIS011R03    027TMP046R04   M047DPT046R05      7GAS009D01      0ADE693D02      0ADE539"
"70249026526","2023-04-28T22:50:00","7","62.0911","-152.7349","566.3","PUNTILLA, AK US","FM-15","PAPT ","V020","190,5,N,0041,5","99999,9,9,N","032187,7,N,5","+0040,C","-0020,C","99999,9","24,0000,2,1","0030,9,5,003050,9,9",,,,"0,0,00,1,0,2,5",,,,,,,,,,,,,"240,M,+0039,1","240,N,-0011,1","10112,5,09458,5",,,,,,"MET11104/28/23 13:50:02 METAR PAPT 282250Z 19008KT 20SM BRK060 04/M02 A2986 RMK NO SPECI 400391011 70000 931000 4/012","R01      7SKY009R02  20SM7VIS011R03    047TMP046R04   M027DPT046R05      7GAS009D01      0ADE693D02      0ADE539"
"70249026526","2023-04-29T00:53:00","7","62.0911","-152.7349","566.3","PUNTILLA, AK US","FM-15","PAPT ","V020","170,5,N,0041,5","99999,9,9,N","040234,7,N,5","+0030,C","-0050,C","99999,9",,,,,,"0,0,00,1,0,2,5",,,,,,,,,,,,,,,"10112,5,09458,5",,,,,,"MET08204/28/23 15:53:01 METAR PAPT 290053Z 17008KT 25SM BRK060 03/M05 A2986 RMK NO SPECI","R01      7SKY009R02  25SM7VIS011R03    037TMP046R04   M057DPT046R05      7GAS009D01      0ADE693D02      0ADE539"
"70249026526","2023-04-29T02:53:00","7","62.0911","-152.7349","566.3","PUNTILLA, AK US","FM-15","PAPT ","V020","170,5,N,0026,5","99999,9,9,N","040234,7,N,5","+0020,C","-0020,C","99999,9",,,,,,"0,0,00,1,0,2,5",,,,,,,,,,,,,,,"10112,5,09458,5",,,,,,"MET08704/28/23 17:53:02 METAR PAPT 290253Z 17005KT 25SM BRK060 02/M02 A2986 RMK NO SPECI KAST","R01      7SKY009R02  25SM7VIS011R03    027TMP046R04   M027DPT046R05      7GAS009D01      0ADE693D02      0ADE539"
"70249026526","2023-04-29T08:59:00","O","62.0911","-152.7349","566.3","PUNTILLA, AK US","SOD  ","PAPT ","V020","999,9,9,9999,9","99999,9,9,9","999999,9,9,9","+9999,9","+9999,9","99999,9",,,"AU,13,BR  ,5","MW,18,SN  ,1",,,,,,,,,,,,,,,,,,,,,,,,
"70249026526","2023-04-29T14:56:00","7","62.0911","-152.7349","566.3","PUNTILLA, AK US","FM-15","PAPT ","V020","350,5,N,0010,5","99999,9,9,N","040234,7,N,5","-0040,C","-0050,C","99999,9",,,,,,"0,0,00,1,0,2,5",,,,,,,,,,,,,,,"10115,5,09461,5",,,,,,"MET08904/29/23 05:56:02 METAR PAPT 291456Z 35002KT 25SM BRK060 M04/M05 A2987 RMK NO SPECI FIRST","R01      7SKY009R02  25SM7VIS011R03   M047TMP046R04   M057DPT046R05      7GAS009D01      0ADE693D02      0ADE539"
"70249026526","2023-04-29T16:49:00","7","62.0911","-152.7349","566.3","PUNTILLA, AK US","FM-15","PAPT ","V020","030,5,N,0026,5","22000,5,9,N","040234,5,N,5","-0010,C","-0010,C","99999,9",,,,,,,,,,"02,5,+01524,5,99,9","04,5,+03048,5,99,9",,"1,99,1,+01524,5,9","2,99,1,+03048,5,9",,,"9,AGL   ,+99999,+99999","04,99,5,99,9,99,9,01524,1,99,9,99,9",,,"10105,5,09451,5",,,,,,"MET09004/29/23 07:49:02 METAR PAPT 291649Z 03005KT 25SM FEW050 SCT100 M01/M01 A2984 RMK NO SPECI","R01   M017TMP046R02   M017DPT046D01      0ADE726"
"70249026526","2023-04-29T18:50:00","7","62.0911","-152.7349","566.3","PUNTILLA, AK US","FM-15","PAPT ","V020","360,5,N,0026,5","22000,5,9,N","040234,5,N,5","+0040,C","-0030,C","99999,9",,,,,,,,,,"04,5,+02134,5,99,9",,,"2,99,1,+02134,5,9",,,,"9,AGL   ,+99999,+99999","04,99,5,99,9,99,9,02134,1,99,9,99,9",,,"10095,5,09442,5",,,,,,"MET08204/29/23 09:50:02 METAR PAPT 291850Z 36005KT 25SM SCT070 04/M03 A2981 RMK NO SPECI","R01    047TMP046R02   M037DPT046D01      0ADE726"
"70249026526","2023-04-29T20:51:00","7","62.0911","-152.7349","566.3","PUNTILLA, AK US","FM-15","PAPT ","V020","010,5,N,0031,5","22000,5,9,N","040234,5,N,5","+0070,C","-0020,C","99999,9",,,,,,,,,,"04,5,+02134,5,99,9",,,"2,99,1,+02134,5,9",,,,"9,AGL   ,+99999,+99999","04,99,5,99,9,99,9,02134,1,99,9,99,9",,,"10088,5,09435,5",,,,,,"MET08204/29/23 11:51:02 METAR PAPT 292051Z 01006KT 25SM SCT070 07/M02 A2979 RMK NO SPECI","R01    077TMP046R02   M027DPT046D01      0ADE726"
"70249026526","2023-04-29T22:52:00","7","62.0911","-152.7349","566.3","PUNTILLA, AK US","FM-15","PAPT ","V020","350,5,N,0031,5","22000,5,9,N","040234,5,N,5","+0060,C","+0020,C","99999,9","24,0000,9,1","0028,9,5,002790,9,9",,,,,,,,"02,5,+02134,5,99,9",,,"1,99,1,+02134,5,9",,,,"9,AGL   ,+99999,+99999","02,99,5,99,9,99,9,02134,1,99,9,99,9","240,M,+0067,1","240,N,-0044,1","10078,5,09425,5",,,,,,"MET11004/29/23 13:52:02 METAR PAPT 292252Z 35006KT 25SM FEW070 06/02 A2976 RMK NO SPECI 400671044 70000 931000 4/011","Q01  00002PRCP24R01    067TMP046R02    027DPT046D01      0ADE726"
"70249026526","2023-04-30T00:55:00","7","62.0911","-152.7349","566.3","PUNTILLA, AK US","FM-15","PAPT ","V020","010,5,N,0041,5","22000,5,9,N","040234,5,N,5","+0070,C","+0000,C","99999,9",,,,,,,,,,"02,5,+03048,5,99,9",,,"1,99,1,+03048,5,9",,,,"9,AGL   ,+99999,+99999","02,99,5,99,9,99,9,03048,1,99,9,99,9",,,"10068,5,09416,5",,,,,,"MET08104/29/23 15:55:01 METAR PAPT 300055Z 01008KT 25SM FEW100 07/00 A2973 RMK NO SPECI","R01    077TMP046R02    007DPT046D01      0ADE726"
"70249026526","2023-04-30T08:59:00","O","62.0911","-152.7349","566.3","PUNTILLA, AK US","SOD  ","PAPT ","V020","999,9,9,9999,9","99999,9,9,9","999999,9,9,9","+9999,9","+9999,9","99999,9",,,"AU,13,BR  ,5",,,,,,,,,,,,,,,,,,,,,,,,,
"70249026526","2023-04-30T14:53:00","7","62.0911","-152.7349","566.3","PUNTILLA, AK US","FM-15","PAPT ","V020","350,5,N,0010,5","22000,7,9,N","040234,5,N,5","-0080,C","-0090,C","99999,9",,,,,,,,,,"00,7,+99999,9,99,9",,,"0,99,1,+99999,9,9",,,,,"00,99,1,99,9,99,9,99999,9,99,9,99,9",,,"10058,5,09406,5",,,,,,"MET08604/30/23 05:53:02 METAR PAPT 301453Z 35002KT 25SM SKC M08/M09 A2970 RMK NO SPECI FIRST","R01   SKC7SKY009R02   M087TMP046R03   M097DPT046R04   SKC7GAS009"
"70249026526","2023-04-30T16:55:00","7","62.0911","-152.7349","566.3","PUNTILLA, AK US","FM-15","PAPT ","V020","350,5,N,0010,5","22000,7,9,N","040234,5,N,5","-0030,C","-0040,C","99999,9",,,,,,,,,,"00,7,+99999,9,99,9",,,"0,99,1,+99999,9,9",,,,,"00,99,1,99,9,99,9,99999,9,99,9,99,9",,,"10047,5,09397,5",,,,,,"MET08004/30/23 07:55:02 METAR PAPT 301655Z 35002KT 25SM SKC M03/M04 A2967 RMK NO SPECI","R01   SKC7SKY009R02   M037TMP046R03   M047DPT046R04   SKC7GAS009"
"70249026526","2023-04-30T18:51:00","7","62.0911","-152.7349","566.3","PUNTILLA, AK US","FM-15","PAPT ","V020","180,5,N,0026,5","22000,5,9,N","040234,5,N,5","+0040,C","-0040,C","99999,9",,,,,,,,,,"02,5,+03048,5,99,9",,,"1,99,1,+03048,5,9",,,,"9,AGL   ,+99999,+99999","02,99,5,99,9,99,9,03048,1,99,9,99,9",,,"10037,5,09387,5",,,,,,"MET08204/30/23 09:51:02 METAR PAPT 301851Z 18005KT 25SM FEW100 04/M04 A2964 RMK NO SPECI","R01    047TMP046R02   M047DPT046D01      0ADE726"
"70249026526","2023-04-30T20:50:00","7","62.0911","-152.7349","566.3","PUNTILLA, AK US","FM-15","PAPT ","V020","170,5,N,0041,5","22000,5,9,N","040234,5,N,5","+0050,C","-0010,C","99999,9",,,,,,,,,,"02,5,+02134,5,99,9",,,"1,99,1,+02134,5,9",,,,"9,AGL   ,+99999,+99999","02,99,5,99,9,99,9,02134,1,99,9,99,9",,,"10037,5,09387,5",,,,,,"MET08204/30/23 11:50:02 METAR PAPT 302050Z 17008KT 25SM FEW070 05/M01 A2964 RMK NO SPECI","R01    057TMP046R02   M017DPT046D01      0ADE726"
"70249026526","2023-04-30T22:49:00","4","62.0911","-152.7349","566.3","PUNTILLA, AK US","FM-15","99999","V020","180,1,N,0077,1","99999,9,9,N","040234,1,9,9","+0040,5","-0010,5","99999,9","24,0000,9,1","0025,3,1,002540,9,9",,,,,,,,,,,,,,,,,"240,M,+0044,1","240,N,-0083,1","10030,5,99999,9",,,,,,"MET094METAR PAPT 302249Z 18015KT 25SM BRK070 04/M01 A2962 RMK NO SPECI 400441083 70000 931000 4/010=","Q01  00002PRCP24D01      0ADE693D02      0ADE539"
"70249026526","2023-05-01T00:54:00","7","62.0911","-152.7349","566.3","PUNTILLA, AK US","FM-15","PAPT ","V020","170,5,N,0077,5","03048,5,M,N","040234,7,N,5","+0040,C","-0020,C","99999,9",,,,,,"0,0,00,1,0,2,5",,,,"08,5,+03048,5,99,9",,,"4,99,1,+03048,5,9",,,,,,,,"10017,5,09368,5",,,,,,"MET08904/30/23 15:54:01 METAR PAPT 010054Z 17015KT 25SM BRK070 OVC100 04/M02 A2958 RMK NO SPECI","R01  25SM7VIS011R02    047TMP046R03   M027DPT046D01      0ADE693D02      0ADE539"
"70249026526","2023-05-01T03:03:00","7","62.0911","-152.7349","566.3","PUNTILLA, AK US","FM-15","PAPT ","V020","170,5,N,0051,5","03048,5,M,N","040234,7,N,5","+0030,5","-0020,5","99999,9",,,,,,"0,0,00,1,0,2,5",,,,"08,5,+03048,5,99,9",,,"4,99,1,+03048,5,9",,,,,,,,"10003,5,09355,5",,,,,,"MET09404/30/23 18:03:01 METAR PAPT 010303Z 17010KT 25SM BRK070 OVC100 03/M02 A2954 RMK NO SPECI LAST","R01  25SM7VIS011D01      0ADE693D02      0ADE539"
"70249026526","2023-05-01T08:59:00","O","62.0911","-152.7349","566.3","PUNTILLA, AK US","SOD  ","PAPT ","V020","999,9,9,9999,9","99999,9,9,9","999999,9,9,9","+9999,9","+9999,9","99999,9",,,"AU,13,BR  ,5",,,,,,,,,,,,,,,,,,,,,,,,,
"70249026526","2023-05-01T14:49:00","7","62.0911","-152.7349","566.3","PUNTILLA, AK US","FM-15","PAPT ","V020","190,5,N,0077,5","99999,9,9,N","008047,5,N,5","+0010,C","-0020,C","99999,9",,,,,,"0,0,00,1,0,2,7",,,,,,,,,,,,,,,"09990,5,09342,5",,"16,1",,,,"MET09905/01/23 05:49:01 METAR PAPT 011449Z 19015KT 5SM VCSH BRK030 01/M02 A2950 RMK VCSH S NO SPECI FIRST","R01      7SKY009R02    017TMP046R03   M027DPT046R04VCSH B7AWW013R05      7GAS009R06SEERMK7MVW013R07VCSH B7MWW013D01      0ADE693D02      0ADE539"
"70249026526","2023-05-01T16:47:00","7","62.0911","-152.7349","566.3","PUNTILLA, AK US","FM-15","PAPT ","V020","020,5,N,0077,5","99999,9,9,N","016093,5,N,5","+0010,C","-0060,C","99999,9",,,,,,"0,0,00,1,0,2,7",,,,,,,,,,,,,,,"09986,5,09339,5",,,,,,"MET08205/01/23 07:47:01 METAR PAPT 011647Z 02015KT 10SM BRK030 01/M06 A2949 RMK NO SPECI","R01      7SKY009R02    017TMP046R03   M067DPT046R04BRK0307AWW013R05      7GAS009R06SEERMK7MVW013R07BRK0307MWW013D01      0ADE693D02      0ADE539"
"70249026526","2023-05-01T18:54:00","7","62.0911","-152.7349","566.3","PUNTILLA, AK US","FM-15","PAPT ","V020","190,5,N,0077,5","02134,5,M,N","024140,5,N,5","+0030,C","-0020,C","99999,9",,,,,,,,,,"04,5,+00914,5,99,9","07,5,+02134,5,99,9",,"2,99,1,+00914,5,9","3,99,1,+02134,5,9",,,"9,AGL   ,+99999,+99999","99,99,9,99,9,99,9,00914,1,99,9,99,9",,,"09980,5,09332,5",,,,,,"MET08905/01/23 09:54:01 METAR PAPT 011854Z 19015KT 15SM SCT030 BKN070 03/M02 A2947 RMK NO SPECI","R01    037TMP046R02   M027DPT046"
"70249026526","2023-05-01T20:56:00","7","62.0911","-152.7349","566.3","PUNTILLA, AK US","FM-15","PAPT ","V020","190,5,N,0077,5","01524,5,M,N","024140,5,N,5","+0030,C","-0020,C","99999,9",,,,,,,,,,"07,5,+01524,5,99,9",,,"3,99,1,+01524,5,9",,,,"9,AGL   ,+99999,+99999","99,99,9,99,9,99,9,01524,1,99,9,99,9",,,"09983,5,09336,5",,,,,,"MET08205/01/23 11:56:01 METAR PAPT 012056Z 19015KT 15SM BKN050 03/M02 A2948 RMK NO SPECI","R01    037TMP046R02   M027DPT046"
"70249026526","2023-05-01T22:52:00","7","62.0911","-152.7349","566.3","PUNTILLA, AK US","FM-15","PAPT ","V020","190,5,N,0093,5","22000,5,9,N","040234,5,N,5","+0050,C","-0020,C","99999,9","24,0000,9,1","0020,9,5,002030,9,9",,,,,,,,"04,5,+01524,5,99,9",,,"2,99,1,+01524,5,9",,,,"9,AGL   ,+99999,+99999","04,99,5,99,9,99,9,01524,1,99,9,99,9","240,M,+0050,1","240,N,+0006,1","09973,5,09326,5",,,,,,"MET11105/01/23 13:52:01 METAR PAPT 012252Z 19018KT 25SM SCT050 05/M02 A2945 RMK NO SPECI 400500006 70000 931000 4/008","Q01  00002PRCP24R01    057TMP046R02   M027DPT046D01      0ADE726"
"70249026526","2023-05-02T00:47:00","7","62.0911","-152.7349","566.3","PUNTILLA, AK US","FM-15","PAPT ","V020","180,5,N,0051,5","22000,5,9,N","040234,5,N,5","+0030,C","-0020,C","99999,9",,,,,,,,,,"04,5,+03048,5,99,9",,,"2,99,1,+03048,5,9",,,,"9,AGL   ,+99999,+99999","04,99,5,99,9,99,9,03048,1,99,9,99,9",,,"09970,5,09323,5",,,,,,"MET08205/01/23 15:47:01 METAR PAPT 020047Z 18010KT 25SM SCT100 03/M02 A2944 RMK NO SPECI","R01    037TMP046R02   M027DPT046D01      0ADE726"
"70249026526","2023-05-02T02:50:00","7","62.0911","-152.7349","566.3","PUNTILLA, AK US","FM-15","PAPT ","V020","180,5,N,0051,5","02134,5,M,N","040234,5,N,5","+0030,C","-0020,C","99999,9",,,,,,,,,,"07,5,+02134,5,99,9",,,"3,99,1,+02134,5,9",,,,"9,AGL   ,+99999,+99999","99,99,9,99,9,99,9,02134,1,99,9,99,9",,,"09970,5,09323,5",,,,,,"MET08705/01/23 17:50:01 METAR PAPT 020250Z 18010KT 25SM BKN070 03/M02 A2944 RMK NO SPECI LAST","R01    037TMP046R02   M027DPT046"
"70249026526","2023-05-02T14:51:00","7","62.0911","-152.7349","566.3","PUNTILLA, AK US","FM-15","PAPT ","V020","180,5,N,0062,5","00762,5,M,N","011265,5,N,5","-0010,C","-0010,C","99999,9",,,,,,,,,,"07,5,+00762,5,99,9","08,5,+03048,5,99,9",,"3,99,1,+00762,5,9","4,99,1,+03048,5,9",,,"9,AGL   ,+99999,+99999","99,99,9,99,9,99,9,00762,1,99,9,99,9",,,"09983,5,09336,5",,,,,,"MET09505/02/23 05:51:02 METAR PAPT 021451Z 18012KT 7SM BKN025 OVC100 M01/M01 A2948 RMK NO SPECI FIRST","R01   M017TMP046R02   M017DPT046"
"70249026526","2023-05-02T16:54:00","7","62.0911","-152.7349","566.3","PUNTILLA, AK US","FM-15","PAPT ","V020","180,5,N,0041,5","00762,5,W,N","008047,5,N,5","-0010,C","-0010,C","99999,9",,,,,,"1,0,03,0,0,1,5",,"71,5",,"09,5,+00762,5,99,9",,,"5,99,1,+00762,5,9",,,,"9,AGL   ,+99999,+99999","09,99,1,99,9,99,9,00762,1,99,9,99,9",,,"09980,5,09332,5",,"71,5",,,,"MET08505/02/23 07:54:02 METAR PAPT 021654Z 18008KT 5SM -SN VV025 M01/M01 A2947 RMK NO SPECI","R01   M017TMP046R02   M017DPT046"
"70249026526","2023-05-02T18:52:00","7","62.0911","-152.7349","566.3","PUNTILLA, AK US","FM-15","PAPT ","V020","180,5,N,0041,5","00762,5,M,N","016093,5,N,5","+0010,C","-0020,C","99999,9",,,,,,,,,,"07,5,+00762,5,99,9","08,5,+03048,5,99,9",,"3,99,1,+00762,5,9","4,99,1,+03048,5,9",,,"9,AGL   ,+99999,+99999","99,99,9,99,9,99,9,00762,1,99,9,99,9",,,"09980,5,09332,5",,,,,,"MET08905/02/23 09:52:02 METAR PAPT 021852Z 18008KT 10SM BKN025 OVC100 01/M02 A2947 RMK NO SPECI","R01    017TMP046R02   M027DPT046"
"70249026526","2023-05-02T20:49:00","7","62.0911","-152.7349","566.3","PUNTILLA, AK US","FM-15","PAPT ","V020","190,5,N,0077,5","00914,5,M,N","024140,5,N,5","+0020,C","-0010,C","99999,9",,,,,,,,,,"07,5,+00914,5,99,9",,,"3,99,1,+00914,5,9",,,,"9,AGL   ,+99999,+99999","99,99,9,99,9,99,9,00914,1,99,9,99,9",,,"09976,5,09329,5",,,,,,"MET08205/02/23 11:49:02 METAR PAPT 022049Z 19015KT 15SM BKN030 02/M01 A2946 RMK NO SPECI","R01    027TMP046R02   M017DPT046"
"70249026526","2023-05-02T22:55:00","7","62.0911","-152.7349","566.3","PUNTILLA, AK US","FM-15","PAPT ","V020","190,5,N,0041,5","00914,5,M,N","016093,5,N,5","+0020,C","-0010,C","99999,9","24,0000,2,1","0015,9,5,001520,9,9",,,,,,,,"07,5,+00914,5,99,9",,,"3,99,1,+00914,5,9",,,,"9,AGL   ,+99999,+99999","99,99,9,99,9,99,9,00914,1,99,9,99,9","240,M,+0022,1","240,N,-0006,1","09973,5,09326,5",,,,,,"MET11105/02/23 13:55:02 METAR PAPT 022255Z 19008KT 10SM BKN030 02/M01 A2945 RMK NO SPECI 400221006 70000 931000 4/006","R01    027TMP046R02   M017DPT046"
"70249026526","2023-05-03T00:52:00","7","62.0911","-152.7349","566.3","PUNTILLA, AK US","FM-15","PAPT ","V020","190,5,N,0041,5","00762,5,M,N","016093,5,N,5","+0030,C","-0020,C","99999,9",,,,,,,,,,"08,5,+00762,5,99,9",,,"4,99,1,+00762,5,9",,,,"9,AGL   ,+99999,+99999","99,99,9,99,9,99,9,00762,1,99,9,99,9",,,"09970,5,09323,5",,,,,,"MET08205/02/23 15:52:01 METAR PAPT 030052Z 19008KT 10SM OVC025 03/M02 A2944 RMK NO SPECI","R01    037TMP046R02   M027DPT046"
"70249026526","2023-05-03T02:49:00","7","62.0911","-152.7349","566.3","PUNTILLA, AK US","FM-15","PAPT ","V020","190,5,N,0041,5","00762,5,M,N","024140,5,N,5","+0030,C","-0020,C","99999,9",,,,,,,,,,"07,5,+00762,5,99,9","08,5,+03048,5,99,9",,"3,99,1,+00762,5,9","4,99,1,+03048,5,9",,,"9,AGL   ,+99999,+99999","99,99,9,99,9,99,9,00762,1,99,9,99,9",,,"09966,5,09320,5",,,,,,"MET09405/02/23 17:49:01 METAR PAPT 030249Z 19008KT 15SM BKN025 OVC100 03/M02 A2943 RMK NO SPECI LAST","R01    037TMP046R02   M027DPT046"
"70249026526","2023-05-03T08:59:00","O","62.0911","-152.7349","566.3","PUNTILLA, AK US","SOD  ","PAPT ","V020","999,9,9,9999,9","99999,9,9,9","999999,9,9,9","+9999,9","+9999,9","99999,9",,,"AU,18,SN  ,5",,,,,,,,,,,,,,,,,,,,,,,,,
"70249026526","2023-05-03T14:53:00","7","62.0911","-152.7349","566.3","PUNTILLA, AK US","FM-15","PAPT ","V020","350,5,N,0021,5","00762,5,M,N","011265,5,N,5","-0020,C","-0020,C","99999,9",,,,,,,,,,"07,5,+00762,5,99,9",,,"3,99,1,+00762,5,9",,,,"9,AGL   ,+99999,+99999","99,99,9,99,9,99,9,00762,1,99,9,99,9",,,"09990,5,09342,5",,,,,,"MET08805/03/23 05:53:02 METAR PAPT 031453Z 35004KT 7SM BKN025 M02/M02 A2950 RMK NO SPECI FIRST","R01   M027TMP046R02   M027DPT046"
"70249026526","2023-05-03T16:50:00","7","62.0911","-152.7349","566.3","PUNTILLA, AK US","FM-15","PAPT ","V020","360,5,N,0041,5","00305,5,W,N","002414,5,N,5","-0030,C","-0040,C","99999,9",,,,,,"1,0,03,0,0,1,5",,"71,5",,"09,5,+00305,5,99,9",,,"5,99,1,+00305,5,9",,,,"9,AGL   ,+99999,+99999","09,99,1,99,9,99,9,00305,1,99,9,99,9",,,"09997,5,09348,5",,"71,5",,,,"MET08905/03/23 07:50:02 METAR PAPT 031650Z 36008KT 1 1/2SM -SN VV010 M03/M04 A2952 RMK NO SPECI","R01   M037TMP046R02   M047DPT046"
"70249026526","2023-05-03T18:54:00","7","62.0911","-152.7349","566.3","PUNTILLA, AK US","FM-15","PAPT ","V020","350,5,N,0026,5","00762,5,M,N","004828,5,N,5","+0010,C","-0010,C","99999,9",,,,,,"1,0,03,0,0,1,5",,"71,5",,"07,5,+00762,5,99,9",,,"3,99,1,+00762,5,9",,,,"9,AGL   ,+99999,+99999","99,99,9,99,9,99,9,00762,1,99,9,99,9",,,"10003,5,09355,5",,"71,5",,,,"MET08505/03/23 09:54:02 METAR PAPT 031854Z 35005KT 3SM -SN BKN025 01/M01 A2954 RMK NO SPECI","R01    017TMP046R02   M017DPT046"
"70249026526","2023-05-03T20:48:00","7","62.0911","-152.7349","566.3","PUNTILLA, AK US","FM-15","PAPT ","V020","010,5,N,0026,5","01524,5,M,N","016093,5,N,5","+0010,C","-0010,C","99999,9",,,,,,,,,,"07,5,+01524,5,99,9",,,"3,99,1,+01524,5,9",,,,"9,AGL   ,+99999,+99999","99,99,9,99,9,99,9,01524,1,99,9,99,9",,,"10014,5,09365,5",,,,,,"MET08205/03/23 11:48:02 METAR PAPT 032048Z 01005KT 10SM BKN050 01/M01 A2957 RMK NO SPECI","R01    017TMP046R02   M017DPT046"
"70249026526","2023-05-03T22:49:00","7","62.0911","-152.7349","566.3","PUNTILLA, AK US","FM-15","PAPT ","V020","180,5,N,0010,5","00457,5,W,N","001609,5,N,5","+0010,C","-0010,C","99999,9","24,0015,3,1","0018,9,5,001780,9,9",,,,"1,0,03,0,0,1,5",,"71,5",,"09,5,+00457,5,99,9",,,"5,99,1,+00457,5,9",,,,"9,AGL   ,+99999,+99999","09,99,1,99,9,99,9,00457,1,99,9,99,9","240,M,+0011,1","240,N,-0017,1","10020,5,09371,5",,"71,5",,,,"MET11305/03/23 13:49:02 METAR PAPT 032249Z 18002KT 1SM -SN VV015 01/M01 A2959 RMK NO SPECI 400111017 70006 931015 4/007","R01    017TMP046R02   M017DPT046"
"70249026526","2023-05-04T02:49:00","7","62.0911","-152.7349","566.3","PUNTILLA, AK US","FM-15","PAPT ","V020","180,5,N,0021,5","03048,5,M,N","024140,7,N,5","+0010,C","+0000,C","99999,9",,,,,,"0,0,00,1,0,2,5",,,,"08,5,+03048,5,99,9",,,"4,99,1,+03048,5,9",,,,,,,,"10024,5,09374,5",,,,,,"MET09305/03/23 17:49:01 METAR PAPT 040249Z 18004KT 15SM BRK025 OVC100 01/00 A2960 RMK NO SPECI LAST","R01  15SM7VIS011R02    017TMP046R03    007DPT046D01      0ADE693D02      0ADE539"
"70249026526","2023-05-04T08:59:00","O","62.0911","-152.7349","566.3","PUNTILLA, AK US","SOD  ","PAPT ","V020","999,9,9,9999,9","99999,9,9,9","999999,9,9,9","+9999,9","+9999,9","99999,9",,,"AU,18,SN  ,5","AU,13,BR  ,5",,,,,,,,,,,,,,,,,,,,,,,,
"70249026526","2023-05-04T14:49:00","7","62.0911","-152.7349","566.3","PUNTILLA, AK US","FM-15","PAPT ","V020","340,5,N,0010,5","00610,5,W,N","003219,5,N,5","-0020,C","-0020,C","99999,9",,,,,,"1,0,03,0,0,1,5",,"71,5",,"09,5,+00610,5,99,9",,,"5,99,1,+00610,5,9",,,,"9,AGL   ,+99999,+99999","09,99,1,99,9,99,9,00610,1,99,9,99,9",,,"10064,5,09413,5",,"71,5",,,,"MET09105/04/23 05:49:02 METAR PAPT 041449Z 34002KT 2SM -SN VV020 M02/M02 A2972 RMK NO SPECI FIRST","R01   M027TMP046R02   M027DPT046"
"70249026526","2023-05-04T16:56:00","7","62.0911","-152.7349","566.3","PUNTILLA, AK US","FM-15","PAPT ","V020","340,5,N,0010,5","00610,5,W,N","003219,5,N,5","-0010,C","-0010,C","99999,9",,,,,,"1,0,03,0,0,1,5",,"71,5",,"09,5,+00610,5,99,9",,,"5,99,1,+00610,5,9",,,,"9,AGL   ,+99999,+99999","09,99,1,99,9,99,9,00610,1,99,9,99,9",,,"10068,5,09416,5",,"71,5",,,,"MET08505/04/23 07:56:02 METAR PAPT 041656Z 34002KT 2SM -SN VV020 M01/M01 A2973 RMK NO SPECI","R01   M017TMP046R02   M017DPT046"
"70249026526","2023-05-04T18:49:00","7","62.0911","-152.7349","566.3","PUNTILLA, AK US","FM-15","PAPT ","V020","180,5,N,0031,5","01006,5,M,N","011265,5,N,5","+0030,C","-0020,C","99999,9",,,,,,,,,,"07,5,+01006,5,99,9",,,"3,99,1,+01006,5,9",,,,"9,AGL   ,+99999,+99999","99,99,9,99,9,99,9,01006,1,99,9,99,9",,,"10075,5,09422,5",,,,,,"MET08105/04/23 09:49:02 METAR PAPT 041849Z 18006KT 7SM BKN033 03/M02 A2975 RMK NO SPECI","R01    037TMP046R02   M027DPT046"
"70249026526","2023-05-04T20:50:00","7","62.0911","-152.7349","566.3","PUNTILLA, AK US","FM-15","PAPT ","V020","180,5,N,0031,5","01524,5,M,N","011265,5,N,5","+0020,C","-0010,C","99999,9",,,,,,"1,0,03,0,0,1,5",,"71,5",,"07,5,+01524,5,99,9",,,"3,99,1,+01524,5,9",,,,"9,AGL   ,+99999,+99999","99,99,9,99,9,99,9,01524,1,99,9,99,9",,,"10078,5,09425,5",,"71,5",,,,"MET08505/04/23 11:50:02 METAR PAPT 042050Z 18006KT 7SM -SN BKN050 02/M01 A2976 RMK NO SPECI","R01    027TMP046R02   M017DPT046"
"70249026526","2023-05-04T22:51:00","7","62.0911","-152.7349","566.3","PUNTILLA, AK US","FM-15","PAPT ","V020","180,5,N,0077,5","01524,5,M,N","024140,5,N,5","+0030,C","-0020,C","99999,9","24,0022,3,1","0013,9,5,001270,9,9",,,,,,,,"07,5,+01524,5,99,9",,,"3,99,1,+01524,5,9",,,,"9,AGL   ,+99999,+99999","99,99,9,99,9,99,9,01524,1,99,9,99,9","240,M,+0028,1","240,N,-0017,1","10081,5,09429,5",,,,,,"MET11105/04/23 13:51:02 METAR PAPT 042251Z 18015KT 15SM BKN050 03/M02 A2977 RMK NO SPECI 400281017 70009 931000 4/005","R01    037TMP046R02   M027DPT046"
"70249026526","2023-05-05T00:48:00","7","62.0911","-152.7349","566.3","PUNTILLA, AK US","FM-15","PAPT ","V020","190,5,N,0062,5","01524,5,M,N","040234,5,N,5","+0030,C","-0020,C","99999,9",,,,,,,,,,"07,5,+01524,5,99,9",,,"3,99,1,+01524,5,9",,,,"9,AGL   ,+99999,+99999","99,99,9,99,9,99,9,01524,1,99,9,99,9",,,"10085,5,09432,5",,,,,,"MET08205/04/23 15:48:01 METAR PAPT 050048Z 19012KT 25SM BKN050 03/M02 A2978 RMK NO SPECI","R01    037TMP046R02   M027DPT046"
"70249026526","2023-05-05T02:50:00","7","62.0911","-152.7349","566.3","PUNTILLA, AK US","FM-15","PAPT ","V020","180,5,N,0051,5","03048,5,M,N","040234,5,N,5","+0030,C","-0020,C","99999,9",,,,,,,,,,"04,5,+01524,5,99,9","07,5,+03048,5,99,9",,"2,99,1,+01524,5,9","3,99,1,+03048,5,9",,,"9,AGL   ,+99999,+99999","99,99,9,99,9,99,9,01524,1,99,9,99,9",,,"10091,5,09438,5",,,,,,"MET09405/04/23 17:50:01 METAR PAPT 050250Z 18010KT 25SM SCT050 BKN100 03/M02 A2980 RMK NO SPECI LAST","R01    037TMP046R02   M027DPT046"
"70249026526","2023-05-05T08:59:00","O","62.0911","-152.7349","566.3","PUNTILLA, AK US","SOD  ","PAPT ","V020","999,9,9,9999,9","99999,9,9,9","999999,9,9,9","+9999,9","+9999,9","99999,9",,,"AU,18,SN  ,5",,,,,,,,,,,,,,,,,,,,,,,,,
"70249026526","2023-05-05T14:58:00","7","62.0911","-152.7349","566.3","PUNTILLA, AK US","FM-15","PAPT ","V020","230,5,N,0010,5","03048,5,M,N","040234,5,N,5","-0020,C","-0020,C","99999,9",,,,,,,,,,"02,5,+01524,5,99,9","07,5,+03048,5,99,9",,"1,99,1,+01524,5,9","3,99,1,+03048,5,9",,,"9,AGL   ,+99999,+99999","99,99,9,99,9,99,9,01524,1,99,9,99,9",,,"10115,5,09461,5",,,,,,"MET09605/05/23 05:58:02 METAR PAPT 051458Z 23002KT 25SM FEW050 BKN100 M02/M02 A2987 RMK NO SPECI FIRST","R01   M027TMP046R02   M027DPT046"
"70249026526","2023-05-05T16:49:00","7","62.0911","-152.7349","566.3","PUNTILLA, AK US","FM-15","PAPT ","V020","230,5,N,0010,5","03048,5,M,N","040234,5,N,5","+0010,C","-0020,C","99999,9",,,,,,,,,,"02,5,+01524,5,99,9","07,5,+03048,5,99,9",,"1,99,1,+01524,5,9","3,99,1,+03048,5,9",,,"9,AGL   ,+99999,+99999","99,99,9,99,9,99,9,01524,1,99,9,99,9",,,"10112,5,09458,5",,,,,,"MET08905/05/23 07:49:02 METAR PAPT 051649Z 23002KT 25SM FEW050 BKN100 01/M02 A2986 RMK NO SPECI","R01    017TMP046R02   M027DPT046"
"70249026526","2023-05-05T18:53:00","7","62.0911","-152.7349","566.3","PUNTILLA, AK US","FM-15","PAPT ","V020","230,5,N,0010,5","03048,5,M,N","040234,5,N,5","+0040,C","-0030,C","99999,9",,,,,,,,,,"02,5,+01372,5,99,9","07,5,+03048,5,99,9",,"1,99,1,+01372,5,9","3,99,1,+03048,5,9",,,"9,AGL   ,+99999,+99999","99,99,9,99,9,99,9,01372,1,99,9,99,9",,,"10105,5,09451,5",,,,,,"MET08905/05/23 09:53:02 METAR PAPT 051853Z 23002KT 25SM FEW045 BKN100 04/M03 A2984 RMK NO SPECI","R01    047TMP046R02   M037DPT046"
"70249026526","2023-05-05T20:49:00","7","62.0911","-152.7349","566.3","PUNTILLA, AK US","FM-15","PAPT ","V020","230,5,N,0010,5","01829,5,M,N","040234,5,N,5","+0040,C","+0010,C","99999,9",,,,,,,,,,"07,5,+01829,5,99,9",,,"3,99,1,+01829,5,9",,,,"9,AGL   ,+99999,+99999","99,99,9,99,9,99,9,01829,1,99,9,99,9",,,"10098,5,09445,5",,,,,,"MET08105/05/23 11:49:02 METAR PAPT 052049Z 23002KT 25SM BKN060 04/01 A2982 RMK NO SPECI","R01    047TMP046R02    017DPT046"
"70249026526","2023-05-05T22:50:00","7","62.0911","-152.7349","566.3","PUNTILLA, AK US","FM-15","PAPT ","V020","230,5,N,0010,5","02134,5,M,N","040234,5,N,5","+0070,C","+0000,C","99999,9","24,0000,9,1","0005,9,5,000510,9,9",,,,,,,,"07,5,+02134,5,99,9",,,"3,99,1,+02134,5,9",,,,"9,AGL   ,+99999,+99999","99,99,9,99,9,99,9,02134,1,99,9,99,9","240,M,+0067,1","240,N,-0017,1","10088,5,09435,5",,,,,,"MET11005/05/23 13:50:02 METAR PAPT 052250Z 23002KT 25SM BKN070 07/00 A2979 RMK NO SPECI 400671017 70000 931000 4/002","Q01  00002PRCP24R01    077TMP046R02    007DPT046"
"70249026526","2023-05-06T00:49:00","7","62.0911","-152.7349","566.3","PUNTILLA, AK US","FM-15","PAPT ","V020","360,5,N,0031,5","22000,5,9,N","040234,5,N,5","+0070,C","-0020,C","99999,9",,,,,,,,,,"04,5,+03048,5,99,9",,,"2,99,1,+03048,5,9",,,,"9,AGL   ,+99999,+99999","04,99,5,99,9,99,9,03048,1,99,9,99,9",,,"10081,5,09429,5",,,,,,"MET08205/05/23 15:49:01 METAR PAPT 060049Z 36006KT 25SM SCT100 07/M02 A2977 RMK NO SPECI","R01    077TMP046R02   M027DPT046D01      0ADE726"
"70249026526","2023-05-06T02:51:00","7","62.0911","-152.7349","566.3","PUNTILLA, AK US","FM-15","PAPT ","V020","350,5,N,0051,5","22000,5,9,N","040234,5,N,5","+0070,C","+0010,C","99999,9",,,,,,,,,,"02,5,+03048,5,99,9",,,"1,99,1,+03048,5,9",,,,"9,AGL   ,+99999,+99999","02,99,5,99,9,99,9,03048,1,99,9,99,9",,,"10081,5,09429,5",,,,,,"MET08605/05/23 17:51:01 METAR PAPT 060251Z 35010KT 25SM FEW100 07/01 A2977 RMK NO SPECI LAST","R01    077TMP046R02    017DPT046D01      0ADE726"
"70249026526","2023-05-06T14:51:00","7","62.0911","-152.7349","566.3","PUNTILLA, AK US","FM-15","PAPT ","V020","350,5,N,0021,5","22000,5,9,N","024140,5,N,5","-0020,C","-0020,C","99999,9",,,,,,,,,,"02,5,+03048,5,99,9",,,"1,99,1,+03048,5,9",,,,"9,AGL   ,+99999,+99999","02,99,5,99,9,99,9,03048,1,99,9,99,9",,,"10088,5,09435,5",,,,,,"MET08905/06/23 05:51:02 METAR PAPT 061451Z 35004KT 15SM FEW100 M02/M02 A2979 RMK NO SPECI FIRST","R01   M027TMP046R02   M027DPT046D01      0ADE726"
"70249026526","2023-05-06T18:49:00","7","62.0911","-152.7349","566.3","PUNTILLA, AK US","FM-15","PAPT ","V020","010,5,N,0031,5","22000,5,9,N","024140,5,N,5","+0040,C","-0020,C","99999,9",,,,,,,,,,"04,5,+00914,5,99,9",,,"2,99,1,+00914,5,9",,,,"9,AGL   ,+99999,+99999","04,99,5,99,9,99,9,00914,1,99,9,99,9",,,"10095,5,09442,5",,,,,,"MET08205/06/23 09:49:02 METAR PAPT 061849Z 01006KT 15SM SCT030 04/M02 A2981 RMK NO SPECI","R01    047TMP046R02   M027DPT046D01      0ADE726"
"70249026526","2023-05-06T20:52:00","7","62.0911","-152.7349","566.3","PUNTILLA, AK US","FM-15","PAPT ","V020","020,5,N,0021,5","00914,5,M,N","032187,5,N,5","+0060,C","-0020,C","99999,9",,,,,,,,,,"07,5,+00914,5,99,9",,,"3,99,1,+00914,5,9",,,,"9,AGL   ,+99999,+99999","99,99,9,99,9,99,9,00914,1,99,9,99,9",,,"10102,5,09448,5",,,,,,"MET08205/06/23 11:52:02 METAR PAPT 062052Z 02004KT 20SM BKN030 06/M02 A2983 RMK NO SPECI","R01    067TMP046R02   M027DPT046"
"70249026526","2023-05-06T22:48:00","7","62.0911","-152.7349","566.3","PUNTILLA, AK US","FM-15","PAPT ","V020","160,5,N,0041,5","00914,5,M,N","016093,5,N,5","+0040,C","-0020,C","99999,9","24,0000,2,1","0000,9,5,000000,9,9",,,,"1,0,03,0,0,1,5",,"71,5",,"07,5,+00914,5,99,9",,,"3,99,1,+00914,5,9",,,,"9,AGL   ,+99999,+99999","99,99,9,99,9,99,9,00914,1,99,9,99,9","240,M,+0044,1","240,N,-0017,1","10115,5,09461,5",,"71,5",,,,"MET11505/06/23 13:48:02 METAR PAPT 062248Z 16008KT 10SM -SN BKN030 04/M02 A2987 RMK NO SPECI 400441017 70000 931000 4/000","R01    047TMP046R02   M027DPT046"
"70249026526","2023-05-07T00:47:00","7","62.0911","-152.7349","566.3","PUNTILLA, AK US","FM-15","PAPT ","V020","160,5,N,0041,5","00914,5,M,N","024140,5,N,5","+0040,C","+0010,C","99999,9",,,,,,,,,,"07,5,+00914,5,99,9",,,"3,99,1,+00914,5,9",,,,"9,AGL   ,+99999,+99999","99,99,9,99,9,99,9,00914,1,99,9,99,9",,,"10122,5,09467,5",,,,,,"MET08105/06/23 15:47:01 METAR PAPT 070047Z 16008KT 15SM BKN030 04/01 A2989 RMK NO SPECI","R01    047TMP046R02    017DPT046"
"70249026526","2023-05-07T02:55:00","7","62.0911","-152.7349","566.3","PUNTILLA, AK US","FM-15","PAPT ","V020","190,5,N,0026,5","01524,5,M,N","024140,5,N,5","+0040,C","-0010,C","99999,9",,,,,,,,,,"07,5,+01524,5,99,9",,,"3,99,1,+01524,5,9",,,,"9,AGL   ,+99999,+99999","99,99,9,99,9,99,9,01524,1,99,9,99,9",,,"10129,5,09474,5",,,,,,"MET08705/06/23 17:55:02 METAR PAPT 070255Z 19005KT 15SM BKN050 04/M01 A2991 RMK NO SPECI LAST","R01    047TMP046R02   M017DPT046"
"70249026526","2023-05-07T08:59:00","O","62.0911","-152.7349","566.3","PUNTILLA, AK US","SOD  ","PAPT ","V020","999,9,9,9999,9","99999,9,9,9","999999,9,9,9","+9999,9","+9999,9","99999,9",,,"AU,18,SN  ,5",,,,,,,,,,,,,,,,,,,,,,,,,
"70249026526","2023-05-07T14:50:00","7","62.0911","-152.7349","566.3","PUNTILLA, AK US","FM-15","PAPT ","V020","350,5,N,0010,5","22000,5,9,N","040234,5,N,5","-0020,C","-0020,C","99999,9",,,,,,,,,,"04,5,+02134,5,99,9",,,"2,99,1,+02134,5,9",,,,"9,AGL   ,+99999,+99999","04,99,5,99,9,99,9,02134,1,99,9,99,9",,,"10132,5,09477,5",,,,,,"MET08905/07/23 05:50:01 METAR PAPT 071450Z 35002KT 25SM SCT070 M02/M02 A2992 RMK NO SPECI FIRST","R01   M027TMP046R02   M027DPT046D01      0ADE726"
"70249026526","2023-05-07T16:48:00","7","62.0911","-152.7349","566.3","PUNTILLA, AK US","FM-15","PAPT ","V020","360,5,N,0010,5","22000,5,9,N","040234,5,N,5","+0020,C","-0020,C","99999,9",,,,,,,,,,"04,5,+01524,5,99,9",,,"2,99,1,+01524,5,9",,,,"9,AGL   ,+99999,+99999","04,99,5,99,9,99,9,01524,1,99,9,99,9",,,"10129,5,09474,5",,,,,,"MET08205/07/23 07:48:02 METAR PAPT 071648Z 36002KT 25SM SCT050 02/M02 A2991 RMK NO SPECI","R01    027TMP046R02   M027DPT046D01      0ADE726"
"70249026526","2023-05-07T18:47:00","7","62.0911","-152.7349","566.3","PUNTILLA, AK US","FM-15","PAPT ","V020","360,5,N,0010,5","22000,5,9,N","040234,5,N,5","+0050,C","-0020,C","99999,9",,,,,,,,,,"04,5,+01524,5,99,9",,,"2,99,1,+01524,5,9",,,,"9,AGL   ,+99999,+99999","04,99,5,99,9,99,9,01524,1,99,9,99,9",,,"10122,5,09467,5",,,,,,"MET08205/07/23 09:47:01 METAR PAPT 071847Z 36002KT 25SM SCT050 05/M02 A2989 RMK NO SPECI","R01    057TMP046R02   M027DPT046D01      0ADE726"
"70249026526","2023-05-07T20:48:00","7","62.0911","-152.7349","566.3","PUNTILLA, AK US","FM-15","PAPT ","V020","050,5,N,0026,5","01524,5,M,N","040234,5,N,5","+0070,C","-0010,C","99999,9",,,,,,,,,,"07,5,+01524,5,99,9",,,"3,99,1,+01524,5,9",,,,"9,AGL   ,+99999,+99999","99,99,9,99,9,99,9,01524,1,99,9,99,9",,,"10115,5,09461,5",,,,,,"MET08205/07/23 11:48:01 METAR PAPT 072048Z 05005KT 25SM BKN050 07/M01 A2987 RMK NO SPECI","R01    077TMP046R02   M017DPT046"
"70249026526","2023-05-07T22:49:00","7","62.0911","-152.7349","566.3","PUNTILLA, AK US","FM-15","PAPT ","V020","170,5,N,0026,5","02134,5,M,N","040234,5,N,5","+0080,C","+0000,C","99999,9","24,0000,9,1","0000,9,5,000000,9,9",,,,,,,,"07,5,+02134,5,99,9",,,"3,99,1,+02134,5,9",,,,"9,AGL   ,+99999,+99999","99,99,9,99,9,99,9,02134,1,99,9,99,9","240,M,+0078,1","240,N,-0017,1","10105,5,09451,5",,,,,,"MET11005/07/23 13:49:02 METAR PAPT 072249Z 17005KT 25SM BKN070 08/00 A2984 RMK NO SPECI 400781017 70000 931000 4/000","Q01  00002PRCP24R01    087TMP046R02    007DPT046"
"70249026526","2023-05-08T14:49:00","7","62.0911","-152.7349","566.3","PUNTILLA, AK US","FM-15","PAPT ","V020","170,5,N,0051,5","02134,5,M,N","016093,5,N,5","+0010,C","-0010,C","99999,9",,,,,,,,,,"02,5,+00610,5,99,9","07,5,+02134,5,99,9",,"1,99,1,+00610,5,9","3,99,1,+02134,5,9",,,"9,AGL   ,+99999,+99999","99,99,9,99,9,99,9,00610,1,99,9,99,9",,,"10085,5,09432,5",,,,,,"MET09505/08/23 05:49:02 METAR PAPT 081449Z 17010KT 10SM FEW020 BKN070 01/M01 A2978 RMK NO SPECI FIRST","R01    017TMP046R02   M017DPT046"
"70249026526","2023-05-08T16:49:00","7","62.0911","-152.7349","566.3","PUNTILLA, AK US","FM-15","PAPT ","V020","170,5,N,0021,5","01524,5,M,N","016093,5,N,5","+0010,C","-0020,C","99999,9",,,,,,"1,0,03,0,0,1,5",,"71,5",,"02,5,+00610,5,99,9","08,5,+01524,5,99,9",,"1,99,1,+00610,5,9","4,99,1,+01524,5,9",,,"9,AGL   ,+99999,+99999","99,99,9,99,9,99,9,00610,1,99,9,99,9",,,"10081,5,09429,5",,"71,5",,,,"MET09305/08/23 07:49:02 METAR PAPT 081649Z 17004KT 10SM -SN FEW020 OVC050 01/M02 A2977 RMK NO SPECI","R01    017TMP046R02   M027DPT046"
"70249026526","2023-05-08T18:53:00","7","62.0911","-152.7349","566.3","PUNTILLA, AK US","FM-15","PAPT ","V020","170,5,N,0021,5","00610,5,W,N","016093,5,N,5","+0020,C","-0010,C","99999,9",,,,,,"1,0,03,0,0,1,5",,"71,5",,"09,5,+00610,5,99,9",,,"5,99,1,+00610,5,9",,,,"9,AGL   ,+99999,+99999","09,99,1,99,9,99,9,00610,1,99,9,99,9",,,"10081,5,09429,5",,"71,5",,,,"MET08505/08/23 09:53:02 METAR PAPT 081853Z 17004KT 10SM -SN VV020 02/M01 A2977 RMK NO SPECI","R01    027TMP046R02   M017DPT046"
"70249026526","2023-05-08T20:52:00","7","62.0911","-152.7349","566.3","PUNTILLA, AK US","FM-15","PAPT ","V020","170,5,N,0077,5","01524,5,M,N","011265,5,N,5","+0040,C","+0000,C","99999,9",,,,,,,,,,"07,5,+01524,5,99,9",,,"3,99,1,+01524,5,9",,,,"9,AGL   ,+99999,+99999","99,99,9,99,9,99,9,01524,1,99,9,99,9",,,"10068,5,09416,5",,,,,,"MET08005/08/23 11:52:02 METAR PAPT 082052Z 17015KT 7SM BKN050 04/00 A2973 RMK NO SPECI","R01    047TMP046R02    007DPT046"
"70249026526","2023-05-08T22:48:00","7","62.0911","-152.7349","566.3","PUNTILLA, AK US","FM-15","PAPT ","V020","170,5,N,0103,5","01524,5,M,N","032187,5,N,5","+0050,C","-0020,C","99999,9","24,0000,2,1","0000,9,5,000000,9,9",,,,,,,,"07,5,+01524,5,99,9",,,"3,99,1,+01524,5,9",,,,"9,AGL   ,+99999,+99999","99,99,9,99,9,99,9,01524,1,99,9,99,9","240,M,+0050,1","240,N,+0006,1","10068,5,09416,5",,,,,,"MET11105/08/23 13:48:02 METAR PAPT 082248Z 17020KT 20SM BKN050 05/M02 A2973 RMK NO SPECI 400500006 70000 931000 4/000","R01    057TMP046R02   M027DPT046"
"70249026526","2023-05-09T00:48:00","7","62.0911","-152.7349","566.3","PUNTILLA, AK US","FM-15","PAPT ","V020","180,5,N,0077,5","01829,5,M,N","040234,5,N,5","+0040,C","-0010,C","99999,9",,,,,,,,,,"07,5,+01829,5,99,9",,,"3,99,1,+01829,5,9",,,,"9,AGL   ,+99999,+99999","99,99,9,99,9,99,9,01829,1,99,9,99,9",,,"10064,5,09413,5",,,,,,"MET08205/08/23 15:48:01 METAR PAPT 090048Z 18015KT 25SM BKN060 04/M01 A2972 RMK NO SPECI","R01    047TMP046R02   M017DPT046"
"70249026526","2023-05-09T02:56:00","7","62.0911","-152.7349","566.3","PUNTILLA, AK US","FM-15","PAPT ","V020","170,5,N,0077,5","01829,5,M,N","040234,5,N,5","+0040,C","-0030,C","99999,9",,,,,,,,,,"07,5,+01829,5,99,9","08,5,+03048,5,99,9",,"3,99,1,+01829,5,9","4,99,1,+03048,5,9",,,"9,AGL   ,+99999,+99999","99,99,9,99,9,99,9,01829,1,99,9,99,9",,,"10064,5,09413,5",,,,,,"MET09405/08/23 17:56:01 METAR PAPT 090256Z 17015KT 25SM BKN060 OVC100 04/M03 A2972 RMK NO SPECI LAST","R01    047TMP046R02   M037DPT046"
"70249026526","2023-05-09T08:59:00","O","62.0911","-152.7349","566.3","PUNTILLA, AK US","SOD  ","PAPT ","V020","999,9,9,9999,9","99999,9,9,9","999999,9,9,9","+9999,9","+9999,9","99999,9",,,"AU,18,SN  ,5",,,,,,,,,,,,,,,,,,,,,,,,,
"70249026526","2023-05-09T14:52:00","7","62.0911","-152.7349","566.3","PUNTILLA, AK US","FM-15","PAPT ","V020","180,5,N,0103,5","01524,5,M,N","016093,5,N,5","+0010,C","-0010,C","99999,9",,,,,,,,,,"07,5,+01524,5,99,9","08,5,+03048,5,99,9",,"3,99,1,+01524,5,9","4,99,1,+03048,5,9",,,"9,AGL   ,+99999,+99999","99,99,9,99,9,99,9,01524,1,99,9,99,9",,,"10064,5,09413,5",,,,,,"MET09505/09/23 05:52:02 METAR PAPT 091452Z 18020KT 10SM BKN050 OVC100 01/M01 A2972 RMK NO SPECI FIRST","R01    017TMP046R02   M017DPT046"
"70249026526","2023-05-09T18:51:00","7","62.0911","-152.7349","566.3","PUNTILLA, AK US","FM-15","PAPT ","V020","180,5,N,0077,5","01524,5,M,N","024140,5,N,5","+0030,C","-0020,C","99999,9",,,,,,,,,,"07,5,+01524,5,99,9",,,"3,99,1,+01524,5,9",,,,"9,AGL   ,+99999,+99999","99,99,9,99,9,99,9,01524,1,99,9,99,9",,,"10071,5,09419,5",,,,,,"MET08205/09/23 09:51:02 METAR PAPT 091851Z 18015KT 15SM BKN050 03/M02 A2974 RMK NO SPECI","R01    037TMP046R02   M027DPT046"
"70249026526","2023-05-09T20:48:00","7","62.0911","-152.7349","566.3","PUNTILLA, AK US","FM-15","PAPT ","V020","190,5,N,0093,5","01524,5,M,N","024140,5,N,5","+0030,C","-0010,C","99999,9",,,,,,,,,,"07,5,+01524,5,99,9",,,"3,99,1,+01524,5,9",,,,"9,AGL   ,+99999,+99999","99,99,9,99,9,99,9,01524,1,99,9,99,9",,,"10078,5,09425,5",,,,,,"MET08205/09/23 11:48:02 METAR PAPT 092048Z 19018KT 15SM BKN050 03/M01 A2976 RMK NO SPECI","R01    037TMP046R02   M017DPT046"
"70249026526","2023-05-09T22:49:00","7","62.0911","-152.7349","566.3","PUNTILLA, AK US","FM-15","PAPT ","V020","180,5,N,0077,5","03048,5,M,N","024140,5,N,5","+0050,C","-0010,C","99999,9","24,0000,9,1","0000,9,5,000000,9,9",,,,,,,,"04,5,+01524,5,99,9","07,5,+03048,5,99,9",,"2,99,1,+01524,5,9","3,99,1,+03048,5,9",,,"9,AGL   ,+99999,+99999","99,99,9,99,9,99,9,01524,1,99,9,99,9",,,"10078,5,09425,5",,,,,,"MET11705/09/23 13:49:02 METAR PAPT 092249Z 18015KT 15SM SCT050 BKN100 05/M01 A2976 RMK NO SPECI 40050006 70000 931000 4/000","Q01  00002PRCP24R01    057TMP046R02   M017DPT046"
"70249026526","2023-05-10T00:58:00","7","62.0911","-152.7349","566.3","PUNTILLA, AK US","FM-15","PAPT ","V020","190,5,N,0077,5","01524,5,M,N","024140,5,N,5","+0040,C","+0000,C","99999,9",,,,,,,,,,"07,5,+01524,5,99,9",,,"3,99,1,+01524,5,9",,,,"9,AGL   ,+99999,+99999","99,99,9,99,9,99,9,01524,1,99,9,99,9",,,"10071,5,09419,5",,,,,,"MET08105/09/23 15:58:01 METAR PAPT 100058Z 19015KT 15SM BKN050 04/00 A2974 RMK NO SPECI","R01    047TMP046R02    007DPT046"
"70249026526","2023-05-10T02:48:00","7","62.0911","-152.7349","566.3","PUNTILLA, AK US","FM-15","PAPT ","V020","190,5,N,0051,5","01524,5,M,N","024140,5,N,5","+0040,C","+0000,C","99999,9",,,,,,,,,,"07,5,+01524,5,99,9",,,"3,99,1,+01524,5,9",,,,"9,AGL   ,+99999,+99999","99,99,9,99,9,99,9,01524,1,99,9,99,9",,,"10075,5,09422,5",,,,,,"MET08605/09/23 17:48:01 METAR PAPT 100248Z 19010KT 15SM BKN050 04/00 A2975 RMK NO SPECI LAST","R01    047TMP046R02    007DPT046"
"70249026526","2023-05-10T14:52:00","7","62.0911","-152.7349","566.3","PUNTILLA, AK US","FM-15","PAPT ","V020","170,5,N,0031,5","03048,5,M,N","016093,5,N,5","+0030,C","-0010,C","99999,9",,,,,,,,,,"04,5,+01219,5,99,9","08,5,+03048,5,99,9",,"2,99,1,+01219,5,9","4,99,1,+03048,5,9",,,"9,AGL   ,+99999,+99999","99,99,9,99,9,99,9,01219,1,99,9,99,9",,,"10058,5,09406,5",,,,,,"MET09505/10/23 05:52:02 METAR PAPT 101452Z 17006KT 10SM SCT040 OVC100 03/M01 A2970 RMK NO SPECI FIRST","R01    037TMP046R02   M017DPT046"
"70249026526","2023-05-10T16:52:00","7","62.0911","-152.7349","566.3","PUNTILLA, AK US","FM-15","PAPT ","V020","180,5,N,0031,5","01219,5,M,N","016093,5,N,5","+0040,C","+0000,C","99999,9",,,,,,,,,,"07,5,+01219,5,99,9","08,5,+03048,5,99,9",,"3,99,1,+01219,5,9","4,99,1,+03048,5,9",,,"9,AGL   ,+99999,+99999","99,99,9,99,9,99,9,01219,1,99,9,99,9",,,"10054,5,09403,5",,,,,,"MET08805/10/23 07:52:02 METAR PAPT 101652Z 18006KT 10SM BKN040 OVC100 04/00 A2969 RMK NO SPECI","R01    047TMP046R02    007DPT046"
"70249026526","2023-05-10T18:51:00","7","62.0911","-152.7349","566.3","PUNTILLA, AK US","FM-15","PAPT ","V020","180,5,N,0062,5","01524,5,M,N","016093,5,N,5","+0050,C","-0010,C","99999,9",,,,,,,,,,"07,5,+01524,5,99,9","08,5,+03048,5,99,9",,"3,99,1,+01524,5,9","4,99,1,+03048,5,9",,,"9,AGL   ,+99999,+99999","99,99,9,99,9,99,9,01524,1,99,9,99,9",,,"10051,5,09400,5",,,,,,"MET08905/10/23 09:51:02 METAR PAPT 101851Z 18012KT 10SM BKN050 OVC100 05/M01 A2968 RMK NO SPECI","R01    057TMP046R02   M017DPT046"
"70249026526","2023-05-10T20:54:00","7","62.0911","-152.7349","566.3","PUNTILLA, AK US","FM-15","PAPT ","V020","180,5,N,0051,5","00914,5,M,N","011265,5,N,5","+0040,C","+0010,C","99999,9",,,,,,,,,,"07,5,+00914,5,99,9",,,"3,99,1,+00914,5,9",,,,"9,AGL   ,+99999,+99999","99,99,9,99,9,99,9,00914,1,99,9,99,9",,,"10051,5,09400,5",,,,,,"MET08005/10/23 11:54:02 METAR PAPT 102054Z 18010KT 7SM BKN030 04/01 A2968 RMK NO SPECI","R01    047TMP046R02    017DPT046"
"70249026526","2023-05-10T22:47:00","7","62.0911","-152.7349","566.3","PUNTILLA, AK US","FM-15","PAPT ","V020","190,5,N,0077,5","00914,5,M,N","016093,5,N,5","+0060,C","+0010,C","99999,9","24,0000,9,1","0000,9,5,000000,9,9",,,,,,,,"07,5,+00914,5,99,9",,,"3,99,1,+00914,5,9",,,,"9,AGL   ,+99999,+99999","99,99,9,99,9,99,9,00914,1,99,9,99,9","240,M,+0056,1","240,N,+0033,1","10051,5,09400,5",,,,,,"MET11005/10/23 13:47:02 METAR PAPT 102247Z 19015KT 10SM BKN030 06/01 A2968 RMK NO SPECI 400560033 70000 931000 4/000","Q01  00002PRCP24R01    067TMP046R02    017DPT046"
"70249026526","2023-05-11T00:53:00","7","62.0911","-152.7349","566.3","PUNTILLA, AK US","FM-15","PAPT ","V020","190,5,N,0051,5","03048,5,M,N","011265,5,N,5","+0060,C","+0020,C","99999,9",,,,,,,,,,"04,5,+00914,5,99,9","08,5,+03048,5,99,9",,"2,99,1,+00914,5,9","4,99,1,+03048,5,9",,,"9,AGL   ,+99999,+99999","99,99,9,99,9,99,9,00914,1,99,9,99,9",,,"10054,5,09403,5",,,,,,"MET08705/10/23 15:53:01 METAR PAPT 110053Z 19010KT 7SM SCT030 OVC100 06/02 A2969 RMK NO SPECI","R01    067TMP046R02    027DPT046"
"70249026526","2023-05-11T02:50:00","7","62.0911","-152.7349","566.3","PUNTILLA, AK US","FM-15","PAPT ","V020","180,5,N,0031,5","00914,5,M,N","011265,5,N,5","+0050,C","+0030,C","99999,9",,,,,,,,,,"07,5,+00914,5,99,9","08,5,+03048,5,99,9",,"3,99,1,+00914,5,9","4,99,1,+03048,5,9",,,"9,AGL   ,+99999,+99999","99,99,9,99,9,99,9,00914,1,99,9,99,9",,,"10047,5,09397,5",,,,,,"MET09205/10/23 17:50:01 METAR PAPT 110250Z 18006KT 7SM BKN030 OVC100 05/03 A2967 RMK NO SPECI LAST","R01    057TMP046R02    037DPT046"
"70249026526","2023-05-11T14:52:00","7","62.0911","-152.7349","566.3","PUNTILLA, AK US","FM-15","PAPT ","V020","210,5,N,0010,5","01524,5,W,N","040234,5,N,5","+0040,C","+0010,C","99999,9",,,,,,,,,,"09,5,+01524,5,99,9",,,"5,99,1,+01524,5,9",,,,"9,AGL   ,+99999,+99999","09,99,1,99,9,99,9,01524,1,99,9,99,9",,,"10061,5,09409,5",,,,,,"MET08605/11/23 05:52:02 METAR PAPT 111452Z 21002KT 25SM VV050 04/01 A2971 RMK NO SPECI FIRST","R01    047TMP046R02    017DPT046"
"70249026526","2023-05-11T16:46:00","7","62.0911","-152.7349","566.3","PUNTILLA, AK US","FM-15","PAPT ","V020","210,5,N,0021,5","01524,5,M,N","024140,7,N,5","+0050,C","+0030,C","99999,9",,,,,,"1,0,02,0,0,1,5",,"61,5",,"07,5,+01524,5,99,9",,,"3,99,1,+01524,5,9",,,,"9,AGL   ,+99999,+99999","99,99,9,99,9,99,9,01524,1,99,9,99,9",,,"10075,5,09422,5",,"61,5",,,,"MET08505/11/23 07:46:02 METAR PAPT 111646Z 21004KT 15SM -RA BKN050 05/03 A2975 RMK NO SPECI","R01  15SM7VIS011R02    057TMP046R03    037DPT046"
"70249026526","2023-05-11T18:51:00","7","62.0911","-152.7349","566.3","PUNTILLA, AK US","FM-15","PAPT ","V020","220,5,N,0026,5","03048,5,M,N","040234,5,N,5","+0050,C","+0030,C","99999,9",,,,,,,,,,"04,5,+02134,5,99,9","07,5,+03048,5,99,9",,"2,99,1,+02134,5,9","3,99,1,+03048,5,9",,,"9,AGL   ,+99999,+99999","99,99,9,99,9,99,9,02134,1,99,9,99,9",,,"10081,5,09429,5",,,,,,"MET08805/11/23 09:51:02 METAR PAPT 111851Z 22005KT 25SM SCT070 BKN100 05/03 A2977 RMK NO SPECI","R01    057TMP046R02    037DPT046"
"70249026526","2023-05-11T20:48:00","7","62.0911","-152.7349","566.3","PUNTILLA, AK US","FM-15","PAPT ","V020","180,5,N,0077,5","03048,5,M,N","040234,5,N,5","+0090,C","+0040,C","99999,9",,,,,,,,,,"04,5,+02134,5,99,9","07,5,+03048,5,99,9",,"2,99,1,+02134,5,9","3,99,1,+03048,5,9",,,"9,AGL   ,+99999,+99999","99,99,9,99,9,99,9,02134,1,99,9,99,9",,,"10081,5,09429,5",,,,,,"MET08805/11/23 11:48:02 METAR PAPT 112048Z 18015KT 25SM SCT070 BKN100 09/04 A2977 RMK NO SPECI","R01    097TMP046R02    047DPT046"
"70249026526","2023-05-11T22:46:00","7","62.0911","-152.7349","566.3","PUNTILLA, AK US","FM-15","PAPT ","V020","180,5,N,0077,5","22000,5,9,N","040234,5,N,5","+0090,C","+0020,C","99999,9","24,0000,2,1","0000,9,5,000000,9,9",,,,,,,,"02,5,+01524,5,99,9","04,5,+03048,5,99,9",,"1,99,1,+01524,5,9","2,99,1,+03048,5,9",,,"9,AGL   ,+99999,+99999","04,99,5,99,9,99,9,01524,1,99,9,99,9","240,M,+0094,1","240,N,+0039,1","10091,5,09438,5",,,,,,"MET11705/11/23 13:46:02 METAR PAPT 112246Z 18015KT 25SM FEW050 SCT100 09/02 A2980 RMK NO SPECI 400940039 70000 931000 4/000","R01    097TMP046R02    027DPT046D01      0ADE726"
"70249026526","2023-05-12T00:54:00","6","62.0911","-152.7349","566.3","PUNTILLA, AK US","FM-15","PAPT ","V020","180,5,N,0077,5","22000,5,9,N","040234,5,N,5","+0090,C","+0040,C","99999,9",,,,,,,,,,"02,5,+02134,5,99,9",,,"1,99,1,+02134,5,9",,,,,,,,"10098,5,09445,5",,,,,,"MET08105/11/23 15:54:01 METAR PAPT 120054Z 18015KT 25SM FEW070 09/04 A2982 RMK NO SPECI","R01    097TMP046R02    047DPT046"
"70249026526","2023-05-12T02:58:00","7","62.0911","-152.7349","566.3","PUNTILLA, AK US","FM-15","PAPT ","V020","190,5,N,0062,5","22000,5,9,N","040234,5,N,5","+0090,C","+0060,C","99999,9",,,,,,,,,,"02,5,+02134,5,99,9",,,"1,99,1,+02134,5,9",,,,"9,AGL   ,+99999,+99999","02,99,5,99,9,99,9,02134,1,99,9,99,9",,,"10102,5,09448,5",,,,,,"MET08605/11/23 17:58:01 METAR PAPT 120258Z 19012KT 25SM FEW070 09/06 A2983 RMK NO SPECI LAST","R01    097TMP046R02    067DPT046D01      0ADE726"
"70249026526","2023-05-12T08:59:00","O","62.0911","-152.7349","566.3","PUNTILLA, AK US","SOD  ","PAPT ","V020","999,9,9,9999,9","99999,9,9,9","999999,9,9,9","+9999,9","+9999,9","99999,9",,,"AU,16,RA  ,5",,,,,,,,,,,,,,,,,,,,,,,,,
"70249026526","2023-05-12T14:54:00","7","62.0911","-152.7349","566.3","PUNTILLA, AK US","FM-15","PAPT ","V020","190,5,N,0062,5","22000,7,9,N","040234,5,N,5","-0020,C","-0020,C","99999,9",,,,,,,,,,"00,7,+99999,9,99,9",,,"0,99,1,+99999,9,9",,,,,"00,99,1,99,9,99,9,99999,9,99,9,99,9",,,"10105,5,09451,5",,,,,,"MET08605/12/23 05:54:02 METAR PAPT 121454Z 19012KT 25SM SKC M02/M02 A2984 RMK NO SPECI FIRST","R01   SKC7SKY009R02   M027TMP046R03   M027DPT046R04   SKC7GAS009"
"70249026526","2023-05-12T16:51:00","6","62.0911","-152.7349","566.3","PUNTILLA, AK US","FM-15","PAPT ","V020","360,5,N,0010,5","22000,7,9,N","040234,5,N,5","+0050,C","-0040,C","99999,9",,,,,,,,,,"00,7,+99999,9,99,9",,,"0,99,1,+99999,9,9",,,,,,,,"10105,5,09451,5",,,,,,"MET07905/12/23 07:51:02 METAR PAPT 121651Z 36002KT 25SM SKC 05/M04 A2984 RMK NO SPECI","R01   SKC7SKY009R02    057TMP046R03   M047DPT046R04   SKC7GAS009"
"70249026526","2023-05-12T18:54:00","7","62.0911","-152.7349","566.3","PUNTILLA, AK US","FM-15","PAPT ","V020","010,5,N,0051,5","22000,7,9,N","040234,5,N,5","+0090,C","+0020,C","99999,9",,,,,,,,,,"00,7,+99999,9,99,9",,,"0,99,1,+99999,9,9",,,,,"00,99,1,99,9,99,9,99999,9,99,9,99,9",,,"10102,5,09448,5",,,,,,"MET07805/12/23 09:54:02 METAR PAPT 121854Z 01010KT 25SM SKC 09/02 A2983 RMK NO SPECI","R01   SKC7SKY009R02    097TMP046R03    027DPT046R04   SKC7GAS009"
"70249026526","2023-05-12T20:47:00","7","62.0911","-152.7349","566.3","PUNTILLA, AK US","FM-15","PAPT ","V020","010,5,N,0051,5","22000,5,9,N","040234,5,N,5","+0110,C","+0040,C","99999,9",,,,,,,,,,"02,5,+02438,5,99,9",,,"1,99,1,+02438,5,9",,,,"9,AGL   ,+99999,+99999","02,99,5,99,9,99,9,02438,1,99,9,99,9",,,"10098,5,09445,5",,,,,,"MET08105/12/23 11:47:02 METAR PAPT 122047Z 01010KT 25SM FEW080 11/04 A2982 RMK NO SPECI","R01    117TMP046R02    047DPT046D01      0ADE726"
"70249026526","2023-05-12T22:49:00","7","62.0911","-152.7349","566.3","PUNTILLA, AK US","FM-15","PAPT ","V020","360,5,N,0026,5","22000,5,9,N","040234,5,N,5","+0130,C","+0040,C","99999,9","24,0000,9,1","0000,9,5,000000,9,9",,,,,,,,"02,5,+02438,5,99,9",,,"1,99,1,+02438,5,9",,,,"9,AGL   ,+99999,+99999","02,99,5,99,9,99,9,02438,1,99,9,99,9","240,M,+0133,1","240,N,-0022,1","10091,5,09438,5",,,,,,"MET11005/12/23 13:49:02 METAR PAPT 122249Z 36005KT 25SM FEW080 13/04 A2980 RMK NO SPECI 401331022 70000 931000 4/000","Q01  00002PRCP24R01    137TMP046R02    047DPT046D01      0ADE726"
"70249026526","2023-05-13T00:51:00","7","62.0911","-152.7349","566.3","PUNTILLA, AK US","FM-15","PAPT ","V020","010,5,N,0026,5","22000,7,9,N","040234,5,N,5","+0130,C","+0040,C","99999,9",,,,,,,,,,"00,7,+99999,9,99,9",,,"0,99,1,+99999,9,9",,,,,"00,99,1,99,9,99,9,99999,9,99,9,99,9",,,"10085,5,09432,5",,,,,,"MET07805/12/23 15:51:01 METAR PAPT 130051Z 01005KT 25SM SKC 13/04 A2978 RMK NO SPECI","R01   SKC7SKY009R02    137TMP046R03    047DPT046R04   SKC7GAS009"
"70249026526","2023-05-13T02:50:00","7","62.0911","-152.7349","566.3","PUNTILLA, AK US","FM-15","PAPT ","V020","360,5,N,0026,5","22000,7,9,N","040234,5,N,5","+0140,C","+0080,C","99999,9",,,,,,,,,,"00,7,+99999,9,99,9",,,"0,99,1,+99999,9,9",,,,,"00,99,1,99,9,99,9,99999,9,99,9,99,9",,,"10081,5,09429,5",,,,,,"MET08305/12/23 17:50:02 METAR PAPT 130250Z 36005KT 25SM SKC 14/08 A2977 RMK NO SPECI LAST","R01   SKC7SKY009R02    147TMP046R03    087DPT046R04   SKC7GAS009"
"70249026526","2023-05-13T14:51:00","7","62.0911","-152.7349","566.3","PUNTILLA, AK US","FM-15","PAPT ","V020","030,5,N,0010,5","22000,5,9,N","040234,5,N,5","-0010,C","-0010,C","99999,9",,,,,,,,,,"02,5,+01829,5,99,9","04,5,+03048,5,99,9",,"1,99,1,+01829,5,9","2,99,1,+03048,5,9",,,"9,AGL   ,+99999,+99999","04,99,5,99,9,99,9,01829,1,99,9,99,9",,,"10156,5,09499,5",,,,,,"MET09605/13/23 05:51:02 METAR PAPT 131451Z 03002KT 25SM FEW060 SCT100 M01/M01 A2999 RMK NO SPECI FIRST","R01   M017TMP046R02   M017DPT046D01      0ADE726"
"70249026526","2023-05-13T16:49:00","7","62.0911","-152.7349","566.3","PUNTILLA, AK US","FM-15","PAPT ","V020","180,5,N,0077,5","03048,5,M,N","040234,5,N,5","+0070,C","+0020,C","99999,9",,,,,,,,,,"04,5,+01829,5,99,9","07,5,+03048,5,99,9",,"2,99,1,+01829,5,9","3,99,1,+03048,5,9",,,"9,AGL   ,+99999,+99999","99,99,9,99,9,99,9,01829,1,99,9,99,9",,,"10173,5,09515,5",,,,,,"MET08805/13/23 07:49:02 METAR PAPT 131649Z 18015KT 25SM SCT060 BKN100 07/02 A3004 RMK NO SPECI","R01    077TMP046R02    027DPT046"
"70249026526","2023-05-13T18:49:00","7","62.0911","-152.7349","566.3","PUNTILLA, AK US","FM-15","PAPT ","V020","170,5,N,0051,5","01829,5,M,N","040234,5,N,5","+0080,C","+0020,C","99999,9",,,,,,,,,,"07,5,+01829,5,99,9",,,"3,99,1,+01829,5,9",,,,"9,AGL   ,+99999,+99999","99,99,9,99,9,99,9,01829,1,99,9,99,9",,,"10190,5,09531,5",,,,,,"MET08105/13/23 09:49:02 METAR PAPT 131849Z 17010KT 25SM BKN060 08/02 A3009 RMK NO SPECI","R01    087TMP046R02    027DPT046"
"70249026526","2023-05-13T21:03:00","7","62.0911","-152.7349","566.3","PUNTILLA, AK US","FM-15","PAPT ","V020","170,5,N,0051,5","02134,5,M,N","040234,5,N,5","+0090,5","+0000,5","99999,9",,,,,,,,,,"07,5,+02134,5,99,9",,,"3,99,1,+02134,5,9",,,,"9,AGL   ,+99999,+99999","99,99,9,99,9,99,9,02134,1,99,9,99,9",,,"10200,5,09541,5",,,,,,"MET08105/13/23 12:03:02 METAR PAPT 132103Z 17010KT 25SM BKN070 09/00 A3012 RMK NO SPECI",
"70249026526","2023-05-13T22:52:00","7","62.0911","-152.7349","566.3","PUNTILLA, AK US","FM-15","PAPT ","V020","180,5,N,0077,5","02134,5,M,N","040234,5,N,5","+0090,C","+0030,C","99999,9","24,0000,9,1","0000,9,5,000000,9,9",,,,,,,,"07,5,+02134,5,99,9",,,"3,99,1,+02134,5,9",,,,"9,AGL   ,+99999,+99999","99,99,9,99,9,99,9,02134,1,99,9,99,9","240,M,+0089,1","240,N,-0006,1","10203,5,09544,5",,,,,,"MET11005/13/23 13:52:02 METAR PAPT 132252Z 18015KT 25SM BKN070 09/03 A3013 RMK NO SPECI 400891006 70000 931000 4/000","Q01  00002PRCP24R01    097TMP046R02    037DPT046"
"70249026526","2023-05-14T00:54:00","7","62.0911","-152.7349","566.3","PUNTILLA, AK US","FM-15","PAPT ","V020","180,5,N,0103,5","22000,5,9,N","040234,5,N,5","+0080,C","-0010,C","99999,9",,,,,,,,,,"04,5,+02438,5,99,9",,,"2,99,1,+02438,5,9",,,,"9,AGL   ,+99999,+99999","04,99,5,99,9,99,9,02438,1,99,9,99,9",,,"10213,5,09554,5",,,,,,"MET08205/13/23 15:54:01 METAR PAPT 140054Z 18020KT 25SM SCT080 08/M01 A3016 RMK NO SPECI","R01    087TMP046R02   M017DPT046D01      0ADE726"
"70249026526","2023-05-14T02:48:00","7","62.0911","-152.7349","566.3","PUNTILLA, AK US","FM-15","PAPT ","V020","180,5,N,0103,5","22000,5,9,N","040234,5,N,5","+0080,C","+0020,C","99999,9",,,,,,,,,,"04,5,+02438,5,99,9",,,"2,99,1,+02438,5,9",,,,"9,AGL   ,+99999,+99999","04,99,5,99,9,99,9,02438,1,99,9,99,9",,,"10213,5,09554,5",,,,,,"MET08605/13/23 17:48:01 METAR PAPT 140248Z 18020KT 25SM SCT080 08/02 A3016 RMK NO SPECI LAST","R01    087TMP046R02    027DPT046D01      0ADE726"
"70249026526","2023-05-14T14:54:00","7","62.0911","-152.7349","566.3","PUNTILLA, AK US","FM-15","PAPT ","V020","190,5,N,0077,5","22000,5,9,N","040234,5,N,5","+0040,C","-0030,C","99999,9",,,,,,,,,,"04,5,+01524,5,99,9",,,"2,99,1,+01524,5,9",,,,"9,AGL   ,+99999,+99999","04,99,5,99,9,99,9,01524,1,99,9,99,9",,,"10217,5,09557,5",,,,,,"MET08805/14/23 05:54:02 METAR PAPT 141454Z 19015KT 25SM SCT050 04/M03 A3017 RMK NO SPECI FIRST","R01    047TMP046R02   M037DPT046D01      0ADE726"
"70249026526","2023-05-14T16:51:00","7","62.0911","-152.7349","566.3","PUNTILLA, AK US","FM-15","PAPT ","V020","180,5,N,0093,5","01524,5,M,N","040234,5,N,5","+0070,C","-0020,C","99999,9",,,,,,,,,,"07,5,+01524,5,99,9",,,"3,99,1,+01524,5,9",,,,"9,AGL   ,+99999,+99999","99,99,9,99,9,99,9,01524,1,99,9,99,9",,,"10220,5,09560,5",,,,,,"MET08205/14/23 07:51:02 METAR PAPT 141651Z 18018KT 25SM BKN050 07/M02 A3018 RMK NO SPECI","R01    077TMP046R02   M027DPT046"
"70249026526","2023-05-14T18:55:00","7","62.0911","-152.7349","566.3","PUNTILLA, AK US","FM-15","PAPT ","V020","180,5,N,0103,5","01829,5,M,N","040234,5,N,5","+0070,C","-0010,C","99999,9",,,,,,,,,,"07,5,+01829,5,99,9",,,"3,99,1,+01829,5,9",,,,"9,AGL   ,+99999,+99999","99,99,9,99,9,99,9,01829,1,99,9,99,9",,,"10213,5,09554,5",,,,,,"MET08205/14/23 09:55:02 METAR PAPT 141855Z 18020KT 25SM BKN060 07/M01 A3016 RMK NO SPECI","R01    077TMP046R02   M017DPT046"
"70249026526","2023-05-14T20:51:00","7","62.0911","-152.7349","566.3","PUNTILLA, AK US","FM-15","PAPT ","V020","180,5,N,0103,5","01524,5,M,N","040234,5,N,5","+0070,C","+0000,C","99999,9",,,,,,,,,,"07,5,+01524,5,99,9",,,"3,99,1,+01524,5,9",,,,"9,AGL   ,+99999,+99999","99,99,9,99,9,99,9,01524,1,99,9,99,9",,,"10213,5,09554,5",,,,,,"MET08105/14/23 11:51:02 METAR PAPT 142051Z 18020KT 25SM BKN050 07/00 A3016 RMK NO SPECI","R01    077TMP046R02    007DPT046"
"70249026526","2023-05-14T22:54:00","7","62.0911","-152.7349","566.3","PUNTILLA, AK US","FM-15","PAPT ","V020","180,5,N,0103,5","00914,5,M,N","040234,5,N,5","+0070,C","+0000,C","99999,9","24,0000,9,1","0000,9,5,000000,9,9",,,,,,,,"07,5,+00914,5,99,9",,,"3,99,1,+00914,5,9",,,,"9,AGL   ,+99999,+99999","99,99,9,99,9,99,9,00914,1,99,9,99,9","240,M,+0072,1","240,N,+0044,1","10210,5,09551,5",,,,,,"MET11005/14/23 13:54:02 METAR PAPT 142254Z 18020KT 25SM BKN030 07/00 A3015 RMK NO SPECI 400720044 70000 931000 4/000","Q01  00002PRCP24R01    077TMP046R02    007DPT046"
"70249026526","2023-05-15T00:53:00","7","62.0911","-152.7349","566.3","PUNTILLA, AK US","FM-15","PAPT ","V020","180,5,N,0077,5","01219,5,M,N","040234,5,N,5","+0070,C","-0020,C","99999,9",,,,,,,,,,"07,5,+01219,5,99,9",,,"3,99,1,+01219,5,9",,,,"9,AGL   ,+99999,+99999","99,99,9,99,9,99,9,01219,1,99,9,99,9",,,"10200,5,09541,5",,,,,,"MET08205/14/23 15:53:01 METAR PAPT 150053Z 18015KT 25SM BKN040 07/M02 A3012 RMK NO SPECI","R01    077TMP046R02   M027DPT046"
"70249026526","2023-05-15T02:47:00","7","62.0911","-152.7349","566.3","PUNTILLA, AK US","FM-15","PAPT ","V020","180,5,N,0077,5","01524,5,M,N","040234,5,N,5","+0070,C","+0000,C","99999,9",,,,,,,,,,"07,5,+01524,5,99,9",,,"3,99,1,+01524,5,9",,,,"9,AGL   ,+99999,+99999","99,99,9,99,9,99,9,01524,1,99,9,99,9",,,"10196,5,09538,5",,,,,,"MET08605/14/23 17:47:01 METAR PAPT 150247Z 18015KT 25SM BKN050 07/00 A3011 RMK NO SPECI LAST","R01    077TMP046R02    007DPT046"
"70249026526","2023-05-15T14:46:00","7","62.0911","-152.7349","566.3","PUNTILLA, AK US","FM-15","PAPT ","V020","190,5,N,0062,5","00457,5,W,N","008047,5,N,5","+0030,C","+0000,C","99999,9",,,,,,"1,0,02,0,0,1,5",,"61,5",,"09,5,+00457,5,99,9",,,"5,99,1,+00457,5,9",,,,"9,AGL   ,+99999,+99999","09,99,1,99,9,99,9,00457,1,99,9,99,9",,,"10213,5,09554,5",,"61,5",,,,"MET08905/15/23 05:46:02 METAR PAPT 151446Z 19012KT 5SM -RA VV015 03/00 A3016 RMK NO SPECI FIRST","R01    037TMP046R02    007DPT046"
"70249026526","2023-05-15T18:50:00","7","62.0911","-152.7349","566.3","PUNTILLA, AK US","FM-15","PAPT ","V020","190,5,N,9999,9","00762,5,W,N","004828,5,N,5","+0030,C","-0020,C","99999,9",,,,,,"1,0,02,0,0,1,5",,"61,5",,"09,5,+00762,5,99,9",,,"5,99,1,+00762,5,9",,,,"9,AGL   ,+99999,+99999","09,99,1,99,9,99,9,00762,1,99,9,99,9",,,"10220,5,09560,5",,"61,5",,,,"MET08405/15/23 09:50:02 METAR PAPT 151850Z 19008KT 3SM -RA VV025 03/M02 A3018 RMK NO SPECI","P010004483WOSPD R01   0877WNS038R02    037TMP046R03   M027DPT046"
"70249026526","2023-05-15T20:49:00","7","62.0911","-152.7349","566.3","PUNTILLA, AK US","FM-15","PAPT ","V020","180,5,N,0051,6","00914,5,W,N","004828,5,N,5","+0030,C","+0010,C","99999,9",,,,,,,,,,"09,5,+00914,5,99,9",,,"5,99,1,+00914,5,9",,,,"9,AGL   ,+99999,+99999","09,99,1,99,9,99,9,00914,1,99,9,99,9",,,"10224,5,09563,5",,,,,,"MET07905/15/23 11:49:02 METAR PAPT 152049Z 18010KT 3SM VV030 03/01 A3019 RMK NO SPECI","R01    107WNS038R02    037TMP046R03    017DPT046"
"70249026526","2023-05-15T22:52:00","6","62.0911","-152.7349","566.3","PUNTILLA, AK US","FM-15","PAPT ","V020","180,5,N,0051,5","00914,5,M,N","024140,5,N,5","+0020,C","-0010,C","99999,9",,"0000,9,5,999999,9,9",,,,,,,,"07,5,+00914,5,99,9","08,5,+03048,5,99,9",,"3,99,1,+00914,5,9","4,99,1,+03048,5,9",,,,,,,"10220,5,09560,5",,,,,,"MET11805/15/23 13:52:02 METAR PAPT 152252Z 18010KT 15SM BKN030 OVC100 02/M01 A3018 RMK NO SPECI 400330017 70012 931000 4/000","R01    027TMP046R02   M017DPT046"
"70249026526","2023-05-16T00:46:00","7","62.0911","-152.7349","566.3","PUNTILLA, AK US","FM-15","PAPT ","V020","190,5,N,0072,5","00914,5,M,N","032187,5,N,5","+0040,C","+0010,C","99999,9",,,,,,,,,,"07,5,+00914,5,99,9","08,5,+03048,5,99,9",,"3,99,1,+00914,5,9","4,99,1,+03048,5,9",,,"9,AGL   ,+99999,+99999","99,99,9,99,9,99,9,00914,1,99,9,99,9",,,"10217,5,09557,5",,,,,,"MET08805/15/23 15:46:01 METAR PAPT 160046Z 19014KT 20SM BKN030 OVC100 04/01 A3017 RMK NO SPECI","R01    047TMP046R02    017DPT046"
"70249026526","2023-05-16T02:51:00","7","62.0911","-152.7349","566.3","PUNTILLA, AK US","FM-15","PAPT ","V020","190,5,N,0041,5","00914,5,M,N","040234,5,N,5","+0050,C","+0010,C","99999,9",,,,,,,,,,"07,5,+00914,5,99,9","08,5,+03048,5,99,9",,"3,99,1,+00914,5,9","4,99,1,+03048,5,9",,,"9,AGL   ,+99999,+99999","99,99,9,99,9,99,9,00914,1,99,9,99,9",,,"10217,5,09557,5",,,,,,"MET09305/15/23 17:51:01 METAR PAPT 160251Z 19008KT 25SM BKN030 OVC100 05/01 A3017 RMK NO SPECI LAST","R01    057TMP046R02    017DPT046"
"70249026526","2023-05-16T08:59:00","O","62.0911","-152.7349","566.3","PUNTILLA, AK US","SOD  ","PAPT ","V020","999,9,9,9999,9","99999,9,9,9","999999,9,9,9","+9999,9","+9999,9","99999,9",,,"AU,16,RA  ,5",,,,,,,,,,,,,,,,,,,,,,,,,
"70249026526","2023-05-16T14:58:00","6","62.0911","-152.7349","566.3","PUNTILLA, AK US","FM-15","PAPT ","V020","190,5,N,0129,5","00914,5,M,N","024140,5,N,5","+0040,C","+0010,C","99999,9",,,,,,,,,,"07,5,+00914,5,99,9",,,"3,99,1,+00914,5,9",,,,,,,,"10149,5,09493,5",,,,,,"MET08705/16/23 05:58:01 METAR PAPT 161458Z 19025KT 15SM BKN030 04/01 A2997 RMK NO SPECI FIRST","R01    047TMP046R02    017DPT046"
"70249026526","2023-05-16T16:56:00","7","62.0911","-152.7349","566.3","PUNTILLA, AK US","FM-15","PAPT ","V020","190,5,N,0103,5","00914,5,M,N","016093,5,N,5","+0050,C","+0030,C","99999,9",,,,,,,,,,"07,5,+00914,5,99,9",,,"3,99,1,+00914,5,9",,,,"9,AGL   ,+99999,+99999","99,99,9,99,9,99,9,00914,1,99,9,99,9",,,"10149,5,09493,5",,,,,,"MET08105/16/23 07:56:02 METAR PAPT 161656Z 19020KT 10SM BKN030 05/03 A2997 RMK NO SPECI","R01    057TMP046R02    037DPT046"
"70249026526","2023-05-16T18:53:00","7","62.0911","-152.7349","566.3","PUNTILLA, AK US","FM-15","PAPT ","V020","190,5,N,0077,5","00914,5,M,N","024140,5,N,5","+0060,C","+0020,C","99999,9",,,,,,,,,,"07,5,+00914,5,99,9",,,"3,99,1,+00914,5,9",,,,"9,AGL   ,+99999,+99999","99,99,9,99,9,99,9,00914,1,99,9,99,9",,,"10149,5,09493,5",,,,,,"MET08105/16/23 09:53:02 METAR PAPT 161853Z 19015KT 15SM BKN030 06/02 A2997 RMK NO SPECI","R01    067TMP046R02    027DPT046"
"70249026526","2023-05-16T20:50:00","7","62.0911","-152.7349","566.3","PUNTILLA, AK US","FM-15","PAPT ","V020","180,5,N,0062,5","00914,5,M,N","024140,5,N,5","+0070,C","+0020,C","99999,9",,,,,,,,,,"07,5,+00914,5,99,9",,,"3,99,1,+00914,5,9",,,,"9,AGL   ,+99999,+99999","99,99,9,99,9,99,9,00914,1,99,9,99,9",,,"10149,5,09493,5",,,,,,"MET08105/16/23 11:50:02 METAR PAPT 162050Z 18012KT 15SM BKN030 07/02 A2997 RMK NO SPECI","R01    077TMP046R02    027DPT046"
"70249026526","2023-05-16T22:46:00","7","62.0911","-152.7349","566.3","PUNTILLA, AK US","FM-15","PAPT ","V020","170,5,N,0062,5","01524,5,M,N","040234,5,N,5","+0090,C","+0020,C","99999,9","24,0000,9,1","0000,9,5,000000,9,9",,,,,,,,"07,5,+01524,5,99,9",,,"3,99,1,+01524,5,9",,,,"9,AGL   ,+99999,+99999","99,99,9,99,9,99,9,01524,1,99,9,99,9","240,N,+0039,1",,"10156,5,09499,5",,,,,,"MET11005/16/23 13:46:02 METAR PAPT 162246Z 17012KT 25SM BKN050 09/02 A2999 RMK NO SPECI 400800039 70000 931000 4/000","Q01  00002PRCP24R01    097TMP046R02    027DPT046"
"70249026526","2023-05-17T00:55:00","7","62.0911","-152.7349","566.3","PUNTILLA, AK US","FM-15","PAPT ","V020","170,5,N,0041,5","02134,5,M,N","040234,5,N,5","+0080,C","+0000,C","99999,9",,,,,,,,,,"07,5,+02134,5,99,9",,,"3,99,1,+02134,5,9",,,,"9,AGL   ,+99999,+99999","99,99,9,99,9,99,9,02134,1,99,9,99,9",,,"10156,5,09499,5",,,,,,"MET08105/16/23 15:55:01 METAR PAPT 170055Z 17008KT 25SM BKN070 08/00 A2999 RMK NO SPECI","R01    087TMP046R02    007DPT046"
"70249026526","2023-05-17T02:49:00","7","62.0911","-152.7349","566.3","PUNTILLA, AK US","FM-15","PAPT ","V020","170,5,N,0041,5","22000,5,9,N","040234,5,N,5","+0080,C","+0020,C","99999,9",,,,,,,,,,"04,5,+02134,5,99,9",,,"2,99,1,+02134,5,9",,,,"9,AGL   ,+99999,+99999","04,99,5,99,9,99,9,02134,1,99,9,99,9",,,"10163,5,09506,5",,,,,,"MET08605/16/23 17:49:01 METAR PAPT 170249Z 17008KT 25SM SCT070 08/02 A3001 RMK NO SPECI LAST","R01    087TMP046R02    027DPT046D01      0ADE726"
"70249026526","2023-05-17T14:55:00","7","62.0911","-152.7349","566.3","PUNTILLA, AK US","FM-15","PAPT ","V020","170,5,N,0026,5","22000,5,9,N","040234,5,N,5","+0010,C","+0000,C","99999,9",,,,,,,,,,"02,5,+00914,5,99,9","04,5,+01829,5,99,9",,"1,99,1,+00914,5,9","2,99,1,+01829,5,9",,,"9,AGL   ,+99999,+99999","04,99,5,99,9,99,9,00914,1,99,9,99,9",,,"10203,5,09544,5",,,,,,"MET09405/17/23 05:55:01 METAR PAPT 171455Z 17005KT 25SM FEW030 SCT060 01/00 A3013 RMK NO SPECI FIRST","R01    017TMP046R02    007DPT046D01      0ADE726"
"70249026526","2023-05-17T16:47:00","7","62.0911","-152.7349","566.3","PUNTILLA, AK US","FM-15","PAPT ","V020","180,5,N,0062,5","01829,5,M,N","040234,5,N,5","+0030,C","-0020,C","99999,9",,,,,,,,,,"07,5,+01829,5,99,9",,,"3,99,1,+01829,5,9",,,,"9,AGL   ,+99999,+99999","99,99,9,99,9,99,9,01829,1,99,9,99,9",,,"10203,5,09544,5",,,,,,"MET08205/17/23 07:47:02 METAR PAPT 171647Z 18012KT 25SM BKN060 03/M02 A3013 RMK NO SPECI","R01    037TMP046R02   M027DPT046"
"70249026526","2023-05-17T18:56:00","4","62.0911","-152.7349","566.3","PUNTILLA, AK US","FM-15","99999","V020","190,1,N,0051,1","01524,1,9,N","032187,1,9,9","+0030,1","-0020,1","99999,9",,,,,,,,,,,,,"3,99,1,+01524,1,9",,,,"9,AGL   ,+99999,+99999","99,99,9,99,9,99,9,01524,1,99,9,99,9",,,"10200,1,99999,9",,,,,,"MET065METAR PAPT 171856Z 19010KT 20SM BKN050 03/M02 A3012 RMK NO SPECI=",
"70249026526","2023-05-17T20:49:00","4","62.0911","-152.7349","566.3","PUNTILLA, AK US","FM-15","99999","V020","180,1,N,0046,1","01829,1,9,N","040234,1,9,9","+0040,1","-0020,1","99999,9",,,,,,,,,,,,,"4,99,1,+01829,1,9",,,,"9,AGL   ,+99999,+99999","99,99,9,99,9,99,9,01829,1,99,9,99,9",,,"10196,1,99999,9",,,,,,"MET065METAR PAPT 172049Z 18009KT 25SM OVC060 04/M02 A3011 RMK NO SPECI=",
"70249026526","2023-05-17T22:48:00","4","62.0911","-152.7349","566.3","PUNTILLA, AK US","FM-15","99999","V020","180,1,N,0031,1","01829,1,9,N","040234,1,9,9","+0050,1","+0010,1","99999,9","24,0000,9,1","0000,3,1,000000,9,9",,,,,,,,,,,"3,99,1,+01829,1,9",,,,"9,AGL   ,+99999,+99999","99,99,9,99,9,99,9,01829,1,99,9,99,9","240,M,+0050,1","240,N,+0011,1","10193,1,99999,9",,,,,,"MET093METAR PAPT 172248Z 18006KT 25SM BKN060 05/01 A3010 RMK NO SPECI 400500011 70000 931000 4/000=","Q01  00002PRCP24"
"70249026526","2023-05-18T00:48:00","4","62.0911","-152.7349","566.3","PUNTILLA, AK US","FM-15","99999","V020","340,1,N,0021,1","01829,1,9,N","040234,1,9,9","+0070,1","-0010,1","99999,9",,,,,,,,,,,,,"3,99,1,+01829,1,9",,,,"9,AGL   ,+99999,+99999","99,99,9,99,9,99,9,01829,1,99,9,99,9",,,"10193,1,99999,9",,,,,,"MET065METAR PAPT 180048Z 34004KT 25SM BKN060 07/M01 A3010 RMK NO SPECI=",
"70249026526","2023-05-18T02:51:00","4","62.0911","-152.7349","566.3","PUNTILLA, AK US","FM-15","99999","V020","050,1,N,0026,1","22000,5,9,N","040234,1,9,9","+0080,1","+0000,1","99999,9",,,,,,,,,,,,,"2,99,1,+02438,1,9",,,,"9,AGL   ,+99999,+99999","04,99,5,99,9,99,9,02438,1,99,9,99,9",,,"10186,1,99999,9",,,,,,"MET069METAR PAPT 180251Z 05005KT 25SM SCT080 08/00 A3008 RMK NO SPECI LAST=","D01      0ADE726"
"70249026526","2023-05-18T14:53:00","7","62.0911","-152.7349","566.3","PUNTILLA, AK US","FM-15","PAPT ","V020","340,5,N,0010,5","22000,7,9,N","040234,5,N,5","-0030,C","-0040,C","99999,9",,,,,,,,,,"00,7,+99999,9,99,9",,,"0,99,1,+99999,9,9",,,,,"00,99,1,99,9,99,9,99999,9,99,9,99,9",,,"10179,5,09522,5",,,,,,"MET08605/18/23 05:53:02 METAR PAPT 181453Z 34002KT 25SM SKC M03/M04 A3006 RMK NO SPECI FIRST","R01   SKC7SKY009R02   M037TMP046R03   M047DPT046R04   SKC7GAS009"
"70249026526","2023-05-18T16:46:00","6","62.0911","-152.7349","566.3","PUNTILLA, AK US","FM-15","PAPT ","V020","020,5,N,0021,5","22000,7,9,N","040234,5,N,5","+0040,C","-0020,C","99999,9",,,,,,,,,,"00,7,+99999,9,99,9",,,"0,99,1,+99999,9,9",,,,,,,,"10173,5,09515,5",,,,,,"MET07905/18/23 07:46:02 METAR PAPT 181646Z 02004KT 25SM SKC 04/M02 A3004 RMK NO SPECI","R01   SKC7SKY009R02    047TMP046R03   M027DPT046R04   SKC7GAS009"
"70249026526","2023-05-18T18:50:00","7","62.0911","-152.7349","566.3","PUNTILLA, AK US","FM-15","PAPT ","V020","020,5,N,0041,5","22000,5,9,N","040234,5,N,5","+0080,C","+0020,C","99999,9",,,,,,,,,,"02,5,+03048,5,99,9",,,"1,99,1,+03048,5,9",,,,"9,AGL   ,+99999,+99999","02,99,5,99,9,99,9,03048,1,99,9,99,9",,,"10163,5,09506,5",,,,,,"MET08105/18/23 09:50:02 METAR PAPT 181850Z 02008KT 25SM FEW100 08/02 A3001 RMK NO SPECI","R01    087TMP046R02    027DPT046D01      0ADE726"
"70249026526","2023-05-18T22:55:00","7","62.0911","-152.7349","566.3","PUNTILLA, AK US","FM-15","PAPT ","V020","350,5,N,0031,5","22000,5,9,N","040234,5,N,5","+0120,C","+0060,C","99999,9","24,0000,9,1","0000,9,5,000000,9,9",,,,,,,,"02,5,+03048,5,99,9",,,"1,99,1,+03048,5,9",,,,"9,AGL   ,+99999,+99999","02,99,5,99,9,99,9,03048,1,99,9,99,9","240,M,+0122,1","240,N,-0033,1","10149,5,09493,5",,,,,,"MET11005/18/23 13:55:02 METAR PAPT 182255Z 35006KT 25SM FEW100 12/06 A2997 RMK NO SPECI 401221033 70000 931000 4/000","Q01  00002PRCP24R01    127TMP046R02    067DPT046D01      0ADE726"
"70249026526","2023-05-19T00:59:00","4","62.0911","-152.7349","566.3","PUNTILLA, AK US","FM-15","99999","V020","350,1,N,0041,1","22000,5,9,N","040234,1,9,9","+0130,1","+0070,1","99999,9",,,,,,,,,,,,,"2,99,1,+03048,1,9",,,,"9,AGL   ,+99999,+99999","04,99,5,99,9,99,9,03048,1,99,9,99,9",,,"10135,1,99999,9",,,,,,"MET064METAR PAPT 190059Z 35008KT 25SM SCT100 13/07 A2993 RMK NO SPECI=","D01      0ADE726"
"70249026526","2023-05-19T02:53:00","7","62.0911","-152.7349","566.3","PUNTILLA, AK US","FM-15","PAPT ","V020","360,5,N,0026,5","22000,5,9,N","040234,5,N,5","+0140,C","+0040,C","99999,9",,,,,,,,,,"04,5,+03048,5,99,9",,,"2,99,1,+03048,5,9",,,,"9,AGL   ,+99999,+99999","04,99,5,99,9,99,9,03048,1,99,9,99,9",,,"10129,5,09474,5",,,,,,"MET08605/18/23 17:53:02 METAR PAPT 190253Z 36005KT 25SM SCT100 14/04 A2991 RMK NO SPECI LAST","R01    147TMP046R02    047DPT046D01      0ADE726"
"70249026526","2023-05-19T14:57:00","4","62.0911","-152.7349","566.3","PUNTILLA, AK US","FM-15","99999","V020","350,1,N,0026,1","03048,1,9,N","040234,1,9,9","+0020,1","-0010,1","99999,9",,,,,,,,,,,,,"4,99,1,+03048,9,9",,,,"9,AGL   ,+99999,+99999","99,99,9,99,9,99,9,03048,1,99,9,99,9",,,"10095,1,99999,9",,,,,,"MET071METAR PAPT 191457Z 35005KT 25SM OVC100 02/M01 A2981 RMK NO SPECI FIRST=",
"70249026526","2023-05-19T16:50:00","4","62.0911","-152.7349","566.3","PUNTILLA, AK US","FM-15","99999","V020","340,1,N,0010,1","03048,1,9,N","040234,1,9,9","+0060,1","+0020,1","99999,9",,,,,,,,,,,,,"4,99,1,+03048,9,9",,,,"9,AGL   ,+99999,+99999","99,99,9,99,9,99,9,03048,1,99,9,99,9",,,"10085,1,99999,9",,,,,,"MET064METAR PAPT 191650Z 34002KT 25SM OVC100 06/02 A2978 RMK NO SPECI=",
"70249026526","2023-05-19T18:49:00","4","62.0911","-152.7349","566.3","PUNTILLA, AK US","FM-15","99999","V020","220,1,N,0010,1","03048,1,9,N","040234,1,9,9","+0110,1","+0040,1","99999,9",,,,,,,,,,,,,"2,99,1,+02134,1,9","3,99,1,+03048,1,9",,,"9,AGL   ,+99999,+99999","99,99,9,99,9,99,9,02134,1,99,9,99,9",,,"10085,1,99999,9",,,,,,"MET071METAR PAPT 191849Z 22002KT 25SM SCT070 BKN100 11/04 A2978 RMK NO SPECI=",
"70249026526","2023-05-19T20:50:00","4","62.0911","-152.7349","566.3","PUNTILLA, AK US","FM-15","99999","V020","180,1,N,0041,1","22000,5,9,N","040234,1,9,9","+0170,1","+0000,1","99999,9",,,,,,,,,,,,,"2,99,1,+03048,1,9",,,,"9,AGL   ,+99999,+99999","04,99,5,99,9,99,9,03048,1,99,9,99,9",,,"10081,1,99999,9",,,,,,"MET064METAR PAPT 192050Z 18008KT 25SM SCT100 17/00 A2977 RMK NO SPECI=","D01      0ADE726"
"70249026526","2023-05-19T22:49:00","4","62.0911","-152.7349","566.3","PUNTILLA, AK US","FM-15","99999","V020","180,1,N,0103,1","03048,1,9,N","040234,1,9,9","+0180,1","+0030,1","99999,9","24,0000,9,1","0000,3,1,000000,9,9",,,,,,,,,,,"1,99,1,+01829,1,9","3,99,1,+03048,1,9",,,"9,AGL   ,+99999,+99999","99,99,9,99,9,99,9,01829,1,99,9,99,9","240,M,+0178,1","240,N,+0017,1","10081,1,99999,9",,,,,,"MET100METAR PAPT 192249Z 18020KT 25SM FEW060 BKN100 18/03 A2977 RMK NO SPECI 401780017 70000 931000 4/000=","Q01  00002PRCP24"
"70249026526","2023-05-20T00:51:00","4","62.0911","-152.7349","566.3","PUNTILLA, AK US","FM-15","99999","V020","180,1,N,0129,1","01524,1,9,N","024140,1,9,9","+0140,1","+0040,1","99999,9",,,,,,,,,,,,,"3,99,1,+01524,1,9","4,99,1,+03048,1,9",,,"9,AGL   ,+99999,+99999","99,99,9,99,9,99,9,01524,1,99,9,99,9",,,"10108,1,99999,9",,,,,,"MET071METAR PAPT 200051Z 18025KT 15SM BKN050 OVC100 14/04 A2985 RMK NO SPECI=",
"70249026526","2023-05-20T02:53:00","4","62.0911","-152.7349","566.3","PUNTILLA, AK US","FM-15","99999","V020","180,1,N,0077,1","01524,1,9,N","040234,1,9,9","+0140,1","+0060,1","99999,9",,,,,,,,,,,,,"3,99,1,+01524,1,9",,,,"9,AGL   ,+99999,+99999","99,99,9,99,9,99,9,01524,1,99,9,99,9",,,"10122,1,99999,9",,,,,,"MET069METAR PAPT 200253Z 18015KT 25SM BKN050 14/06 A2989 RMK NO SPECI LAST=",
"70249026526","2023-05-20T14:54:00","7","62.0911","-152.7349","566.3","PUNTILLA, AK US","FM-15","PAPT ","V020","040,5,N,0010,5","01524,5,M,N","032187,5,N,5","+0070,C","+0030,C","99999,9",,,,,,,,,,"07,5,+01524,5,99,9",,,"3,99,1,+01524,5,9",,,,"9,AGL   ,+99999,+99999","99,99,9,99,9,99,9,01524,1,99,9,99,9",,,"10163,5,09506,5",,,,,,"MET08705/20/23 05:54:02 METAR PAPT 201454Z 04002KT 20SM BKN050 07/03 A3001 RMK NO SPECI FIRST","R01    077TMP046R02    037DPT046"
"70249026526","2023-05-20T16:48:00","7","62.0911","-152.7349","566.3","PUNTILLA, AK US","FM-15","PAPT ","V020","190,5,N,0062,5","03048,5,M,N","040234,5,N,5","+0080,C","+0020,C","99999,9",,,,,,,,,,"04,5,+01524,5,99,9","07,5,+03048,5,99,9",,"2,99,1,+01524,5,9","3,99,1,+03048,5,9",,,"9,AGL   ,+99999,+99999","99,99,9,99,9,99,9,01524,1,99,9,99,9",,,"10169,5,09512,5",,,,,,"MET08805/20/23 07:48:02 METAR PAPT 201648Z 19012KT 25SM SCT050 BKN100 08/02 A3003 RMK NO SPECI","R01    087TMP046R02    027DPT046"
"70249026526","2023-05-20T18:49:00","7","62.0911","-152.7349","566.3","PUNTILLA, AK US","FM-15","PAPT ","V020","180,5,N,0077,5","22000,5,9,N","040234,5,N,5","+0120,C","+0020,C","99999,9",,,,,,,,,,"02,5,+01524,5,99,9","04,5,+03048,5,99,9",,"1,99,1,+01524,5,9","2,99,1,+03048,5,9",,,"9,AGL   ,+99999,+99999","04,99,5,99,9,99,9,01524,1,99,9,99,9",,,"10169,5,09512,5",,,,,,"MET08805/20/23 09:49:02 METAR PAPT 201849Z 18015KT 25SM FEW050 SCT100 12/02 A3003 RMK NO SPECI","R01    127TMP046R02    027DPT046D01      0ADE726"
"70249026526","2023-05-20T20:51:00","7","62.0911","-152.7349","566.3","PUNTILLA, AK US","FM-15","PAPT ","V020","180,5,N,0062,5","22000,5,9,N","040234,5,N,5","+0120,C","+0020,C","99999,9",,,,,,,,,,"04,5,+01524,5,99,9",,,"2,99,1,+01524,5,9",,,,"9,AGL   ,+99999,+99999","04,99,5,99,9,99,9,01524,1,99,9,99,9",,,"10179,5,09522,5",,,,,,"MET08105/20/23 11:51:02 METAR PAPT 202051Z 18012KT 25SM SCT050 12/02 A3006 RMK NO SPECI","R01    127TMP046R02    027DPT046D01      0ADE726"
"70249026526","2023-05-20T22:48:00","7","62.0911","-152.7349","566.3","PUNTILLA, AK US","FM-15","PAPT ","V020","170,5,N,0103,5","03048,5,M,N","040234,5,N,5","+0120,C","+0010,C","99999,9","24,0000,9,1","0000,9,5,000000,9,9",,,,,,,,"04,5,+01524,5,99,9","07,5,+03048,5,99,9",,"2,99,1,+01524,5,9","3,99,1,+03048,5,9",,,"9,AGL   ,+99999,+99999","99,99,9,99,9,99,9,01524,1,99,9,99,9","240,M,+0117,1","240,N,+0067,1","10183,5,09525,5",,,,,,"MET11705/20/23 13:48:02 METAR PAPT 202248Z 17020KT 25SM SCT050 BKN100 12/01 A3007 RMK NO SPECI 401170067 70000 931000 4/000","Q01  00002PRCP24R01    127TMP046R02    017DPT046"
"70249026526","2023-05-21T00:50:00","7","62.0911","-152.7349","566.3","PUNTILLA, AK US","FM-15","PAPT ","V020","180,5,N,0103,5","03048,5,M,N","040234,5,N,5","+0130,C","+0020,C","99999,9",,,,,,,,,,"04,5,+01829,5,99,9","07,5,+03048,5,99,9",,"2,99,1,+01829,5,9","3,99,1,+03048,5,9",,,"9,AGL   ,+99999,+99999","99,99,9,99,9,99,9,01829,1,99,9,99,9",,,"10183,5,09525,5",,,,,,"MET08805/20/23 15:50:01 METAR PAPT 210050Z 18020KT 25SM SCT060 BKN100 13/02 A3007 RMK NO SPECI","R01    137TMP046R02    027DPT046"
"70249026526","2023-05-21T02:58:00","7","62.0911","-152.7349","566.3","PUNTILLA, AK US","FM-15","PAPT ","V020","180,5,N,0051,5","03048,5,M,N","040234,5,N,5","+0120,C","-0010,C","99999,9",,,,,,,,,,"02,5,+01829,5,99,9","07,5,+03048,5,99,9",,"1,99,1,+01829,5,9","3,99,1,+03048,5,9",,,"9,AGL   ,+99999,+99999","99,99,9,99,9,99,9,01829,1,99,9,99,9",,,"10186,5,09528,5",,,,,,"MET09405/20/23 17:58:01 METAR PAPT 210258Z 18010KT 25SM FEW060 BKN100 12/M01 A3008 RMK NO SPECI LAST","R01    127TMP046R02   M017DPT046"
"70249026526","2023-05-21T14:55:00","7","62.0911","-152.7349","566.3","PUNTILLA, AK US","FM-15","PAPT ","V020","340,5,N,0021,5","22000,5,9,N","040234,5,N,5","-0010,C","-0010,C","99999,9",,,,,,,,,,"04,5,+02438,5,99,9",,,"2,99,1,+02438,5,9",,,,"9,AGL   ,+99999,+99999","04,99,5,99,9,99,9,02438,1,99,9,99,9",,,"10207,5,09547,5",,,,,,"MET08905/21/23 05:55:02 METAR PAPT 211455Z 34004KT 25SM SCT080 M01/M01 A3014 RMK NO SPECI FIRST","R01   M017TMP046R02   M017DPT046D01      0ADE726"
"70249026526","2023-05-21T16:52:00","7","62.0911","-152.7349","566.3","PUNTILLA, AK US","FM-15","PAPT ","V020","170,5,N,0021,5","22000,5,9,N","040234,5,N,5","+0060,C","+0010,C","99999,9",,,,,,,,,,"04,5,+02438,5,99,9",,,"2,99,1,+02438,5,9",,,,"9,AGL   ,+99999,+99999","04,99,5,99,9,99,9,02438,1,99,9,99,9",,,"10217,5,09557,5",,,,,,"MET08105/21/23 07:52:02 METAR PAPT 211652Z 17004KT 25SM SCT080 06/01 A3017 RMK NO SPECI","R01    067TMP046R02    017DPT046D01      0ADE726"
"70249026526","2023-05-21T18:56:00","7","62.0911","-152.7349","566.3","PUNTILLA, AK US","FM-15","PAPT ","V020","180,5,N,0026,5","22000,5,9,N","040234,5,N,5","+0080,C","+0010,C","99999,9",,,,,,,,,,"04,5,+02438,5,99,9",,,"2,99,1,+02438,5,9",,,,"9,AGL   ,+99999,+99999","04,99,5,99,9,99,9,02438,1,99,9,99,9",,,"10200,5,09541,5",,,,,,"MET08105/21/23 09:56:02 METAR PAPT 211856Z 18005KT 25SM SCT080 08/01 A3012 RMK NO SPECI","R01    087TMP046R02    017DPT046D01      0ADE726"
"70249026526","2023-05-21T20:48:00","7","62.0911","-152.7349","566.3","PUNTILLA, AK US","FM-15","PAPT ","V020","180,5,N,0062,5","22000,5,9,N","040234,5,N,5","+0090,C","+0010,C","99999,9",,,,,,,,,,"04,5,+02438,5,99,9",,,"2,99,1,+02438,5,9",,,,"9,AGL   ,+99999,+99999","04,99,5,99,9,99,9,02438,1,99,9,99,9",,,"10193,5,09535,5",,,,,,"MET08105/21/23 11:48:02 METAR PAPT 212048Z 18012KT 25SM SCT080 09/01 A3010 RMK NO SPECI","R01    097TMP046R02    017DPT046D01      0ADE726"
"70249026526","2023-05-21T22:58:00","7","62.0911","-152.7349","566.3","PUNTILLA, AK US","FM-15","PAPT ","V020","180,5,N,0051,5","03048,5,M,N","040234,5,N,5","+0110,C","-0010,C","99999,9","24,0000,9,1","0000,9,5,000000,9,9",,,,,,,,"04,5,+02134,5,99,9","07,5,+03048,5,99,9",,"2,99,1,+02134,5,9","3,99,1,+03048,5,9",,,"9,AGL   ,+99999,+99999","99,99,9,99,9,99,9,02134,1,99,9,99,9","240,M,+0106,1","240,N,-0006,1","10200,5,09541,5",,,,,,"MET11805/21/23 13:58:02 METAR PAPT 212258Z 18010KT 25SM SCT070 BKN100 11/M01 A3012 RMK NO SPECI 401061006 70000 931000 4/000","Q01  00002PRCP24R01    117TMP046R02   M017DPT046"
"70249026526","2023-05-22T02:54:00","7","62.0911","-152.7349","566.3","PUNTILLA, AK US","FM-15","PAPT ","V020","170,5,N,0051,5","22000,5,9,N","040234,5,N,5","+0110,C","+0000,C","99999,9",,,,,,,,,,"02,5,+02134,5,99,9",,,"1,99,1,+02134,5,9",,,,"9,AGL   ,+99999,+99999","02,99,5,99,9,99,9,02134,1,99,9,99,9",,,"10200,5,09541,5",,,,,,"MET08605/21/23 17:54:02 METAR PAPT 220254Z 17010KT 25SM FEW070 11/00 A3012 RMK NO SPECI LAST","R01    117TMP046R02    007DPT046D01      0ADE726"
"70249026526","2023-05-22T15:00:00","7","62.0911","-152.7349","566.3","PUNTILLA, AK US","FM-15","PAPT ","V020","180,5,N,0010,5","22000,5,9,N","040234,5,N,5","-0030,C","-0030,C","99999,9",,,,,,,,,,"02,5,+03048,5,99,9",,,"1,99,1,+03048,5,9",,,,"9,AGL   ,+99999,+99999","02,99,5,99,9,99,9,03048,1,99,9,99,9",,,"10227,5,09567,5",,,,,,"MET08905/22/23 06:00:02 METAR PAPT 221500Z 18002KT 25SM FEW100 M03/M03 A3020 RMK NO SPECI FIRST","R01   M037TMP046R02   M037DPT046D01      0ADE726"
"70249026526","2023-05-22T16:46:00","7","62.0911","-152.7349","566.3","PUNTILLA, AK US","FM-15","PAPT ","V020","180,5,N,0021,5","22000,5,9,N","040234,5,N,5","+0040,C","-0030,C","99999,9",,,,,,,,,,"02,5,+00914,5,99,9","04,5,+03048,5,99,9",,"1,99,1,+00914,5,9","2,99,1,+03048,5,9",,,"9,AGL   ,+99999,+99999","04,99,5,99,9,99,9,00914,1,99,9,99,9",,,"10217,5,09557,5",,,,,,"MET08905/22/23 07:46:02 METAR PAPT 221646Z 18004KT 25SM FEW030 SCT100 04/M03 A3017 RMK NO SPECI","R01    047TMP046R02   M037DPT046D01      0ADE726"
"70249026526","2023-05-22T18:48:00","7","62.0911","-152.7349","566.3","PUNTILLA, AK US","FM-15","PAPT ","V020","180,5,N,0062,5","22000,5,9,N","040234,5,N,5","+0070,C","-0020,C","99999,9",,,,,,,,,,"04,5,+01829,5,99,9",,,"2,99,1,+01829,5,9",,,,"9,AGL   ,+99999,+99999","04,99,5,99,9,99,9,01829,1,99,9,99,9",,,"10213,5,09554,5",,,,,,"MET08205/22/23 09:48:02 METAR PAPT 221848Z 18012KT 25SM SCT060 07/M02 A3016 RMK NO SPECI","R01    077TMP046R02   M027DPT046D01      0ADE726"
"70249026526","2023-05-22T20:48:00","7","62.0911","-152.7349","566.3","PUNTILLA, AK US","FM-15","PAPT ","V020","180,5,N,0103,5","01829,5,M,N","040234,5,N,5","+0090,C","-0020,C","99999,9",,,,,,,,,,"07,5,+01829,5,99,9",,,"3,99,1,+01829,5,9",,,,"9,AGL   ,+99999,+99999","99,99,9,99,9,99,9,01829,1,99,9,99,9",,,"10210,5,09551,5",,,,,,"MET08205/22/23 11:48:02 METAR PAPT 222048Z 18020KT 25SM BKN060 09/M02 A3015 RMK NO SPECI","R01    097TMP046R02   M027DPT046"
"70249026526","2023-05-22T22:47:00","7","62.0911","-152.7349","566.3","PUNTILLA, AK US","FM-15","PAPT ","V020","170,5,N,0103,5","01829,5,M,N","040234,5,N,5","+0090,C","-0020,C","99999,9","24,0000,9,1","0000,9,5,000000,9,9",,,,,,,,"07,5,+01829,5,99,9",,,"3,99,1,+01829,5,9",,,,"9,AGL   ,+99999,+99999","99,99,9,99,9,99,9,01829,1,99,9,99,9","240,M,+0089,1","240,N,-0028,1","10207,5,09547,5",,,,,,"MET11105/22/23 13:47:02 METAR PAPT 222247Z 17020KT 25SM BKN060 09/M02 A3014 RMK NO SPECI 400891028 70000 931000 4/000","Q01  00002PRCP24R01    097TMP046R02   M027DPT046"
"70249026526","2023-05-23T00:47:00","7","62.0911","-152.7349","566.3","PUNTILLA, AK US","FM-15","PAPT ","V020","170,5,N,0129,5","01829,5,M,N","040234,5,N,5","+0080,C","-0030,C","99999,9",,,,,,,,,,"07,5,+01829,5,99,9","08,5,+03048,5,99,9",,"3,99,1,+01829,5,9","4,99,1,+03048,5,9",,,"9,AGL   ,+99999,+99999","99,99,9,99,9,99,9,01829,1,99,9,99,9",,,"10200,5,09541,5",,,,,,"MET08905/22/23 15:47:01 METAR PAPT 230047Z 17025KT 25SM BKN060 OVC100 08/M03 A3012 RMK NO SPECI","R01    087TMP046R02   M037DPT046"
"70249026526","2023-05-23T02:51:00","7","62.0911","-152.7349","566.3","PUNTILLA, AK US","FM-15","PAPT ","V020","170,5,N,0077,5","01829,5,M,N","040234,5,N,5","+0080,C","-0020,C","99999,9",,,,,,,,,,"07,5,+01829,5,99,9",,,"3,99,1,+01829,5,9",,,,"9,AGL   ,+99999,+99999","99,99,9,99,9,99,9,01829,1,99,9,99,9",,,"10190,5,09531,5",,,,,,"MET08705/22/23 17:51:01 METAR PAPT 230251Z 17015KT 25SM BKN060 08/M02 A3009 RMK NO SPECI LAST","R01    087TMP046R02   M027DPT046"
"70249026526","2023-05-23T14:50:00","7","62.0911","-152.7349","566.3","PUNTILLA, AK US","FM-15","PAPT ","V020","190,5,N,0041,5","00457,5,W,N","011265,5,N,5","+0030,C","+0010,C","99999,9",,,,,,"1,0,02,0,0,1,5",,"61,5",,"09,5,+00457,5,99,9",,,"5,99,1,+00457,5,9",,,,"9,AGL   ,+99999,+99999","09,99,1,99,9,99,9,00457,1,99,9,99,9",,,"10190,5,09531,5",,"61,5",,,,"MET08905/23/23 05:50:02 METAR PAPT 231450Z 19008KT 7SM -RA VV015 03/01 A3009 RMK NO SPECI FIRST","R01    037TMP046R02    017DPT046"
"70249026526","2023-05-23T16:49:00","7","62.0911","-152.7349","566.3","PUNTILLA, AK US","FM-15","PAPT ","V020","180,5,N,0041,5","00610,5,M,N","024140,5,N,5","+0030,C","+0010,C","99999,9",,,,,,,,,,"07,5,+00610,5,99,9","08,5,+03048,5,99,9",,"3,99,1,+00610,5,9","4,99,1,+03048,5,9",,,"9,AGL   ,+99999,+99999","99,99,9,99,9,99,9,00610,1,99,9,99,9",,,"10190,5,09531,5",,,,,,"MET08805/23/23 07:49:01 METAR PAPT 231649Z 18008KT 15SM BKN020 OVC100 03/01 A3009 RMK NO SPECI","R01    037TMP046R02    017DPT046"
"70249026526","2023-05-23T18:50:00","7","62.0911","-152.7349","566.3","PUNTILLA, AK US","FM-15","PAPT ","V020","050,5,N,0021,5","01524,5,M,N","024140,5,N,5","+0070,C","+0020,C","99999,9",,,,,,,,,,"02,5,+00762,5,99,9","07,5,+01524,5,99,9","08,5,+03048,5,99,9","1,99,1,+00762,5,9","3,99,1,+01524,5,9","4,99,1,+03048,5,9",,"9,AGL   ,+99999,+99999","99,99,9,99,9,99,9,00762,1,99,9,99,9",,,"10183,5,09525,5",,,,,,"MET09505/23/23 09:50:02 METAR PAPT 231850Z 05004KT 15SM FEW025 BKN050 OVC100 07/02 A3007 RMK NO SPECI","R01    077TMP046R02    027DPT046"
"70249026526","2023-05-23T20:48:00","7","62.0911","-152.7349","566.3","PUNTILLA, AK US","FM-15","PAPT ","V020","180,5,N,0077,5","01524,5,M,N","032187,5,N,5","+0080,C","+0000,C","99999,9",,,,,,,,,,"07,5,+01524,5,99,9","08,5,+03048,5,99,9",,"3,99,1,+01524,5,9","4,99,1,+03048,5,9",,,"9,AGL   ,+99999,+99999","99,99,9,99,9,99,9,01524,1,99,9,99,9",,,"10173,5,09515,5",,,,,,"MET08805/23/23 11:48:02 METAR PAPT 232048Z 18015KT 20SM BKN050 OVC100 08/00 A3004 RMK NO SPECI","R01    087TMP046R02    007DPT046"
"70249026526","2023-05-23T22:53:00","7","62.0911","-152.7349","566.3","PUNTILLA, AK US","FM-15","PAPT ","V020","180,5,N,0062,5","01524,5,M,N","032187,5,N,5","+0080,C","-0020,C","99999,9","24,0000,2,1","0000,9,5,000000,9,9",,,,,,,,"07,5,+01524,5,99,9","08,5,+03048,5,99,9",,"3,99,1,+01524,5,9","4,99,1,+03048,5,9",,,"9,AGL   ,+99999,+99999","99,99,9,99,9,99,9,01524,1,99,9,99,9","240,M,+0078,1","240,N,+0033,1","10166,5,09509,5",,,,,,"MET11805/23/23 13:53:02 METAR PAPT 232253Z 18012KT 20SM BKN050 OVC100 08/M02 A3002 RMK NO SPECI 400780033 70000 931000 4/000","R01    087TMP046R02   M027DPT046"
"70249026526","2023-05-24T00:51:00","7","62.0911","-152.7349","566.3","PUNTILLA, AK US","FM-15","PAPT ","V020","180,5,N,0077,5","01829,5,M,N","032187,5,N,5","+0080,C","+0010,C","99999,9",,,,,,,,,,"07,5,+01829,5,99,9","08,5,+03048,5,99,9",,"3,99,1,+01829,5,9","4,99,1,+03048,5,9",,,"9,AGL   ,+99999,+99999","99,99,9,99,9,99,9,01829,1,99,9,99,9",,,"10156,5,09499,5",,,,,,"MET08805/23/23 15:51:01 METAR PAPT 240051Z 18015KT 20SM BKN060 OVC100 08/01 A2999 RMK NO SPECI","R01    087TMP046R02    017DPT046"
"70249026526","2023-05-24T02:54:00","7","62.0911","-152.7349","566.3","PUNTILLA, AK US","FM-15","PAPT ","V020","180,5,N,0077,5","01829,5,M,N","040234,5,N,5","+0080,C","+0000,C","99999,9",,,,,,,,,,"07,5,+01829,5,99,9","08,5,+03048,5,99,9",,"3,99,1,+01829,5,9","4,99,1,+03048,5,9",,,"9,AGL   ,+99999,+99999","99,99,9,99,9,99,9,01829,1,99,9,99,9",,,"10149,5,09493,5",,,,,,"MET09305/23/23 17:54:02 METAR PAPT 240254Z 18015KT 25SM BKN060 OVC100 08/00 A2997 RMK NO SPECI LAST","R01    087TMP046R02    007DPT046"
"70249026526","2023-05-24T08:59:00","O","62.0911","-152.7349","566.3","PUNTILLA, AK US","SOD  ","PAPT ","V020","999,9,9,9999,9","99999,9,9,9","999999,9,9,9","+9999,9","+9999,9","99999,9",,,"AU,16,RA  ,5",,,,,,,,,,,,,,,,,,,,,,,,,
"70249026526","2023-05-24T14:53:00","7","62.0911","-152.7349","566.3","PUNTILLA, AK US","FM-15","PAPT ","V020","350,5,N,0010,5","03048,5,M,N","040234,5,N,5","+0030,C","+0000,C","99999,9",,,,,,,,,,"02,5,+00305,5,99,9","04,5,+00914,5,99,9","08,5,+03048,5,99,9","1,99,1,+00305,5,9","2,99,1,+00914,5,9","4,99,1,+03048,5,9",,"9,AGL   ,+99999,+99999","99,99,9,99,9,99,9,00305,1,99,9,99,9",,,"10129,5,09474,5",,,,,,"MET10105/24/23 05:53:02 METAR PAPT 241453Z 35002KT 25SM FEW010 SCT030 OVC100 03/00 A2991 RMK NO SPECI FIRST","R01    037TMP046R02    007DPT046"
"70249026526","2023-05-24T16:49:00","7","62.0911","-152.7349","566.3","PUNTILLA, AK US","FM-15","PAPT ","V020","180,5,N,0036,5","00610,5,M,N","024140,7,N,5","+0050,C","+0030,C","99999,9",,,,,,"1,0,02,0,0,1,5",,"61,5",,"07,5,+00610,5,99,9","08,5,+03048,5,99,9",,"3,99,1,+00610,5,9","4,99,1,+03048,5,9",,,"9,AGL   ,+99999,+99999","99,99,9,99,9,99,9,00610,1,99,9,99,9",,,"10122,5,09467,5",,"61,5",,,,"MET09205/24/23 07:49:02 METAR PAPT 241649Z 18007KT 15SM -RA BKN020 OVC100 05/03 A2989 RMK NO SPECI","R01  15SM7VIS011R02    057TMP046R03    037DPT046"
"70249026526","2023-05-24T18:47:00","7","62.0911","-152.7349","566.3","PUNTILLA, AK US","FM-15","PAPT ","V020","170,5,N,0051,5","00610,5,M,N","016093,5,N,5","+0060,C","+0040,C","99999,9",,,,,,"1,0,02,0,0,1,5",,"61,5",,"07,5,+00610,5,99,9","08,5,+03048,5,99,9",,"3,99,1,+00610,5,9","4,99,1,+03048,5,9",,,"9,AGL   ,+99999,+99999","99,99,9,99,9,99,9,00610,1,99,9,99,9",,,"10119,5,09464,5",,"61,5",,,,"MET09205/24/23 09:47:02 METAR PAPT 241847Z 17010KT 10SM -RA BKN020 OVC100 06/04 A2988 RMK NO SPECI","R01    067TMP046R02    047DPT046"
"70249026526","2023-05-24T20:50:00","7","62.0911","-152.7349","566.3","PUNTILLA, AK US","FM-15","PAPT ","V020","170,5,N,0062,5","00914,5,M,N","024140,5,N,5","+0070,C","+0030,C","99999,9",,,,,,,,,,"07,5,+00914,5,99,9","08,5,+03048,5,99,9",,"3,99,1,+00914,5,9","4,99,1,+03048,5,9",,,"9,AGL   ,+99999,+99999","99,99,9,99,9,99,9,00914,1,99,9,99,9",,,"10119,5,09464,5",,,,,,"MET08805/24/23 11:50:02 METAR PAPT 242050Z 17012KT 15SM BKN030 OVC100 07/03 A2988 RMK NO SPECI","R01    077TMP046R02    037DPT046"
"70249026526","2023-05-24T22:53:00","7","62.0911","-152.7349","566.3","PUNTILLA, AK US","FM-15","PAPT ","V020","210,5,N,0051,5","00914,5,M,N","032187,5,N,5","+0070,C","+0030,C","99999,9","24,0012,3,1","0000,9,5,000000,9,9",,,,,,,,"07,5,+00914,5,99,9","08,5,+03048,5,99,9",,"3,99,1,+00914,5,9","4,99,1,+03048,5,9",,,"9,AGL   ,+99999,+99999","99,99,9,99,9,99,9,00914,1,99,9,99,9","240,M,+0072,1","240,N,+0028,1","10115,5,09461,5",,,,,,"MET11705/24/23 13:53:02 METAR PAPT 242253Z 21010KT 20SM BKN030 OVC100 07/03 A2987 RMK NO SPECI 400720028 70005 931000 4/000","R01    077TMP046R02    037DPT046"
"70249026526","2023-05-25T00:52:00","7","62.0911","-152.7349","566.3","PUNTILLA, AK US","FM-15","PAPT ","V020","200,5,N,0051,5","00914,5,M,N","032187,5,N,5","+0070,C","+0040,C","99999,9",,,,,,,,,,"07,5,+00914,5,99,9","08,5,+03048,5,99,9",,"3,99,1,+00914,5,9","4,99,1,+03048,5,9",,,"9,AGL   ,+99999,+99999","99,99,9,99,9,99,9,00914,1,99,9,99,9",,,"10112,5,09458,5",,,,,,"MET08805/24/23 15:52:01 METAR PAPT 250052Z 20010KT 20SM BKN030 OVC100 07/04 A2986 RMK NO SPECI","R01    077TMP046R02    047DPT046"
"70249026526","2023-05-25T02:50:00","7","62.0911","-152.7349","566.3","PUNTILLA, AK US","FM-15","PAPT ","V020","190,5,N,0062,5","00914,5,M,N","040234,5,N,5","+0080,C","+0030,C","99999,9",,,,,,,,,,"07,5,+00914,5,99,9","08,5,+03048,5,99,9",,"3,99,1,+00914,5,9","4,99,1,+03048,5,9",,,"9,AGL   ,+99999,+99999","99,99,9,99,9,99,9,00914,1,99,9,99,9",,,"10112,5,09458,5",,,,,,"MET09305/24/23 17:50:02 METAR PAPT 250250Z 19012KT 25SM BKN030 OVC100 08/03 A2986 RMK NO SPECI LAST","R01    087TMP046R02    037DPT046"
"70249026526","2023-05-25T08:59:00","O","62.0911","-152.7349","566.3","PUNTILLA, AK US","SOD  ","PAPT ","V020","999,9,9,9999,9","99999,9,9,9","999999,9,9,9","+9999,9","+9999,9","99999,9",,,"AU,16,RA  ,5",,,,,,,,,,,,,,,,,,,,,,,,,
"70249026526","2023-05-25T14:55:00","7","62.0911","-152.7349","566.3","PUNTILLA, AK US","FM-15","PAPT ","V020","340,5,N,0010,5","03048,5,M,N","040234,5,N,5","+0030,C","+0020,C","99999,9",,,,,,,,,,"02,5,+00305,5,99,9","04,5,+01829,5,99,9","07,5,+03048,5,99,9","1,99,1,+00305,5,9","2,99,1,+01829,5,9","3,99,1,+03048,5,9",,"9,AGL   ,+99999,+99999","99,99,9,99,9,99,9,00305,1,99,9,99,9",,,"10095,5,09442,5",,,,,,"MET10105/25/23 05:55:02 METAR PAPT 251455Z 34002KT 25SM FEW010 SCT060 BKN100 03/02 A2981 RMK NO SPECI FIRST","R01    037TMP046R02    027DPT046"
"70249026526","2023-05-25T16:47:00","7","62.0911","-152.7349","566.3","PUNTILLA, AK US","FM-15","PAPT ","V020","170,5,N,0031,5","03048,5,M,N","040234,5,N,5","+0030,C","+0020,C","99999,9",,,,,,,,,,"02,5,+00610,5,99,9","04,5,+02134,5,99,9","07,5,+03048,5,99,9","1,99,1,+00610,5,9","2,99,1,+02134,5,9","3,99,1,+03048,5,9",,"9,AGL   ,+99999,+99999","99,99,9,99,9,99,9,00610,1,99,9,99,9",,,"10085,5,09432,5",,,,,,"MET09505/25/23 07:47:02 METAR PAPT 251647Z 17006KT 25SM FEW020 SCT070 BKN100 03/02 A2978 RMK NO SPECI","R01    037TMP046R02    027DPT046"
"70249026526","2023-05-25T18:55:00","7","62.0911","-152.7349","566.3","PUNTILLA, AK US","FM-15","PAPT ","V020","180,5,N,0041,5","00914,5,M,N","016093,5,N,5","+0070,C","+0030,C","99999,9",,,,,,,,,,"08,5,+00914,5,99,9",,,"4,99,1,+00914,5,9",,,,"9,AGL   ,+99999,+99999","99,99,9,99,9,99,9,00914,1,99,9,99,9",,,"10068,5,09416,5",,,,,,"MET08105/25/23 09:55:02 METAR PAPT 251855Z 18008KT 10SM OVC030 07/03 A2973 RMK NO SPECI","R01    077TMP046R02    037DPT046"
"70249026526","2023-05-25T20:48:00","7","62.0911","-152.7349","566.3","PUNTILLA, AK US","FM-15","PAPT ","V020","170,5,N,0041,5","00914,5,M,N","016093,5,N,5","+0060,C","+0040,C","99999,9",,,,,,"1,0,02,0,0,1,5",,"61,5",,"08,5,+00914,5,99,9",,,"4,99,1,+00914,5,9",,,,"9,AGL   ,+99999,+99999","99,99,9,99,9,99,9,00914,1,99,9,99,9",,,"10054,5,09403,5",,"61,5",,,,"MET08505/25/23 11:48:02 METAR PAPT 252048Z 17008KT 10SM -RA OVC030 06/04 A2969 RMK NO SPECI","R01    067TMP046R02    047DPT046"
"70249026526","2023-05-25T22:54:00","7","62.0911","-152.7349","566.3","PUNTILLA, AK US","FM-15","PAPT ","V020","200,5,N,0041,5","00914,5,M,N","016093,5,N,5","+0060,C","+0040,C","99999,9","24,0020,3,1","0000,9,5,000000,9,9",,,,"1,0,02,0,0,1,5",,"61,5",,"08,5,+00914,5,99,9",,,"4,99,1,+00914,5,9",,,,"9,AGL   ,+99999,+99999","99,99,9,99,9,99,9,00914,1,99,9,99,9","240,M,+0061,1","240,N,+0028,1","10044,5,09393,5",,"61,5",,,,"MET11405/25/23 13:54:02 METAR PAPT 252254Z 20008KT 10SM -RA OVC030 06/04 A2966 RMK NO SPECI 400610028 70008 931000 4/000","R01    067TMP046R02    047DPT046"
"70249026526","2023-05-26T00:47:00","7","62.0911","-152.7349","566.3","PUNTILLA, AK US","FM-15","PAPT ","V020","190,5,N,0021,5","00914,5,M,N","016093,5,N,5","+0070,C","+0040,C","99999,9",,,,,,"1,0,02,0,0,1,5",,"61,5",,"08,5,+00914,5,99,9",,,"4,99,1,+00914,5,9",,,,"9,AGL   ,+99999,+99999","99,99,9,99,9,99,9,00914,1,99,9,99,9",,,"10020,5,09371,5",,"61,5",,,,"MET08505/25/23 15:47:01 METAR PAPT 260047Z 19004KT 10SM -RA OVC030 07/04 A2959 RMK NO SPECI","R01    077TMP046R02    047DPT046"
"70249026526","2023-05-26T02:48:00","7","62.0911","-152.7349","566.3","PUNTILLA, AK US","FM-15","PAPT ","V020","180,5,N,0041,5","00762,5,M,N","011265,5,N,5","+0070,C","+0050,C","99999,9",,,,,,"1,0,02,0,0,1,5",,"61,5",,"08,5,+00762,5,99,9",,,"4,99,1,+00762,5,9",,,,"9,AGL   ,+99999,+99999","99,99,9,99,9,99,9,00762,1,99,9,99,9",,,"10000,5,09352,5",,"61,5",,,,"MET08905/25/23 17:48:01 METAR PAPT 260248Z 18008KT 7SM -RA OVC025 07/05 A2953 RMK NO SPECI LAST","R01    077TMP046R02    057DPT046"
"70249026526","2023-05-26T08:59:00","O","62.0911","-152.7349","566.3","PUNTILLA, AK US","SOD  ","PAPT ","V020","999,9,9,9999,9","99999,9,9,9","999999,9,9,9","+9999,9","+9999,9","99999,9",,,"AU,16,RA  ,5",,,,,,,,,,,,,,,,,,,,,,,,,
"70249026526","2023-05-26T14:53:00","7","62.0911","-152.7349","566.3","PUNTILLA, AK US","FM-15","PAPT ","V020","190,5,N,0031,5","00762,5,M,N","011265,5,N,5","+0050,C","+0030,C","99999,9",,,,,,"1,0,02,0,0,1,5",,"61,5",,"08,5,+00762,5,99,9",,,"4,99,1,+00762,5,9",,,,"9,AGL   ,+99999,+99999","99,99,9,99,9,99,9,00762,1,99,9,99,9",,,"09966,5,09320,5",,"61,5",,,,"MET09005/26/23 05:53:02 METAR PAPT 261453Z 19006KT 7SM -RA OVC025 05/03 A2943 RMK NO SPECI FIRST","R01    057TMP046R02    037DPT046"
"70249026526","2023-05-26T16:47:00","7","62.0911","-152.7349","566.3","PUNTILLA, AK US","FM-15","PAPT ","V020","180,5,N,0051,5","22000,5,9,N","032187,5,N,5","+0070,C","+0040,C","99999,9",,,,,,,,,,"02,5,+01524,5,99,9","04,5,+03048,5,99,9",,"1,99,1,+01524,5,9","2,99,1,+03048,5,9",,,"9,AGL   ,+99999,+99999","04,99,5,99,9,99,9,01524,1,99,9,99,9",,,"09963,5,09316,5",,,,,,"MET08805/26/23 07:47:02 METAR PAPT 261647Z 18010KT 20SM FEW050 SCT100 07/04 A2942 RMK NO SPECI","R01    077TMP046R02    047DPT046D01      0ADE726"
"70249026526","2023-05-26T18:50:00","7","62.0911","-152.7349","566.3","PUNTILLA, AK US","FM-15","PAPT ","V020","160,5,N,0093,5","01829,5,M,N","040234,5,N,5","+0090,C","+0000,C","99999,9",,,,,,,,,,"07,5,+01829,5,99,9",,,"3,99,1,+01829,5,9",,,,"9,AGL   ,+99999,+99999","99,99,9,99,9,99,9,01829,1,99,9,99,9",,,"09970,5,09323,5",,,,,,"MET08105/26/23 09:50:02 METAR PAPT 261850Z 16018KT 25SM BKN060 09/00 A2944 RMK NO SPECI","R01    097TMP046R02    007DPT046"
"70249026526","2023-05-26T20:52:00","7","62.0911","-152.7349","566.3","PUNTILLA, AK US","FM-15","PAPT ","V020","170,5,N,0077,5","01829,5,M,N","040234,5,N,5","+0090,C","+0020,C","99999,9",,,,,,,,,,"07,5,+01829,5,99,9",,,"3,99,1,+01829,5,9",,,,"9,AGL   ,+99999,+99999","99,99,9,99,9,99,9,01829,1,99,9,99,9",,,"09973,5,09326,5",,,,,,"MET08105/26/23 11:52:02 METAR PAPT 262052Z 17015KT 25SM BKN060 09/02 A2945 RMK NO SPECI","R01    097TMP046R02    027DPT046"
"70249026526","2023-05-26T22:50:00","7","62.0911","-152.7349","566.3","PUNTILLA, AK US","FM-15","PAPT ","V020","170,5,N,0051,5","03048,5,M,N","040234,5,N,5","+0090,C","+0010,C","99999,9","24,0058,3,1","0000,9,5,000000,9,9",,,,,,,,"04,5,+01829,5,99,9","07,5,+03048,5,99,9",,"2,99,1,+01829,5,9","3,99,1,+03048,5,9",,,"9,AGL   ,+99999,+99999","99,99,9,99,9,99,9,01829,1,99,9,99,9","240,M,+0094,1","240,N,+0050,1","09976,5,09329,5",,,,,,"MET11705/26/23 13:50:02 METAR PAPT 262250Z 17010KT 25SM SCT060 BKN100 09/01 A2946 RMK NO SPECI 400940050 70023 931000 4/000","R01    097TMP046R02    017DPT046"
"70249026526","2023-05-27T00:49:00","7","62.0911","-152.7349","566.3","PUNTILLA, AK US","FM-15","PAPT ","V020","160,5,N,0062,5","01829,5,M,N","040234,5,N,5","+0090,C","+0000,C","99999,9",,,,,,,,,,"07,5,+01829,5,99,9","08,5,+03048,5,99,9",,"3,99,1,+01829,5,9","4,99,1,+03048,5,9",,,"9,AGL   ,+99999,+99999","99,99,9,99,9,99,9,01829,1,99,9,99,9",,,"09983,5,09336,5",,,,,,"MET08805/26/23 15:49:01 METAR PAPT 270049Z 16012KT 25SM BKN060 OVC100 09/00 A2948 RMK NO SPECI","R01    097TMP046R02    007DPT046"
"70249026526","2023-05-27T02:54:00","7","62.0911","-152.7349","566.3","PUNTILLA, AK US","FM-15","PAPT ","V020","170,5,N,0103,5","01829,5,M,N","040234,5,N,5","+0090,C","+0000,C","99999,9",,,,,,,,,,"07,5,+01829,5,99,9",,,"3,99,1,+01829,5,9",,,,"9,AGL   ,+99999,+99999","99,99,9,99,9,99,9,01829,1,99,9,99,9",,,"09986,5,09339,5",,,,,,"MET08605/26/23 17:54:01 METAR PAPT 270254Z 17020KT 25SM BKN060 09/00 A2949 RMK NO SPECI LAST","R01    097TMP046R02    007DPT046"
"70249026526","2023-05-27T08:59:00","O","62.0911","-152.7349","566.3","PUNTILLA, AK US","SOD  ","PAPT ","V020","999,9,9,9999,9","99999,9,9,9","999999,9,9,9","+9999,9","+9999,9","99999,9",,,"AU,16,RA  ,5",,,,,,,,,,,,,,,,,,,,,,,,,
"70249026526","2023-05-27T14:53:00","7","62.0911","-152.7349","566.3","PUNTILLA, AK US","FM-15","PAPT ","V020","180,5,N,0041,5","02134,5,M,N","040234,5,N,5","+0040,C","-0030,C","99999,9",,,,,,,,,,"07,5,+02134,5,99,9","08,5,+03048,5,99,9",,"3,99,1,+02134,5,9","4,99,1,+03048,5,9",,,"9,AGL   ,+99999,+99999","99,99,9,99,9,99,9,02134,1,99,9,99,9",,,"09993,5,09345,5",,,,,,"MET09505/27/23 05:53:02 METAR PAPT 271453Z 18008KT 25SM BKN070 OVC100 04/M03 A2951 RMK NO SPECI FIRST","R01    047TMP046R02   M037DPT046"
"70249026526","2023-05-27T16:48:00","7","62.0911","-152.7349","566.3","PUNTILLA, AK US","FM-15","PAPT ","V020","170,5,N,0031,5","02134,5,M,N","040234,5,N,5","+0050,C","-0010,C","99999,9",,,,,,,,,,"07,5,+02134,5,99,9","08,5,+03048,5,99,9",,"3,99,1,+02134,5,9","4,99,1,+03048,5,9",,,"9,AGL   ,+99999,+99999","99,99,9,99,9,99,9,02134,1,99,9,99,9",,,"09990,5,09342,5",,,,,,"MET08905/27/23 07:48:02 METAR PAPT 271648Z 17006KT 25SM BKN070 OVC100 05/M01 A2950 RMK NO SPECI","R01    057TMP046R02   M017DPT046"
"70249026526","2023-05-27T18:50:00","7","62.0911","-152.7349","566.3","PUNTILLA, AK US","FM-15","PAPT ","V020","180,5,N,0077,5","03048,5,M,N","040234,5,N,5","+0050,C","-0010,C","99999,9",,,,,,,,,,"04,5,+02134,5,99,9","07,5,+03048,5,99,9",,"2,99,1,+02134,5,9","3,99,1,+03048,5,9",,,"9,AGL   ,+99999,+99999","99,99,9,99,9,99,9,02134,1,99,9,99,9",,,"09980,5,09332,5",,,,,,"MET08905/27/23 09:50:02 METAR PAPT 271850Z 18015KT 25SM SCT070 BKN100 05/M01 A2947 RMK NO SPECI","R01    057TMP046R02   M017DPT046"
"70249026526","2023-05-27T20:50:00","7","62.0911","-152.7349","566.3","PUNTILLA, AK US","FM-15","PAPT ","V020","180,5,N,0077,5","03048,5,M,N","040234,5,N,5","+0080,C","-0020,C","99999,9",,,,,,,,,,"04,5,+02134,5,99,9","07,5,+03048,5,99,9",,"2,99,1,+02134,5,9","3,99,1,+03048,5,9",,,"9,AGL   ,+99999,+99999","99,99,9,99,9,99,9,02134,1,99,9,99,9",,,"09970,5,09323,5",,,,,,"MET08905/27/23 11:50:02 METAR PAPT 272050Z 18015KT 25SM SCT070 BKN100 08/M02 A2944 RMK NO SPECI","R01    087TMP046R02   M027DPT046"
"70249026526","2023-05-27T22:57:00","7","62.0911","-152.7349","566.3","PUNTILLA, AK US","FM-15","PAPT ","V020","050,5,N,0051,5","03048,5,M,N","040234,5,N,5","+0090,C","-0010,C","99999,9","24,0000,9,1","0000,9,5,000000,9,9",,,,,,,,"04,5,+01524,5,99,9","07,5,+03048,5,99,9",,"2,99,1,+01524,5,9","3,99,1,+03048,5,9",,,"9,AGL   ,+99999,+99999","99,99,9,99,9,99,9,01524,1,99,9,99,9","240,M,+0094,1","240,N,+0044,1","09956,5,09310,5",,,,,,"MET11805/27/23 13:57:02 METAR PAPT 272257Z 05010KT 25SM SCT050 BKN100 09/M01 A2940 RMK NO SPECI 400940044 70000 931000 4/000","Q01  00002PRCP24R01    097TMP046R02   M017DPT046"
"70249026526","2023-05-28T00:52:00","7","62.0911","-152.7349","566.3","PUNTILLA, AK US","FM-15","PAPT ","V020","050,5,N,0051,5","02134,5,M,N","040234,5,N,5","+0100,C","+0020,C","99999,9",,,,,,,,,,"07,5,+02134,5,99,9","08,5,+03048,5,99,9",,"3,99,1,+02134,5,9","4,99,1,+03048,5,9",,,"9,AGL   ,+99999,+99999","99,99,9,99,9,99,9,02134,1,99,9,99,9",,,"09946,5,09300,5",,,,,,"MET08805/27/23 15:52:01 METAR PAPT 280052Z 05010KT 25SM BKN070 OVC100 10/02 A2937 RMK NO SPECI","R01    107TMP046R02    027DPT046"
"70249026526","2023-05-28T02:49:00","7","62.0911","-152.7349","566.3","PUNTILLA, AK US","FM-15","PAPT ","V020","180,5,N,0026,5","02134,5,M,N","040234,5,N,5","+0090,C","-0010,C","99999,9",,,,,,,,,,"07,5,+02134,5,99,9",,,"3,99,1,+02134,5,9",,,,"9,AGL   ,+99999,+99999","99,99,9,99,9,99,9,02134,1,99,9,99,9",,,"09939,5,09294,5",,,,,,"MET08705/27/23 17:49:02 METAR PAPT 280249Z 18005KT 25SM BKN070 09/M01 A2935 RMK NO SPECI LAST","R01    097TMP046R02   M017DPT046"
"70249026526","2023-05-28T14:53:00","7","62.0911","-152.7349","566.3","PUNTILLA, AK US","FM-15","PAPT ","V020","170,5,N,0010,5","00762,5,W,N","024140,7,N,5","+0040,C","+0010,C","99999,9",,,,,,"1,0,02,0,0,1,5",,"61,5",,"09,5,+00762,5,99,9",,,"5,99,1,+00762,5,9",,,,"9,AGL   ,+99999,+99999","09,99,1,99,9,99,9,00762,1,99,9,99,9",,,"09946,5,09300,5",,"61,5",,,,"MET09005/28/23 05:53:01 METAR PAPT 281453Z 17002KT 15SM -RA VV025 04/01 A2937 RMK NO SPECI FIRST","R01  15SM7VIS011R02    047TMP046R03    017DPT046"
"70249026526","2023-05-28T16:50:00","7","62.0911","-152.7349","566.3","PUNTILLA, AK US","FM-15","PAPT ","V020","180,5,N,0031,5","00762,5,W,N","016093,5,N,5","+0050,C","+0030,C","99999,9",,,,,,"1,0,02,0,0,1,5",,"61,5",,"09,5,+00762,5,99,9",,,"5,99,1,+00762,5,9",,,,"9,AGL   ,+99999,+99999","09,99,1,99,9,99,9,00762,1,99,9,99,9",,,"09956,5,09310,5",,"61,5",,,,"MET08405/28/23 07:50:01 METAR PAPT 281650Z 18006KT 10SM -RA VV025 05/03 A2940 RMK NO SPECI","R01    057TMP046R02    037DPT046"
"70249026526","2023-05-28T18:48:00","7","62.0911","-152.7349","566.3","PUNTILLA, AK US","FM-15","PAPT ","V020","170,5,N,0041,5","00762,5,M,N","024140,5,N,5","+0070,C","+0030,C","99999,9",,,,,,,,,,"07,5,+00762,5,99,9","08,5,+03048,5,99,9",,"3,99,1,+00762,5,9","4,99,1,+03048,5,9",,,"9,AGL   ,+99999,+99999","99,99,9,99,9,99,9,00762,1,99,9,99,9",,,"09959,5,09313,5",,,,,,"MET08805/28/23 09:48:01 METAR PAPT 281848Z 17008KT 15SM BKN025 OVC100 07/03 A2941 RMK NO SPECI","R01    077TMP046R02    037DPT046"
"70249026526","2023-05-28T20:49:00","7","62.0911","-152.7349","566.3","PUNTILLA, AK US","FM-15","PAPT ","V020","190,5,N,0026,5","01067,5,M,N","040234,5,N,5","+0080,C","+0040,C","99999,9",,,,,,,,,,"07,5,+01067,5,99,9",,,"3,99,1,+01067,5,9",,,,"9,AGL   ,+99999,+99999","99,99,9,99,9,99,9,01067,1,99,9,99,9",,,"09959,5,09313,5",,,,,,"MET08105/28/23 11:49:01 METAR PAPT 282049Z 19005KT 25SM BKN035 08/04 A2941 RMK NO SPECI","R01    087TMP046R02    047DPT046"
"70249026526","2023-05-28T22:46:00","7","62.0911","-152.7349","566.3","PUNTILLA, AK US","FM-15","PAPT ","V020","220,5,N,0021,5","01829,5,M,N","040234,5,N,5","+0090,C","+0010,C","99999,9",,"0000,9,5,000000,9,9",,,,,,,,"07,5,+01829,5,99,9",,,"3,99,1,+01829,5,9",,,,"9,AGL   ,+99999,+99999","99,99,9,99,9,99,9,01829,1,99,9,99,9","240,M,+0094,1","240,N,+0039,1","09963,5,09316,5",,,,,,"MET11105/28/23 13:46:02 METAR PAPT 282246Z 22004KT 25SM BKN060 09/01 A2942 RMK NO SPECI 400940039 731003 931000 4/000","R01    097TMP046R02    017DPT046"
"70249026526","2023-05-29T00:47:00","7","62.0911","-152.7349","566.3","PUNTILLA, AK US","FM-15","PAPT ","V020","340,5,N,0051,5","01829,5,M,N","040234,5,N,5","+0100,C","+0030,C","99999,9",,,,,,,,,,"07,5,+01829,5,99,9","08,5,+03048,5,99,9",,"3,99,1,+01829,5,9","4,99,1,+03048,5,9",,,"9,AGL   ,+99999,+99999","99,99,9,99,9,99,9,01829,1,99,9,99,9",,,"09963,5,09316,5",,,,,,"MET08805/28/23 15:47:01 METAR PAPT 290047Z 34010KT 25SM BKN060 OVC100 10/03 A2942 RMK NO SPECI","R01    107TMP046R02    037DPT046"
"70249026526","2023-05-29T02:47:00","7","62.0911","-152.7349","566.3","PUNTILLA, AK US","FM-15","PAPT ","V020","040,5,N,0026,5","02134,5,M,N","040234,5,N,5","+0120,C","+0040,C","99999,9",,,,,,,,,,"07,5,+02134,5,99,9",,,"3,99,1,+02134,5,9",,,,"9,AGL   ,+99999,+99999","99,99,9,99,9,99,9,02134,1,99,9,99,9",,,"09966,5,09320,5",,,,,,"MET08605/28/23 17:47:01 METAR PAPT 290247Z 04005KT 25SM BKN070 12/04 A2943 RMK NO SPECI LAST","R01    127TMP046R02    047DPT046"
"70249026526","2023-05-29T08:59:00","O","62.0911","-152.7349","566.3","PUNTILLA, AK US","SOD  ","PAPT ","V020","999,9,9,9999,9","99999,9,9,9","999999,9,9,9","+9999,9","+9999,9","99999,9",,,"AU,16,RA  ,5",,,,,,,,,,,,,,,,,,,,,,,,,
"70249026526","2023-05-29T14:55:00","7","62.0911","-152.7349","566.3","PUNTILLA, AK US","FM-15","PAPT ","V020","010,5,N,0010,5","03048,5,M,N","040234,7,N,5","+0030,C","+0010,C","99999,9",,,,,,"1,0,02,0,0,1,5",,"61,5",,"02,5,+00762,5,99,9","07,5,+03048,5,99,9",,"1,99,1,+00762,5,9","3,99,1,+03048,5,9",,,"9,AGL   ,+99999,+99999","99,99,9,99,9,99,9,00762,1,99,9,99,9",,,"10010,5,09361,5",,"61,5",,,,"MET09805/29/23 05:55:02 METAR PAPT 291455Z 01002KT 25SM -RA FEW025 BKN100 03/01 A2956 RMK NO SPECI FIRST","R01  25SM7VIS011R02    037TMP046R03    017DPT046"
"70249026526","2023-05-29T16:46:00","7","62.0911","-152.7349","566.3","PUNTILLA, AK US","FM-15","PAPT ","V020","180,5,N,0026,5","03048,5,M,N","040234,7,N,5","+0050,C","+0030,C","99999,9",,,,,,"1,0,02,0,0,1,5",,"61,5",,"02,5,+00762,5,99,9","07,5,+03048,5,99,9",,"1,99,1,+00762,5,9","3,99,1,+03048,5,9",,,"9,AGL   ,+99999,+99999","99,99,9,99,9,99,9,00762,1,99,9,99,9",,,"10017,5,09368,5",,"61,5",,,,"MET09205/29/23 07:46:02 METAR PAPT 291646Z 18005KT 25SM -RA FEW025 BKN100 05/03 A2958 RMK NO SPECI","R01  25SM7VIS011R02    057TMP046R03    037DPT046"
"70249026526","2023-05-29T18:47:00","7","62.0911","-152.7349","566.3","PUNTILLA, AK US","FM-15","PAPT ","V020","340,5,N,0021,5","01219,5,M,N","040234,7,N,5","+0070,C","+0020,C","99999,9",,,,,,"1,0,02,0,0,1,5",,"61,5",,"07,5,+01219,5,99,9","08,5,+03048,5,99,9",,"3,99,1,+01219,5,9","4,99,1,+03048,5,9",,,"9,AGL   ,+99999,+99999","99,99,9,99,9,99,9,01219,1,99,9,99,9",,,"10020,5,09371,5",,"61,5",,,,"MET09205/29/23 09:47:02 METAR PAPT 291847Z 34004KT 25SM -RA BKN040 OVC100 07/02 A2959 RMK NO SPECI","R01  25SM7VIS011R02    077TMP046R03    027DPT046"
"70249026526","2023-05-29T20:49:00","7","62.0911","-152.7349","566.3","PUNTILLA, AK US","FM-15","PAPT ","V020","180,5,N,0010,5","02134,5,M,N","040234,5,N,5","+0090,C","+0040,C","99999,9",,,,,,,,,,"07,5,+02134,5,99,9",,,"3,99,1,+02134,5,9",,,,"9,AGL   ,+99999,+99999","99,99,9,99,9,99,9,02134,1,99,9,99,9",,,"10020,5,09371,5",,,,,,"MET08105/29/23 11:49:02 METAR PAPT 292049Z 18002KT 25SM BKN070 09/04 A2959 RMK NO SPECI","R01    097TMP046R02    047DPT046"
"70249026526","2023-05-29T22:48:00","7","62.0911","-152.7349","566.3","PUNTILLA, AK US","FM-15","PAPT ","V020","190,5,N,0051,5","02134,5,M,N","040234,5,N,5","+0110,C","+0020,C","99999,9","24,0000,2,1","0000,9,5,000000,9,9",,,,,,,,"07,5,+02134,5,99,9",,,"3,99,1,+02134,5,9",,,,"9,AGL   ,+99999,+99999","99,99,9,99,9,99,9,02134,1,99,9,99,9","240,M,+0106,1","240,N,+0033,1","10024,5,09374,5",,,,,,"MET11005/29/23 13:48:02 METAR PAPT 292248Z 19010KT 25SM BKN070 11/02 A2960 RMK NO SPECI 401060033 70000 931000 4/000","R01    117TMP046R02    027DPT046"
"70249026526","2023-05-30T00:49:00","7","62.0911","-152.7349","566.3","PUNTILLA, AK US","FM-15","PAPT ","V020","010,5,N,0051,5","02134,5,M,N","040234,5,N,5","+0090,C","+0020,C","99999,9",,,,,,,,,,"07,5,+02134,5,99,9",,,"3,99,1,+02134,5,9",,,,"9,AGL   ,+99999,+99999","99,99,9,99,9,99,9,02134,1,99,9,99,9",,,"10030,5,09381,5",,,,,,"MET08105/29/23 15:49:01 METAR PAPT 300049Z 01010KT 25SM BKN070 09/02 A2962 RMK NO SPECI","R01    097TMP046R02    027DPT046"
"70249026526","2023-05-30T02:47:00","7","62.0911","-152.7349","566.3","PUNTILLA, AK US","FM-15","PAPT ","V020","350,5,N,0026,5","02134,5,M,N","040234,7,N,5","+0090,C","+0070,C","99999,9",,,,,,"1,0,02,0,0,1,5",,"61,5",,"07,5,+02134,5,99,9","08,5,+03048,5,99,9",,"3,99,1,+02134,5,9","4,99,1,+03048,5,9",,,"9,AGL   ,+99999,+99999","99,99,9,99,9,99,9,02134,1,99,9,99,9",,,"10030,5,09381,5",,"61,5",,,,"MET09705/29/23 17:47:01 METAR PAPT 300247Z 35005KT 25SM -RA BKN070 OVC100 09/07 A2962 RMK NO SPECI LAST","R01  25SM7VIS011R02    097TMP046R03    077DPT046"
"70249026526","2023-05-30T08:59:00","O","62.0911","-152.7349","566.3","PUNTILLA, AK US","SOD  ","PAPT ","V020","999,9,9,9999,9","99999,9,9,9","999999,9,9,9","+9999,9","+9999,9","99999,9",,,"AU,16,RA  ,5",,,,,,,,,,,,,,,,,,,,,,,,,
"70249026526","2023-05-30T14:50:00","7","62.0911","-152.7349","566.3","PUNTILLA, AK US","FM-15","PAPT ","V020","180,5,N,0010,5","02438,5,M,N","040234,5,N,5","+0040,C","+0010,C","99999,9",,,,,,,,,,"02,5,+00610,5,99,9","07,5,+02438,5,99,9",,"1,99,1,+00610,5,9","3,99,1,+02438,5,9",,,"9,AGL   ,+99999,+99999","99,99,9,99,9,99,9,00610,1,99,9,99,9",,,"10037,5,09387,5",,,,,,"MET09405/30/23 05:50:02 METAR PAPT 301450Z 18002KT 25SM FEW020 BKN080 04/01 A2964 RMK NO SPECI FIRST","R01    047TMP046R02    017DPT046"
"70249026526","2023-05-30T16:52:00","7","62.0911","-152.7349","566.3","PUNTILLA, AK US","FM-15","PAPT ","V020","170,5,N,0041,5","00305,5,W,N","008047,5,N,5","+0040,C","+0010,C","99999,9",,,,,,,,,,"09,5,+00305,5,99,9",,,"5,99,1,+00305,5,9",,,,"9,AGL   ,+99999,+99999","09,99,1,99,9,99,9,00305,1,99,9,99,9",,,"10037,5,09387,5",,,,,,"MET07905/30/23 07:52:02 METAR PAPT 301652Z 17008KT 5SM VV010 04/01 A2964 RMK NO SPECI","R01    047TMP046R02    017DPT046"
"70249026526","2023-05-30T18:47:00","7","62.0911","-152.7349","566.3","PUNTILLA, AK US","FM-15","PAPT ","V020","170,5,N,0041,5","00457,5,M,N","008047,5,N,5","+0040,C","+0020,C","99999,9",,,,,,,,,,"08,5,+00457,5,99,9",,,"4,99,1,+00457,5,9",,,,"9,AGL   ,+99999,+99999","99,99,9,99,9,99,9,00457,1,99,9,99,9",,,"10044,5,09393,5",,,,,,"MET08005/30/23 09:47:02 METAR PAPT 301847Z 17008KT 5SM OVC015 04/02 A2966 RMK NO SPECI","R01    047TMP046R02    027DPT046"
"70249026526","2023-05-30T20:47:00","7","62.0911","-152.7349","566.3","PUNTILLA, AK US","FM-15","PAPT ","V020","170,5,N,0051,5","00305,5,W,N","004828,5,N,5","+0040,C","+0030,C","99999,9",,,,,,"1,0,02,0,0,1,5",,"61,5",,"09,5,+00305,5,99,9",,,"5,99,1,+00305,5,9",,,,"9,AGL   ,+99999,+99999","09,99,1,99,9,99,9,00305,1,99,9,99,9",,,"10047,5,09397,5",,"61,5",,,,"MET08305/30/23 11:47:02 METAR PAPT 302047Z 17010KT 3SM -RA VV010 04/03 A2967 RMK NO SPECI","R01    047TMP046R02    037DPT046"
"70249026526","2023-05-30T22:49:00","7","62.0911","-152.7349","566.3","PUNTILLA, AK US","FM-15","PAPT ","V020","190,5,N,0062,5","00457,5,M,N","008047,5,N,5","+0050,C","+0030,C","99999,9","24,0020,3,1","0000,9,5,000000,9,9",,,,"1,0,02,0,0,1,5",,"61,5",,"08,5,+00457,5,99,9",,,"4,99,1,+00457,5,9",,,,"9,AGL   ,+99999,+99999","99,99,9,99,9,99,9,00457,1,99,9,99,9","240,M,+0050,1","240,N,+0039,1","10051,5,09400,5",,"61,5",,,,"MET11305/30/23 13:49:02 METAR PAPT 302249Z 19012KT 5SM -RA OVC015 05/03 A2968 RMK NO SPECI 400500039 70008 931000 4/000","R01    057TMP046R02    037DPT046"
"70249026526","2023-05-31T00:47:00","7","62.0911","-152.7349","566.3","PUNTILLA, AK US","FM-15","PAPT ","V020","180,5,N,0041,5","00610,5,M,N","024140,5,N,5","+0060,C","+0040,C","99999,9",,,,,,,,,,"07,5,+00610,5,99,9","08,5,+03048,5,99,9",,"3,99,1,+00610,5,9","4,99,1,+03048,5,9",,,"9,AGL   ,+99999,+99999","99,99,9,99,9,99,9,00610,1,99,9,99,9",,,"10051,5,09400,5",,,,,,"MET08805/30/23 15:47:01 METAR PAPT 310047Z 18008KT 15SM BKN020 OVC100 06/04 A2968 RMK NO SPECI","R01    067TMP046R02    047DPT046"
"70249026526","2023-05-31T02:50:00","7","62.0911","-152.7349","566.3","PUNTILLA, AK US","FM-15","PAPT ","V020","180,5,N,0051,5","01524,5,M,N","032187,5,N,5","+0080,C","+0030,C","99999,9",,,,,,,,,,"07,5,+01524,5,99,9",,,"3,99,1,+01524,5,9",,,,"9,AGL   ,+99999,+99999","99,99,9,99,9,99,9,01524,1,99,9,99,9",,,"10051,5,09400,5",,,,,,"MET08605/30/23 17:50:01 METAR PAPT 310250Z 18010KT 20SM BKN050 08/03 A2968 RMK NO SPECI LAST","R01    087TMP046R02    037DPT046"
"70249026526","2023-05-31T08:59:00","O","62.0911","-152.7349","566.3","PUNTILLA, AK US","SOD  ","PAPT ","V020","999,9,9,9999,9","99999,9,9,9","999999,9,9,9","+9999,9","+9999,9","99999,9",,,"AU,16,RA  ,5",,,,,,,,,,,,,,,,,,,,,,,,,
"70249026526","2023-05-31T16:47:00","7","62.0911","-152.7349","566.3","PUNTILLA, AK US","FM-15","PAPT ","V020","360,5,N,0021,5","03048,5,M,N","040234,5,N,5","+0060,C","+0060,C","99999,9",,,,,,,,,,"04,5,+01829,5,99,9","08,5,+03048,5,99,9",,"2,99,1,+01829,5,9","4,99,1,+03048,5,9",,,"9,AGL   ,+99999,+99999","99,99,9,99,9,99,9,01829,1,99,9,99,9",,,"10064,5,09413,5",,,,,,"MET08805/31/23 07:47:02 METAR PAPT 311647Z 36004KT 25SM SCT060 OVC100 06/06 A2972 RMK NO SPECI","R01    067TMP046R02    067DPT046"
"70249026526","2023-05-31T18:48:00","7","62.0911","-152.7349","566.3","PUNTILLA, AK US","FM-15","PAPT ","V020","350,5,N,0041,5","03048,5,M,N","040234,5,N,5","+0090,C","+0010,C","99999,9",,,,,,,,,,"04,5,+01829,5,99,9","08,5,+03048,5,99,9",,"2,99,1,+01829,5,9","4,99,1,+03048,5,9",,,"9,AGL   ,+99999,+99999","99,99,9,99,9,99,9,01829,1,99,9,99,9",,,"10061,5,09409,5",,,,,,"MET08805/31/23 09:48:02 METAR PAPT 311848Z 35008KT 25SM SCT060 OVC100 09/01 A2971 RMK NO SPECI","R01    097TMP046R02    017DPT046"
"70249026526","2023-05-31T20:46:00","7","62.0911","-152.7349","566.3","PUNTILLA, AK US","FM-15","PAPT ","V020","340,5,N,0041,5","03048,5,M,N","016093,5,N,5","+0090,C","+0020,C","99999,9",,,,,,"1,0,02,0,0,1,5",,"61,5",,"04,5,+01829,5,99,9","08,5,+03048,5,99,9",,"2,99,1,+01829,5,9","4,99,1,+03048,5,9",,,"9,AGL   ,+99999,+99999","99,99,9,99,9,99,9,01829,1,99,9,99,9",,,"10064,5,09413,5",,"61,5",,,,"MET09205/31/23 11:46:02 METAR PAPT 312046Z 34008KT 10SM -RA SCT060 OVC100 09/02 A2972 RMK NO SPECI","R01    097TMP046R02    027DPT046"
"70249026526","2023-06-01T08:59:00","O","62.0911","-152.7349","566.3","PUNTILLA, AK US","SOD  ","PAPT ","V020","999,9,9,9999,9","99999,9,9,9","999999,9,9,9","+9999,9","+9999,9","99999,9",,,"AU,16,RA  ,5",,,,,,,,,,,,,,,,,,,,,,,,,
"70249026526","2023-06-01T14:45:00","7","62.0911","-152.7349","566.3","PUNTILLA, AK US","FM-15","PAPT ","V020","350,5,N,0026,5","02438,5,M,N","040234,5,N,5","+0020,C","-0010,C","99999,9",,,,,,,,,,"07,5,+02438,5,99,9",,,"3,99,1,+02438,5,9",,,,"9,AGL   ,+99999,+99999","99,99,9,99,9,99,9,02438,1,99,9,99,9",,,"10105,5,09451,5",,,,,,"MET08806/01/23 05:45:02 METAR PAPT 011445Z 35005KT 25SM BKN080 02/M01 A2984 RMK NO SPECI FIRST","R01    027TMP046R02   M017DPT046"
"70249026526","2023-06-01T16:53:00","4","62.0911","-152.7349","566.3","PUNTILLA, AK US","FM-15","99999","V020","350,1,N,0026,1","03048,1,9,N","040234,1,9,9","+0050,1","-0010,1","99999,9",,,,,,,,,,,,,"3,99,1,+03048,9,9",,,,"9,AGL   ,+99999,+99999","99,99,9,99,9,99,9,03048,1,99,9,99,9",,,"10102,1,99999,9",,,,,,"MET065METAR PAPT 011653Z 35005KT 25SM BKN100 05/M01 A2983 RMK NO SPECI=",
"70249026526","2023-06-01T18:57:00","7","62.0911","-152.7349","566.3","PUNTILLA, AK US","FM-15","PAPT ","V020","350,5,N,0026,5","02438,5,M,N","040234,7,N,5","+0060,C","+0020,C","99999,9",,,,,,"1,0,02,0,0,1,5",,"61,5",,"02,5,+01829,5,99,9","07,5,+02438,5,99,9",,"1,99,1,+01829,5,9","3,99,1,+02438,5,9",,,"9,AGL   ,+99999,+99999","99,99,9,99,9,99,9,01829,1,99,9,99,9",,,"10102,5,09448,5",,"61,5",,,,"MET09206/01/23 09:57:01 METAR PAPT 011857Z 35005KT 25SM -RA FEW060 BKN080 06/02 A2983 RMK NO SPECI","R01  25SM7VIS011R02    067TMP046R03    027DPT046"
"70249026526","2023-06-01T20:48:00","4","62.0911","-152.7349","566.3","PUNTILLA, AK US","FM-15","99999","V020","350,1,N,0021,1","02438,1,9,N","040234,1,9,9","+0070,1","+0050,1","99999,9",,,,,,,,,,,,,"1,99,1,+00610,1,9","2,99,1,+01829,1,9","3,99,1,+02438,1,9",,"9,AGL   ,+99999,+99999","99,99,9,99,9,99,9,00610,1,99,9,99,9",,,"10098,1,99999,9",,,,,,"MET078METAR PAPT 012048Z 35004KT 25SM FEW020 SCT060 BKN080 07/05 A2982 RMK SPECI NO=",
"70249026526","2023-06-01T22:45:00","7","62.0911","-152.7349","566.3","PUNTILLA, AK US","FM-15","PAPT ","V020","190,5,N,0041,5","02438,5,M,N","040234,7,N,5","+0080,C","+0050,C","99999,9","24,0000,2,1","0000,9,5,000000,9,9",,,,"2,0,01,0,0,1,5",,"52,5",,"02,5,+00762,5,99,9","04,5,+01829,5,99,9","07,5,+02438,5,99,9","1,99,1,+00762,5,9","2,99,1,+01829,5,9","3,99,1,+02438,5,9",,"9,AGL   ,+99999,+99999","99,99,9,99,9,99,9,00762,1,99,9,99,9","240,M,+0078,1","240,N,+0023,1","10081,5,09429,5",,"53,1","55,5",,,"MET12706/01/23 13:45:01 METAR PAPT 012245Z 19008KT 25SM DZ FEW025 SCT060 BKN080 08/05 A2977 RMK NO SPECI 400780023 70000 931000 4/000","R01  25SM7VIS011R02    087TMP046R03    057DPT046"
"70249026526","2023-06-02T00:47:00","7","62.0911","-152.7349","566.3","PUNTILLA, AK US","FM-15","PAPT ","V020","180,5,N,0031,5","02438,5,M,N","040234,7,N,5","+0070,C","+0040,C","99999,9",,,,,,"2,0,02,0,0,1,5",,"62,5",,"02,5,+00762,5,99,9","04,5,+01676,5,99,9","08,5,+02438,5,99,9","1,99,1,+00762,5,9","2,99,1,+01676,5,9","4,99,1,+02438,5,9",,"9,AGL   ,+99999,+99999","99,99,9,99,9,99,9,00762,1,99,9,99,9",,,"10071,5,09419,5",,"63,1","65,5",,,"MET09806/01/23 15:47:01 METAR PAPT 020047Z 18006KT 25SM RA FEW025 SCT055 OVC080 07/04 A2974 RMK NO SPECI","R01  25SM7VIS011R02    077TMP046R03    047DPT046"
"70249026526","2023-06-02T02:42:00","7","62.0911","-152.7349","566.3","PUNTILLA, AK US","FM-15","PAPT ","V020","360,5,N,0036,5","01524,5,M,N","040234,7,N,5","+0060,C","+0050,C","99999,9",,,,,,"2,0,02,0,0,1,5",,"62,5",,"02,5,+00305,5,99,9","08,5,+01524,5,99,9",,"1,99,1,+00305,5,9","4,99,1,+01524,5,9",,,"9,AGL   ,+99999,+99999","99,99,9,99,9,99,9,00305,1,99,9,99,9",,,"10068,5,09416,5",,"63,1","65,5",,,"MET09706/01/23 17:42:01 METAR PAPT 020242Z 36007KT 25SM RA FEW010 OVC050 06/05 A2973 RMK NO SPECI. LAST","R01  25SM7VIS011R02    067TMP046R03    057DPT046"
"70249026526","2023-06-02T08:59:00","O","62.0911","-152.7349","566.3","PUNTILLA, AK US","SOD  ","PAPT ","V020","999,9,9,9999,9","99999,9,9,9","999999,9,9,9","+9999,9","+9999,9","99999,9",,,"AU,16,RA  ,5","AU,14,DZ  ,5",,,,,,,,,,,,,,,,,,,,,,,,
"70249026526","2023-06-02T18:50:00","7","62.0911","-152.7349","566.3","PUNTILLA, AK US","FM-15","PAPT ","V020","220,5,N,0015,5","01981,5,M,N","040234,5,N,5","+0070,C","+0040,C","99999,9",,,,,,,,,,"02,5,+00305,5,99,9","07,5,+01981,5,99,9",,"1,99,1,+00305,5,9","3,99,1,+01981,5,9",,,"9,AGL   ,+99999,+99999","99,99,9,99,9,99,9,00305,1,99,9,99,9",,,"10085,5,09432,5",,,,,,"MET08806/02/23 09:50:01 METAR PAPT 021850Z 22003KT 25SM FEW010 BKN065 07/04 A2978 RMK NO SPECI","R01    077TMP046R02    047DPT046"
"70249026526","2023-06-02T20:54:00","7","62.0911","-152.7349","566.3","PUNTILLA, AK US","FM-15","PAPT ","V020","180,5,N,0062,5","02134,5,M,N","040234,5,N,5","+0100,C","+0060,C","99999,9",,,,,,,,,,"07,5,+02134,5,99,9",,,"3,99,1,+02134,5,9",,,,"9,AGL   ,+99999,+99999","99,99,9,99,9,99,9,02134,1,99,9,99,9",,,"10081,5,09429,5",,,,,,"MET08106/02/23 11:54:01 METAR PAPT 022054Z 18012KT 25SM BKN070 10/06 A2977 RMK NO SPECI","R01    107TMP046R02    067DPT046"
"70249026526","2023-06-03T14:59:00","7","62.0911","-152.7349","566.3","PUNTILLA, AK US","FM-15","PAPT ","V020","170,5,N,0026,5","01829,5,M,N","011265,5,N,5","+0050,C","+0040,C","99999,9",,,,,,,,,,"02,5,+00305,5,99,9","04,5,+00457,5,99,9","08,5,+01829,5,99,9","1,99,1,+00305,5,9","2,99,1,+00457,5,9","4,99,1,+01829,5,9",,"9,AGL   ,+99999,+99999","99,99,9,99,9,99,9,00305,1,99,9,99,9",,,"10132,5,09477,5",,,,,,"MET10106/03/23 05:59:01 METAR PAPT 031459Z 17005KT 7SM FEW010 SCT015 OVC060 05/04 A2992 RMK NO SPECI. FIRST","R01    057TMP046R02    047DPT046"
"70249026526","2023-06-03T18:53:00","7","62.0911","-152.7349","566.3","PUNTILLA, AK US","FM-15","PAPT ","V020","180,5,N,0051,5","00914,5,M,N","032187,5,N,5","+0050,C","+0030,C","99999,9",,,,,,,,,,"02,5,+00549,5,99,9","08,5,+00914,5,99,9",,"1,99,1,+00549,5,9","4,99,1,+00914,5,9",,,"9,AGL   ,+99999,+99999","99,99,9,99,9,99,9,00549,1,99,9,99,9",,,"10139,5,09483,5",,,,,,"MET08906/03/23 09:53:01 METAR PAPT 031853Z 18010KT 20SM FEW018 OVC030 05/03 A2994 RMK NO SPECI.","R01    057TMP046R02    037DPT046"
"70249026526","2023-06-04T14:54:00","7","62.0911","-152.7349","566.3","PUNTILLA, AK US","FM-15","PAPT ","V020","180,5,N,0015,5","01829,5,M,N","032187,7,N,5","+0050,C","+0040,C","99999,9",,,,,,"1,0,02,0,0,1,5",,"61,5",,"04,5,+00244,5,99,9","08,5,+01829,5,99,9",,"2,99,1,+00244,5,9","4,99,1,+01829,5,9",,,"9,AGL   ,+99999,+99999","99,99,9,99,9,99,9,00244,1,99,9,99,9",,,"10196,5,09538,5",,"61,5",,,,"MET09906/04/23 05:54:01 METAR PAPT 041454Z 18003KT 20SM -RA SCT008 OVC060 05/04 A3011 RMK NO SPECI. FIRST","R01  20SM7VIS011R02    057TMP046R03    047DPT046"
"70249026526","2023-06-05T08:59:00","O","62.0911","-152.7349","566.3","PUNTILLA, AK US","SOD  ","PAPT ","V020","999,9,9,9999,9","99999,9,9,9","999999,9,9,9","+9999,9","+9999,9","99999,9",,,"AU,16,RA  ,5",,,,,,,,,,,,,,,,,,,,,,,,,
"70249026526","2023-06-05T14:50:00","7","62.0911","-152.7349","566.3","PUNTILLA, AK US","FM-15","PAPT ","V020","999,9,C,0000,5","01981,5,M,N","040234,5,N,5","+0060,C","+0050,C","99999,9",,,,,,,,,,"02,5,+00762,5,99,9","08,5,+01981,5,99,9",,"1,99,1,+00762,5,9","4,99,1,+01981,5,9",,,"9,AGL   ,+99999,+99999","99,99,9,99,9,99,9,00762,1,99,9,99,9",,,"10176,5,09518,5",,,,,,"MET09506/05/23 05:50:01 METAR PAPT 051450Z 00000KT 25SM FEW025 OVC065 06/05 A3005 RMK NO SPECI. FIRST","R01    067TMP046R02    057DPT046"
"70249026526","2023-06-06T18:54:00","7","62.0911","-152.7349","566.3","PUNTILLA, AK US","FM-15","PAPT ","V020","999,9,N,9999,9","01372,5,M,N","040234,5,N,5","+0060,C","+0050,C","99999,9",,,,,,,,,,"07,5,+01372,5,99,9",,,"3,99,1,+01372,5,9",,,,,,,,"10129,5,09474,5",,,,,,"MET08106/06/23 09:54:01 METAR PAPT 061854Z 000  KT 25SM BKN045 06/05 A2991 RMK NO SPECI","R01    067TMP046R02    057DPT046D01      0ADE693D02      0ADE539"
"70249026526","2023-06-06T20:46:00","7","62.0911","-152.7349","566.3","PUNTILLA, AK US","FM-15","PAPT ","V020","180,5,N,0051,5","01372,5,M,N","040234,5,N,5","+0110,C","+0060,C","99999,9",,,,,,,,,,"07,5,+01372,5,99,9",,,"3,99,1,+01372,5,9",,,,"9,AGL   ,+99999,+99999","99,99,9,99,9,99,9,01372,1,99,9,99,9",,,"10129,5,09474,5",,,,,"0093,5","MET08406/06/23 11:46:01 METAR PAPT 062046Z 18010G18KT 25SM BKN045 11/06 A2991 RMK NO SPECI","R01    117TMP046R02    067DPT046"
"70249026526","2023-06-06T22:52:00","7","62.0911","-152.7349","566.3","PUNTILLA, AK US","FM-15","PAPT ","V020","180,5,N,0041,5","01372,5,M,N","040234,5,N,5","+0110,C","+0050,C","99999,9",,,,,,,,,,"07,5,+01372,5,99,9","08,5,+02438,5,99,9",,"3,99,1,+01372,5,9","4,99,1,+02438,5,9",,,"9,AGL   ,+99999,+99999","99,99,9,99,9,99,9,01372,1,99,9,99,9","240,M,+0139,1","240,N,+0101,1","10125,5,09470,5",,,,,"0077,5","MET10806/06/23 13:52:02 METAR PAPT 062252Z 18008G15KT 25SM BKN045 OVC080 11/05 A2990 RMK NO SPECI. 401390101 70000","R01    117TMP046R02    057DPT046"
"70249026526","2023-06-07T00:54:00","7","62.0911","-152.7349","566.3","PUNTILLA, AK US","FM-15","PAPT ","V020","170,5,N,0036,5","01524,5,M,N","040234,5,N,5","+0120,C","+0060,C","99999,9",,,,,,,,,,"07,5,+01524,5,99,9","08,5,+02438,5,99,9",,"3,99,1,+01524,5,9","4,99,1,+02438,5,9",,,"9,AGL   ,+99999,+99999","99,99,9,99,9,99,9,01524,1,99,9,99,9",,,"10119,5,09464,5",,,,,"0077,5","MET09206/06/23 15:54:01 METAR PAPT 070054Z 17007G15KT 25SM BKN050 OVC080 12/06 A2988 RMK NO SPECI.","R01    127TMP046R02    067DPT046"
"70249026526","2023-06-07T02:49:00","7","62.0911","-152.7349","566.3","PUNTILLA, AK US","FM-15","PAPT ","V020","170,5,N,0062,5","01372,5,M,N","040234,5,N,5","+0110,C","+0100,C","99999,9",,,,,,,,,,"08,5,+01372,5,99,9",,,"4,99,1,+01372,5,9",,,,"9,AGL   ,+99999,+99999","99,99,9,99,9,99,9,01372,1,99,9,99,9",,,"10115,5,09461,5",,,,,,"MET08706/06/23 17:49:01 METAR PAPT 070249Z 17012KT 25SM OVC045 11/10 A2987 RMK NO SPECI. LAST","R01    117TMP046R02    107DPT046"
"70249026526","2023-06-07T15:15:00","7","62.0911","-152.7349","566.3","PUNTILLA, AK US","FM-15","PAPT ","V020","160,5,N,0026,5","01524,5,M,N","040234,5,N,5","+0080,5","+0070,5","99999,9",,,,,,,,,,"08,5,+01524,5,99,9",,,"4,99,1,+01524,5,9",,,,"9,AGL   ,+99999,+99999","99,99,9,99,9,99,9,01524,1,99,9,99,9",,,"10095,5,09442,5",,,,,,"MET08806/07/23 06:15:01 METAR PAPT 071515Z 16005KT 25SM OVC050 08/07 A2981 RMK NO SPECI. FIRST",
"70249026526","2023-06-07T16:58:00","7","62.0911","-152.7349","566.3","PUNTILLA, AK US","FM-15","PAPT ","V020","160,5,N,0026,5","01524,5,M,N","040234,5,N,5","+0090,C","+0070,C","99999,9",,,,,,,,,,"04,5,+00914,5,99,9","07,5,+01524,5,99,9",,"2,99,1,+00914,5,9","3,99,1,+01524,5,9",,,"9,AGL   ,+99999,+99999","99,99,9,99,9,99,9,00914,1,99,9,99,9",,,"10091,5,09438,5",,,,,,"MET08906/07/23 07:58:01 METAR PAPT 071658Z 16005KT 25SM SCT030 BKN050 09/07 A2980 RMK NO SPECI.","R01    097TMP046R02    077DPT046"
"70249026526","2023-06-07T18:48:00","7","62.0911","-152.7349","566.3","PUNTILLA, AK US","FM-15","PAPT ","V020","190,5,N,0051,5","01524,5,M,N","040234,5,N,5","+0100,C","+0070,C","99999,9",,,,,,,,,,"04,5,+00914,5,99,9","07,5,+01524,5,99,9",,"2,99,1,+00914,5,9","3,99,1,+01524,5,9",,,"9,AGL   ,+99999,+99999","99,99,9,99,9,99,9,00914,1,99,9,99,9",,,"10091,5,09438,5",,,,,,"MET08906/07/23 09:48:01 METAR PAPT 071848Z 19010KT 25SM SCT030 BKN050 10/07 A2980 RMK NO SPECI.","R01    107TMP046R02    077DPT046"
"70249026526","2023-06-07T20:54:00","7","62.0911","-152.7349","566.3","PUNTILLA, AK US","FM-15","PAPT ","V020","170,5,N,0067,5","01829,5,M,N","040234,5,N,5","+0110,C","+0070,C","99999,9",,,,,,,,,,"07,5,+01829,5,99,9",,,"3,99,1,+01829,5,9",,,,"9,AGL   ,+99999,+99999","99,99,9,99,9,99,9,01829,1,99,9,99,9",,,"10085,5,09432,5",,,,,,"MET08206/07/23 11:54:01 METAR PAPT 072054Z 17013KT 25SM BKN060 11/07 A2978 RMK NO SPECI.","R01    117TMP046R02    077DPT046"
"70249026526","2023-06-07T22:56:00","7","62.0911","-152.7349","566.3","PUNTILLA, AK US","FM-15","PAPT ","V020","180,5,N,0077,5","01676,5,M,N","040234,5,N,5","+0120,C","+0080,C","99999,9",,,,,,,,,,"07,5,+01676,5,99,9",,,"3,99,1,+01676,5,9",,,,"9,AGL   ,+99999,+99999","99,99,9,99,9,99,9,01676,1,99,9,99,9","240,M,+0117,1","240,N,+0078,1","10081,5,09429,5",,,,,,"MET09806/07/23 13:56:02 METAR PAPT 072256Z 18015KT 25SM BKN055 12/08 A2977 RMK NO SPECI. 401170078 70000","R01    127TMP046R02    087DPT046"
"70249026526","2023-06-08T01:08:00","7","62.0911","-152.7349","566.3","PUNTILLA, AK US","FM-15","PAPT ","V020","180,5,N,0077,5","01676,5,M,N","040234,5,N,5","+0110,5","+0090,5","99999,9",,,,,,,,,,"07,5,+01676,5,99,9",,,"3,99,1,+01676,5,9",,,,"9,AGL   ,+99999,+99999","99,99,9,99,9,99,9,01676,1,99,9,99,9",,,"10078,5,09425,5",,,,,,"MET08206/07/23 16:08:01 METAR PAPT 080108Z 18015KT 25SM BKN055 11/09 A2976 RMK NO SPECI.",
"70249026526","2023-06-08T02:40:00","7","62.0911","-152.7349","566.3","PUNTILLA, AK US","FM-15","PAPT ","V020","170,5,N,0046,5","01524,5,M,N","040234,5,N,5","+0110,5","+0070,5","99999,9",,,,,,,,,,"08,5,+01524,5,99,9",,,"4,99,1,+01524,5,9",,,,"9,AGL   ,+99999,+99999","99,99,9,99,9,99,9,01524,1,99,9,99,9",,,"10075,5,09422,5",,,,,,"MET08706/07/23 17:40:01 METAR PAPT 080240Z 17009KT 25SM OVC050 11/07 A2975 RMK NO SPECI. LAST",
"70249026526","2023-06-08T17:00:00","7","62.0911","-152.7349","566.3","PUNTILLA, AK US","FM-15","PAPT ","V020","170,5,N,0041,5","00914,5,M,N","024140,7,N,5","+0080,C","+9999,9","99999,9",,,,,,"2,0,01,0,0,1,5",,"52,5",,"04,5,+00549,5,99,9","07,5,+00914,5,99,9","08,5,+01524,5,99,9","2,99,1,+00549,5,9","3,99,1,+00914,5,9","4,99,1,+01524,5,9",,"9,AGL   ,+99999,+99999","99,99,9,99,9,99,9,00549,1,99,9,99,9",,,"10041,5,09390,5",,"53,1","55,5",,,"MET09906/08/23 08:00:02 METAR PAPT 081700Z 17008KT 15SM DZ SCT018 BKN030 OVC050 08/09 A2965 RMK NO SPECI.","Q019     2ATOD  Q02 +00902ATOD  R01  15SM7VIS011R02    087TMP046R03    097DPT046"
"70249026526","2023-06-08T18:55:00","7","62.0911","-152.7349","566.3","PUNTILLA, AK US","FM-15","PAPT ","V020","170,5,N,0036,5","00914,5,M,N","024140,7,N,5","+0100,C","+0070,C","99999,9",,,,,,"1,0,02,0,0,1,5",,"61,5",,"04,5,+00549,5,99,9","08,5,+00914,5,99,9",,"2,99,1,+00549,5,9","4,99,1,+00914,5,9",,,"9,AGL   ,+99999,+99999","99,99,9,99,9,99,9,00549,1,99,9,99,9",,,"10037,5,09387,5",,"61,5",,,,"MET09306/08/23 09:55:02 METAR PAPT 081855Z 17007KT 15SM -RA SCT018 OVC030 10/07 A2964 RMK NO SPECI.","R01  15SM7VIS011R02    107TMP046R03    077DPT046"
"70249026526","2023-06-08T20:52:00","7","62.0911","-152.7349","566.3","PUNTILLA, AK US","FM-15","PAPT ","V020","180,5,N,0062,5","01372,5,M,N","040234,5,N,5","+0100,C","+0080,C","99999,9",,,,,,,,,,"02,5,+00549,5,99,9","04,5,+00914,5,99,9","07,5,+01372,5,99,9","1,99,1,+00549,5,9","2,99,1,+00914,5,9","3,99,1,+01372,5,9",,"9,AGL   ,+99999,+99999","99,99,9,99,9,99,9,00549,1,99,9,99,9",,,"10041,5,09390,5",,,,,,"MET09606/08/23 11:52:02 METAR PAPT 082052Z 18012KT 25SM FEW018 SCT030 BKN045 10/08 A2965 RMK NO SPECI.","R01    107TMP046R02    087DPT046"
"70249026526","2023-06-08T23:00:00","7","62.0911","-152.7349","566.3","PUNTILLA, AK US","FM-15","PAPT ","V020","180,5,N,0062,5","99999,9,9,N","040234,7,N,5","+0120,C","+0100,C","99999,9",,,,,,,,,,,,,,,,,,,"240,M,+0123,1","240,N,+0078,1","10037,5,09387,5",,,,,,"MET09806/08/23 14:00:02 METAR PAPT 082300Z 18012KT 25SM BON055 12/10 A2964 RMK NO SPECI. 401230078 70006","R01      7SKY009R02  25SM7VIS011R03    127TMP046R04    107DPT046R05      7GAS009D01      0ADE693D02      0ADE539"
"70249026526","2023-06-09T01:05:00","7","62.0911","-152.7349","566.3","PUNTILLA, AK US","FM-15","PAPT ","V020","180,5,N,0093,5","99999,9,9,N","040234,7,N,5","+0120,5","+0100,5","99999,9",,,,,,,,,,,,,,,,,,,,,"10037,5,09387,5",,,,,,"MET08206/08/23 16:05:01 METAR PAPT 090105Z 18018KT 25SM BON055 12/10 A2964 RMK NO SPECI.","R01      7SKY009R02  25SM7VIS011R03      7GAS009D01      0ADE693D02      0ADE539"
"70249026526","2023-06-09T02:53:00","7","62.0911","-152.7349","566.3","PUNTILLA, AK US","FM-15","PAPT ","V020","180,5,N,0062,5","01524,5,M,N","040234,5,N,5","+0120,C","+0080,C","99999,9",,,,,,,,,,"07,5,+01524,5,99,9",,,"3,99,1,+01524,5,9",,,,"9,AGL   ,+99999,+99999","99,99,9,99,9,99,9,01524,1,99,9,99,9",,,"10041,5,09390,5",,,,,"0113,5","MET09006/08/23 17:53:01 METAR PAPT 090253Z 18012G22KT 25SM BKN050 12/08 A2965 RMK NO SPECI. LAST","R01    127TMP046R02    087DPT046"
"70249026526","2023-06-09T08:59:00","O","62.0911","-152.7349","566.3","PUNTILLA, AK US","SOD  ","PAPT ","V020","999,9,9,9999,9","99999,9,9,9","999999,9,9,9","+9999,9","+9999,9","99999,9",,,"AU,16,RA  ,5","AU,14,DZ  ,5",,,,,,,,,,,,,,,,,,,,,,,,
"70249026526","2023-06-09T14:55:00","7","62.0911","-152.7349","566.3","PUNTILLA, AK US","FM-15","PAPT ","V020","180,5,N,0041,5","03048,5,M,N","040234,5,N,5","+0080,C","+0070,C","99999,9",,,,,,,,,,"04,5,+01524,5,99,9","07,5,+03048,5,99,9",,"2,99,1,+01524,5,9","3,99,1,+03048,5,9",,,"9,AGL   ,+99999,+99999","99,99,9,99,9,99,9,01524,1,99,9,99,9",,,"10075,5,09422,5",,,,,,"MET09406/09/23 05:55:02 METAR PAPT 091455Z 18008KT 25SM SCT050 BKN100 08/07 A2975 RMK NO SPECI.FIRST","R01    087TMP046R02    077DPT046"
"70249026526","2023-06-09T16:53:00","7","62.0911","-152.7349","566.3","PUNTILLA, AK US","FM-15","PAPT ","V020","170,5,N,0041,5","22000,5,9,N","040234,5,N,5","+0100,C","+0080,C","99999,9",,,,,,,,,,"04,5,+01524,5,99,9",,,"2,99,1,+01524,5,9",,,,"9,AGL   ,+99999,+99999","04,99,5,99,9,99,9,01524,1,99,9,99,9",,,"10078,5,09425,5",,,,,"0082,5","MET08406/09/23 07:53:02 METAR PAPT 091653Z 17008G16KT 25SM SCT050 10/08 A2976 RMK NO SPECI","R01    107TMP046R02    087DPT046D01      0ADE726"
"70249026526","2023-06-09T18:50:00","7","62.0911","-152.7349","566.3","PUNTILLA, AK US","FM-15","PAPT ","V020","160,5,N,0051,5","01524,5,M,N","040234,5,N,5","+0110,C","+0060,C","99999,9",,,,,,,,,,"07,5,+01524,5,99,9",,,"3,99,1,+01524,5,9",,,,"9,AGL   ,+99999,+99999","99,99,9,99,9,99,9,01524,1,99,9,99,9",,,"10078,5,09425,5",,,,,"0103,5","MET08406/09/23 09:50:02 METAR PAPT 091850Z 16010G20KT 25SM BKN050 11/06 A2976 RMK NO SPECI","R01    117TMP046R02    067DPT046"
"70249026526","2023-06-09T20:46:00","4","62.0911","-152.7349","566.3","PUNTILLA, AK US","FM-15","99999","V020","170,1,N,0062,1","22000,5,9,N","040234,1,9,9","+0120,1","+0080,1","99999,9",,,,,,,,,,,,,"2,99,1,+01829,1,9",,,,"9,AGL   ,+99999,+99999","04,99,5,99,9,99,9,01829,1,99,9,99,9",,,"10078,1,99999,9",,,,,"0113,1","MET067METAR PAPT 092046Z 17012G22KT 25SM SCT060 12/08 A2976 RMK NO SPECI=","D01      0ADE726"
"70249026526","2023-06-09T22:56:00","4","62.0911","-152.7349","566.3","PUNTILLA, AK US","FM-15","99999","V020","180,1,N,0072,1","22000,5,9,N","040234,1,9,9","+0130,1","+0080,1","99999,9",,,,,,,,,,,,,"2,99,1,+01829,1,9",,,,"9,AGL   ,+99999,+99999","04,99,5,99,9,99,9,01829,1,99,9,99,9","240,M,+0134,1","240,N,+0087,1","10074,1,99999,9",,,,,,"MET080METAR PAPT 092256Z 18014KT 25SM SCT060 13/08 A2975 RMK NO SPECI 401340087 70000=","D01      0ADE726"
"70249026526","2023-06-10T00:49:00","4","62.0911","-152.7349","566.3","PUNTILLA, AK US","FM-15","99999","V020","170,1,N,0062,1","01829,1,9,N","040234,1,9,9","+0130,1","+0100,1","99999,9",,,,,,,,,,,,,"3,99,1,+01829,1,9",,,,"9,AGL   ,+99999,+99999","99,99,9,99,9,99,9,01829,1,99,9,99,9",,,"10074,1,99999,9",,,,,"0103,1","MET067METAR PAPT 100049Z 17012G20KT 25SM BKN060 13/10 A2975 RMK NO SPECI=",
"70249026526","2023-06-10T02:58:00","4","62.0911","-152.7349","566.3","PUNTILLA, AK US","FM-15","99999","V020","170,1,N,0072,1","01829,1,9,N","040234,1,9,9","+0130,1","+0100,1","99999,9",,,,,,,,,,,,,"3,99,1,+01829,1,9","3,99,1,+03048,1,9",,,"9,AGL   ,+99999,+99999","99,99,9,99,9,99,9,01829,1,99,9,99,9",,,"10074,1,99999,9",,,,,,"MET076METAR PAPT 100258Z 17014KT 25SM BKN060 BKN100 13/10 A2975 RMK NO SPECI LAST=",
"70249026526","2023-06-10T14:58:00","7","62.0911","-152.7349","566.3","PUNTILLA, AK US","FM-15","PAPT ","V020","180,5,N,0057,5","01524,5,M,N","040234,5,N,5","+0070,C","+0070,C","99999,9",,,,,,,,,,"02,5,+00549,5,99,9","04,5,+00914,5,99,9","07,5,+01524,5,99,9","1,99,1,+00549,5,9","2,99,1,+00914,5,9","3,99,1,+01524,5,9",,"9,AGL   ,+99999,+99999","99,99,9,99,9,99,9,00549,1,99,9,99,9",,,"10105,5,09451,5",,,,,,"MET10106/10/23 05:58:02 METAR PAPT 101458Z 18011KT 25SM FEW018 SCT030 BKN050 07/07 A2984 RMK NO SPECI FIRST","R01    077TMP046R02    077DPT046"
"70249026526","2023-06-10T16:55:00","7","62.0911","-152.7349","566.3","PUNTILLA, AK US","FM-15","PAPT ","V020","180,5,N,0051,5","01524,5,M,N","040234,5,N,5","+0080,C","+0060,C","99999,9",,,,,,,,,,"02,5,+00914,5,99,9","07,5,+01524,5,99,9",,"1,99,1,+00914,5,9","3,99,1,+01524,5,9",,,"9,AGL   ,+99999,+99999","99,99,9,99,9,99,9,00914,1,99,9,99,9",,,"10108,5,09454,5",,,,,,"MET08806/10/23 07:55:02 METAR PAPT 101655Z 18010KT 25SM FEW030 BKN050 08/06 A2985 RMK NO SPECI","R01    087TMP046R02    067DPT046"
"70249026526","2023-06-10T18:49:00","7","62.0911","-152.7349","566.3","PUNTILLA, AK US","FM-15","PAPT ","V020","180,5,N,0062,5","01524,5,M,N","040234,5,N,5","+0090,C","+0050,C","99999,9",,,,,,,,,,"04,5,+01067,5,99,9","07,5,+01524,5,99,9",,"2,99,1,+01067,5,9","3,99,1,+01524,5,9",,,"9,AGL   ,+99999,+99999","99,99,9,99,9,99,9,01067,1,99,9,99,9",,,"10108,5,09454,5",,,,,,"MET08806/10/23 09:49:02 METAR PAPT 101849Z 18012KT 25SM SCT035 BKN050 09/05 A2985 RMK NO SPECI","R01    097TMP046R02    057DPT046"
"70249026526","2023-06-10T20:43:00","7","62.0911","-152.7349","566.3","PUNTILLA, AK US","FM-15","PAPT ","V020","170,5,N,0067,5","01524,5,M,N","040234,5,N,5","+0110,C","+0060,C","99999,9",,,,,,,,,,"07,5,+01524,5,99,9",,,"3,99,1,+01524,5,9",,,,"9,AGL   ,+99999,+99999","99,99,9,99,9,99,9,01524,1,99,9,99,9",,,"10115,5,09461,5",,,,,,"MET08106/10/23 11:43:02 METAR PAPT 102043Z 17013KT 25SM BKN050 11/06 A2987 RMK NO SPECI","R01    117TMP046R02    067DPT046"
"70249026526","2023-06-10T22:57:00","7","62.0911","-152.7349","566.3","PUNTILLA, AK US","FM-15","PAPT ","V020","180,5,N,0051,5","01524,5,M,N","040234,5,N,5","+0110,C","+0060,C","99999,9",,,,,,,,,,"07,5,+01524,5,99,9",,,"3,99,1,+01524,5,9",,,,"9,AGL   ,+99999,+99999","99,99,9,99,9,99,9,01524,1,99,9,99,9","240,M,+0134,1","240,N,+0067,1","10115,5,09461,5",,,,,,"MET09706/10/23 13:57:02 METAR PAPT 102257Z 18010KT 25SM BKN050 11/06 A2987 RMK NO SPECI 401340067 70000","R01    117TMP046R02    067DPT046"
"70249026526","2023-06-11T00:53:00","7","62.0911","-152.7349","566.3","PUNTILLA, AK US","FM-15","PAPT ","V020","180,5,N,0062,5","01829,5,M,N","040234,5,N,5","+0120,C","+0060,C","99999,9",,,,,,,,,,"07,5,+01829,5,99,9",,,"3,99,1,+01829,5,9",,,,"9,AGL   ,+99999,+99999","99,99,9,99,9,99,9,01829,1,99,9,99,9",,,"10108,5,09454,5",,,,,,"MET08106/10/23 15:53:01 METAR PAPT 110053Z 18012KT 25SM BKN060 12/06 A2985 RMK NO SPECI","R01    127TMP046R02    067DPT046"
"70249026526","2023-06-11T14:58:00","7","62.0911","-152.7349","566.3","PUNTILLA, AK US","FM-15","PAPT ","V020","170,5,N,0051,5","00549,5,M,N","008047,5,N,5","+0050,C","+0050,C","99999,9",,,,,,"1,0,02,0,0,1,5",,"61,5",,"07,5,+00549,5,99,9","08,5,+00914,5,99,9",,"3,99,1,+00549,5,9","4,99,1,+00914,5,9",,,"9,AGL   ,+99999,+99999","99,99,9,99,9,99,9,00549,1,99,9,99,9",,,"10071,5,09419,5",,"61,5",,,,"MET09706/11/23 05:58:02 METAR PAPT 111458Z 17010KT 5SM -RA BKN018 OVC030 05/05 A2974 RMK NO SPECI FIRST","R01    057TMP046R02    057DPT046"
"70249026526","2023-06-11T16:55:00","7","62.0911","-152.7349","566.3","PUNTILLA, AK US","FM-15","PAPT ","V020","190,5,N,0057,5","00549,5,M,N","008047,5,N,5","+0050,C","+0040,C","99999,9",,,,,,"1,0,02,0,0,1,5",,"61,5",,"07,5,+00549,5,99,9","08,5,+00914,5,99,9",,"3,99,1,+00549,5,9","4,99,1,+00914,5,9",,,"9,AGL   ,+99999,+99999","99,99,9,99,9,99,9,00549,1,99,9,99,9",,,"10061,5,09409,5",,"61,5",,,,"MET09106/11/23 07:55:02 METAR PAPT 111655Z 19011KT 5SM -RA BKN018 OVC030 05/04 A2971 RMK NO SPECI","R01    057TMP046R02    047DPT046"
"70249026526","2023-06-11T19:10:00","7","62.0911","-152.7349","566.3","PUNTILLA, AK US","FM-15","PAPT ","V020","190,5,N,0093,5","00914,5,M,N","011265,5,N,5","+0070,5","+0050,5","99999,9",,,,,,,,,,"04,5,+00549,5,99,9","07,5,+00914,5,99,9",,"2,99,1,+00549,5,9","3,99,1,+00914,5,9",,,"9,AGL   ,+99999,+99999","99,99,9,99,9,99,9,00549,1,99,9,99,9",,,"10051,5,09400,5",,,,,,"MET08706/11/23 10:10:02 METAR PAPT 111910Z 19018KT 7SM SCT018 BKN030 07/05 A2968 RMK NO SPECI",
"70249026526","2023-06-11T20:48:00","7","62.0911","-152.7349","566.3","PUNTILLA, AK US","FM-15","PAPT ","V020","180,5,N,0062,5","00914,5,M,N","016093,5,N,5","+0070,C","+0050,C","99999,9",,,,,,"1,0,02,0,0,1,5",,"61,5",,"04,5,+00549,5,99,9","07,5,+00914,5,99,9",,"2,99,1,+00549,5,9","3,99,1,+00914,5,9",,,"9,AGL   ,+99999,+99999","99,99,9,99,9,99,9,00549,1,99,9,99,9",,,"10044,5,09393,5",,"61,5",,,"0113,5","MET09506/11/23 11:48:02 METAR PAPT 112048Z 18012G22KT 10SM -RA SCT018 BKN030 07/05 A2966 RMK NO SPECI","R01    077TMP046R02    057DPT046"
"70249026526","2023-06-11T22:48:00","7","62.0911","-152.7349","566.3","PUNTILLA, AK US","FM-15","PAPT ","V020","190,5,N,0062,5","01372,5,M,N","024140,5,N,5","+0070,C","+0050,C","99999,9",,,,,,,,,,"02,5,+00549,5,99,9","04,5,+00914,5,99,9","07,5,+01372,5,99,9","1,99,1,+00549,5,9","2,99,1,+00914,5,9","3,99,1,+01372,5,9",,"9,AGL   ,+99999,+99999","99,99,9,99,9,99,9,00549,1,99,9,99,9","240,M,+0123,1","240,N,+0045,1","10041,5,09390,5",,,,,"0113,5","MET11406/11/23 13:48:02 METAR PAPT 112248Z 19012G22KT 15SM FEW018 SCT030 BKN045 07/05 A2965 RMK NO SPECI 401230045 70006","R01    077TMP046R02    057DPT046"
"70249026526","2023-06-12T00:50:00","7","62.0911","-152.7349","566.3","PUNTILLA, AK US","FM-15","PAPT ","V020","170,5,N,0062,5","01524,5,M,N","032187,5,N,5","+0090,C","+0060,C","99999,9",,,,,,,,,,"07,5,+01524,5,99,9",,,"3,99,1,+01524,5,9",,,,"9,AGL   ,+99999,+99999","99,99,9,99,9,99,9,01524,1,99,9,99,9",,,"10034,5,09384,5",,,,,,"MET08106/11/23 15:50:01 METAR PAPT 120050Z 17012KT 20SM BKN050 09/06 A2963 RMK NO SPECI","R01    097TMP046R02    067DPT046"
"70249026526","2023-06-12T02:48:00","7","62.0911","-152.7349","566.3","PUNTILLA, AK US","FM-15","PAPT ","V020","190,5,N,0057,5","01524,5,M,N","032187,5,N,5","+0080,C","+0060,C","99999,9",,,,,,,,,,"02,5,+00549,5,99,9","02,5,+00914,5,99,9","07,5,+01524,5,99,9","1,99,1,+00549,5,9","1,99,1,+00914,5,9","3,99,1,+01524,5,9",,"9,AGL   ,+99999,+99999","99,99,9,99,9,99,9,00549,1,99,9,99,9",,,"10034,5,09384,5",,,,,,"MET10006/11/23 17:48:01 METAR PAPT 120248Z 19011KT 20SM FEW018 FEW030 BKN050 08/06 A2963 RMK NO SPECI LAST","R01    087TMP046R02    067DPT046"
"70249026526","2023-06-12T08:59:00","O","62.0911","-152.7349","566.3","PUNTILLA, AK US","SOD  ","PAPT ","V020","999,9,9,9999,9","99999,9,9,9","999999,9,9,9","+9999,9","+9999,9","99999,9",,,"AU,16,RA  ,5",,,,,,,,,,,,,,,,,,,,,,,,,
"70249026526","2023-06-12T14:54:00","7","62.0911","-152.7349","566.3","PUNTILLA, AK US","FM-15","PAPT ","V020","180,5,N,0051,5","00914,5,M,N","040234,5,N,5","+0050,C","+0040,C","99999,9",,,,,,,,,,"04,5,+00549,5,99,9","07,5,+00914,5,99,9","08,5,+01524,5,99,9","2,99,1,+00549,5,9","3,99,1,+00914,5,9","4,99,1,+01524,5,9",,"9,AGL   ,+99999,+99999","99,99,9,99,9,99,9,00549,1,99,9,99,9",,,"10071,5,09419,5",,,,,,"MET10106/12/23 05:54:02 METAR PAPT 121454Z 18010KT 25SM SCT018 BKN030 OVC050 05/04 A2974 RMK NO SPECI FIRST","R01    057TMP046R02    047DPT046"
"70249026526","2023-06-12T16:59:00","7","62.0911","-152.7349","566.3","PUNTILLA, AK US","FM-15","PAPT ","V020","190,5,N,0057,5","01372,5,M,N","040234,5,N,5","+0060,C","+0030,C","99999,9",,,,,,,,,,"02,5,+00549,5,99,9","04,5,+00914,5,99,9","07,5,+01372,5,99,9","1,99,1,+00549,5,9","2,99,1,+00914,5,9","3,99,1,+01372,5,9",,"9,AGL   ,+99999,+99999","99,99,9,99,9,99,9,00549,1,99,9,99,9",,,"10085,5,09432,5",,,,,,"MET09506/12/23 07:59:02 METAR PAPT 121659Z 19011KT 25SM FEW018 SCT030 BKN045 06/03 A2978 RMK NO SPECI","R01    067TMP046R02    037DPT046"
"70249026526","2023-06-12T18:56:00","7","62.0911","-152.7349","566.3","PUNTILLA, AK US","FM-15","PAPT ","V020","190,5,N,0046,5","01372,5,M,N","040234,5,N,5","+0070,C","+0030,C","99999,9",,,,,,,,,,"02,5,+00549,5,99,9","04,5,+00914,5,99,9","07,5,+01372,5,99,9","1,99,1,+00549,5,9","2,99,1,+00914,5,9","3,99,1,+01372,5,9",,"9,AGL   ,+99999,+99999","99,99,9,99,9,99,9,00549,1,99,9,99,9",,,"10095,5,09442,5",,,,,,"MET09506/12/23 09:56:02 METAR PAPT 121856Z 19009KT 25SM FEW018 SCT030 BKN045 07/03 A2981 RMK NO SPECI","R01    077TMP046R02    037DPT046"
"70249026526","2023-06-12T20:53:00","7","62.0911","-152.7349","566.3","PUNTILLA, AK US","FM-15","PAPT ","V020","180,5,N,0051,5","01524,5,M,N","040234,5,N,5","+0080,C","+0050,C","99999,9",,,,,,,,,,"04,5,+00914,5,99,9","07,5,+01524,5,99,9",,"2,99,1,+00914,5,9","3,99,1,+01524,5,9",,,"9,AGL   ,+99999,+99999","99,99,9,99,9,99,9,00914,1,99,9,99,9",,,"10098,5,09445,5",,,,,,"MET08806/12/23 11:53:02 METAR PAPT 122053Z 18010KT 25SM SCT030 BKN050 08/05 A2982 RMK NO SPECI","R01    087TMP046R02    057DPT046"
"70249026526","2023-06-12T22:44:00","7","62.0911","-152.7349","566.3","PUNTILLA, AK US","FM-15","PAPT ","V020","190,5,N,0062,5","01676,5,M,N","040234,5,N,5","+0090,C","+0060,C","99999,9",,,,,,,,,,"07,5,+01676,5,99,9",,,"3,99,1,+01676,5,9",,,,"9,AGL   ,+99999,+99999","99,99,9,99,9,99,9,01676,1,99,9,99,9","240,M,+0089,1","240,N,+0051,1","10105,5,09451,5",,,,,,"MET09706/12/23 13:44:02 METAR PAPT 122244Z 19012KT 25SM BKN055 09/06 A2984 RMK NO SPECI 400890051 70000","R01    097TMP046R02    067DPT046"
"70249026526","2023-06-13T00:56:00","7","62.0911","-152.7349","566.3","PUNTILLA, AK US","FM-15","PAPT ","V020","020,5,N,0026,5","01829,5,M,N","040234,5,N,5","+0100,C","+0060,C","99999,9",,,,,,,,,,"02,5,+00914,5,99,9","07,5,+01829,5,99,9",,"1,99,1,+00914,5,9","3,99,1,+01829,5,9",,,"9,AGL   ,+99999,+99999","99,99,9,99,9,99,9,00914,1,99,9,99,9",,,"10112,5,09458,5",,,,,,"MET08806/12/23 15:56:01 METAR PAPT 130056Z 02005KT 25SM FEW030 BKN060 10/06 A2986 RMK NO SPECI","R01    107TMP046R02    067DPT046"
"70249026526","2023-06-13T03:02:00","7","62.0911","-152.7349","566.3","PUNTILLA, AK US","FM-15","PAPT ","V020","160,5,N,0031,5","01829,5,M,N","040234,5,N,5","+0080,5","+0060,5","99999,9",,,,,,,,,,"02,5,+00914,5,99,9","08,5,+01829,5,99,9",,"1,99,1,+00914,5,9","4,99,1,+01829,5,9",,,"9,AGL   ,+99999,+99999","99,99,9,99,9,99,9,00914,1,99,9,99,9",,,"10119,5,09464,5",,,,,,"MET09306/12/23 18:02:01 METAR PAPT 130302Z 16006KT 25SM FEW030 OVC060 08/06 A2988 RMK NO SPECI LAST",
"70249026526","2023-06-13T14:55:00","7","62.0911","-152.7349","566.3","PUNTILLA, AK US","FM-15","PAPT ","V020","170,5,N,0041,5","00914,5,M,N","024140,5,N,5","+0050,C","+0050,C","99999,9",,,,,,,,,,"04,5,+00549,5,99,9","07,5,+00914,5,99,9","08,5,+01676,5,99,9","2,99,1,+00549,5,9","3,99,1,+00914,5,9","4,99,1,+01676,5,9",,"9,AGL   ,+99999,+99999","99,99,9,99,9,99,9,00549,1,99,9,99,9",,,"10169,5,09512,5",,,,,,"MET10106/13/23 05:55:02 METAR PAPT 131455Z 17008KT 15SM SCT018 BKN030 OVC055 05/05 A3003 RMK NO SPECI FIRST","R01    057TMP046R02    057DPT046"
"70249026526","2023-06-13T16:40:00","7","62.0911","-152.7349","566.3","PUNTILLA, AK US","FM-15","PAPT ","V020","180,5,N,0051,5","01524,5,M,N","024140,5,N,5","+0050,5","+0030,5","99999,9",,,,,,,,,,"02,5,+00549,5,99,9","04,5,+00914,5,99,9","08,5,+01524,5,99,9","1,99,1,+00549,5,9","2,99,1,+00914,5,9","4,99,1,+01524,5,9",,"9,AGL   ,+99999,+99999","99,99,9,99,9,99,9,00549,1,99,9,99,9",,,"10173,5,09515,5",,,,,,"MET09506/13/23 07:40:02 METAR PAPT 131640Z 18010KT 15SM FEW018 SCT030 OVC050 05/03 A3004 RMK NO SPECI",
"70249026526","2023-06-13T18:49:00","7","62.0911","-152.7349","566.3","PUNTILLA, AK US","FM-15","PAPT ","V020","180,5,N,0051,5","01524,5,M,N","032187,5,N,5","+0060,C","+0040,C","99999,9",,,,,,,,,,"02,5,+00549,5,99,9","04,5,+00914,5,99,9","08,5,+01524,5,99,9","1,99,1,+00549,5,9","2,99,1,+00914,5,9","4,99,1,+01524,5,9",,"9,AGL   ,+99999,+99999","99,99,9,99,9,99,9,00549,1,99,9,99,9",,,"10173,5,09515,5",,,,,,"MET09506/13/23 09:49:02 METAR PAPT 131849Z 18010KT 20SM FEW018 SCT030 OVC050 06/04 A3004 RMK NO SPECI","R01    067TMP046R02    047DPT046"
"70249026526","2023-06-13T20:51:00","7","62.0911","-152.7349","566.3","PUNTILLA, AK US","FM-15","PAPT ","V020","190,5,N,0041,5","01524,5,M,N","040234,5,N,5","+0080,C","+0040,C","99999,9",,,,,,,,,,"02,5,+00914,5,99,9","08,5,+01524,5,99,9",,"1,99,1,+00914,5,9","4,99,1,+01524,5,9",,,"9,AGL   ,+99999,+99999","99,99,9,99,9,99,9,00914,1,99,9,99,9",,,"10173,5,09515,5",,,,,,"MET08806/13/23 11:51:02 METAR PAPT 132051Z 19008KT 25SM FEW030 OVC050 08/04 A3004 RMK NO SPECI","R01    087TMP046R02    047DPT046"
"70249026526","2023-06-13T22:44:00","7","62.0911","-152.7349","566.3","PUNTILLA, AK US","FM-15","PAPT ","V020","190,5,N,0041,5","01524,5,M,N","040234,5,N,5","+0080,C","+0050,C","99999,9",,,,,,,,,,"02,5,+00914,5,99,9","08,5,+01524,5,99,9",,"1,99,1,+00914,5,9","4,99,1,+01524,5,9",,,"9,AGL   ,+99999,+99999","99,99,9,99,9,99,9,00914,1,99,9,99,9","240,M,+0084,1","240,N,+0045,1","10176,5,09518,5",,,,,,"MET10406/13/23 13:44:02 METAR PAPT 132244Z 19008KT 25SM FEW030 OVC050 08/05 A3005 RMK NO SPECI 400840045 70000","R01    087TMP046R02    057DPT046"
"70249026526","2023-06-14T00:50:00","7","62.0911","-152.7349","566.3","PUNTILLA, AK US","FM-15","PAPT ","V020","200,5,N,0031,5","01524,5,M,N","040234,5,N,5","+0080,C","+0060,C","99999,9",,,,,,,,,,"04,5,+00914,5,99,9","07,5,+01524,5,99,9","08,5,+02438,5,99,9","2,99,1,+00914,5,9","3,99,1,+01524,5,9","4,99,1,+02438,5,9",,"9,AGL   ,+99999,+99999","99,99,9,99,9,99,9,00914,1,99,9,99,9",,,"10173,5,09515,5",,,,,,"MET09506/13/23 15:50:01 METAR PAPT 140050Z 20006KT 25SM SCT030 BKN050 OVC080 08/06 A3004 RMK NO SPECI","R01    087TMP046R02    067DPT046"
"70249026526","2023-06-14T02:56:00","7","62.0911","-152.7349","566.3","PUNTILLA, AK US","FM-15","PAPT ","V020","190,5,N,0057,5","01829,5,M,N","040234,5,N,5","+0080,C","+0050,C","99999,9",,,,,,,,,,"02,5,+00914,5,99,9","07,5,+01829,5,99,9","08,5,+02438,5,99,9","1,99,1,+00914,5,9","3,99,1,+01829,5,9","4,99,1,+02438,5,9",,"9,AGL   ,+99999,+99999","99,99,9,99,9,99,9,00914,1,99,9,99,9",,,"10173,5,09515,5",,,,,,"MET10006/13/23 17:56:01 METAR PAPT 140256Z 19011KT 25SM FEW030 BKN060 OVC080 08/05 A3004 RMK NO SPECI LAST","R01    087TMP046R02    057DPT046"
"70249026526","2023-06-14T14:58:00","7","62.0911","-152.7349","566.3","PUNTILLA, AK US","FM-15","PAPT ","V020","999,9,C,0000,5","00549,5,M,N","004828,5,N,5","+0050,C","+0030,C","99999,9",,,,,,"1,0,02,0,0,1,5",,"61,5",,"04,5,+00244,5,99,9","07,5,+00549,5,99,9","08,5,+00823,5,99,9","2,99,1,+00244,5,9","3,99,1,+00549,5,9","4,99,1,+00823,5,9",,"9,AGL   ,+99999,+99999","99,99,9,99,9,99,9,00244,1,99,9,99,9",,,"10173,5,09515,5",,"61,5",,,,"MET10406/14/23 05:58:02 METAR PAPT 141458Z 00000KT 3SM -RA SCT008 BKN018 OVC027 05/03 A3004 RMK NO SPECI FRIST","R01    057TMP046R02    037DPT046"
"70249026526","2023-06-14T16:52:00","7","62.0911","-152.7349","566.3","PUNTILLA, AK US","FM-15","PAPT ","V020","170,5,N,0031,5","00061,5,W,N","001609,5,N,5","+0050,C","+0050,C","99999,9",,,,,,"0,0,00,1,0,1,5",,"10,5",,"09,5,+00061,5,99,9",,,"5,99,1,+00061,5,9",,,,"9,AGL   ,+99999,+99999","09,99,1,99,9,99,9,00061,1,99,9,99,9",,,"10169,5,09512,5",,"10,1",,,,"MET08206/14/23 07:52:02 METAR PAPT 141652Z 17006KT 1SM BR VV002 05/05 A3003 RMK NO SPECI","R01    057TMP046R02    057DPT046"
"70249026526","2023-06-14T18:52:00","7","62.0911","-152.7349","566.3","PUNTILLA, AK US","FM-15","PAPT ","V020","180,5,N,0041,5","00762,5,M,N","011265,5,N,5","+0060,C","+0050,C","99999,9",,,,,,,,,,"04,5,+00305,5,99,9","07,5,+00762,5,99,9",,"2,99,1,+00305,5,9","3,99,1,+00762,5,9",,,"9,AGL   ,+99999,+99999","99,99,9,99,9,99,9,00305,1,99,9,99,9",,,"10166,5,09509,5",,,,,,"MET08706/14/23 09:52:02 METAR PAPT 141852Z 18008KT 7SM SCT010 BKN025 06/05 A3002 RMK NO SPECI","R01    067TMP046R02    057DPT046"
"70249026526","2023-06-14T20:48:00","7","62.0911","-152.7349","566.3","PUNTILLA, AK US","FM-15","PAPT ","V020","190,5,N,0046,5","01372,5,M,N","024140,5,N,5","+0070,C","+0050,C","99999,9",,,,,,,,,,"02,5,+00610,5,99,9","04,5,+00914,5,99,9","07,5,+01372,5,99,9","1,99,1,+00610,5,9","2,99,1,+00914,5,9","3,99,1,+01372,5,9",,"9,AGL   ,+99999,+99999","99,99,9,99,9,99,9,00610,1,99,9,99,9",,,"10156,5,09499,5",,,,,,"MET09506/14/23 11:48:02 METAR PAPT 142048Z 19009KT 15SM FEW020 SCT030 BKN045 07/05 A2999 RMK NO SPECI","R01    077TMP046R02    057DPT046"
"70249026526","2023-06-14T22:48:00","7","62.0911","-152.7349","566.3","PUNTILLA, AK US","FM-15","PAPT ","V020","180,5,N,0062,5","01524,5,M,N","040234,5,N,5","+0080,C","+0040,C","99999,9",,,,,,,,,,"02,5,+00914,5,99,9","07,5,+01524,5,99,9",,"1,99,1,+00914,5,9","3,99,1,+01524,5,9",,,"9,AGL   ,+99999,+99999","99,99,9,99,9,99,9,00914,1,99,9,99,9","240,M,+0084,1","240,N,+0045,1","10149,5,09493,5",,,,,,"MET10406/14/23 13:48:02 METAR PAPT 142248Z 18012KT 25SM FEW030 BKN050 08/04 A2997 RMK NO SPECI 400840045 70044","R01    087TMP046R02    047DPT046"
"70249026526","2023-06-15T00:53:00","7","62.0911","-152.7349","566.3","PUNTILLA, AK US","FM-15","PAPT ","V020","180,5,N,0072,5","01829,5,M,N","040234,5,N,5","+0090,C","+0050,C","99999,9",,,,,,,,,,"02,5,+00914,5,99,9","07,5,+01829,5,99,9",,"1,99,1,+00914,5,9","3,99,1,+01829,5,9",,,"9,AGL   ,+99999,+99999","99,99,9,99,9,99,9,00914,1,99,9,99,9",,,"10139,5,09483,5",,,,,,"MET08806/14/23 15:53:01 METAR PAPT 150053Z 18014KT 25SM FEW030 BKN060 09/05 A2994 RMK NO SPECI","R01    097TMP046R02    057DPT046"
"70249026526","2023-06-15T02:51:00","7","62.0911","-152.7349","566.3","PUNTILLA, AK US","FM-15","PAPT ","V020","150,5,N,0031,5","01829,5,M,N","040234,5,N,5","+0090,C","+0050,C","99999,9",,,,,,,,,,"07,5,+01829,5,99,9",,,"3,99,1,+01829,5,9",,,,"9,AGL   ,+99999,+99999","99,99,9,99,9,99,9,01829,1,99,9,99,9",,,"10129,5,09474,5",,,,,,"MET08606/14/23 17:51:01 METAR PAPT 150251Z 15006KT 25SM BKN060 09/05 A2991 RMK NO SPECI LAST","R01    097TMP046R02    057DPT046"
"70249026526","2023-06-15T08:59:00","O","62.0911","-152.7349","566.3","PUNTILLA, AK US","SOD  ","PAPT ","V020","999,9,9,9999,9","99999,9,9,9","999999,9,9,9","+9999,9","+9999,9","99999,9",,,"AU,16,RA  ,5","AU,13,BR  ,5",,,,,,,,,,,,,,,,,,,,,,,,
"70249026526","2023-06-15T14:50:00","7","62.0911","-152.7349","566.3","PUNTILLA, AK US","FM-15","PAPT ","V020","999,9,C,0000,5","03048,5,M,N","040234,5,N,5","+0020,C","+0020,C","99999,9",,,,,,,,,,"04,5,+01829,5,99,9","07,5,+03048,5,99,9",,"2,99,1,+01829,5,9","3,99,1,+03048,5,9",,,"9,AGL   ,+99999,+99999","99,99,9,99,9,99,9,01829,1,99,9,99,9",,,"10064,5,09413,5",,,,,,"MET09406/15/23 05:50:02 METAR PAPT 151450Z 00000KT 25SM SCT060 BKN100 02/02 A2972 RMK NO SPECI FIRST","R01    027TMP046R02    027DPT046"
"70249026526","2023-06-15T16:45:00","7","62.0911","-152.7349","566.3","PUNTILLA, AK US","FM-15","PAPT ","V020","160,5,N,0021,5","03048,5,M,N","040234,5,N,5","+0060,C","+0050,C","99999,9",,,,,,,,,,"02,5,+00762,5,99,9","04,5,+01829,5,99,9","07,5,+03048,5,99,9","1,99,1,+00762,5,9","2,99,1,+01829,5,9","3,99,1,+03048,5,9",,"9,AGL   ,+99999,+99999","99,99,9,99,9,99,9,00762,1,99,9,99,9",,,"10051,5,09400,5",,,,,,"MET09506/15/23 07:45:02 METAR PAPT 151645Z 16004KT 25SM FEW025 SCT060 BKN100 06/05 A2968 RMK NO SPECI","R01    067TMP046R02    057DPT046"
"70249026526","2023-06-15T18:54:00","7","62.0911","-152.7349","566.3","PUNTILLA, AK US","FM-15","PAPT ","V020","170,5,N,0031,5","01524,5,M,N","040234,5,N,5","+0080,C","+0040,C","99999,9",,,,,,,,,,"07,5,+01524,5,99,9",,,"3,99,1,+01524,5,9",,,,"9,AGL   ,+99999,+99999","99,99,9,99,9,99,9,01524,1,99,9,99,9",,,"10030,5,09381,5",,,,,,"MET08106/15/23 09:54:02 METAR PAPT 151854Z 17006KT 25SM BKN050 08/04 A2962 RMK NO SPECI","R01    087TMP046R02    047DPT046"
"70249026526","2023-06-15T20:42:00","7","62.0911","-152.7349","566.3","PUNTILLA, AK US","FM-15","PAPT ","V020","180,5,N,0046,5","01524,5,M,N","040234,7,N,5","+0080,C","+0050,C","99999,9",,,,,,"1,0,02,0,0,1,5",,"61,5",,"08,5,+01524,5,99,9",,,"4,99,1,+01524,5,9",,,,"9,AGL   ,+99999,+99999","99,99,9,99,9,99,9,01524,1,99,9,99,9",,,"10020,5,09371,5",,"61,5",,,,"MET08506/15/23 11:42:02 METAR PAPT 152042Z 18009KT 25SM -RA OVC050 08/05 A2959 RMK NO SPECI","R01  25SM7VIS011R02    087TMP046R03    057DPT046"
"70249026526","2023-06-15T22:44:00","7","62.0911","-152.7349","566.3","PUNTILLA, AK US","FM-15","PAPT ","V020","190,5,N,0021,5","01524,5,M,N","040234,7,N,5","+0090,C","+0070,C","99999,9",,,,,,"1,0,02,0,0,1,5",,"61,5",,"02,5,+00914,5,99,9","08,5,+01524,5,99,9",,"1,99,1,+00914,5,9","4,99,1,+01524,5,9",,,"9,AGL   ,+99999,+99999","99,99,9,99,9,99,9,00914,1,99,9,99,9","240,M,+0089,1","240,N,+0023,1","10010,5,09361,5",,"61,5",,,,"MET10806/15/23 13:44:02 METAR PAPT 152244Z 19004KT 25SM -RA FEW030 OVC050 09/07 A2956 RMK NO SPECI 400890023 70000","R01  25SM7VIS011R02    097TMP046R03    077DPT046"
"70249026526","2023-06-16T00:51:00","7","62.0911","-152.7349","566.3","PUNTILLA, AK US","FM-15","PAPT ","V020","170,5,N,0036,5","01524,5,M,N","040234,7,N,5","+0090,C","+0060,C","99999,9",,,,,,"1,0,02,0,0,1,5",,"61,5",,"02,5,+00914,5,99,9","08,5,+01524,5,99,9",,"1,99,1,+00914,5,9","4,99,1,+01524,5,9",,,"9,AGL   ,+99999,+99999","99,99,9,99,9,99,9,00914,1,99,9,99,9",,,"09993,5,09345,5",,"61,5",,,,"MET09206/15/23 15:51:01 METAR PAPT 160051Z 17007KT 25SM -RA FEW030 OVC050 09/06 A2951 RMK NO SPECI","R01  25SM7VIS011R02    097TMP046R03    067DPT046"
"70249026526","2023-06-16T02:44:00","7","62.0911","-152.7349","566.3","PUNTILLA, AK US","FM-15","PAPT ","V020","170,5,N,0021,5","03048,5,M,N","040234,5,N,5","+0100,C","+0060,C","99999,9",,,,,,,,,,"04,5,+01524,5,99,9","07,5,+03048,5,99,9",,"2,99,1,+01524,5,9","3,99,1,+03048,5,9",,,"9,AGL   ,+99999,+99999","99,99,9,99,9,99,9,01524,1,99,9,99,9",,,"09983,5,09336,5",,,,,,"MET09306/15/23 17:44:01 METAR PAPT 160244Z 17004KT 25SM SCT050 BKN100 10/06 A2948 RMK NO SPECI LAST","R01    107TMP046R02    067DPT046"
"70249026526","2023-06-16T08:59:00","O","62.0911","-152.7349","566.3","PUNTILLA, AK US","SOD  ","PAPT ","V020","999,9,9,9999,9","99999,9,9,9","999999,9,9,9","+9999,9","+9999,9","99999,9",,,"AU,16,RA  ,5",,,,,,,,,,,,,,,,,,,,,,,,,
"70249026526","2023-06-16T14:47:00","7","62.0911","-152.7349","566.3","PUNTILLA, AK US","FM-15","PAPT ","V020","360,5,N,0021,5","03048,5,M,N","040234,5,N,5","+0070,C","+0050,C","99999,9",,,,,,,,,,"04,5,+01829,5,99,9","07,5,+03048,5,99,9",,"2,99,1,+01829,5,9","3,99,1,+03048,5,9",,,"9,AGL   ,+99999,+99999","99,99,9,99,9,99,9,01829,1,99,9,99,9",,,"09949,5,09304,5",,,,,,"MET09406/16/23 05:47:01 METAR PAPT 161447Z 36004KT 25SM SCT060 BKN100 07/05 A2938 RMK NO SPECI FIRST","R01    077TMP046R02    057DPT046"
"70249026526","2023-06-16T16:50:00","7","62.0911","-152.7349","566.3","PUNTILLA, AK US","FM-15","PAPT ","V020","999,9,C,0000,5","03048,5,M,N","040234,5,N,5","+0100,C","+0060,C","99999,9",,,,,,,,,,"07,5,+03048,5,99,9",,,"3,99,1,+03048,5,9",,,,"9,AGL   ,+99999,+99999","99,99,9,99,9,99,9,03048,1,99,9,99,9",,,"09949,5,09304,5",,,,,,"MET08106/16/23 07:50:01 METAR PAPT 161650Z 00000KT 25SM BKN100 10/06 A2938 RMK NO SPECI","R01    107TMP046R02    067DPT046"
"70249026526","2023-06-16T18:53:00","7","62.0911","-152.7349","566.3","PUNTILLA, AK US","FM-15","PAPT ","V020","230,5,N,0026,5","03048,5,M,N","040234,5,N,5","+0130,C","+0080,C","99999,9",,,,,,,,,,"02,5,+02438,5,99,9","07,5,+03048,5,99,9",,"1,99,1,+02438,5,9","3,99,1,+03048,5,9",,,"9,AGL   ,+99999,+99999","99,99,9,99,9,99,9,02438,1,99,9,99,9",,,"09949,5,09304,5",,,,,,"MET08806/16/23 09:53:01 METAR PAPT 161853Z 23005KT 25SM FEW080 BKN100 13/08 A2938 RMK NO SPECI","R01    137TMP046R02    087DPT046"
"70249026526","2023-06-16T20:50:00","7","62.0911","-152.7349","566.3","PUNTILLA, AK US","FM-15","PAPT ","V020","010,5,N,0026,5","03048,5,M,N","040234,5,N,5","+0150,C","+0100,C","99999,9",,,,,,,,,,"04,5,+02438,5,99,9","07,5,+03048,5,99,9",,"2,99,1,+02438,5,9","3,99,1,+03048,5,9",,,"9,AGL   ,+99999,+99999","99,99,9,99,9,99,9,02438,1,99,9,99,9",,,"09959,5,09313,5",,,,,,"MET08806/16/23 11:50:01 METAR PAPT 162050Z 01005KT 25SM SCT080 BKN100 15/10 A2941 RMK NO SPECI","R01    157TMP046R02    107DPT046"
"70249026526","2023-06-16T22:50:00","7","62.0911","-152.7349","566.3","PUNTILLA, AK US","FM-15","PAPT ","V020","190,5,N,0036,5","03048,5,M,N","040234,5,N,5","+0130,C","+0100,C","99999,9",,,,,,,,,,"04,5,+01981,5,99,9","08,5,+03048,5,99,9",,"2,99,1,+01981,5,9","4,99,1,+03048,5,9",,,"9,AGL   ,+99999,+99999","99,99,9,99,9,99,9,01981,1,99,9,99,9","240,M,+0145,1","240,N,+0067,1","09973,5,09326,5",,,,,,"MET10406/16/23 13:50:01 METAR PAPT 162250Z 19007KT 25SM SCT065 OVC100 13/10 A2945 RMK NO SPECI 401450067 70000","R01    137TMP046R02    107DPT046"
"70249026526","2023-06-17T00:55:00","7","62.0911","-152.7349","566.3","PUNTILLA, AK US","FM-15","PAPT ","V020","220,5,N,0026,5","01981,5,M,N","040234,5,N,5","+0160,C","+0110,C","99999,9",,,,,,,,,,"07,5,+01981,5,99,9","08,5,+03048,5,99,9",,"3,99,1,+01981,5,9","4,99,1,+03048,5,9",,,"9,AGL   ,+99999,+99999","99,99,9,99,9,99,9,01981,1,99,9,99,9",,,"09983,5,09336,5",,,,,,"MET08806/16/23 15:55:01 METAR PAPT 170055Z 22005KT 25SM BKN065 OVC100 16/11 A2948 RMK NO SPECI","R01    167TMP046R02    117DPT046"
"70249026526","2023-06-17T14:55:00","7","62.0911","-152.7349","566.3","PUNTILLA, AK US","FM-15","PAPT ","V020","999,9,C,0000,5","03048,5,M,N","040234,5,N,5","+0070,C","+0070,C","99999,9",,,,,,,,,,"04,5,+01372,5,99,9","08,5,+03048,5,99,9",,"2,99,1,+01372,5,9","4,99,1,+03048,5,9",,,"9,AGL   ,+99999,+99999","99,99,9,99,9,99,9,01372,1,99,9,99,9",,,"10105,5,09451,5",,,,,,"MET09406/17/23 05:55:01 METAR PAPT 171455Z 00000KT 25SM SCT045 OVC100 07/07 A2984 RMK NO SPECI FIRST","R01    077TMP046R02    077DPT046"
"70249026526","2023-06-17T16:49:00","7","62.0911","-152.7349","566.3","PUNTILLA, AK US","FM-15","PAPT ","V020","180,5,N,0021,5","01219,5,M,N","011265,5,N,5","+0090,C","+0080,C","99999,9",,,,,,,,,,"04,5,+00366,5,99,9","07,5,+01219,5,99,9","08,5,+01829,5,99,9","2,99,1,+00366,5,9","3,99,1,+01219,5,9","4,99,1,+01829,5,9",,"9,AGL   ,+99999,+99999","99,99,9,99,9,99,9,00366,1,99,9,99,9",,,"10125,5,09470,5",,,,,,"MET09406/17/23 07:49:01 METAR PAPT 171649Z 18004KT 7SM SCT012 BKN040 OVC060 09/08 A2990 RMK NO SPECI","R01    097TMP046R02    087DPT046"
"70249026526","2023-06-17T18:52:00","7","62.0911","-152.7349","566.3","PUNTILLA, AK US","FM-15","PAPT ","V020","999,9,C,0000,5","02438,5,M,N","032187,5,N,5","+0110,C","+0100,C","99999,9",,,,,,,,,,"04,5,+01372,5,99,9","07,5,+02438,5,99,9",,"2,99,1,+01372,5,9","3,99,1,+02438,5,9",,,"9,AGL   ,+99999,+99999","99,99,9,99,9,99,9,01372,1,99,9,99,9",,,"10139,5,09483,5",,,,,,"MET08806/17/23 09:52:01 METAR PAPT 171852Z 00000KT 20SM SCT045 BKN080 11/10 A2994 RMK NO SPECI","R01    117TMP046R02    107DPT046"
"70249026526","2023-06-17T20:48:00","7","62.0911","-152.7349","566.3","PUNTILLA, AK US","FM-15","PAPT ","V020","350,5,N,0036,5","02134,5,M,N","040234,5,N,5","+0130,C","+0110,C","99999,9",,,,,,,,,,"07,5,+02134,5,99,9",,,"3,99,1,+02134,5,9",,,,"9,AGL   ,+99999,+99999","99,99,9,99,9,99,9,02134,1,99,9,99,9",,,"10146,5,09490,5",,,,,,"MET08106/17/23 11:48:01 METAR PAPT 172048Z 35007KT 25SM BKN070 13/11 A2996 RMK NO SPECI","R01    137TMP046R02    117DPT046"
"70249026526","2023-06-17T22:50:00","7","62.0911","-152.7349","566.3","PUNTILLA, AK US","FM-15","PAPT ","V020","350,5,N,0041,5","02134,5,M,N","040234,5,N,5","+0150,C","+0100,C","99999,9",,,,,,,,,,"07,5,+02134,5,99,9",,,"3,99,1,+02134,5,9",,,,"9,AGL   ,+99999,+99999","99,99,9,99,9,99,9,02134,1,99,9,99,9","240,M,+0156,1","240,N,+0073,1","10163,5,09506,5",,,,,,"MET09706/17/23 13:50:02 METAR PAPT 172250Z 35008KT 25SM BKN070 15/10 A3001 RMK NO SPECI 401560073 70000","R01    157TMP046R02    107DPT046"
"70249026526","2023-06-18T00:58:00","7","62.0911","-152.7349","566.3","PUNTILLA, AK US","FM-15","PAPT ","V020","350,5,N,0046,5","03048,5,M,N","040234,5,N,5","+0170,C","+0120,C","99999,9",,,,,,,,,,"04,5,+01829,5,99,9","07,5,+03048,5,99,9",,"2,99,1,+01829,5,9","3,99,1,+03048,5,9",,,"9,AGL   ,+99999,+99999","99,99,9,99,9,99,9,01829,1,99,9,99,9",,,"10176,5,09518,5",,,,,,"MET08806/17/23 15:58:01 METAR PAPT 180058Z 35009KT 25SM SCT060 BKN100 17/12 A3005 RMK NO SPECI","R01    177TMP046R02    127DPT046"
"70249026526","2023-06-18T02:45:00","7","62.0911","-152.7349","566.3","PUNTILLA, AK US","FM-15","PAPT ","V020","350,5,N,0041,5","03048,5,M,N","040234,5,N,5","+0150,C","+0090,C","99999,9",,,,,,,,,,"04,5,+01829,5,99,9","07,5,+03048,5,99,9",,"2,99,1,+01829,5,9","3,99,1,+03048,5,9",,,"9,AGL   ,+99999,+99999","99,99,9,99,9,99,9,01829,1,99,9,99,9",,,"10186,5,09528,5",,,,,,"MET09306/17/23 17:45:01 METAR PAPT 180245Z 35008KT 25SM SCT060 BKN100 15/09 A3008 RMK NO SPECI LAST","R01    157TMP046R02    097DPT046"
"70249026526","2023-06-18T14:54:00","7","62.0911","-152.7349","566.3","PUNTILLA, AK US","FM-15","PAPT ","V020","010,5,N,0021,5","02438,5,M,N","040234,5,N,5","+0070,C","+0060,C","99999,9",,,,,,,,,,"07,5,+02438,5,99,9",,,"3,99,1,+02438,5,9",,,,"9,AGL   ,+99999,+99999","99,99,9,99,9,99,9,02438,1,99,9,99,9",,,"10227,5,09567,5",,,,,,"MET08706/18/23 05:54:02 METAR PAPT 181454Z 01004KT 25SM BKN080 07/06 A3020 RMK NO SPECI FIRST","R01    077TMP046R02    067DPT046"
"70249026526","2023-06-18T17:15:00","7","62.0911","-152.7349","566.3","PUNTILLA, AK US","FM-15","PAPT ","V020","040,5,N,0036,5","22000,5,9,N","040234,5,N,5","+0140,5","+0090,5","99999,9",,,,,,,,,,"04,5,+02438,5,99,9",,,"2,99,1,+02438,5,9",,,,"9,AGL   ,+99999,+99999","04,99,5,99,9,99,9,02438,1,99,9,99,9",,,"10234,5,09573,5",,,,,,"MET08106/18/23 08:15:02 METAR PAPT 181715Z 04007KT 25SM SCT080 14/09 A3022 RMK NO SPECI","D01      0ADE726"
"70249026526","2023-06-18T18:48:00","7","62.0911","-152.7349","566.3","PUNTILLA, AK US","FM-15","PAPT ","V020","350,5,N,0051,5","02438,5,M,N","040234,5,N,5","+0170,C","+0110,C","99999,9",,,,,,,,,,"07,5,+02438,5,99,9",,,"3,99,1,+02438,5,9",,,,"9,AGL   ,+99999,+99999","99,99,9,99,9,99,9,02438,1,99,9,99,9",,,"10227,5,09567,5",,,,,,"MET08106/18/23 09:48:02 METAR PAPT 181848Z 35010KT 25SM BKN080 17/11 A3020 RMK NO SPECI","R01    177TMP046R02    117DPT046"
"70249026526","2023-06-18T22:43:00","7","62.0911","-152.7349","566.3","PUNTILLA, AK US","FM-15","PAPT ","V020","360,5,N,0067,5","02438,5,M,N","040234,5,N,5","+0200,C","+0150,C","99999,9",,,,,,,,,,"07,5,+02438,5,99,9",,,"3,99,1,+02438,5,9",,,,"9,AGL   ,+99999,+99999","99,99,9,99,9,99,9,02438,1,99,9,99,9","240,M,+0201,1","240,N,+0073,1","10220,5,09560,5",,,,,,"MET09706/18/23 13:43:02 METAR PAPT 182243Z 36013KT 25SM BKN080 20/15 A3018 RMK NO SPECI 402010073 70000","R01    207TMP046R02    157DPT046"
"70249026526","2023-06-19T00:44:00","7","62.0911","-152.7349","566.3","PUNTILLA, AK US","FM-15","PAPT ","V020","010,5,N,0041,5","22000,5,9,N","040234,5,N,5","+0200,C","+0150,C","99999,9",,,,,,,,,,"04,5,+02134,5,99,9",,,"2,99,1,+02134,5,9",,,,"9,AGL   ,+99999,+99999","04,99,5,99,9,99,9,02134,1,99,9,99,9",,,"10220,5,09560,5",,,,,,"MET08306/18/23 15:44:01 METAR PAPT 190044Z 01008KT 25SM SCT070 20/15 A3018 RMK NO SPECI I","R01    207TMP046R02    157DPT046D01      0ADE726"
"70249026526","2023-06-19T14:56:00","7","62.0911","-152.7349","566.3","PUNTILLA, AK US","FM-15","PAPT ","V020","999,9,C,0000,5","22000,5,9,N","040234,5,N,5","+0060,C","+0050,C","99999,9",,,,,,,,,,"02,5,+03048,5,99,9",,,"1,99,1,+03048,5,9",,,,"9,AGL   ,+99999,+99999","02,99,5,99,9,99,9,03048,1,99,9,99,9",,,"10207,5,09547,5",,,,,,"MET08706/19/23 05:56:02 METAR PAPT 191456Z 00000KT 25SM FEW100 06/05 A3014 RMK NO SPECI FIRST","R01    067TMP046R02    057DPT046D01      0ADE726"
"70249026526","2023-06-19T16:52:00","7","62.0911","-152.7349","566.3","PUNTILLA, AK US","FM-15","PAPT ","V020","999,9,C,0000,5","22000,5,9,N","040234,5,N,5","+0110,C","+0080,C","99999,9",,,,,,,,,,"04,5,+03048,5,99,9",,,"2,99,1,+03048,5,9",,,,"9,AGL   ,+99999,+99999","04,99,5,99,9,99,9,03048,1,99,9,99,9",,,"10200,5,09541,5",,,,,,"MET08106/19/23 07:52:02 METAR PAPT 191652Z 00000KT 25SM SCT100 11/08 A3012 RMK NO SPECI","R01    117TMP046R02    087DPT046D01      0ADE726"
"70249026526","2023-06-19T18:52:00","7","62.0911","-152.7349","566.3","PUNTILLA, AK US","FM-15","PAPT ","V020","170,5,N,0021,5","03048,5,M,N","040234,5,N,5","+0170,C","+0100,C","99999,9",,,,,,,,,,"08,5,+03048,5,99,9",,,"4,99,1,+03048,5,9",,,,"9,AGL   ,+99999,+99999","99,99,9,99,9,99,9,03048,1,99,9,99,9",,,"10190,5,09531,5",,,,,,"MET08106/19/23 09:52:02 METAR PAPT 191852Z 17004KT 25SM OVC100 17/10 A3009 RMK NO SPECI","R01    177TMP046R02    107DPT046"
"70249026526","2023-06-19T20:47:00","7","62.0911","-152.7349","566.3","PUNTILLA, AK US","FM-15","PAPT ","V020","180,5,N,0062,5","03048,5,M,N","040234,5,N,5","+0180,C","+0120,C","99999,9",,,,,,,,,,"08,5,+03048,5,99,9",,,"4,99,1,+03048,5,9",,,,"9,AGL   ,+99999,+99999","99,99,9,99,9,99,9,03048,1,99,9,99,9",,,"10186,5,09528,5",,,,,,"MET08106/19/23 11:47:02 METAR PAPT 192047Z 18012KT 25SM OVC100 18/12 A3008 RMK NO SPECI","R01    187TMP046R02    127DPT046"
"70249026526","2023-06-19T22:55:00","7","62.0911","-152.7349","566.3","PUNTILLA, AK US","FM-15","PAPT ","V020","190,5,N,0041,5","03048,5,M,N","040234,5,N,5","+0160,C","+0120,C","99999,9",,,,,,,,,,"08,5,+03048,5,99,9",,,"4,99,1,+03048,5,9",,,,"9,AGL   ,+99999,+99999","99,99,9,99,9,99,9,03048,1,99,9,99,9","240,M,+0195,1","240,N,+0056,1","10176,5,09518,5",,,,,,"MET09706/19/23 13:55:02 METAR PAPT 192255Z 19008KT 25SM OVC100 16/12 A3005 RMK NO SPECI 401950056 70000","R01    167TMP046R02    127DPT046"
"70249026526","2023-06-20T00:53:00","7","62.0911","-152.7349","566.3","PUNTILLA, AK US","FM-15","PAPT ","V020","360,5,N,0021,5","03048,5,M,N","040234,7,N,5","+0140,C","+0130,C","99999,9",,,,,,"1,0,02,0,0,1,5",,"61,5",,"02,5,+00914,5,99,9","08,5,+03048,5,99,9",,"1,99,1,+00914,5,9","4,99,1,+03048,5,9",,,"9,AGL   ,+99999,+99999","99,99,9,99,9,99,9,00914,1,99,9,99,9",,,"10179,5,09522,5",,"61,5",,,,"MET09206/19/23 15:53:01 METAR PAPT 200053Z 36004KT 25SM -RA FEW030 OVC100 14/13 A3006 RMK NO SPECI","R01  25SM7VIS011R02    147TMP046R03    137DPT046"
"70249026526","2023-06-20T08:59:00","O","62.0911","-152.7349","566.3","PUNTILLA, AK US","SOD  ","PAPT ","V020","999,9,9,9999,9","99999,9,9,9","999999,9,9,9","+9999,9","+9999,9","99999,9",,,"AU,16,RA  ,5",,,,,,,,,,,,,,,,,,,,,,,,,
"70249026526","2023-06-20T14:56:00","7","62.0911","-152.7349","566.3","PUNTILLA, AK US","FM-15","PAPT ","V020","170,5,N,0021,5","00244,5,M,N","008047,5,N,5","+0100,C","+0100,C","99999,9",,,,,,"1,0,02,0,0,1,5",,"61,5",,"07,5,+00244,5,99,9","08,5,+00457,5,99,9",,"3,99,1,+00244,5,9","4,99,1,+00457,5,9",,,"9,AGL   ,+99999,+99999","99,99,9,99,9,99,9,00244,1,99,9,99,9",,,"10163,5,09506,5",,"61,5",,,,"MET09706/20/23 05:56:02 METAR PAPT 201456Z 17004KT 5SM -RA BKN008 OVC015 10/10 A3001 RMK NO SPECI FIRST","R01    107TMP046R02    107DPT046"
"70249026526","2023-06-20T16:53:00","7","62.0911","-152.7349","566.3","PUNTILLA, AK US","FM-15","PAPT ","V020","180,5,N,0021,5","00305,5,M,N","016093,5,N,5","+0110,C","+0110,C","99999,9",,,,,,,,,,"02,5,+01829,5,99,9","08,5,+00305,5,99,9",,"1,99,1,+01829,5,9","4,99,1,+00305,5,9",,,"9,AGL   ,+99999,+99999","99,99,9,99,9,99,9,01829,1,99,9,99,9",,,"10163,5,09506,5",,,,,,"MET08806/20/23 07:53:02 METAR PAPT 201653Z 18004KT 10SM FEW060 OVC010 11/11 A3001 RMK NO SPECI","R01    117TMP046R02    117DPT046"
"70249026526","2023-06-20T18:52:00","7","62.0911","-152.7349","566.3","PUNTILLA, AK US","FM-15","PAPT ","V020","180,5,N,0021,5","00366,5,M,N","016093,5,N,5","+0110,C","+0100,C","99999,9",,,,,,,,,,"08,5,+00366,5,99,9",,,"4,99,1,+00366,5,9",,,,"9,AGL   ,+99999,+99999","99,99,9,99,9,99,9,00366,1,99,9,99,9",,,"10163,5,09506,5",,,,,,"MET08106/20/23 09:52:02 METAR PAPT 201852Z 18004KT 10SM OVC012 11/10 A3001 RMK NO SPECI","R01    117TMP046R02    107DPT046"
"70249026526","2023-06-20T20:40:00","7","62.0911","-152.7349","566.3","PUNTILLA, AK US","FM-15","PAPT ","V020","170,5,N,0026,5","00549,5,M,N","024140,5,N,5","+0120,5","+0110,5","99999,9",,,,,,,,,,"08,5,+00549,5,99,9",,,"4,99,1,+00549,5,9",,,,"9,AGL   ,+99999,+99999","99,99,9,99,9,99,9,00549,1,99,9,99,9",,,"10159,5,09502,5",,,,,,"MET08106/20/23 11:40:02 METAR PAPT 202040Z 17005KT 15SM OVC018 12/11 A3000 RMK NO SPECI",
"70249026526","2023-06-20T22:45:00","7","62.0911","-152.7349","566.3","PUNTILLA, AK US","FM-15","PAPT ","V020","180,5,N,0015,5","00549,5,M,N","040234,5,N,5","+0120,C","+0110,C","99999,9",,,,,,,,,,"07,5,+00549,5,99,9","08,5,+00823,5,99,9",,"3,99,1,+00549,5,9","4,99,1,+00823,5,9",,,"9,AGL   ,+99999,+99999","99,99,9,99,9,99,9,00549,1,99,9,99,9","240,M,+0139,1","240,N,+0101,1","10159,5,09502,5",,,,,,"MET10406/20/23 13:45:02 METAR PAPT 202245Z 18003KT 25SM BKN018 OVC027 12/11 A3000 RMK NO SPECI 401390101 70008","R01    127TMP046R02    117DPT046"
"70249026526","2023-06-21T00:57:00","7","62.0911","-152.7349","566.3","PUNTILLA, AK US","FM-15","PAPT ","V020","350,5,N,0021,5","00549,5,M,N","040234,5,N,5","+0130,C","+0120,C","99999,9",,,,,,,,,,"07,5,+00549,5,99,9","08,5,+00823,5,99,9",,"3,99,1,+00549,5,9","4,99,1,+00823,5,9",,,"9,AGL   ,+99999,+99999","99,99,9,99,9,99,9,00549,1,99,9,99,9",,,"10156,5,09499,5",,,,,,"MET08806/20/23 15:57:01 METAR PAPT 210057Z 35004KT 25SM BKN018 OVC027 13/12 A2999 RMK NO SPECI","R01    137TMP046R02    127DPT046"
"70249026526","2023-06-21T02:44:00","7","62.0911","-152.7349","566.3","PUNTILLA, AK US","FM-15","PAPT ","V020","180,5,N,0031,5","00823,5,M,N","032187,5,N,5","+0130,C","+0120,C","99999,9",,,,,,,,,,"04,5,+00549,5,99,9","07,5,+00823,5,99,9","08,5,+01067,5,99,9","2,99,1,+00549,5,9","3,99,1,+00823,5,9","4,99,1,+01067,5,9",,"9,AGL   ,+99999,+99999","99,99,9,99,9,99,9,00549,1,99,9,99,9",,,"10156,5,09499,5",,,,,,"MET10006/20/23 17:44:01 METAR PAPT 210244Z 18006KT 20SM SCT018 BKN027 OVC035 13/12 A2999 RMK NO SPECI LAST","R01    137TMP046R02    127DPT046"
"70249026526","2023-06-21T08:59:00","O","62.0911","-152.7349","566.3","PUNTILLA, AK US","SOD  ","PAPT ","V020","999,9,9,9999,9","99999,9,9,9","999999,9,9,9","+9999,9","+9999,9","99999,9",,,"AU,16,RA  ,5",,,,,,,,,,,,,,,,,,,,,,,,,
"70249026526","2023-06-21T14:55:00","7","62.0911","-152.7349","566.3","PUNTILLA, AK US","FM-15","PAPT ","V020","999,9,C,0000,5","00091,5,W,N","001609,5,N,5","+0100,C","+0100,C","99999,9",,,,,,"0,0,00,1,0,1,5",,"10,5",,"09,5,+00091,5,99,9",,,"5,99,1,+00091,5,9",,,,"9,AGL   ,+99999,+99999","09,99,1,99,9,99,9,00091,1,99,9,99,9",,,"10146,5,09490,5",,"10,1",,,,"MET08806/21/23 05:55:02 METAR PAPT 211455Z 00000KT 1SM BR VV003 10/10 A2996 RMK NO SPECI FIRST","R01    107TMP046R02    107DPT046"
"70249026526","2023-06-21T16:50:00","7","62.0911","-152.7349","566.3","PUNTILLA, AK US","FM-15","PAPT ","V020","999,9,C,0000,5","00091,5,W,N","001609,5,N,5","+0110,C","+0100,C","99999,9",,,,,,"0,0,00,1,0,1,5",,"10,5",,"09,5,+00091,5,99,9",,,"5,99,1,+00091,5,9",,,,"9,AGL   ,+99999,+99999","09,99,1,99,9,99,9,00091,1,99,9,99,9",,,"10142,5,09486,5",,"10,1",,,,"MET08206/21/23 07:50:02 METAR PAPT 211650Z 00000KT 1SM BR VV003 11/10 A2995 RMK NO SPECI","R01    117TMP046R02    107DPT046"
"70249026526","2023-06-21T19:00:00","7","62.0911","-152.7349","566.3","PUNTILLA, AK US","FM-15","PAPT ","V020","170,5,N,0031,5","00366,5,M,N","004828,5,N,5","+0120,C","+0110,C","99999,9",,,,,,"0,2,00,2,0,1,5","1,0,02,0,0,1,5","61,5",,"08,5,+00366,5,99,9",,,"4,99,1,+00366,5,9",,,,"9,AGL   ,+99999,+99999","99,99,9,99,9,99,9,00366,1,99,9,99,9",,,"10139,5,09483,5",,"11,1","61,5",,,"MET10406/21/23 10:00:02 METAR PAPT 211900Z 17006KT 3SM PRFG -RA OVC012 12/11 A2994 RMK NO SPECI PRFG ALL QDNTS","R01    127TMP046R02    117DPT046"
"70249026526","2023-06-21T20:54:00","7","62.0911","-152.7349","566.3","PUNTILLA, AK US","FM-15","PAPT ","V020","170,5,N,0031,5","00366,5,M,N","004828,5,N,5","+0130,C","+0120,C","99999,9",,,,,,"0,2,00,2,0,1,5","1,0,02,0,0,1,5","61,5",,"04,5,+00244,5,99,9","08,5,+00366,5,99,9",,"2,99,1,+00244,5,9","4,99,1,+00366,5,9",,,"9,AGL   ,+99999,+99999","99,99,9,99,9,99,9,00244,1,99,9,99,9",,,"10139,5,09483,5",,"11,1","61,5",,,"MET11106/21/23 11:54:02 METAR PAPT 212054Z 17006KT 3SM PRFG -RA SCT008 OVC012 13/12 A2994 RMK NO SPECI PRFG ALL QDNTS","R01    137TMP046R02    127DPT046"
"70249026526","2023-06-21T22:51:00","7","62.0911","-152.7349","566.3","PUNTILLA, AK US","FM-15","PAPT ","V020","180,5,N,0031,5","00610,7,M,N","011265,5,N,5","+0130,C","+0120,C","99999,9",,,,,,"1,0,02,0,0,1,5",,"61,5",,"08,7,+00610,7,99,9",,,"4,99,1,+00610,7,9","4,99,1,+00610,1,9",,,"9,AGL   ,+99999,+99999",,"240,M,+0134,1","240,N,+0101,1","10139,5,09483,5",,"61,5",,,,"MET10606/21/23 13:51:02 METAR PAPT 212251Z 18006KT 7SM -RA SCT01 OVC020 13/12 A2994 RMK NO SPECI 401340101 70013","R01 SCT017SKY009R02    137TMP046R03    127DPT046R04 SCT017GAS009"
"70249026526","2023-06-22T00:51:00","7","62.0911","-152.7349","566.3","PUNTILLA, AK US","FM-15","PAPT ","V020","180,5,N,0041,5","00762,5,M,N","032187,5,N,5","+0140,C","+0120,C","99999,9",,,,,,,,,,"04,5,+00549,5,99,9","08,5,+00762,5,99,9",,"2,99,1,+00549,5,9","4,99,1,+00762,5,9",,,"9,AGL   ,+99999,+99999","99,99,9,99,9,99,9,00549,1,99,9,99,9",,,"10132,5,09477,5",,,,,,"MET08806/21/23 15:51:01 METAR PAPT 220051Z 18008KT 20SM SCT018 OVC025 14/12 A2992 RMK NO SPECI","R01    147TMP046R02    127DPT046"
"70249026526","2023-06-22T02:41:00","7","62.0911","-152.7349","566.3","PUNTILLA, AK US","FM-15","PAPT ","V020","180,5,N,0036,5","00762,5,M,N","032187,5,N,5","+0140,C","+0120,C","99999,9",,,,,,,,,,"04,5,+00549,5,99,9","08,5,+00762,5,99,9",,"2,99,1,+00549,5,9","4,99,1,+00762,5,9",,,"9,AGL   ,+99999,+99999","99,99,9,99,9,99,9,00549,1,99,9,99,9",,,"10129,5,09474,5",,,,,,"MET09306/21/23 17:41:01 METAR PAPT 220241Z 18007KT 20SM SCT018 OVC025 14/12 A2991 RMK NO SPECI LAST","R01    147TMP046R02    127DPT046"
"70249026526","2023-06-22T08:59:00","O","62.0911","-152.7349","566.3","PUNTILLA, AK US","SOD  ","PAPT ","V020","999,9,9,9999,9","99999,9,9,9","999999,9,9,9","+9999,9","+9999,9","99999,9",,,"AU,16,RA  ,5","AU,01,FG  ,5","AU,13,BR  ,5",,,,,,,,,,,,,,,,,,,,,,,
"70249026526","2023-06-22T14:57:00","7","62.0911","-152.7349","566.3","PUNTILLA, AK US","FM-15","PAPT ","V020","999,9,C,0000,5","00091,5,W,N","001609,5,N,5","+0110,C","+0110,C","99999,9",,,,,,"0,0,00,1,0,1,5",,"10,5",,"09,5,+00091,5,99,9",,,"5,99,1,+00091,5,9",,,,"9,AGL   ,+99999,+99999","09,99,1,99,9,99,9,00091,1,99,9,99,9",,,"10132,5,09477,5",,"10,1",,,,"MET08806/22/23 05:57:02 METAR PAPT 221457Z 00000KT 1SM BR VV003 11/11 A2992 RMK NO SPECI FIRST","R01    117TMP046R02    117DPT046"
"70249026526","2023-06-22T16:50:00","7","62.0911","-152.7349","566.3","PUNTILLA, AK US","FM-15","PAPT ","V020","180,5,N,0026,5","00305,5,M,N","003219,5,N,5","+0110,C","+0110,C","99999,9",,,,,,"0,0,00,1,0,1,7",,,,"08,5,+00305,5,99,9",,,"4,99,1,+00305,5,9",,,,,,,,"10132,5,09477,5",,"10,1",,,,"MET09006/22/23 07:50:02 METAR PAPT 221650Z 18005KT 2SM BR BIN003 OVC010 11/11 A2992 RMK NO SPECI","R01    117TMP046R02    117DPT046R03BR BIN7AWW013R04SEERMK7MVW013R05BR BIN7MWW013D01      0ADE693D02      0ADE539"
"70249026526","2023-06-22T18:43:00","7","62.0911","-152.7349","566.3","PUNTILLA, AK US","FM-15","PAPT ","V020","170,5,N,0031,5","00244,5,M,N","011265,5,N,5","+0130,C","+0120,C","99999,9",,,,,,,,,,"07,5,+00244,5,99,9","08,5,+00610,5,99,9",,"3,99,1,+00244,5,9","4,99,1,+00610,5,9",,,"9,AGL   ,+99999,+99999","99,99,9,99,9,99,9,00244,1,99,9,99,9",,,"10132,5,09477,5",,,,,,"MET08706/22/23 09:43:02 METAR PAPT 221843Z 17006KT 7SM BKN008 OVC020 13/12 A2992 RMK NO SPECI","R01    137TMP046R02    127DPT046"
"70249026526","2023-06-22T20:48:00","7","62.0911","-152.7349","566.3","PUNTILLA, AK US","FM-15","PAPT ","V020","190,5,N,0041,5","00549,5,M,N","016093,5,N,5","+0140,C","+0120,C","99999,9",,,,,,,,,,"07,5,+00549,5,99,9","08,5,+00823,5,99,9",,"3,99,1,+00549,5,9","4,99,1,+00823,5,9",,,"9,AGL   ,+99999,+99999","99,99,9,99,9,99,9,00549,1,99,9,99,9",,,"10132,5,09477,5",,,,,,"MET08806/22/23 11:48:02 METAR PAPT 222048Z 19008KT 10SM BKN018 OVC027 14/12 A2992 RMK NO SPECI","R01    147TMP046R02    127DPT046"
"70249026526","2023-06-22T22:54:00","7","62.0911","-152.7349","566.3","PUNTILLA, AK US","FM-15","PAPT ","V020","180,5,N,0036,5","00823,5,M,N","016093,5,N,5","+0150,C","+0130,C","99999,9",,,,,,,,,,"04,5,+00549,5,99,9","08,5,+00823,5,99,9",,"2,99,1,+00549,5,9","4,99,1,+00823,5,9",,,"9,AGL   ,+99999,+99999","99,99,9,99,9,99,9,00549,1,99,9,99,9","240,M,+0145,1","240,N,+0112,1","10132,5,09477,5",,,,,,"MET10406/22/23 13:54:02 METAR PAPT 222254Z 18007KT 10SM SCT018 OVC027 15/13 A2992 RMK NO SPECI 401450112 70004","R01    157TMP046R02    137DPT046"
"70249026526","2023-06-23T00:52:00","7","62.0911","-152.7349","566.3","PUNTILLA, AK US","FM-15","PAPT ","V020","180,5,N,0046,5","00914,5,M,N","024140,5,N,5","+0140,C","+0120,C","99999,9",,,,,,,,,,"04,5,+00549,5,99,9","08,5,+00914,5,99,9",,"2,99,1,+00549,5,9","4,99,1,+00914,5,9",,,"9,AGL   ,+99999,+99999","99,99,9,99,9,99,9,00549,1,99,9,99,9",,,"10129,5,09474,5",,,,,,"MET08806/22/23 15:52:01 METAR PAPT 230052Z 18009KT 15SM SCT018 OVC030 14/12 A2991 RMK NO SPECI","R01    147TMP046R02    127DPT046"
"70249026526","2023-06-23T02:51:00","7","62.0911","-152.7349","566.3","PUNTILLA, AK US","FM-15","PAPT ","V020","180,5,N,0046,5","00914,5,M,N","032187,5,N,5","+0130,C","+0120,C","99999,9",,,,,,,,,,"04,5,+00549,5,99,9","07,5,+00914,5,99,9","08,5,+01524,5,99,9","2,99,1,+00549,5,9","3,99,1,+00914,5,9","4,99,1,+01524,5,9",,"9,AGL   ,+99999,+99999","99,99,9,99,9,99,9,00549,1,99,9,99,9",,,"10129,5,09474,5",,,,,,"MET10006/22/23 17:51:02 METAR PAPT 230251Z 18009KT 20SM SCT018 BKN030 OVC050 13/12 A2991 RMK NO SPECI LAST","R01    137TMP046R02    127DPT046"
"70249026526","2023-06-23T08:59:00","O","62.0911","-152.7349","566.3","PUNTILLA, AK US","SOD  ","PAPT ","V020","999,9,9,9999,9","99999,9,9,9","999999,9,9,9","+9999,9","+9999,9","99999,9",,,"AU,13,BR  ,5",,,,,,,,,,,,,,,,,,,,,,,,,
"70249026526","2023-06-23T14:57:00","7","62.0911","-152.7349","566.3","PUNTILLA, AK US","FM-15","PAPT ","V020","180,5,N,0031,5","00762,5,M,N","008047,5,N,5","+0110,C","+0110,C","99999,9",,,,,,"1,0,02,0,0,1,5",,"61,5",,"04,5,+00244,5,99,9","07,5,+00762,5,99,9","08,5,+01219,5,99,9","2,99,1,+00244,5,9","3,99,1,+00762,5,9","4,99,1,+01219,5,9",,"9,AGL   ,+99999,+99999","99,99,9,99,9,99,9,00244,1,99,9,99,9",,,"10122,5,09467,5",,"61,5",,,,"MET10406/23/23 05:57:02 METAR PAPT 231457Z 18006KT 5SM -RA SCT008 BKN025 OVC040 11/11 A2989 RMK NO SPECI FIRST","R01    117TMP046R02    117DPT046"
"70249026526","2023-06-23T16:49:00","7","62.0911","-152.7349","566.3","PUNTILLA, AK US","FM-15","PAPT ","V020","170,5,N,0026,5","00305,5,M,N","004828,5,N,5","+0110,C","+0110,C","99999,9",,,,,,"0,3,00,2,0,1,5",,"31,5",,"07,5,+00305,5,99,9","08,5,+00823,5,99,9",,"3,99,1,+00305,5,9","4,99,1,+00823,5,9",,,"9,AGL   ,+99999,+99999","99,99,9,99,9,99,9,00305,1,99,9,99,9",,,"10122,5,09467,5",,"11,1",,,,"MET10706/23/23 07:49:02 METAR PAPT 231649Z 17005KT 3SM BCFG BKN010 OVC027 11/11 A2989 RMK NO SPECI BCFG ALL QDNTS","R01    117TMP046R02    117DPT046"
"70249026526","2023-06-23T18:52:00","7","62.0911","-152.7349","566.3","PUNTILLA, AK US","FM-15","PAPT ","V020","180,5,N,0051,5","00305,5,M,N","004828,5,N,5","+0110,C","+0110,C","99999,9",,,,,,"0,0,00,1,0,1,5",,"10,5",,"07,5,+00305,5,99,9","08,5,+00762,5,99,9",,"3,99,1,+00305,5,9","4,99,1,+00762,5,9",,,"9,AGL   ,+99999,+99999","99,99,9,99,9,99,9,00305,1,99,9,99,9",,,"10115,5,09461,5",,"10,1",,,,"MET09006/23/23 09:52:02 METAR PAPT 231852Z 18010KT 3SM BR BKN010 OVC025 11/11 A2987 RMK NO SPECI","R01    117TMP046R02    117DPT046"
"70249026526","2023-06-23T20:50:00","7","62.0911","-152.7349","566.3","PUNTILLA, AK US","FM-15","PAPT ","V020","180,5,N,0057,5","00305,5,M,N","008047,5,N,5","+0120,C","+0110,C","99999,9",,,,,,"1,0,02,0,0,1,5",,"61,5",,"07,5,+00305,5,99,9","08,5,+00762,5,99,9",,"3,99,1,+00305,5,9","4,99,1,+00762,5,9",,,"9,AGL   ,+99999,+99999","99,99,9,99,9,99,9,00305,1,99,9,99,9",,,"10112,5,09458,5",,"61,5",,,,"MET09106/23/23 11:50:02 METAR PAPT 232050Z 18011KT 5SM -RA BKN010 OVC025 12/11 A2986 RMK NO SPECI","R01    127TMP046R02    117DPT046"
"70249026526","2023-06-23T22:52:00","7","62.0911","-152.7349","566.3","PUNTILLA, AK US","FM-15","PAPT ","V020","170,5,N,0041,5","00823,5,M,N","024140,5,N,5","+0140,C","+0120,C","99999,9",,,,,,,,,,"04,5,+00549,5,99,9","08,5,+00823,5,99,9",,"2,99,1,+00549,5,9","4,99,1,+00823,5,9",,,"9,AGL   ,+99999,+99999","99,99,9,99,9,99,9,00549,1,99,9,99,9","240,M,+0139,1","240,N,+0112,1","10105,5,09451,5",,,,,,"MET10406/23/23 13:52:02 METAR PAPT 232252Z 17008KT 15SM SCT018 OVC027 14/12 A2984 RMK NO SPECI 401390112 70000","R01    147TMP046R02    127DPT046"
"70249026526","2023-06-24T00:49:00","7","62.0911","-152.7349","566.3","PUNTILLA, AK US","FM-15","PAPT ","V020","170,5,N,0062,5","01219,5,M,N","032187,5,N,5","+0150,C","+0120,C","99999,9",,,,,,,,,,"02,5,+00549,5,99,9","04,5,+00823,5,99,9","08,5,+01219,5,99,9","1,99,1,+00549,5,9","2,99,1,+00823,5,9","4,99,1,+01219,5,9",,"9,AGL   ,+99999,+99999","99,99,9,99,9,99,9,00549,1,99,9,99,9",,,"10102,5,09448,5",,,,,,"MET09506/23/23 15:49:01 METAR PAPT 240049Z 17012KT 20SM FEW018 SCT027 OVC040 15/12 A2983 RMK NO SPECI","R01    157TMP046R02    127DPT046"
"70249026526","2023-06-24T02:49:00","7","62.0911","-152.7349","566.3","PUNTILLA, AK US","FM-15","PAPT ","V020","190,5,N,0062,5","01524,5,M,N","040234,5,N,5","+0150,C","+0120,C","99999,9",,,,,,,,,,"02,5,+00610,5,99,9","04,5,+00914,5,99,9","07,5,+01524,5,99,9","1,99,1,+00610,5,9","2,99,1,+00914,5,9","3,99,1,+01524,5,9",,"9,AGL   ,+99999,+99999","99,99,9,99,9,99,9,00610,1,99,9,99,9",,,"10095,5,09442,5",,,,,,"MET10006/23/23 17:49:02 METAR PAPT 240249Z 19012KT 25SM FEW020 SCT030 BKN050 15/12 A2981 RMK NO SPECI LAST","R01    157TMP046R02    127DPT046"
"70249026526","2023-06-24T08:59:00","O","62.0911","-152.7349","566.3","PUNTILLA, AK US","SOD  ","PAPT ","V020","999,9,9,9999,9","99999,9,9,9","999999,9,9,9","+9999,9","+9999,9","99999,9",,,"AU,16,RA  ,5","AU,01,FG  ,5","AU,13,BR  ,5",,,,,,,,,,,,,,,,,,,,,,,
"70249026526","2023-06-24T14:54:00","7","62.0911","-152.7349","566.3","PUNTILLA, AK US","FM-15","PAPT ","V020","170,5,N,0036,5","01372,5,M,N","040234,5,N,5","+0120,C","+0110,C","99999,9",,,,,,,,,,"02,5,+00549,5,99,9","04,5,+00914,5,99,9","08,5,+01372,5,99,9","1,99,1,+00549,5,9","2,99,1,+00914,5,9","4,99,1,+01372,5,9",,"9,AGL   ,+99999,+99999","99,99,9,99,9,99,9,00549,1,99,9,99,9",,,"10091,5,09438,5",,,,,,"MET10106/24/23 05:54:02 METAR PAPT 241454Z 17007KT 25SM FEW018 SCT030 OVC045 12/11 A2980 RMK NO SPECI FIRST","R01    127TMP046R02    117DPT046"
"70249026526","2023-06-24T16:52:00","7","62.0911","-152.7349","566.3","PUNTILLA, AK US","FM-15","PAPT ","V020","180,5,N,0036,5","01372,5,M,N","032187,5,N,5","+0130,C","+0110,C","99999,9",,,,,,,,,,"02,5,+00549,5,99,9","04,5,+00914,5,99,9","08,5,+01372,5,99,9","1,99,1,+00549,5,9","2,99,1,+00914,5,9","4,99,1,+01372,5,9",,"9,AGL   ,+99999,+99999","99,99,9,99,9,99,9,00549,1,99,9,99,9",,,"10088,5,09435,5",,,,,,"MET09506/24/23 07:52:02 METAR PAPT 241652Z 18007KT 20SM FEW018 SCT030 OVC045 13/11 A2979 RMK NO SPECI","R01    137TMP046R02    117DPT046"
"70249026526","2023-06-24T18:51:00","7","62.0911","-152.7349","566.3","PUNTILLA, AK US","FM-15","PAPT ","V020","190,5,N,0062,5","01372,5,M,N","032187,5,N,5","+0140,C","+0110,C","99999,9",,,,,,,,,,"02,5,+00549,5,99,9","04,5,+00914,5,99,9","07,5,+01372,5,99,9","1,99,1,+00549,5,9","2,99,1,+00914,5,9","3,99,1,+01372,5,9",,"9,AGL   ,+99999,+99999","99,99,9,99,9,99,9,00549,1,99,9,99,9",,,"10085,5,09432,5",,,,,,"MET09506/24/23 09:51:02 METAR PAPT 241851Z 19012KT 20SM FEW018 SCT030 BKN045 14/11 A2978 RMK NO SPECI","R01    147TMP046R02    117DPT046"
"70249026526","2023-06-24T20:58:00","7","62.0911","-152.7349","566.3","PUNTILLA, AK US","FM-15","PAPT ","V020","170,5,N,0072,5","01372,5,M,N","040234,5,N,5","+0160,C","+0110,C","99999,9",,,,,,,,,,"07,5,+01372,5,99,9",,,"3,99,1,+01372,5,9",,,,"9,AGL   ,+99999,+99999","99,99,9,99,9,99,9,01372,1,99,9,99,9",,,"10081,5,09429,5",,,,,,"MET08106/24/23 11:58:02 METAR PAPT 242058Z 17014KT 25SM BKN045 16/11 A2977 RMK NO SPECI","R01    167TMP046R02    117DPT046"
"70249026526","2023-06-24T22:42:00","7","62.0911","-152.7349","566.3","PUNTILLA, AK US","FM-15","PAPT ","V020","180,5,N,0082,5","01524,5,M,N","040234,5,N,5","+0170,C","+0130,C","99999,9",,,,,,,,,,"07,5,+01524,5,99,9",,,"3,99,1,+01524,5,9",,,,"9,AGL   ,+99999,+99999","99,99,9,99,9,99,9,01524,1,99,9,99,9","240,M,+0173,1","240,N,+0117,1","10075,5,09422,5",,,,,,"MET09706/24/23 13:42:02 METAR PAPT 242242Z 18016KT 25SM BKN050 17/13 A2975 RMK NO SPECI 401730117 70000","R01    177TMP046R02    137DPT046"
"70249026526","2023-06-25T00:57:00","7","62.0911","-152.7349","566.3","PUNTILLA, AK US","FM-15","PAPT ","V020","180,5,N,0072,5","01524,5,M,N","040234,5,N,5","+0160,C","+0130,C","99999,9",,,,,,,,,,"07,5,+01524,5,99,9",,,"3,99,1,+01524,5,9",,,,"9,AGL   ,+99999,+99999","99,99,9,99,9,99,9,01524,1,99,9,99,9",,,"10068,5,09416,5",,,,,"0118,5","MET08406/24/23 15:57:01 METAR PAPT 250057Z 18014G23KT 25SM BKN050 16/13 A2973 RMK NO SPECI","R01    167TMP046R02    137DPT046"
"70249026526","2023-06-25T02:58:00","7","62.0911","-152.7349","566.3","PUNTILLA, AK US","FM-15","PAPT ","V020","180,5,N,0082,5","01524,5,M,N","040234,5,N,5","+0160,C","+0110,C","99999,9",,,,,,,,,,"07,5,+01524,5,99,9",,,"3,99,1,+01524,5,9",,,,"9,AGL   ,+99999,+99999","99,99,9,99,9,99,9,01524,1,99,9,99,9",,,"10061,5,09409,5",,,,,,"MET08606/24/23 17:58:01 METAR PAPT 250258Z 18016KT 25SM BKN050 16/11 A2971 RMK NO SPECI LAST","R01    167TMP046R02    117DPT046"
"70249026526","2023-06-25T14:57:00","7","62.0911","-152.7349","566.3","PUNTILLA, AK US","FM-15","PAPT ","V020","190,5,N,0072,5","00914,5,M,N","016093,5,N,5","+0090,C","+0090,C","99999,9",,,,,,"2,0,02,0,0,1,5",,"62,5",,"08,5,+00914,5,99,9",,,"4,99,1,+00914,5,9",,,,"9,AGL   ,+99999,+99999","99,99,9,99,9,99,9,00914,1,99,9,99,9",,,"10020,5,09371,5",,"63,1","65,5",,"0124,5","MET09306/25/23 05:57:02 METAR PAPT 251457Z 19014G24KT 10SM RA OVC030 09/09 A2959 RMK NO SPECI FIRST","R01    097TMP046R02    097DPT046"
"70249026526","2023-06-25T16:51:00","7","62.0911","-152.7349","566.3","PUNTILLA, AK US","FM-15","PAPT ","V020","170,5,N,0072,5","00823,5,M,N","008047,5,N,5","+0080,C","+0070,C","99999,9",,,,,,"2,0,02,0,0,1,5",,"62,5",,"04,5,+00549,5,99,9","08,5,+00823,5,99,9",,"2,99,1,+00549,5,9","4,99,1,+00823,5,9",,,"9,AGL   ,+99999,+99999","99,99,9,99,9,99,9,00549,1,99,9,99,9",,,"10017,5,09368,5",,"63,1","65,5",,"0113,5","MET09306/25/23 07:51:02 METAR PAPT 251651Z 17014G22KT 5SM RA SCT018 OVC027 08/07 A2958 RMK NO SPECI","R01    087TMP046R02    077DPT046"
"70249026526","2023-06-25T18:54:00","7","62.0911","-152.7349","566.3","PUNTILLA, AK US","FM-15","PAPT ","V020","190,5,N,0072,5","00823,5,M,N","008047,5,N,5","+0100,C","+0080,C","99999,9",,,,,,"1,0,02,0,0,1,5",,"61,5",,"04,5,+00457,5,99,9","08,5,+00823,5,99,9",,"2,99,1,+00457,5,9","4,99,1,+00823,5,9",,,"9,AGL   ,+99999,+99999","99,99,9,99,9,99,9,00457,1,99,9,99,9",,,"10030,5,09381,5",,"61,5",,,"0103,5","MET09406/25/23 09:54:02 METAR PAPT 251854Z 19014G20KT 5SM -RA SCT015 OVC027 10/08 A2962 RMK NO SPECI","R01    107TMP046R02    087DPT046"
"70249026526","2023-06-25T20:41:00","7","62.0911","-152.7349","566.3","PUNTILLA, AK US","FM-15","PAPT ","V020","190,5,N,0082,5","01219,5,M,N","024140,5,N,5","+0100,C","+0080,C","99999,9",,,,,,,,,,"02,5,+00457,5,99,9","04,5,+00823,5,99,9","07,5,+01219,5,99,9","1,99,1,+00457,5,9","2,99,1,+00823,5,9","3,99,1,+01219,5,9",,"9,AGL   ,+99999,+99999","99,99,9,99,9,99,9,00457,1,99,9,99,9",,,"10037,5,09387,5",,,,,"0154,5","MET09806/25/23 11:41:02 METAR PAPT 252041Z 19016G30KT 15SM FEW015 SCT027 BKN040 10/08 A2964 RMK NO SPECI","R01    107TMP046R02    087DPT046"
"70249026526","2023-06-26T00:50:00","7","62.0911","-152.7349","566.3","PUNTILLA, AK US","FM-15","PAPT ","V020","170,5,N,0062,5","01829,5,M,N","040234,5,N,5","+0120,C","+0110,C","99999,9",,,,,,,,,,"07,5,+01829,5,99,9",,,"3,99,1,+01829,5,9",,,,"9,AGL   ,+99999,+99999","99,99,9,99,9,99,9,01829,1,99,9,99,9","240,M,+0162,1","240,N,+0089,1","10061,5,09409,5",,,,,"0093,5","MET10006/25/23 15:50:01 METAR PAPT 260050Z 17012G18KT 25SM BKN060 12/11 A2971 RMK NO SPECI 401620089 70019","R01    127TMP046R02    117DPT046"
"70249026526","2023-06-26T08:59:00","O","62.0911","-152.7349","566.3","PUNTILLA, AK US","SOD  ","PAPT ","V020","999,9,9,9999,9","99999,9,9,9","999999,9,9,9","+9999,9","+9999,9","99999,9",,,"AU,16,RA  ,5",,,,,,,,,,,,,,,,,,,,,,,,,
"70249026526","2023-06-26T14:54:00","7","62.0911","-152.7349","566.3","PUNTILLA, AK US","FM-15","PAPT ","V020","180,5,N,0036,5","00762,5,M,N","016093,5,N,5","+0070,C","+0070,C","99999,9",,,,,,,,,,"02,5,+00549,5,99,9","07,5,+00762,5,99,9","08,5,+01219,5,99,9","1,99,1,+00549,5,9","3,99,1,+00762,5,9","4,99,1,+01219,5,9",,"9,AGL   ,+99999,+99999","99,99,9,99,9,99,9,00549,1,99,9,99,9",,,"10119,5,09464,5",,,,,,"MET10106/26/23 05:54:02 METAR PAPT 261454Z 18007KT 10SM FEW018 BKN025 OVC040 07/07 A2988 RMK NO SPECI FIRST","R01    077TMP046R02    077DPT046"
"70249026526","2023-06-26T16:52:00","7","62.0911","-152.7349","566.3","PUNTILLA, AK US","FM-15","PAPT ","V020","160,5,N,0031,5","00823,5,M,N","011265,5,N,5","+0070,C","+0060,C","99999,9",,,,,,,,,,"04,5,+00549,5,99,9","08,5,+00823,5,99,9",,"2,99,1,+00549,5,9","4,99,1,+00823,5,9",,,"9,AGL   ,+99999,+99999","99,99,9,99,9,99,9,00549,1,99,9,99,9",,,"10115,5,09461,5",,,,,,"MET08706/26/23 07:52:02 METAR PAPT 261652Z 16006KT 7SM SCT018 OVC027 07/06 A2987 RMK NO SPECI","R01    077TMP046R02    067DPT046"
"70249026526","2023-06-26T18:57:00","7","62.0911","-152.7349","566.3","PUNTILLA, AK US","FM-15","PAPT ","V020","200,5,N,0041,5","00823,5,M,N","024140,5,N,5","+0080,C","+0070,C","99999,9",,,,,,,,,,"04,5,+00457,5,99,9","08,5,+00823,5,99,9",,"2,99,1,+00457,5,9","4,99,1,+00823,5,9",,,"9,AGL   ,+99999,+99999","99,99,9,99,9,99,9,00457,1,99,9,99,9",,,"10112,5,09458,5",,,,,,"MET08806/26/23 09:57:02 METAR PAPT 261857Z 20008KT 15SM SCT015 OVC027 08/07 A2986 RMK NO SPECI","R01    087TMP046R02    077DPT046"
"70249026526","2023-06-26T20:54:00","7","62.0911","-152.7349","566.3","PUNTILLA, AK US","FM-15","PAPT ","V020","190,5,N,0041,5","00823,5,M,N","024140,5,N,5","+0090,C","+0070,C","99999,9",,,,,,,,,,"02,5,+00549,5,99,9","07,5,+00823,5,99,9","08,5,+01219,5,99,9","1,99,1,+00549,5,9","3,99,1,+00823,5,9","4,99,1,+01219,5,9",,"9,AGL   ,+99999,+99999","99,99,9,99,9,99,9,00549,1,99,9,99,9",,,"10108,5,09454,5",,,,,,"MET09506/26/23 11:54:02 METAR PAPT 262054Z 19008KT 15SM FEW018 BKN027 OVC040 09/07 A2985 RMK NO SPECI","R01    097TMP046R02    077DPT046"
"70249026526","2023-06-26T22:48:00","7","62.0911","-152.7349","566.3","PUNTILLA, AK US","FM-15","PAPT ","V020","170,5,N,0036,5","00823,5,M,N","024140,5,N,5","+0090,C","+0070,C","99999,9",,,,,,,,,,"02,5,+00549,5,99,9","07,5,+00823,5,99,9","08,5,+01372,5,99,9","1,99,1,+00549,5,9","3,99,1,+00823,5,9","4,99,1,+01372,5,9",,"9,AGL   ,+99999,+99999","99,99,9,99,9,99,9,00549,1,99,9,99,9","240,M,+0117,1","240,N,+0073,1","10105,5,09451,5",,,,,,"MET11106/26/23 13:48:02 METAR PAPT 262248Z 17007KT 15SM FEW018 BKN027 OVC045 09/07 A2984 RMK NO SPECI 401170073 70005","R01    097TMP046R02    077DPT046"
"70249026526","2023-06-27T00:59:00","7","62.0911","-152.7349","566.3","PUNTILLA, AK US","FM-15","PAPT ","V020","180,5,N,0041,5","01524,5,M,N","040234,5,N,5","+0100,C","+0070,C","99999,9",,,,,,,,,,"02,5,+00549,5,99,9","08,5,+01524,5,99,9",,"1,99,1,+00549,5,9","4,99,1,+01524,5,9",,,"9,AGL   ,+99999,+99999","99,99,9,99,9,99,9,00549,1,99,9,99,9",,,"10091,5,09438,5",,,,,,"MET08806/26/23 15:59:01 METAR PAPT 270059Z 18008KT 25SM FEW018 OVC050 10/07 A2980 RMK NO SPECI","R01    107TMP046R02    077DPT046"
"70249026526","2023-06-27T02:47:00","7","62.0911","-152.7349","566.3","PUNTILLA, AK US","FM-15","PAPT ","V020","190,5,N,0041,5","01524,5,M,N","040234,5,N,5","+0100,C","+0070,C","99999,9",,,,,,,,,,"02,5,+00549,5,99,9","08,5,+01524,5,99,9",,"1,99,1,+00549,5,9","4,99,1,+01524,5,9",,,"9,AGL   ,+99999,+99999","99,99,9,99,9,99,9,00549,1,99,9,99,9",,,"10085,5,09432,5",,,,,,"MET09306/26/23 17:47:02 METAR PAPT 270247Z 19008KT 25SM FEW018 OVC050 10/07 A2978 RMK NO SPECI LAST","R01    107TMP046R02    077DPT046"
"70249026526","2023-06-27T14:47:00","7","62.0911","-152.7349","566.3","PUNTILLA, AK US","FM-15","PAPT ","V020","999,9,C,0000,5","01829,5,M,N","040234,5,N,5","+0070,C","+0060,C","99999,9",,,,,,,,,,"02,5,+00549,5,99,9","08,5,+01829,5,99,9",,"1,99,1,+00549,5,9","4,99,1,+01829,5,9",,,"9,AGL   ,+99999,+99999","99,99,9,99,9,99,9,00549,1,99,9,99,9",,,"10081,5,09429,5",,,,,,"MET09406/27/23 05:47:02 METAR PAPT 271447Z 00000KT 25SM FEW018 OVC060 07/06 A2977 RMK NO SPECI FIRST","R01    077TMP046R02    067DPT046"
"70249026526","2023-06-27T16:59:00","7","62.0911","-152.7349","566.3","PUNTILLA, AK US","FM-15","PAPT ","V020","180,5,N,0021,5","01829,5,M,N","040234,5,N,5","+0080,C","+0060,C","99999,9",,,,,,,,,,"02,5,+00549,5,99,9","08,5,+01829,5,99,9",,"1,99,1,+00549,5,9","4,99,1,+01829,5,9",,,"9,AGL   ,+99999,+99999","99,99,9,99,9,99,9,00549,1,99,9,99,9",,,"10081,5,09429,5",,,,,,"MET08806/27/23 07:59:02 METAR PAPT 271659Z 18004KT 25SM FEW018 OVC060 08/06 A2977 RMK NO SPECI","R01    087TMP046R02    067DPT046"
"70249026526","2023-06-27T18:48:00","7","62.0911","-152.7349","566.3","PUNTILLA, AK US","FM-15","PAPT ","V020","190,5,N,0031,5","01829,5,M,N","040234,5,N,5","+0090,C","+0070,C","99999,9",,,,,,,,,,"02,5,+00549,5,99,9","08,5,+01829,5,99,9",,"1,99,1,+00549,5,9","4,99,1,+01829,5,9",,,"9,AGL   ,+99999,+99999","99,99,9,99,9,99,9,00549,1,99,9,99,9",,,"10078,5,09425,5",,,,,,"MET08806/27/23 09:48:02 METAR PAPT 271848Z 19006KT 25SM FEW018 OVC060 09/07 A2976 RMK NO SPECI","R01    097TMP046R02    077DPT046"
"70249026526","2023-06-27T20:47:00","7","62.0911","-152.7349","566.3","PUNTILLA, AK US","FM-15","PAPT ","V020","180,5,N,0041,5","01829,5,M,N","040234,5,N,5","+0090,C","+0070,C","99999,9",,,,,,,,,,"02,5,+00549,5,99,9","08,5,+01829,5,99,9",,"1,99,1,+00549,5,9","4,99,1,+01829,5,9",,,"9,AGL   ,+99999,+99999","99,99,9,99,9,99,9,00549,1,99,9,99,9",,,"10081,5,09429,5",,,,,,"MET08806/27/23 11:47:02 METAR PAPT 272047Z 18008KT 25SM FEW018 OVC060 09/07 A2977 RMK NO SPECI","R01    097TMP046R02    077DPT046"
"70249026526","2023-06-28T02:59:00","7","62.0911","-152.7349","566.3","PUNTILLA, AK US","FM-15","PAPT ","V020","180,5,N,0041,5","01829,5,M,N","040234,5,N,5","+0100,C","+0080,C","99999,9",,,,,,,,,,"02,5,+00549,5,99,9","08,5,+01829,5,99,9",,"1,99,1,+00549,5,9","4,99,1,+01829,5,9",,,"9,AGL   ,+99999,+99999","99,99,9,99,9,99,9,00549,1,99,9,99,9",,,"10071,5,09419,5",,,,,,"MET09306/27/23 17:59:02 METAR PAPT 280259Z 18008KT 25SM FEW018 OVC060 10/08 A2974 RMK NO SPECI LAST","R01    107TMP046R02    087DPT046"
"70249026526","2023-06-28T14:48:00","7","62.0911","-152.7349","566.3","PUNTILLA, AK US","FM-15","PAPT ","V020","999,9,C,0000,5","01981,5,M,N","040234,5,N,5","+0060,C","+0050,C","99999,9",,,,,,,,,,"02,5,+00549,5,99,9","08,5,+01981,5,99,9",,"1,99,1,+00549,5,9","4,99,1,+01981,5,9",,,"9,AGL   ,+99999,+99999","99,99,9,99,9,99,9,00549,1,99,9,99,9",,,"10024,5,09374,5",,,,,,"MET09406/28/23 05:48:02 METAR PAPT 281448Z 00000KT 25SM FEW018 OVC065 06/05 A2960 RMK NO SPECI FIRST","R01    067TMP046R02    057DPT046"
"70249026526","2023-06-28T16:59:00","7","62.0911","-152.7349","566.3","PUNTILLA, AK US","FM-15","PAPT ","V020","999,9,C,0000,5","01829,5,M,N","040234,7,N,5","+0080,C","+0070,C","99999,9",,,,,,"2,0,02,0,0,1,5",,"62,5",,"02,5,+00305,5,99,9","04,5,+00549,5,99,9","08,5,+01829,5,99,9","1,99,1,+00305,5,9","2,99,1,+00549,5,9","4,99,1,+01829,5,9",,"9,AGL   ,+99999,+99999","99,99,9,99,9,99,9,00305,1,99,9,99,9",,,"10020,5,09371,5",,"63,1","65,5",,,"MET09806/28/23 07:59:02 METAR PAPT 281659Z 00000KT 25SM RA FEW010 SCT018 OVC060 08/07 A2959 RMK NO SPECI","R01  25SM7VIS011R02    087TMP046R03    077DPT046"
"70249026526","2023-06-28T18:57:00","7","62.0911","-152.7349","566.3","PUNTILLA, AK US","FM-15","PAPT ","V020","999,9,C,0000,5","00914,5,M,N","040234,7,N,5","+0090,C","+0070,C","99999,9",,,,,,"1,0,02,0,0,1,5",,"61,5",,"02,5,+00305,5,99,9","04,5,+00549,5,99,9","08,5,+00914,5,99,9","1,99,1,+00305,5,9","2,99,1,+00549,5,9","4,99,1,+00914,5,9",,"9,AGL   ,+99999,+99999","99,99,9,99,9,99,9,00305,1,99,9,99,9",,,"10017,5,09368,5",,"61,5",,,,"MET09906/28/23 09:57:02 METAR PAPT 281857Z 00000KT 25SM -RA FEW010 SCT018 OVC030 09/07 A2958 RMK NO SPECI","R01  25SM7VIS011R02    097TMP046R03    077DPT046"
"70249026526","2023-06-28T20:50:00","7","62.0911","-152.7349","566.3","PUNTILLA, AK US","FM-15","PAPT ","V020","999,9,C,0000,5","01219,5,M,N","040234,5,N,5","+0110,C","+0070,C","99999,9",,,,,,,,,,"02,5,+00549,5,99,9","08,5,+01219,5,99,9",,"1,99,1,+00549,5,9","4,99,1,+01219,5,9",,,"9,AGL   ,+99999,+99999","99,99,9,99,9,99,9,00549,1,99,9,99,9",,,"10014,5,09365,5",,,,,,"MET08806/28/23 11:50:02 METAR PAPT 282050Z 00000KT 25SM FEW018 OVC040 11/07 A2957 RMK NO SPECI","R01    117TMP046R02    077DPT046"
"70249026526","2023-06-28T22:53:00","7","62.0911","-152.7349","566.3","PUNTILLA, AK US","FM-15","PAPT ","V020","200,5,N,0015,5","01219,5,M,N","040234,7,N,5","+0110,C","+0070,C","99999,9",,,,,,"1,0,02,0,0,1,5",,"61,5",,"02,5,+00549,5,99,9","08,5,+01219,5,99,9",,"1,99,1,+00549,5,9","4,99,1,+01219,5,9",,,"9,AGL   ,+99999,+99999","99,99,9,99,9,99,9,00549,1,99,9,99,9","240,M,+0112,1","240,N,+0062,1","10014,5,09365,5",,"61,5",,,,"MET10806/28/23 13:53:02 METAR PAPT 282253Z 20003KT 25SM -RA FEW018 OVC040 11/07 A2957 RMK NO SPECI 401120062 70002","R01  25SM7VIS011R02    117TMP046R03    077DPT046"
"70249026526","2023-06-29T08:59:00","O","62.0911","-152.7349","566.3","PUNTILLA, AK US","SOD  ","PAPT ","V020","999,9,9,9999,9","99999,9,9,9","999999,9,9,9","+9999,9","+9999,9","99999,9",,,"AU,16,RA  ,5",,,,,,,,,,,,,,,,,,,,,,,,,
"70249026526","2023-06-29T14:57:00","7","62.0911","-152.7349","566.3","PUNTILLA, AK US","FM-15","PAPT ","V020","999,9,C,0000,5","00488,5,M,N","004828,6,N,5","+0090,C","+0080,C","99999,9",,,,,,"1,0,02,0,0,2,6","0,0,00,2,0,3,6","30,6","61,6","04,5,+00305,5,99,9","08,5,+00488,5,99,9",,"2,99,1,+00305,5,9","4,99,1,+00488,5,9",,,,,,,"10027,5,09377,5",,"10,5","61,6",,,"MET09906/29/23 05:57:02 METAR PAPT 291457Z 00000KT 3SM -RAFG SCT010 OVC016 09/08 A2961 RMK NO SPECI FIRST","R01   3SM7VIS018R02    097TMP046R03    087DPT046R04 -RAFG7AWW018R05SEERMK7MVW018R06 -RAFG7MWW018D01      0ADE693D02      0ADE539D03      0ADE735"
"70249026526","2023-06-29T18:51:00","7","62.0911","-152.7349","566.3","PUNTILLA, AK US","FM-15","PAPT ","V020","160,5,N,0015,5","01829,5,M,N","040234,5,N,5","+0110,C","+0080,C","99999,9",,,,,,,,,,"04,5,+00549,5,99,9","08,5,+01829,5,99,9",,"2,99,1,+00549,5,9","4,99,1,+01829,5,9",,,"9,AGL   ,+99999,+99999","99,99,9,99,9,99,9,00549,1,99,9,99,9",,,"10037,5,09387,5",,,,,,"MET08806/29/23 09:51:02 METAR PAPT 291851Z 16003KT 25SM SCT018 OVC060 11/08 A2964 RMK NO SPECI","R01    117TMP046R02    087DPT046"
"70249026526","2023-06-29T20:57:00","7","62.0911","-152.7349","566.3","PUNTILLA, AK US","FM-15","PAPT ","V020","180,5,N,0051,5","01981,5,M,N","040234,5,N,5","+0140,C","+0110,C","99999,9",,,,,,,,,,"02,5,+00610,5,99,9","07,5,+01981,5,99,9",,"1,99,1,+00610,5,9","3,99,1,+01981,5,9",,,"9,AGL   ,+99999,+99999","99,99,9,99,9,99,9,00610,1,99,9,99,9",,,"10037,5,09387,5",,,,,,"MET08806/29/23 11:57:02 METAR PAPT 292057Z 18010KT 25SM FEW020 BKN065 14/11 A2964 RMK NO SPECI","R01    147TMP046R02    117DPT046"
"70249026526","2023-06-29T22:59:00","7","62.0911","-152.7349","566.3","PUNTILLA, AK US","FM-15","PAPT ","V020","170,5,N,0031,5","01981,5,M,N","040234,5,N,5","+0140,C","+0110,C","99999,9",,,,,,,,,,"02,5,+00762,5,99,9","07,5,+01981,5,99,9",,"1,99,1,+00762,5,9","3,99,1,+01981,5,9",,,"9,AGL   ,+99999,+99999","99,99,9,99,9,99,9,00762,1,99,9,99,9","240,M,+0139,1","240,N,+0089,1","10041,5,09390,5",,,,,,"MET10406/29/23 13:59:02 METAR PAPT 292259Z 17006KT 25SM FEW025 BKN065 14/11 A2965 RMK NO SPECI 401390089 70000","R01    147TMP046R02    117DPT046"
"70249026526","2023-06-30T00:59:00","7","62.0911","-152.7349","566.3","PUNTILLA, AK US","FM-15","PAPT ","V020","999,9,C,0000,5","01981,5,M,N","040234,5,N,5","+0130,C","+0110,C","99999,9",,,,,,,,,,"02,5,+00762,5,99,9","07,5,+01981,5,99,9",,"1,99,1,+00762,5,9","3,99,1,+01981,5,9",,,"9,AGL   ,+99999,+99999","99,99,9,99,9,99,9,00762,1,99,9,99,9",,,"10051,5,09400,5",,,,,,"MET08806/29/23 15:59:01 METAR PAPT 300059Z 00000KT 25SM FEW025 BKN065 13/11 A2968 RMK NO SPECI","R01    137TMP046R02    117DPT046"
"70249026526","2023-06-30T08:59:00","O","62.0911","-152.7349","566.3","PUNTILLA, AK US","SOD  ","PAPT ","V020","999,9,9,9999,9","99999,9,9,9","999999,9,9,9","+9999,9","+9999,9","99999,9",,,"MW,13,BR  ,5",,,,,,,,,,,,,,,,,,,,,,,,,
"70249026526","2023-06-30T14:45:00","7","62.0911","-152.7349","566.3","PUNTILLA, AK US","FM-15","PAPT ","V020","999,9,C,0000,5","01981,5,M,N","040234,5,N,5","+0060,C","+0050,C","99999,9",,,,,,,,,,"02,5,+00305,5,99,9","04,5,+00610,5,99,9","07,5,+01981,5,99,9","1,99,1,+00305,5,9","2,99,1,+00610,5,9","3,99,1,+01981,5,9",,"9,AGL   ,+99999,+99999","99,99,9,99,9,99,9,00305,1,99,9,99,9",,,"10129,5,09474,5",,,,,,"MET10106/30/23 05:45:02 METAR PAPT 301445Z 00000KT 25SM FEW010 SCT020 BKN065 06/05 A2991 RMK NO SPECI FIRST","R01    067TMP046R02    057DPT046"
"70249026526","2023-06-30T20:59:00","7","62.0911","-152.7349","566.3","PUNTILLA, AK US","FM-15","PAPT ","V020","180,5,N,0015,5","01981,5,M,N","040234,5,N,5","+0130,C","+0100,C","99999,9",,,,,,,,,,"07,5,+01981,5,99,9",,,"3,99,1,+01981,5,9",,,,"9,AGL   ,+99999,+99999","99,99,9,99,9,99,9,01981,1,99,9,99,9",,,"10146,5,09490,5",,,,,,"MET08106/30/23 11:59:02 METAR PAPT 302059Z 18003KT 25SM BKN065 13/10 A2996 RMK NO SPECI","R01    137TMP046R02    107DPT046"
"70249026526","2023-06-30T22:49:00","4","62.0911","-152.7349","566.3","PUNTILLA, AK US","FM-15","99999","V020","170,1,N,0015,1","01981,1,9,N","040234,1,9,9","+0140,1","+0110,1","99999,9",,,,,,,,,,,,,"3,99,1,+01981,1,9",,,,"9,AGL   ,+99999,+99999","99,99,9,99,9,99,9,01981,1,99,9,99,9","240,M,+0139,1","240,N,+0067,1","10149,1,99999,9",,,,,,"MET080METAR PAPT 302249Z 17003KT 25SM BKN065 14/11 A2997 RMK NO SPECI 401390067 70000=",
"70249026526","2023-07-01T02:59:00","4","62.0911","-152.7349","566.3","PUNTILLA, AK US","FM-15","99999","V020","180,1,N,0036,1","22000,5,9,N","040234,1,9,9","+0160,1","+0140,1","99999,9",,,,,,,,,,,,,"2,99,1,+02134,1,9",,,,"9,AGL   ,+99999,+99999","04,99,5,99,9,99,9,02134,1,99,9,99,9",,,"10149,1,99999,9",,,,,,"MET069METAR PAPT 010259Z 18007KT 25SM SCT070 16/14 A2997 RMK NO SPECI LAST=","D01      0ADE726"
"70249026526","2023-07-01T14:52:00","7","62.0911","-152.7349","566.3","PUNTILLA, AK US","FM-15","PAPT ","V020","999,9,C,0000,5","22000,5,9,N","040234,5,N,5","+0080,C","+0070,C","99999,9",,,,,,,,,,"02,5,+03048,5,99,9",,,"1,99,1,+03048,5,9",,,,"9,AGL   ,+99999,+99999","02,99,5,99,9,99,9,03048,1,99,9,99,9",,,"10176,5,09518,5",,,,,,"MET08707/01/23 05:52:02 METAR PAPT 011452Z 00000KT 25SM FEW100 08/07 A3005 RMK NO SPECI FIRST","R01    087TMP046R02    077DPT046D01      0ADE726"
"70249026526","2023-07-01T16:59:00","7","62.0911","-152.7349","566.3","PUNTILLA, AK US","FM-15","PAPT ","V020","190,5,N,0021,5","22000,5,9,N","040234,5,N,5","+0120,C","+0060,C","99999,9",,,,,,,,,,"02,5,+03048,5,99,9",,,"1,99,1,+03048,5,9",,,,"9,AGL   ,+99999,+99999","02,99,5,99,9,99,9,03048,1,99,9,99,9",,,"10169,5,09512,5",,,,,,"MET08107/01/23 07:59:02 METAR PAPT 011659Z 19004KT 25SM FEW100 12/06 A3003 RMK NO SPECI","R01    127TMP046R02    067DPT046D01      0ADE726"
"70249026526","2023-07-02T14:46:00","7","62.0911","-152.7349","566.3","PUNTILLA, AK US","FM-15","PAPT ","V020","190,5,N,0036,5","03048,5,M,N","040234,5,N,5","+0120,C","+0110,C","99999,9",,,,,,,,,,"07,5,+03048,5,99,9",,,"3,99,1,+03048,5,9",,,,"9,AGL   ,+99999,+99999","99,99,9,99,9,99,9,03048,1,99,9,99,9",,,"10186,5,09528,5",,,,,,"MET08707/02/23 05:46:02 METAR PAPT 021446Z 19007KT 25SM BKN100 12/11 A3008 RMK NO SPECI FIRST","R01    127TMP046R02    117DPT046"
"70249026526","2023-07-02T18:53:00","7","62.0911","-152.7349","566.3","PUNTILLA, AK US","FM-15","PAPT ","V020","170,5,N,0041,5","02438,5,M,N","040234,5,N,5","+0140,C","+0130,C","99999,9",,,,,,,,,,"07,5,+02438,5,99,9",,,"3,99,1,+02438,5,9",,,,"9,AGL   ,+99999,+99999","99,99,9,99,9,99,9,02438,1,99,9,99,9",,,"10193,5,09535,5",,,,,,"MET08107/02/23 09:53:02 METAR PAPT 021853Z 17008KT 25SM BKN080 14/13 A3010 RMK NO SPECI","R01    147TMP046R02    137DPT046"
"70249026526","2023-07-02T20:51:00","7","62.0911","-152.7349","566.3","PUNTILLA, AK US","FM-15","PAPT ","V020","170,5,N,0041,5","02438,5,M,N","040234,5,N,5","+0150,C","+0100,C","99999,9",,,,,,,,,,"07,5,+02438,5,99,9",,,"3,99,1,+02438,5,9",,,,"9,AGL   ,+99999,+99999","99,99,9,99,9,99,9,02438,1,99,9,99,9",,,"10190,5,09531,5",,,,,,"MET08107/02/23 11:51:02 METAR PAPT 022051Z 17008KT 25SM BKN080 15/10 A3009 RMK NO SPECI","R01    157TMP046R02    107DPT046"
"70249026526","2023-07-02T22:58:00","7","62.0911","-152.7349","566.3","PUNTILLA, AK US","FM-15","PAPT ","V020","180,5,N,0077,5","02438,5,M,N","040234,5,N,5","+0150,C","+0130,C","99999,9",,,,,,,,,,"07,5,+02438,5,99,9",,,"3,99,1,+02438,5,9",,,,"9,AGL   ,+99999,+99999","99,99,9,99,9,99,9,02438,1,99,9,99,9","240,M,+0151,1","240,N,+0123,1","10186,5,09528,5",,,,,"0103,5","MET10007/02/23 13:58:02 METAR PAPT 022258Z 18015G20KT 25SM BKN080 15/13 A3008 RMK NO SPECI 401510123 70000","R01    157TMP046R02    137DPT046"
"70249026526","2023-07-03T00:54:00","7","62.0911","-152.7349","566.3","PUNTILLA, AK US","FM-15","PAPT ","V020","180,5,N,0051,5","01981,5,M,N","040234,5,N,5","+0110,C","+0090,C","99999,9",,,,,,,,,,"08,5,+01981,5,99,9",,,"4,99,1,+01981,5,9",,,,"9,AGL   ,+99999,+99999","99,99,9,99,9,99,9,01981,1,99,9,99,9",,,"10190,5,09531,5",,,,,"0103,5","MET08407/02/23 15:54:01 METAR PAPT 030054Z 18010G20KT 25SM OVC065 11/09 A3009 RMK NO SPECI","R01    117TMP046R02    097DPT046"
"70249026526","2023-07-03T14:59:00","7","62.0911","-152.7349","566.3","PUNTILLA, AK US","FM-15","PAPT ","V020","180,5,N,0041,5","00549,5,M,N","004828,6,N,5","+0080,C","+0070,C","99999,9",,,,,,"1,0,02,0,0,2,6","0,0,00,2,0,3,6","30,6","61,6","04,5,+00244,5,99,9","08,5,+00549,5,99,9",,"2,99,1,+00244,5,9","4,99,1,+00549,5,9",,,,,,,"10152,5,09496,5",,"10,5","61,6",,,"MET09907/03/23 05:59:02 METAR PAPT 031459Z 18008KT 3SM -RAFG SCT008 OVC018 08/07 A2998 RMK NO SPECI FIRST","R01   3SM7VIS018R02    087TMP046R03    077DPT046R04 -RAFG7AWW018R05SEERMK7MVW018R06 -RAFG7MWW018D01      0ADE735"
"70249026526","2023-07-03T16:59:00","7","62.0911","-152.7349","566.3","PUNTILLA, AK US","FM-15","PAPT ","V020","190,5,N,0062,5","01829,5,M,N","999999,9,N,5","+0080,C","+0060,C","99999,9",,,,,,"2,0,02,0,0,2,5","0,0,00,2,0,3,5","30,5","62,5","04,5,+00549,5,99,9","08,5,+01829,5,99,9",,"2,99,1,+00549,5,9","4,99,1,+01829,5,9",,,,,,,"10156,5,09499,5",,"10,5","63,5","65,5",,"MET09307/03/23 07:59:02 METAR PAPT 031659Z 19012KT 15SM RAFG SCT018 OVC060 08/06 A2999 RMK NO SPECI","P010241402VODIS R01  15SM7VIS011R02    087TMP046R03    067DPT046D01      0ADE735"
"70249026526","2023-07-04T08:59:00","O","62.0911","-152.7349","566.3","PUNTILLA, AK US","SOD  ","PAPT ","V020","999,9,9,9999,9","99999,9,9,9","999999,9,9,9","+9999,9","+9999,9","99999,9",,,"AU,16,RA  ,5","AU,01,FG  ,5","MW,13,BR  ,5",,,,,,,,,,,,,,,,,,,,,,,
"70249026526","2023-07-04T16:58:00","7","62.0911","-152.7349","566.3","PUNTILLA, AK US","FM-15","PAPT ","V020","999,9,C,0000,5","01829,5,M,N","019312,5,N,5","+0080,C","+0070,C","99999,9",,,,,,,,,,"02,5,+00305,5,99,9","04,5,+00610,5,99,9","08,5,+01829,5,99,9","1,99,1,+00305,5,9","2,99,1,+00610,5,9","4,99,1,+01829,5,9",,"9,AGL   ,+99999,+99999","99,99,9,99,9,99,9,00305,1,99,9,99,9",,,"10186,5,09528,5",,,,,,"MET09507/04/23 07:58:02 METAR PAPT 041658Z 00000KT 12SM FEW010 SCT020 OVC060 08/07 A3008 RMK NO SPECI","R01    087TMP046R02    077DPT046"
"70249026526","2023-07-04T18:43:00","7","62.0911","-152.7349","566.3","PUNTILLA, AK US","FM-15","PAPT ","V020","040,5,N,0036,5","01981,5,M,N","040234,5,N,5","+0100,C","+0060,C","99999,9",,,,,,,,,,"02,5,+00610,5,99,9","08,5,+01981,5,99,9",,"1,99,1,+00610,5,9","4,99,1,+01981,5,9",,,"9,AGL   ,+99999,+99999","99,99,9,99,9,99,9,00610,1,99,9,99,9",,,"10183,5,09525,5",,,,,,"MET08807/04/23 09:43:02 METAR PAPT 041843Z 04007KT 25SM FEW020 OVC065 10/06 A3007 RMK NO SPECI","R01    107TMP046R02    067DPT046"
"70249026526","2023-07-04T22:48:00","7","62.0911","-152.7349","566.3","PUNTILLA, AK US","FM-15","PAPT ","V020","180,5,N,0041,5","01981,5,M,N","040234,5,N,5","+0120,C","+0050,C","99999,9",,,,,,,,,,"07,5,+01981,5,99,9",,,"3,99,1,+01981,5,9",,,,"9,AGL   ,+99999,+99999","99,99,9,99,9,99,9,01981,1,99,9,99,9","240,M,+0123,1","240,N,+0078,1","10190,5,09531,5",,,,,"0093,5","MET10007/04/23 13:48:02 METAR PAPT 042248Z 18008G18KT 25SM BKN065 12/05 A3009 RMK NO SPECI 401230078 70019","R01    127TMP046R02    057DPT046"
"70249026526","2023-07-05T00:58:00","7","62.0911","-152.7349","566.3","PUNTILLA, AK US","FM-15","PAPT ","V020","170,5,N,0041,5","01981,5,M,N","040234,5,N,5","+0100,C","+0050,C","99999,9",,,,,,,,,,"07,5,+01981,5,99,9",,,"3,99,1,+01981,5,9",,,,"9,AGL   ,+99999,+99999","99,99,9,99,9,99,9,01981,1,99,9,99,9",,,"10190,5,09531,5",,,,,"0067,7","MET08407/04/23 15:58:01 METAR PAPT 050058Z 17008G13KT 25SM BKN065 10/05 A3009 RMK NO SPECI","R01    107TMP046R02    057DPT046R03 G13KT7OCW039"
"70249026526","2023-07-05T14:59:00","7","62.0911","-152.7349","566.3","PUNTILLA, AK US","FM-15","PAPT ","V020","180,5,N,0051,5","00610,5,M,N","006437,5,N,5","+0070,C","+0060,C","99999,9",,,,,,,,,,"04,5,+00305,5,99,9","08,5,+00610,5,99,9",,"2,99,1,+00305,5,9","4,99,1,+00610,5,9",,,"9,AGL   ,+99999,+99999","99,99,9,99,9,99,9,00305,1,99,9,99,9",,,"10220,5,09560,5",,,,,,"MET09307/05/23 05:59:02 METAR PAPT 051459Z 18010KT 4SM SCT010 OVC020 07/06 A3018 RMK NO SPECI FIRST","R01    077TMP046R02    067DPT046"
"70249026526","2023-07-05T18:54:00","7","62.0911","-152.7349","566.3","PUNTILLA, AK US","FM-15","PAPT ","V020","180,5,N,0041,5","01524,5,M,N","999999,9,N,5","+0080,C","+0070,C","99999,9",,,,,,"2,0,02,0,0,2,5","0,0,00,2,0,3,5","30,5","62,5","04,5,+00518,5,99,9","08,5,+01524,5,99,9",,"2,99,1,+00518,5,9","4,99,1,+01524,5,9",,,,,,,"10217,5,09557,5",,"10,5","63,5","65,5",,"MET09307/05/23 09:54:02 METAR PAPT 051854Z 18008KT 12SM RAFG SCT017 OVC050 08/07 A3017 RMK NO SPECI","P010193122VODIS R01  12SM7VIS011R02    087TMP046R03    077DPT046D01      0ADE735"
"70249026526","2023-07-05T20:53:00","7","62.0911","-152.7349","566.3","PUNTILLA, AK US","FM-15","PAPT ","V020","180,5,N,0041,5","01372,5,M,N","011265,6,N,5","+0090,C","+0070,C","99999,9",,,,,,"0,0,00,2,0,1,6",,"30,6",,"04,5,+00488,5,99,9","08,5,+01372,5,99,9",,"2,99,1,+00488,5,9","4,99,1,+01372,5,9",,,"9,AGL   ,+99999,+99999","99,99,9,99,9,99,9,00488,1,99,9,99,9",,,"10220,5,09560,5",,"44,1",,,,"MET09007/05/23 11:53:02 METAR PAPT 052053Z 18008KT 7SM FG SCT016 OVC045 09/07 A3018 RMK NO SPECI","R01   7SM7VIS018R02    097TMP046R03    077DPT046R04    FG7AWW018R05SEERMK7MVW018R06    FG7MWW018"
"70249026526","2023-07-06T08:59:00","O","62.0911","-152.7349","566.3","PUNTILLA, AK US","SOD  ","PAPT ","V020","999,9,9,9999,9","99999,9,9,9","999999,9,9,9","+9999,9","+9999,9","99999,9",,,"AU,16,RA  ,5","AU,01,FG  ,5","MW,13,BR  ,5",,,,,,,,,,,,,,,,,,,,,,,
"70249026526","2023-07-06T14:49:00","6","62.0911","-152.7349","566.3","PUNTILLA, AK US","FM-15","PAPT ","V020","180,5,N,0015,5","00244,5,M,N","003219,6,N,5","+0080,C","+0070,C","99999,9",,,,,,"1,0,02,0,0,2,6","0,0,00,2,0,3,6","30,6","61,6","07,5,+00244,5,99,9","08,5,+00457,5,99,9",,"3,99,1,+00244,5,9","4,99,1,+00457,5,9",,,,,,,"10193,5,09535,5",,"61,6",,,,"MET09907/06/23 05:49:01 METAR PAPT 061449Z 18003KT 2SM -RAFG BKN008 OVC015 08/07 A3010 RMK NO SPECI FIRST","R01   2SM7VIS018R02    087TMP046R03    077DPT046R04 -RAFG7AWW018R05SEERMK7MVW018R06 -RAFG7MWW018"
"70249026526","2023-07-06T20:59:00","7","62.0911","-152.7349","566.3","PUNTILLA, AK US","FM-15","PAPT ","V020","170,5,N,0026,5","00610,5,M,N","008047,6,N,5","+0100,C","+0090,C","99999,9",,,,,,"2,0,02,0,0,2,6","0,0,00,2,0,3,6","30,6","62,6","04,5,+00152,5,99,9","08,5,+00610,5,99,9",,"2,99,1,+00152,5,9","4,99,1,+00610,5,9",,,,,,,"10173,5,09515,5",,"10,5","63,5","65,6",,"MET09207/06/23 11:59:02 METAR PAPT 062059Z 17005KT 5SM RAFG SCT005 OVC020 10/09 A3004 RMK NO SPECI","R01   5SM7VIS018R02    107TMP046R03    097DPT046R04  RAFG7AWW018R05SEERMK7MVW018R06  RAFG7MWW018D01      0ADE735"
"70249026526","2023-07-07T00:48:00","7","62.0911","-152.7349","566.3","PUNTILLA, AK US","FM-15","PAPT ","V020","170,5,N,0021,5","00244,5,M,N","008047,6,N,5","+0110,C","+0100,C","99999,9",,,,,,"2,0,02,0,0,2,6","0,0,00,2,0,3,6","30,6","62,6","02,5,+00122,5,99,9","07,5,+00244,5,99,9","08,5,+00610,5,99,9","1,99,1,+00122,5,9","3,99,1,+00244,5,9","4,99,1,+00610,5,9",,,,"240,M,+0106,1","240,N,+0084,1","10152,5,09496,5",,"10,5","63,5","65,6",,"MET11507/06/23 15:48:01 METAR PAPT 070048Z 17004KT 5SM RAFG FEW004 BKN008 OVC020 11/10 A2998 RMK NO SPECI 401060084 70057","R01   5SM7VIS018R02    117TMP046R03    107DPT046R04  RAFG7AWW018R05SEERMK7MVW018R06  RAFG7MWW018D01      0ADE735"
"70249026526","2023-07-07T08:59:00","O","62.0911","-152.7349","566.3","PUNTILLA, AK US","SOD  ","PAPT ","V020","999,9,9,9999,9","99999,9,9,9","999999,9,9,9","+9999,9","+9999,9","99999,9",,,"MW,16,RA  ,5","MW,13,BR  ,5",,,,,,,,,,,,,,,,,,,,,,,,
"70249026526","2023-07-07T14:57:00","7","62.0911","-152.7349","566.3","PUNTILLA, AK US","FM-15","PAPT ","V020","180,5,N,0026,5","00610,5,M,N","008047,6,N,5","+0110,C","+0100,C","99999,9",,,,,,"0,0,00,2,0,1,6",,"30,6",,"02,5,+00183,5,99,9","07,5,+00610,5,99,9",,"1,99,1,+00183,5,9","3,99,1,+00610,5,9",,,"9,AGL   ,+99999,+99999","99,99,9,99,9,99,9,00183,1,99,9,99,9",,,"10112,5,09458,5",,"44,1",,,,"MET09607/07/23 05:57:02 METAR PAPT 071457Z 18005KT 5SM FG FEW006 BKN020 11/10 A2986 RMK NO SPECI FIRST","R01   5SM7VIS018R02    117TMP046R03    107DPT046R04    FG7AWW018R05SEERMK7MVW018R06    FG7MWW018"
"70249026526","2023-07-07T16:59:00","7","62.0911","-152.7349","566.3","PUNTILLA, AK US","FM-15","PAPT ","V020","050,5,N,0021,5","01981,5,M,N","032187,5,N,5","+0120,C","+0100,C","99999,9",,,,,,,,,,"02,5,+00610,5,99,9","07,5,+01981,5,99,9",,"1,99,1,+00610,5,9","3,99,1,+01981,5,9",,,"9,AGL   ,+99999,+99999","99,99,9,99,9,99,9,00610,1,99,9,99,9",,,"10102,5,09448,5",,,,,,"MET08807/07/23 07:59:02 METAR PAPT 071659Z 05004KT 20SM FEW020 BKN065 12/10 A2983 RMK NO SPECI","R01    127TMP046R02    107DPT046"
"70249026526","2023-07-07T20:59:00","7","62.0911","-152.7349","566.3","PUNTILLA, AK US","FM-15","PAPT ","V020","170,5,N,0051,5","01981,5,M,N","040234,5,N,5","+0160,C","+0070,C","99999,9",,,,,,,,,,"07,5,+01981,5,99,9",,,"3,99,1,+01981,5,9",,,,"9,AGL   ,+99999,+99999","99,99,9,99,9,99,9,01981,1,99,9,99,9",,,"10085,5,09432,5",,,,,"0082,5","MET08407/07/23 11:59:02 METAR PAPT 072059Z 17010G16KT 25SM BKN065 16/07 A2978 RMK NO SPECI","R01    167TMP046R02    077DPT046"
"70249026526","2023-07-07T22:46:00","7","62.0911","-152.7349","566.3","PUNTILLA, AK US","FM-15","PAPT ","V020","160,5,N,0077,5","01981,5,M,N","040234,5,N,5","+0150,C","+0070,C","99999,9",,,,,,,,,,"07,5,+01981,5,99,9",,,"3,99,1,+01981,5,9",,,,"9,AGL   ,+99999,+99999","99,99,9,99,9,99,9,01981,1,99,9,99,9","240,M,+0156,1","240,N,+0106,1","10081,5,09429,5",,,,,"0103,5","MET10007/07/23 13:46:02 METAR PAPT 072246Z 16015G20KT 25SM BKN065 15/07 A2977 RMK NO SPECI 401560106 70000","R01    157TMP046R02    077DPT046"
"70249026526","2023-07-08T00:53:00","7","62.0911","-152.7349","566.3","PUNTILLA, AK US","FM-15","PAPT ","V020","170,5,N,0041,5","01981,5,M,N","040234,5,N,5","+0120,C","+0100,C","99999,9",,,,,,,,,,"07,5,+01981,5,99,9",,,"3,99,1,+01981,5,9",,,,"9,AGL   ,+99999,+99999","99,99,9,99,9,99,9,01981,1,99,9,99,9",,,"10081,5,09429,5",,,,,"0067,7","MET08407/07/23 15:53:01 METAR PAPT 080053Z 17008G13KT 25SM BKN065 12/10 A2977 RMK NO SPECI","R01    127TMP046R02    107DPT046R03 G13KT7OCW039"
"70249026526","2023-07-08T02:58:00","7","62.0911","-152.7349","566.3","PUNTILLA, AK US","FM-15","PAPT ","V020","190,5,N,0041,5","01981,5,M,N","040234,7,N,5","+0100,C","+0090,C","99999,9",,,,,,"2,0,02,0,0,1,5",,"62,5",,"02,5,+00762,5,99,9","07,5,+01981,5,99,9",,"1,99,1,+00762,5,9","3,99,1,+01981,5,9",,,"9,AGL   ,+99999,+99999","99,99,9,99,9,99,9,00762,1,99,9,99,9",,,"10088,5,09435,5",,"63,1","65,5",,,"MET09607/07/23 17:58:01 METAR PAPT 080258Z 19008KT 25SM RA FEW025 BKN065 10/09 A2979 RMK NO SPECI LAST","R01  25SM7VIS011R02    107TMP046R03    097DPT046"
"70249026526","2023-07-08T08:59:00","O","62.0911","-152.7349","566.3","PUNTILLA, AK US","SOD  ","PAPT ","V020","999,9,9,9999,9","99999,9,9,9","999999,9,9,9","+9999,9","+9999,9","99999,9",,,"AU,16,RA  ,5",,,,,,,,,,,,,,,,,,,,,,,,,
"70249026526","2023-07-08T14:59:00","7","62.0911","-152.7349","566.3","PUNTILLA, AK US","FM-15","PAPT ","V020","999,9,C,0000,5","00091,5,W,N","001609,6,N,5","+0050,C","+0040,C","99999,9",,,,,,"2,0,01,0,0,2,6","0,0,00,2,0,3,6","30,6","52,6","09,5,+00091,5,99,9",,,"5,99,1,+00091,5,9",,,,,,,,"10135,5,09480,5",,"10,5","53,5","55,6",,"MET09007/08/23 05:59:02 METAR PAPT 081459Z 00000KT 1SM DZFG VV003 05/04 A2993 RMK NO SPECI FIRST","R01   1SM7VIS018R02    057TMP046R03    047DPT046R04  DZFG7AWW018R05SEERMK7MVW018R06  DZFG7MWW018D01      0ADE735"
"70249026526","2023-07-08T18:58:00","7","62.0911","-152.7349","566.3","PUNTILLA, AK US","FM-15","PAPT ","V020","170,5,N,0036,5","00549,5,M,N","999999,9,N,5","+0080,C","+0060,C","99999,9",,,,,,,,,,"02,5,+00305,5,99,9","07,5,+00549,5,99,9",,"1,99,1,+00305,5,9","3,99,1,+00549,5,9",,,"9,AGL   ,+99999,+99999","99,99,9,99,9,99,9,00305,1,99,9,99,9",,,"10146,5,09490,5",,,,,,"MET08307/08/23 09:58:02 METAR PAPT 081858Z 17007KT FEW010 BKN018 08/06 A2996 RMK NO SPECI","R01    087TMP046R02    067DPT046"
"70249026526","2023-07-08T20:50:00","7","62.0911","-152.7349","566.3","PUNTILLA, AK US","FM-15","PAPT ","V020","170,5,N,0041,5","01219,5,M,N","999999,9,N,5","+0100,C","+0070,C","99999,9",,,,,,,,,,"04,5,+00549,5,99,9","07,5,+01219,5,99,9",,"2,99,1,+00549,5,9","3,99,1,+01219,5,9",,,"9,AGL   ,+99999,+99999","99,99,9,99,9,99,9,00549,1,99,9,99,9",,,"10142,5,09486,5",,,,,,"MET08307/08/23 11:50:02 METAR PAPT 082050Z 17008KT SCT018 BKN040 10/07 A2995 RMK NO SPECI","R01    107TMP046R02    077DPT046"
"70249026526","2023-07-08T22:49:00","7","62.0911","-152.7349","566.3","PUNTILLA, AK US","FM-15","PAPT ","V020","180,5,N,0062,5","01829,5,M,N","999999,9,N,5","+0110,C","+0060,C","99999,9",,,,,,,,,,"02,5,+00579,5,99,9","08,5,+01829,5,99,9",,"1,99,1,+00579,5,9","4,99,1,+01829,5,9",,,"9,AGL   ,+99999,+99999","99,99,9,99,9,99,9,00579,1,99,9,99,9",,,"10142,5,09486,5",,,,,,"MET09907/08/23 13:49:02 METAR PAPT 082249Z 18012KT FEW019 OVC060 11/06 A2995 RMK NO SPECI 40106084 700010","R01    117TMP046R02    067DPT046"
"70249026526","2023-07-09T00:58:00","7","62.0911","-152.7349","566.3","PUNTILLA, AK US","FM-15","PAPT ","V020","180,5,N,0051,5","01829,5,M,N","999999,9,N,5","+0110,C","+0060,C","99999,9",,,,,,,,,,"02,5,+00579,5,99,9","08,5,+01829,5,99,9",,"1,99,1,+00579,5,9","4,99,1,+01829,5,9",,,"9,AGL   ,+99999,+99999","99,99,9,99,9,99,9,00579,1,99,9,99,9",,,"10146,5,09490,5",,,,,,"MET08307/08/23 15:58:01 METAR PAPT 090058Z 18010KT FEW019 OVC060 11/06 A2996 RMK NO SPECI","R01    117TMP046R02    067DPT046"
"70249026526","2023-07-09T08:59:00","O","62.0911","-152.7349","566.3","PUNTILLA, AK US","SOD  ","PAPT ","V020","999,9,9,9999,9","99999,9,9,9","999999,9,9,9","+9999,9","+9999,9","99999,9",,,"MW,14,DZ  ,5","MW,13,BR  ,5",,,,,,,,,,,,,,,,,,,,,,,,
"70249026526","2023-07-09T16:59:00","7","62.0911","-152.7349","566.3","PUNTILLA, AK US","FM-15","PAPT ","V020","190,5,N,0046,5","00518,5,M,N","999999,9,N,5","+0080,C","+0070,C","99999,9",,,,,,"1,0,02,0,0,2,5","0,0,00,2,0,3,5","30,5","61,5","07,5,+00518,5,99,9","08,5,+01219,5,99,9",,"3,99,1,+00518,5,9","4,99,1,+01219,5,9",,,,,,,"10125,5,09470,5",,"10,5","61,5",,,"MET08907/09/23 07:59:02 METAR PAPT 091659Z 19009KT -RAFG BKN017 OVC040 08/07 A2990 RMK NO SPECI","R01    087TMP046R02    077DPT046D01      0ADE735"
"70249026526","2023-07-10T08:59:00","O","62.0911","-152.7349","566.3","PUNTILLA, AK US","SOD  ","PAPT ","V020","999,9,9,9999,9","99999,9,9,9","999999,9,9,9","+9999,9","+9999,9","99999,9",,,"AU,16,RA  ,5","AU,01,FG  ,5","MW,13,BR  ,5",,,,,,,,,,,,,,,,,,,,,,,
"70249026526","2023-07-10T14:59:00","7","62.0911","-152.7349","566.3","PUNTILLA, AK US","FM-15","PAPT ","V020","180,5,N,0026,5","00518,5,M,N","999999,9,N,5","+0070,C","+0060,C","99999,9",,,,,,"0,0,00,2,0,1,5",,"30,5",,"02,5,+00305,5,99,9","08,5,+00518,5,99,9",,"1,99,1,+00305,5,9","4,99,1,+00518,5,9",,,"9,AGL   ,+99999,+99999","99,99,9,99,9,99,9,00305,1,99,9,99,9",,,"10115,5,09461,5",,"44,1",,,,"MET09207/10/23 05:59:01 METAR PAPT 101459Z 18005KT FG FEW010 OVC017 07/06 A2987 RMK NO SPECI FIRST","R01    077TMP046R02    067DPT046"
"70249026526","2023-07-10T18:45:00","7","62.0911","-152.7349","566.3","PUNTILLA, AK US","FM-15","PAPT ","V020","170,5,N,0026,5","00610,5,M,N","999999,9,N,5","+0080,C","+0070,C","99999,9",,,,,,,,,,"04,5,+00305,5,99,9","08,5,+00610,5,99,9",,"2,99,1,+00305,5,9","4,99,1,+00610,5,9",,,"9,AGL   ,+99999,+99999","99,99,9,99,9,99,9,00305,1,99,9,99,9",,,"10125,5,09470,5",,,,,,"MET08307/10/23 09:45:02 METAR PAPT 101845Z 17005KT SCT010 OVC020 08/07 A2990 RMK NO SPECI","R01    087TMP046R02    077DPT046"
"70249026526","2023-07-10T20:54:00","7","62.0911","-152.7349","566.3","PUNTILLA, AK US","FM-15","PAPT ","V020","170,5,N,0026,5","00610,5,M,N","999999,9,N,5","+0090,C","+0080,C","99999,9",,,,,,,,,,"04,5,+00305,5,99,9","08,5,+00610,5,99,9",,"2,99,1,+00305,5,9","4,99,1,+00610,5,9",,,"9,AGL   ,+99999,+99999","99,99,9,99,9,99,9,00305,1,99,9,99,9",,,"10125,5,09470,5",,,,,,"MET08307/10/23 11:54:02 METAR PAPT 102054Z 17005KT SCT010 OVC020 09/08 A2990 RMK NO SPECI","R01    097TMP046R02    087DPT046"
"70249026526","2023-07-10T22:59:00","7","62.0911","-152.7349","566.3","PUNTILLA, AK US","FM-15","PAPT ","V020","180,5,N,0031,5","01067,5,M,N","999999,9,N,5","+0100,C","+0090,C","99999,9",,,,,,,,,,"02,5,+00518,5,99,9","07,5,+01067,5,99,9","08,5,+01676,5,99,9","1,99,1,+00518,5,9","3,99,1,+01067,5,9","4,99,1,+01676,5,9",,"9,AGL   ,+99999,+99999","99,99,9,99,9,99,9,00518,1,99,9,99,9","240,M,+0095,1","240,N,+0073,1","10125,5,09470,5",,,,,,"MET10607/10/23 13:59:02 METAR PAPT 102259Z 18006KT FEW017 BKN035 OVC055 10/09 A2990 RMK NO SPECI 400950073 70005","R01    107TMP046R02    097DPT046"
"70249026526","2023-07-11T00:49:00","7","62.0911","-152.7349","566.3","PUNTILLA, AK US","FM-15","PAPT ","V020","180,5,N,0026,5","01067,5,M,N","999999,9,N,5","+0110,C","+0070,C","99999,9",,,,,,,,,,"02,5,+00579,5,99,9","08,5,+01067,5,99,9",,"1,99,1,+00579,5,9","4,99,1,+01067,5,9",,,"9,AGL   ,+99999,+99999","99,99,9,99,9,99,9,00579,1,99,9,99,9",,,"10129,5,09474,5",,,,,,"MET08307/10/23 15:49:01 METAR PAPT 110049Z 18005KT FEW019 OVC035 11/07 A2991 RMK NO SPECI","R01    117TMP046R02    077DPT046"
"70249026526","2023-07-11T02:59:00","7","62.0911","-152.7349","566.3","PUNTILLA, AK US","FM-15","PAPT ","V020","180,5,N,0031,5","00549,5,M,N","999999,9,N,5","+0100,C","+0090,C","99999,9",,,,,,"1,0,02,0,0,2,5","0,0,00,2,0,3,5","30,5","61,5","08,5,+00549,5,99,9",,,"4,99,1,+00549,5,9",,,,,,,,"10122,5,09467,5",,"10,5","61,5",,,"MET08707/10/23 17:59:01 METAR PAPT 110259Z 18006KT -RAFG OVC018 10/09 A2989 RMK NO SPECI LAST","R01    107TMP046R02    097DPT046D01      0ADE735"
"70249026526","2023-07-11T08:59:00","O","62.0911","-152.7349","566.3","PUNTILLA, AK US","SOD  ","PAPT ","V020","999,9,9,9999,9","99999,9,9,9","999999,9,9,9","+9999,9","+9999,9","99999,9",,,"AU,16,RA  ,5","AU,01,FG  ,5","MW,13,BR  ,5",,,,,,,,,,,,,,,,,,,,,,,
"70249026526","2023-07-11T14:59:00","7","62.0911","-152.7349","566.3","PUNTILLA, AK US","FM-15","PAPT ","V020","999,9,C,0000,5","00305,5,M,N","999999,9,N,5","+0080,C","+0070,C","99999,9",,,,,,"2,0,02,0,0,2,5","0,0,00,2,0,3,5","30,5","62,5","02,5,+00091,5,99,9","07,5,+00305,5,99,9","08,5,+01524,5,99,9","1,99,1,+00091,5,9","3,99,1,+00305,5,9","4,99,1,+01524,5,9",,,,,,"10122,5,09467,5",,"10,5","63,5","65,5",,"MET10107/11/23 05:59:01 METAR PAPT 111459Z 00000KT RAFG FEW003 BKN010 OVC050 08/07 A2989 RMK NO SPECI FIRST","R01    087TMP046R02    077DPT046D01      0ADE735"
"70249026526","2023-07-11T18:54:00","7","62.0911","-152.7349","566.3","PUNTILLA, AK US","FM-15","PAPT ","V020","150,5,N,0021,5","00091,5,M,N","999999,9,N,5","+0100,C","+0090,C","99999,9",,,,,,"2,0,02,0,0,2,5","0,0,00,2,0,3,5","30,5","62,5","07,5,+00091,5,99,9","08,5,+00274,5,99,9",,"3,99,1,+00091,5,9","4,99,1,+00274,5,9",,,,,,,"10139,5,09483,5",,"10,5","63,5","65,5",,"MET08807/11/23 09:54:02 METAR PAPT 111854Z 15004KT RAFG BKN003 OVC009 10/09 A2994 RMK NO SPECI","R01    107TMP046R02    097DPT046D01      0ADE735"
"70249026526","2023-07-11T20:50:00","7","62.0911","-152.7349","566.3","PUNTILLA, AK US","FM-15","PAPT ","V020","999,9,C,0000,5","00457,5,M,N","999999,9,N,5","+0110,C","+0100,C","99999,9",,,,,,"0,0,00,2,0,1,5",,"30,5",,"02,5,+00152,5,99,9","08,5,+00457,5,99,9",,"1,99,1,+00152,5,9","4,99,1,+00457,5,9",,,"9,AGL   ,+99999,+99999","99,99,9,99,9,99,9,00152,1,99,9,99,9",,,"10142,5,09486,5",,"44,1",,,,"MET08607/11/23 11:50:02 METAR PAPT 112050Z 00000KT FG FEW005 OVC015 11/10 A2995 RMK NO SPECI","R01    117TMP046R02    107DPT046"
"70249026526","2023-07-11T22:52:00","7","62.0911","-152.7349","566.3","PUNTILLA, AK US","FM-15","PAPT ","V020","160,5,N,0021,5","00914,5,M,N","024140,5,N,5","+0110,C","+0090,C","99999,9",,,,,,,,,,"04,5,+00518,5,99,9","08,5,+00914,5,99,9",,"2,99,1,+00518,5,9","4,99,1,+00914,5,9",,,"9,AGL   ,+99999,+99999","99,99,9,99,9,99,9,00518,1,99,9,99,9","240,M,+0112,1","240,N,+0084,1","10149,5,09493,5",,,,,,"MET10407/11/23 13:52:02 METAR PAPT 112252Z 16004KT 15SM SCT017 OVC030 11/09 A2997 RMK NO SPECI 401120084 70027","R01    117TMP046R02    097DPT046"
"70249026526","2023-07-12T00:54:00","7","62.0911","-152.7349","566.3","PUNTILLA, AK US","FM-15","PAPT ","V020","170,5,N,0015,5","00914,5,M,N","024140,5,N,5","+0120,C","+0100,C","99999,9",,,,,,,,,,"02,5,+00518,5,99,9","08,5,+00914,5,99,9",,"1,99,1,+00518,5,9","4,99,1,+00914,5,9",,,"9,AGL   ,+99999,+99999","99,99,9,99,9,99,9,00518,1,99,9,99,9",,,"10156,5,09499,5",,,,,,"MET08807/11/23 15:54:01 METAR PAPT 120054Z 17003KT 15SM FEW017 OVC030 12/10 A2999 RMK NO SPECI","R01    127TMP046R02    107DPT046"
"70249026526","2023-07-12T08:59:00","O","62.0911","-152.7349","566.3","PUNTILLA, AK US","SOD  ","PAPT ","V020","999,9,9,9999,9","99999,9,9,9","999999,9,9,9","+9999,9","+9999,9","99999,9",,,"AU,16,RA  ,5","AU,01,FG  ,5","MW,13,BR  ,5",,,,,,,,,,,,,,,,,,,,,,,
"70249026526","2023-07-12T14:59:00","7","62.0911","-152.7349","566.3","PUNTILLA, AK US","FM-15","PAPT ","V020","020,5,N,0015,5","22000,5,9,N","040234,5,N,5","+0090,C","+0080,C","99999,9",,,,,,,,,,"04,5,+01981,5,99,9",,,"2,99,1,+01981,5,9",,,,"9,AGL   ,+99999,+99999","04,99,5,99,9,99,9,01981,1,99,9,99,9",,,"10203,5,09544,5",,,,,,"MET08707/12/23 05:59:02 METAR PAPT 121459Z 02003KT 25SM SCT065 09/08 A3013 RMK NO SPECI FIRST","R01    097TMP046R02    087DPT046D01      0ADE726"
"70249026526","2023-07-12T16:59:00","7","62.0911","-152.7349","566.3","PUNTILLA, AK US","FM-15","PAPT ","V020","350,5,N,0041,5","01829,5,M,N","040234,5,N,5","+0110,C","+0090,C","99999,9",,,,,,,,,,"07,5,+01829,5,99,9",,,"3,99,1,+01829,5,9",,,,"9,AGL   ,+99999,+99999","99,99,9,99,9,99,9,01829,1,99,9,99,9",,,"10207,5,09547,5",,,,,,"MET08107/12/23 07:59:02 METAR PAPT 121659Z 35008KT 25SM BKN060 11/09 A3014 RMK NO SPECI","R01    117TMP046R02    097DPT046"
"70249026526","2023-07-12T18:52:00","7","62.0911","-152.7349","566.3","PUNTILLA, AK US","FM-15","PAPT ","V020","350,5,N,0041,5","01829,5,M,N","040234,5,N,5","+0160,C","+0050,C","99999,9",,,,,,,,,,"07,5,+01829,5,99,9",,,"3,99,1,+01829,5,9",,,,"9,AGL   ,+99999,+99999","99,99,9,99,9,99,9,01829,1,99,9,99,9",,,"10210,5,09551,5",,,,,,"MET08107/12/23 09:52:02 METAR PAPT 121852Z 35008KT 25SM BKN060 16/05 A3015 RMK NO SPECI","R01    167TMP046R02    057DPT046"
"70249026526","2023-07-12T22:49:00","7","62.0911","-152.7349","566.3","PUNTILLA, AK US","FM-15","PAPT ","V020","350,5,N,0057,5","01981,5,M,N","040234,5,N,5","+0180,C","+0080,C","99999,9",,,,,,,,,,"07,5,+01981,5,99,9",,,"3,99,1,+01981,5,9",,,,"9,AGL   ,+99999,+99999","99,99,9,99,9,99,9,01981,1,99,9,99,9","240,M,+0178,1","240,N,+0085,1","10217,5,09557,5",,,,,,"MET09807/12/23 13:49:02 METAR PAPT 122249Z 35011KT 25SM BKN065 18/08 A3017 RMK NO SPECI 401780085 700010","R01    187TMP046R02    087DPT046"
"70249026526","2023-07-13T00:59:00","7","62.0911","-152.7349","566.3","PUNTILLA, AK US","FM-15","PAPT ","V020","350,5,N,0041,5","02134,5,M,N","040234,5,N,5","+0170,C","+0130,C","99999,9",,,,,,,,,,"07,5,+02134,5,99,9",,,"3,99,1,+02134,5,9",,,,"9,AGL   ,+99999,+99999","99,99,9,99,9,99,9,02134,1,99,9,99,9",,,"10213,5,09554,5",,,,,,"MET08107/12/23 15:59:01 METAR PAPT 130059Z 35008KT 25SM BKN070 17/13 A3016 RMK NO SPECI","R01    177TMP046R02    137DPT046"
"70249026526","2023-07-13T14:59:00","7","62.0911","-152.7349","566.3","PUNTILLA, AK US","FM-15","PAPT ","V020","350,5,N,0021,5","22000,7,9,N","040234,5,N,5","+0050,C","+0050,C","99999,9",,,,,,,,,,"00,7,+99999,9,99,9",,,"0,99,1,+99999,9,9",,,,,"00,99,1,99,9,99,9,99999,9,99,9,99,9",,,"10224,5,09563,5",,,,,,"MET08407/13/23 05:59:02 METAR PAPT 131459Z 35004KT 25SM SKC 05/05 A3019 RMK NO SPECI FIRST","R01   SKC7SKY009R02    057TMP046R03    057DPT046R04   SKC7GAS009"
"70249026526","2023-07-13T16:53:00","7","62.0911","-152.7349","566.3","PUNTILLA, AK US","FM-15","PAPT ","V020","999,9,C,0000,5","22000,5,9,N","040234,5,N,5","+0130,C","+0090,C","99999,9",,,,,,,,,,"02,5,+03048,5,99,9",,,"1,99,1,+03048,5,9",,,,"9,AGL   ,+99999,+99999","02,99,5,99,9,99,9,03048,1,99,9,99,9",,,"10213,5,09554,5",,,,,,"MET08107/13/23 07:53:02 METAR PAPT 131653Z 00000KT 25SM FEW100 13/09 A3016 RMK NO SPECI","R01    137TMP046R02    097DPT046D01      0ADE726"
"70249026526","2023-07-13T18:53:00","7","62.0911","-152.7349","566.3","PUNTILLA, AK US","FM-15","PAPT ","V020","010,5,N,0036,5","03048,7,M,N","040234,5,N,5","+0170,C","+0120,C","99999,9",,,,,,,,,,"02,7,+02438,7,99,9","07,7,+03048,7,99,9",,"1,99,1,+02438,7,9","3,99,1,+03048,7,9",,,"9,AGL   ,+99999,+99999","99,99,9,99,9,99,9,02438,1,99,9,99,9",,,"10203,5,09544,5",,,,,,"MET08707/13/23 09:53:02 METAR PAPT 131853Z 01007KT 25SM FEW080BKN100 17/12 A3013 RMK NO SPECI","R01FEW0807SKY009R02    177TMP046R03    127DPT046R04FEW0807GAS009"
"70249026526","2023-07-13T21:00:00","7","62.0911","-152.7349","566.3","PUNTILLA, AK US","FM-15","PAPT ","V020","350,5,N,0021,5","03048,5,M,N","040234,5,N,5","+0190,C","+0130,C","99999,9",,,,,,,,,,"02,5,+02438,5,99,9","07,5,+03048,5,99,9",,"1,99,1,+02438,5,9","3,99,1,+03048,5,9",,,"9,AGL   ,+99999,+99999","99,99,9,99,9,99,9,02438,1,99,9,99,9",,,"10200,5,09541,5",,,,,,"MET08807/13/23 12:00:02 METAR PAPT 132100Z 35004KT 25SM FEW080 BKN100 19/13 A3012 RMK NO SPECI","R01    197TMP046R02    137DPT046"
"70249026526","2023-07-13T22:50:00","7","62.0911","-152.7349","566.3","PUNTILLA, AK US","FM-15","PAPT ","V020","190,5,N,0026,5","22000,5,9,N","040234,5,N,5","+0200,C","+0150,C","99999,9",,,,,,,,,,"02,5,+02438,5,99,9","04,5,+03048,5,99,9",,"1,99,1,+02438,5,9","2,99,1,+03048,5,9",,,"9,AGL   ,+99999,+99999","04,99,5,99,9,99,9,02438,1,99,9,99,9","240,M,+0201,1","240,N,+0051,1","10193,5,09535,5",,,,,,"MET10407/13/23 13:50:02 METAR PAPT 132250Z 19005KT 25SM FEW080 SCT100 20/15 A3010 RMK NO SPECI 402010051 70000","R01    207TMP046R02    157DPT046D01      0ADE726"
"70249026526","2023-07-14T00:54:00","7","62.0911","-152.7349","566.3","PUNTILLA, AK US","FM-15","PAPT ","V020","999,9,C,0000,5","22000,5,9,N","040234,5,N,5","+0210,C","+0160,C","99999,9",,,,,,,,,,"02,5,+02438,5,99,9","04,5,+03048,5,99,9",,"1,99,1,+02438,5,9","2,99,1,+03048,5,9",,,"9,AGL   ,+99999,+99999","04,99,5,99,9,99,9,02438,1,99,9,99,9",,,"10183,5,09525,5",,,,,,"MET08807/13/23 15:54:01 METAR PAPT 140054Z 00000KT 25SM FEW080 SCT100 21/16 A3007 RMK NO SPECI","R01    217TMP046R02    167DPT046D01      0ADE726"
"70249026526","2023-07-14T14:56:00","7","62.0911","-152.7349","566.3","PUNTILLA, AK US","FM-15","PAPT ","V020","999,9,C,0000,5","02438,5,M,N","040234,5,N,5","+0110,C","+0100,C","99999,9",,,,,,,,,,"07,5,+02438,5,99,9",,,"3,99,1,+02438,5,9",,,,"9,AGL   ,+99999,+99999","99,99,9,99,9,99,9,02438,1,99,9,99,9",,,"10179,5,09522,5",,,,,,"MET08707/14/23 05:56:02 METAR PAPT 141456Z 00000KT 25SM BKN080 11/10 A3006 RMK NO SPECI FIRST","R01    117TMP046R02    107DPT046"
"70249026526","2023-07-14T16:51:00","7","62.0911","-152.7349","566.3","PUNTILLA, AK US","FM-15","PAPT ","V020","180,5,N,0021,5","02438,5,M,N","040234,5,N,5","+0130,C","+0120,C","99999,9",,,,,,,,,,"07,5,+02438,5,99,9",,,"3,99,1,+02438,5,9",,,,"9,AGL   ,+99999,+99999","99,99,9,99,9,99,9,02438,1,99,9,99,9",,,"10176,5,09518,5",,,,,,"MET08107/14/23 07:51:02 METAR PAPT 141651Z 18004KT 25SM BKN080 13/12 A3005 RMK NO SPECI","R01    137TMP046R02    127DPT046"
"70249026526","2023-07-14T18:45:00","7","62.0911","-152.7349","566.3","PUNTILLA, AK US","FM-15","PAPT ","V020","180,5,N,0041,5","02438,5,M,N","040234,5,N,5","+0150,C","+0130,C","99999,9",,,,,,,,,,"02,5,+00914,5,99,9","07,5,+02438,5,99,9",,"1,99,1,+00914,5,9","3,99,1,+02438,5,9",,,"9,AGL   ,+99999,+99999","99,99,9,99,9,99,9,00914,1,99,9,99,9",,,"10173,5,09515,5",,,,,,"MET08807/14/23 09:45:01 METAR PAPT 141845Z 18008KT 25SM FEW030 BKN080 15/13 A3004 RMK NO SPECI","R01    157TMP046R02    137DPT046"
"70249026526","2023-07-14T20:53:00","7","62.0911","-152.7349","566.3","PUNTILLA, AK US","FM-15","PAPT ","V020","180,5,N,0041,5","02438,5,M,N","040234,5,N,5","+0180,C","+0140,C","99999,9",,,,,,,,,,"02,5,+00914,5,99,9","04,5,+01524,5,99,9","07,5,+02438,5,99,9","1,99,1,+00914,5,9","2,99,1,+01524,5,9","3,99,1,+02438,5,9",,"9,AGL   ,+99999,+99999","99,99,9,99,9,99,9,00914,1,99,9,99,9",,,"10169,5,09512,5",,,,,,"MET09507/14/23 11:53:01 METAR PAPT 142053Z 18008KT 25SM FEW030 SCT050 BKN080 18/14 A3003 RMK NO SPECI","R01    187TMP046R02    147DPT046"
"70249026526","2023-07-14T22:55:00","7","62.0911","-152.7349","566.3","PUNTILLA, AK US","FM-15","PAPT ","V020","180,5,N,0051,5","00914,5,M,N","040234,5,N,5","+0170,C","+0140,C","99999,9",,,,,,,,,,"07,5,+00914,5,99,9","08,5,+01524,5,99,9",,"3,99,1,+00914,5,9","4,99,1,+01524,5,9",,,"9,AGL   ,+99999,+99999","99,99,9,99,9,99,9,00914,1,99,9,99,9","240,M,+0212,1","240,N,+0112,1","10169,5,09512,5",,,,,,"MET10407/14/23 13:55:02 METAR PAPT 142255Z 18010KT 25SM BKN030 OVC050 17/14 A3003 RMK NO SPECI 402120112 70000","R01    177TMP046R02    147DPT046"
"70249026526","2023-07-15T00:56:00","7","62.0911","-152.7349","566.3","PUNTILLA, AK US","FM-15","PAPT ","V020","180,5,N,0041,5","00914,5,M,N","040234,5,N,5","+0160,C","+0130,C","99999,9",,,,,,,,,,"02,5,+00610,5,99,9","07,5,+00914,5,99,9","08,5,+01372,5,99,9","1,99,1,+00610,5,9","3,99,1,+00914,5,9","4,99,1,+01372,5,9",,"9,AGL   ,+99999,+99999","99,99,9,99,9,99,9,00610,1,99,9,99,9",,,"10166,5,09509,5",,,,,,"MET09507/14/23 15:56:01 METAR PAPT 150056Z 18008KT 25SM FEW020 BKN030 OVC045 16/13 A3002 RMK NO SPECI","R01    167TMP046R02    137DPT046"
"70249026526","2023-07-16T20:48:00","7","62.0911","-152.7349","566.3","PUNTILLA, AK US","FM-15","PAPT ","V020","180,5,N,0026,5","00610,5,M,N","011265,5,N,5","+0110,C","+0100,C","99999,9",,,,,,"2,0,02,0,0,1,5",,"62,5",,"08,5,+00610,5,99,9",,,"4,99,1,+00610,5,9",,,,"9,AGL   ,+99999,+99999","99,99,9,99,9,99,9,00610,1,99,9,99,9",,,"10081,5,09429,5",,"63,1","65,5",,,"MET08307/16/23 11:48:02 METAR PAPT 162048Z 18005KT 7SM RA OVC020 11/10 A2977 RMK NO SPECI","R01    117TMP046R02    107DPT046"
"70249026526","2023-07-17T00:45:00","7","62.0911","-152.7349","566.3","PUNTILLA, AK US","FM-15","PAPT ","V020","180,5,N,0021,5","00762,5,M,N","032187,5,N,5","+0130,C","+0110,C","99999,9",,,,,,,,,,"02,5,+00549,5,99,9","08,5,+00762,5,99,9",,"1,99,1,+00549,5,9","4,99,1,+00762,5,9",,,"9,AGL   ,+99999,+99999","99,99,9,99,9,99,9,00549,1,99,9,99,9",,,"10081,5,09429,5",,,,,,"MET08807/16/23 15:45:01 METAR PAPT 170045Z 18004KT 20SM FEW018 OVC025 13/11 A2977 RMK NO SPECI","R01    137TMP046R02    117DPT046"
"70249026526","2023-07-17T02:59:00","7","62.0911","-152.7349","566.3","PUNTILLA, AK US","FM-15","PAPT ","V020","180,5,N,0041,5","02438,5,M,N","011265,5,N,5","+0110,C","+0090,C","99999,9",,,,,,"1,0,02,0,0,1,5",,"61,5",,"02,5,+00549,5,99,9","08,5,+02438,5,99,9",,"1,99,1,+00549,5,9","4,99,1,+02438,5,9",,,"9,AGL   ,+99999,+99999","99,99,9,99,9,99,9,00549,1,99,9,99,9",,,"10071,5,09419,5",,"61,5",,,,"MET09607/16/23 17:59:01 METAR PAPT 170259Z 18008KT 7SM -RA FEW018 OVC080 11/09 A2974 RMK NO SPECI LAST","R01    117TMP046R02    097DPT046"
"70249026526","2023-07-17T08:59:00","O","62.0911","-152.7349","566.3","PUNTILLA, AK US","SOD  ","PAPT ","V020","999,9,9,9999,9","99999,9,9,9","999999,9,9,9","+9999,9","+9999,9","99999,9",,,"AU,16,RA  ,5",,,,,,,,,,,,,,,,,,,,,,,,,
"70249026526","2023-07-17T16:52:00","7","62.0911","-152.7349","566.3","PUNTILLA, AK US","FM-15","PAPT ","V020","999,9,C,0000,5","02438,5,M,N","011265,5,N,5","+0100,C","+0090,C","99999,9",,,,,,,,,,"02,5,+00305,5,99,9","04,5,+00762,5,99,9","07,5,+02438,5,99,9","1,99,1,+00305,5,9","2,99,1,+00762,5,9","3,99,1,+02438,5,9",,"9,AGL   ,+99999,+99999","99,99,9,99,9,99,9,00305,1,99,9,99,9",,,"10115,5,09461,5",,,,,,"MET09407/17/23 07:52:01 METAR PAPT 171652Z 00000KT 7SM FEW010 SCT025 BKN080 10/09 A2987 RMK NO SPECI","R01    107TMP046R02    097DPT046"
"70249026526","2023-07-17T18:52:00","7","62.0911","-152.7349","566.3","PUNTILLA, AK US","FM-15","PAPT ","V020","350,5,N,0021,5","02438,5,M,N","024140,5,N,5","+0120,C","+0100,C","99999,9",,,,,,,,,,"02,5,+00610,5,99,9","04,5,+00762,5,99,9","07,5,+02438,5,99,9","1,99,1,+00610,5,9","2,99,1,+00762,5,9","3,99,1,+02438,5,9",,"9,AGL   ,+99999,+99999","99,99,9,99,9,99,9,00610,1,99,9,99,9",,,"10122,5,09467,5",,,,,,"MET09507/17/23 09:52:01 METAR PAPT 171852Z 35004KT 15SM FEW020 SCT025 BKN080 12/10 A2989 RMK NO SPECI","R01    127TMP046R02    107DPT046"
"70249026526","2023-07-17T20:47:00","7","62.0911","-152.7349","566.3","PUNTILLA, AK US","FM-15","PAPT ","V020","999,9,C,0000,5","02438,5,M,N","032187,5,N,5","+0150,C","+0120,C","99999,9",,,,,,,,,,"02,5,+00610,5,99,9","07,5,+02438,5,99,9",,"1,99,1,+00610,5,9","3,99,1,+02438,5,9",,,"9,AGL   ,+99999,+99999","99,99,9,99,9,99,9,00610,1,99,9,99,9",,,"10125,5,09470,5",,,,,,"MET08807/17/23 11:47:01 METAR PAPT 172047Z 00000KT 20SM FEW020 BKN080 15/12 A2990 RMK NO SPECI","R01    157TMP046R02    127DPT046"
"70249026526","2023-07-17T22:59:00","7","62.0911","-152.7349","566.3","PUNTILLA, AK US","FM-15","PAPT ","V020","180,5,N,0026,5","02438,5,M,N","040234,7,N,5","+0150,C","+0110,C","99999,9",,,,,,"1,0,02,0,0,1,5",,"61,5",,"02,5,+01524,5,99,9","07,5,+02438,5,99,9",,"1,99,1,+01524,5,9","3,99,1,+02438,5,9",,,"9,AGL   ,+99999,+99999","99,99,9,99,9,99,9,01524,1,99,9,99,9","240,M,+0145,1","240,N,+0101,1","10125,5,09470,5",,"61,5",,,,"MET10807/17/23 13:59:02 METAR PAPT 172259Z 18005KT 25SM -RA FEW050 BKN080 15/11 A2990 RMK NO SPECI 401450101 70010","R01  25SM7VIS011R02    157TMP046R03    117DPT046"
"70249026526","2023-07-18T00:45:00","7","62.0911","-152.7349","566.3","PUNTILLA, AK US","FM-15","PAPT ","V020","180,5,N,0021,5","02438,5,M,N","040234,7,N,5","+0160,C","+0110,C","99999,9",,,,,,"2,0,02,0,0,1,5",,"62,5",,"02,5,+01524,5,99,9","07,5,+02438,5,99,9",,"1,99,1,+01524,5,9","3,99,1,+02438,5,9",,,"9,AGL   ,+99999,+99999","99,99,9,99,9,99,9,01524,1,99,9,99,9",,,"10132,5,09477,5",,"63,1","65,5",,,"MET09107/17/23 15:45:01 METAR PAPT 180045Z 18004KT 25SM RA FEW050 BKN080 16/11 A2992 RMK NO SPECI","R01  25SM7VIS011R02    167TMP046R03    117DPT046"
"70249026526","2023-07-18T08:59:00","O","62.0911","-152.7349","566.3","PUNTILLA, AK US","SOD  ","PAPT ","V020","999,9,9,9999,9","99999,9,9,9","999999,9,9,9","+9999,9","+9999,9","99999,9",,,"AU,16,RA  ,5",,,,,,,,,,,,,,,,,,,,,,,,,
"70249026526","2023-07-18T18:59:00","7","62.0911","-152.7349","566.3","PUNTILLA, AK US","FM-15","PAPT ","V020","999,9,C,0000,5","22000,5,9,N","040234,5,N,5","+0190,C","+0160,C","99999,9",,,,,,,,,,"02,5,+03048,5,99,9",,,"1,99,1,+03048,5,9",,,,"9,AGL   ,+99999,+99999","02,99,5,99,9,99,9,03048,1,99,9,99,9",,,"10173,5,09515,5",,,,,,"MET08107/18/23 09:59:02 METAR PAPT 181859Z 00000KT 25SM FEW100 19/16 A3004 RMK NO SPECI","R01    197TMP046R02    167DPT046D01      0ADE726"
"70249026526","2023-07-18T22:45:00","7","62.0911","-152.7349","566.3","PUNTILLA, AK US","FM-15","PAPT ","V020","001,5,N,0021,5","02438,5,M,N","040234,5,N,5","+0210,C","+0110,C","99999,9",,,,,,,,,,"07,5,+02438,5,99,9",,,"3,99,1,+02438,5,9",,,,"9,AGL   ,+99999,+99999","99,99,9,99,9,99,9,02438,1,99,9,99,9","240,M,+0223,1","240,N,+0106,1","10173,5,09515,5",,,,,,"MET09807/18/23 13:45:02 METAR PAPT 182245Z 00104KT 25SM BKN080 21/11 A3004 RMK NO SPECI 4022301067 70000","R01    217TMP046R02    117DPT046"
"70249026526","2023-07-19T00:52:00","7","62.0911","-152.7349","566.3","PUNTILLA, AK US","FM-15","PAPT ","V020","350,5,N,0031,5","22000,5,9,N","040234,5,N,5","+0220,C","+0110,C","99999,9",,,,,,,,,,"04,5,+02438,5,99,9",,,"2,99,1,+02438,5,9",,,,"9,AGL   ,+99999,+99999","04,99,5,99,9,99,9,02438,1,99,9,99,9",,,"10169,5,09512,5",,,,,,"MET08107/18/23 15:52:01 METAR PAPT 190052Z 35006KT 25SM SCT080 22/11 A3003 RMK NO SPECI","R01    227TMP046R02    117DPT046D01      0ADE726"
"70249026526","2023-07-19T16:52:00","7","62.0911","-152.7349","566.3","PUNTILLA, AK US","FM-15","PAPT ","V020","350,5,N,0021,5","22000,7,9,N","040234,5,N,5","+0160,C","+0120,C","99999,9",,,,,,,,,,"00,7,+99999,9,99,9",,,"0,99,1,+99999,9,9",,,,,"00,99,1,99,9,99,9,99999,9,99,9,99,9",,,"10183,5,09525,5",,,,,,"MET07807/19/23 07:52:02 METAR PAPT 191652Z 35004KT 25SM SKC 16/12 A3007 RMK NO SPECI","R01   SKC7SKY009R02    167TMP046R03    127DPT046R04   SKC7GAS009"
"70249026526","2023-07-19T18:55:00","7","62.0911","-152.7349","566.3","PUNTILLA, AK US","FM-15","PAPT ","V020","350,5,N,0021,5","22000,5,9,N","040234,5,N,5","+0210,C","+0110,C","99999,9",,,,,,,,,,"02,5,+02438,5,99,9",,,"1,99,1,+02438,5,9",,,,"9,AGL   ,+99999,+99999","02,99,5,99,9,99,9,02438,1,99,9,99,9",,,"10179,5,09522,5",,,,,,"MET08107/19/23 09:55:02 METAR PAPT 191855Z 35004KT 25SM FEW080 21/11 A3006 RMK NO SPECI","R01    217TMP046R02    117DPT046D01      0ADE726"
"70249026526","2023-07-19T20:58:00","7","62.0911","-152.7349","566.3","PUNTILLA, AK US","FM-15","PAPT ","V020","350,5,N,0021,5","22000,5,9,N","040234,5,N,5","+0240,C","+0120,C","99999,9",,,,,,,,,,"02,5,+02438,5,99,9",,,"1,99,1,+02438,5,9",,,,"9,AGL   ,+99999,+99999","02,99,5,99,9,99,9,02438,1,99,9,99,9",,,"10176,5,09518,5",,,,,,"MET08107/19/23 11:58:02 METAR PAPT 192058Z 35004KT 25SM FEW080 24/12 A3005 RMK NO SPECI","R01    247TMP046R02    127DPT046D01      0ADE726"
"70249026526","2023-07-19T22:47:00","7","62.0911","-152.7349","566.3","PUNTILLA, AK US","FM-15","PAPT ","V020","180,5,N,0021,5","02438,5,M,N","040234,5,N,5","+0230,C","+0150,C","99999,9",,,,,,,,,,"07,5,+02438,5,99,9",,,"3,99,1,+02438,5,9",,,,"9,AGL   ,+99999,+99999","99,99,9,99,9,99,9,02438,1,99,9,99,9","240,M,+0239,1","240,N,+0163,1","10173,5,09515,5",,,,,,"MET09707/19/23 13:47:02 METAR PAPT 192247Z 18004KT 25SM BKN080 23/15 A3004 RMK NO SPECI 402390163 70000","R01    237TMP046R02    157DPT046"
"70249026526","2023-07-20T00:45:00","7","62.0911","-152.7349","566.3","PUNTILLA, AK US","FM-15","PAPT ","V020","180,5,N,0031,5","02438,5,M,N","040234,5,N,5","+0220,C","+0130,C","99999,9",,,,,,,,,,"07,5,+02438,5,99,9",,,"3,99,1,+02438,5,9",,,,"9,AGL   ,+99999,+99999","99,99,9,99,9,99,9,02438,1,99,9,99,9",,,"10173,5,09515,5",,,,,,"MET08107/19/23 15:45:01 METAR PAPT 200045Z 18006KT 25SM BKN080 22/13 A3004 RMK NO SPECI","R01    227TMP046R02    137DPT046"
"70249026526","2023-07-20T16:53:00","7","62.0911","-152.7349","566.3","PUNTILLA, AK US","FM-15","PAPT ","V020","180,5,N,0021,5","00061,5,W,N","001609,5,N,5","+0120,C","+0100,C","99999,9",,,,,,,,,,"09,5,+00061,5,99,9",,,"5,99,1,+00061,5,9",,,,,,,,"10528,5,09852,5",,,,,,"MET08207/20/23 07:53:02 METAR PAPT 201653Z 18004KT 1SM VR VV002 12/10 A3109 RMK NO SPECI","R01    127TMP046R02    107DPT046R03    VR7AWW013R04SEERMK7MVW013R05    VR7MWW013D01      0ADE693D02      0ADE539"
"70249026526","2023-07-20T18:51:00","7","62.0911","-152.7349","566.3","PUNTILLA, AK US","FM-15","PAPT ","V020","170,5,N,0026,5","00183,5,M,N","004828,5,N,5","+0120,C","+0110,C","99999,9",,,,,,,,,,"07,5,+00183,5,99,9","08,5,+00366,5,99,9",,"3,99,1,+00183,5,9","4,99,1,+00366,5,9",,,,,,,"10528,5,09852,5",,,,,,"MET09007/20/23 09:51:02 METAR PAPT 201851Z 17005KT 3SM VR BKN006 OVC012 12/11 A3109 RMK NO SPECI","R01    127TMP046R02    117DPT046R03    VR7AWW013R04SEERMK7MVW013R05    VR7MWW013D01      0ADE693D02      0ADE539"
"70249026526","2023-07-20T20:46:00","7","62.0911","-152.7349","566.3","PUNTILLA, AK US","FM-15","PAPT ","V020","170,5,N,0021,5","00366,5,M,N","024140,5,N,5","+0130,C","+0120,C","99999,9",,,,,,,,,,"07,5,+00366,5,99,9","08,5,+01829,5,99,9",,"3,99,1,+00366,5,9","4,99,1,+01829,5,9",,,"9,AGL   ,+99999,+99999","99,99,9,99,9,99,9,00366,1,99,9,99,9",,,"10224,5,09563,5",,,,,,"MET08807/20/23 11:46:02 METAR PAPT 202046Z 17004KT 15SM BKN012 OVC060 13/12 A3019 RMK NO SPECI","R01    137TMP046R02    127DPT046"
"70249026526","2023-07-20T22:52:00","7","62.0911","-152.7349","566.3","PUNTILLA, AK US","FM-15","PAPT ","V020","170,5,N,0026,5","00610,5,M,N","024140,5,N,5","+0140,C","+0110,C","99999,9",,,,,,,,,,"07,5,+00610,5,99,9","08,5,+02438,5,99,9",,"3,99,1,+00610,5,9","4,99,1,+02438,5,9",,,"9,AGL   ,+99999,+99999","99,99,9,99,9,99,9,00610,1,99,9,99,9","240,M,+0217,1","240,N,+0117,1","10220,6,09560,6",,,,,,"MET10407/20/23 13:52:02 METAR PAPT 202252Z 17005KT 15SM BKN020 OVC080 14/11 A3018 RMK NO SPECI 402170117 70020","R01    147TMP046R02    117DPT046"
"70249026526","2023-07-21T14:59:00","7","62.0911","-152.7349","566.3","PUNTILLA, AK US","FM-15","PAPT ","V020","999,9,C,0000,5","22000,5,9,N","999999,9,N,5","+0060,C","+0050,C","99999,9",,,,,,"0,0,00,2,0,1,5",,"30,5",,"02,5,+00030,5,99,9","02,5,+00914,5,99,9",,"1,99,1,+00030,5,9","1,99,1,+00914,5,9",,,"9,AGL   ,+99999,+99999","02,99,5,99,9,99,9,00030,1,99,9,99,9",,,"10186,5,09528,5",,"44,1",,,,"MET09707/21/23 05:59:02 METAR PAPT 211459Z 00000KT 25SM FG FEW001 FEW030 06/05 A3008 RMK NO SPECI FIRST","P010402342VODIS R01  25SM7VIS011R02    067TMP046R03    057DPT046D01      0ADE726"
"70249026526","2023-07-21T18:51:00","7","62.0911","-152.7349","566.3","PUNTILLA, AK US","FM-15","PAPT ","V020","170,5,N,0036,5","22000,5,9,N","040234,5,N,5","+0160,C","+0120,C","99999,9",,,,,,,,,,"02,5,+02438,5,99,9",,,"1,99,1,+02438,5,9",,,,"9,AGL   ,+99999,+99999","02,99,5,99,9,99,9,02438,1,99,9,99,9",,,"10169,5,09512,5",,,,,,"MET08107/21/23 09:51:02 METAR PAPT 211851Z 17007KT 25SM FEW080 16/12 A3003 RMK NO SPECI","R01    167TMP046R02    127DPT046D01      0ADE726"
"70249026526","2023-07-22T08:59:00","O","62.0911","-152.7349","566.3","PUNTILLA, AK US","SOD  ","PAPT ","V020","999,9,9,9999,9","99999,9,9,9","999999,9,9,9","+9999,9","+9999,9","99999,9",,,"AU,01,FG  ,5",,,,,,,,,,,,,,,,,,,,,,,,,
"70249026526","2023-07-22T16:56:00","7","62.0911","-152.7349","566.3","PUNTILLA, AK US","FM-15","PAPT ","V020","170,5,N,0036,5","02134,5,M,N","040234,5,N,5","+0170,C","+0160,C","99999,9",,,,,,,,,,"07,5,+02134,5,99,9",,,"3,99,1,+02134,5,9",,,,"9,AGL   ,+99999,+99999","99,99,9,99,9,99,9,02134,1,99,9,99,9",,,"10156,5,09499,5",,,,,,"MET08107/22/23 07:56:02 METAR PAPT 221656Z 17007KT 25SM BKN070 17/16 A2999 RMK NO SPECI","R01    177TMP046R02    167DPT046"
"70249026526","2023-07-22T18:48:00","7","62.0911","-152.7349","566.3","PUNTILLA, AK US","FM-15","PAPT ","V020","180,5,N,0026,5","01829,5,M,N","040234,5,N,5","+0190,C","+0150,C","99999,9",,,,,,,,,,"07,5,+01829,5,99,9",,,"3,99,1,+01829,5,9",,,,"9,AGL   ,+99999,+99999","99,99,9,99,9,99,9,01829,1,99,9,99,9",,,"10152,5,09496,5",,,,,,"MET08107/22/23 09:48:02 METAR PAPT 221848Z 18005KT 25SM BKN060 19/15 A2998 RMK NO SPECI","R01    197TMP046R02    157DPT046"
"70249026526","2023-07-22T20:49:00","7","62.0911","-152.7349","566.3","PUNTILLA, AK US","FM-15","PAPT ","V020","180,5,N,0036,5","02134,5,M,N","040234,5,N,5","+0200,C","+0160,C","99999,9",,,,,,,,,,"07,5,+02134,5,99,9",,,"3,99,1,+02134,5,9",,,,"9,AGL   ,+99999,+99999","99,99,9,99,9,99,9,02134,1,99,9,99,9",,,"10146,5,09490,5",,,,,,"MET08107/22/23 11:49:02 METAR PAPT 222049Z 18007KT 25SM BKN070 20/16 A2996 RMK NO SPECI","R01    207TMP046R02    167DPT046"
"70249026526","2023-07-23T00:54:00","7","62.0911","-152.7349","566.3","PUNTILLA, AK US","FM-15","PAPT ","V020","180,5,N,0051,5","22000,5,9,N","040234,5,N,5","+0230,C","+0190,C","99999,9",,,,,,,,,,"04,5,+02134,5,99,9",,,"2,99,1,+02134,5,9",,,,"9,AGL   ,+99999,+99999","04,99,5,99,9,99,9,02134,1,99,9,99,9","240,M,+0228,1","240,N,+0156,1","10129,5,09474,5",,,,,,"MET09707/22/23 15:54:01 METAR PAPT 230054Z 18010KT 25SM SCT070 23/19 A2991 RMK NO SPECI 402280156 70000","R01    237TMP046R02    197DPT046D01      0ADE726"
"70249026526","2023-07-23T14:50:00","7","62.0911","-152.7349","566.3","PUNTILLA, AK US","FM-15","PAPT ","V020","350,5,N,0021,5","22000,5,9,N","040234,5,N,5","+0070,C","+0060,C","99999,9",,,,,,,,,,"02,5,+03048,5,99,9",,,"1,99,1,+03048,5,9",,,,"9,AGL   ,+99999,+99999","02,99,5,99,9,99,9,03048,1,99,9,99,9",,,"10125,5,09470,5",,,,,,"MET08707/23/23 05:50:02 METAR PAPT 231450Z 35004KT 25SM FEW100 07/06 A2990 RMK NO SPECI FIRST","R01    077TMP046R02    067DPT046D01      0ADE726"
"70249026526","2023-07-23T16:53:00","7","62.0911","-152.7349","566.3","PUNTILLA, AK US","FM-15","PAPT ","V020","999,9,C,0000,5","22000,5,9,N","040234,5,N,5","+0140,C","+0130,C","99999,9",,,,,,,,,,"02,5,+03048,5,99,9",,,"1,99,1,+03048,5,9",,,,"9,AGL   ,+99999,+99999","02,99,5,99,9,99,9,03048,1,99,9,99,9",,,"10125,5,09470,5",,,,,,"MET08107/23/23 07:53:02 METAR PAPT 231653Z 00000KT 25SM FEW100 14/13 A2990 RMK NO SPECI","R01    147TMP046R02    137DPT046D01      0ADE726"
"70249026526","2023-07-23T18:45:00","7","62.0911","-152.7349","566.3","PUNTILLA, AK US","FM-15","PAPT ","V020","999,9,C,0000,5","22000,7,9,N","040234,5,N,5","+0200,C","+0170,C","99999,9",,,,,,,,,,"00,7,+99999,9,99,9",,,"0,99,1,+99999,9,9",,,,,"00,99,1,99,9,99,9,99999,9,99,9,99,9",,,"10122,5,09467,5",,,,,,"MET07807/23/23 09:45:02 METAR PAPT 231845Z 00000KT 25SM SKC 20/17 A2989 RMK NO SPECI","R01   SKC7SKY009R02    207TMP046R03    177DPT046R04   SKC7GAS009"
"70249026526","2023-07-23T20:54:00","7","62.0911","-152.7349","566.3","PUNTILLA, AK US","FM-15","PAPT ","V020","150,5,N,0041,5","22000,5,9,N","040234,5,N,5","+0230,C","+0170,C","99999,9",,,,,,,,,,"02,5,+02134,5,99,9",,,"1,99,1,+02134,5,9",,,,"9,AGL   ,+99999,+99999","02,99,5,99,9,99,9,02134,1,99,9,99,9",,,"10115,5,09461,5",,,,,,"MET08107/23/23 11:54:02 METAR PAPT 232054Z 15008KT 25SM FEW070 23/17 A2987 RMK NO SPECI","R01    237TMP046R02    177DPT046D01      0ADE726"
"70249026526","2023-07-23T22:46:00","7","62.0911","-152.7349","566.3","PUNTILLA, AK US","FM-15","PAPT ","V020","180,5,N,0046,5","22000,5,9,N","040234,5,N,5","+0230,C","+0180,C","99999,9",,,,,,,,,,"02,5,+02134,5,99,9","02,5,+03048,5,99,9",,"1,99,1,+02134,5,9","1,99,1,+03048,5,9",,,"9,AGL   ,+99999,+99999","02,99,5,99,9,99,9,02134,1,99,9,99,9","240,M,+0234,1","240,N,+0073,1","10112,5,09458,5",,,,,,"MET10407/23/23 13:46:02 METAR PAPT 232246Z 18009KT 25SM FEW070 FEW100 23/18 A2986 RMK NO SPECI 402340073 70000","R01    237TMP046R02    187DPT046D01      0ADE726"
"70249026526","2023-07-24T00:58:00","7","62.0911","-152.7349","566.3","PUNTILLA, AK US","FM-15","PAPT ","V020","180,5,N,0041,5","22000,5,9,N","040234,5,N,5","+0240,C","+0180,C","99999,9",,,,,,,,,,"04,5,+02438,5,99,9",,,"2,99,1,+02438,5,9",,,,"9,AGL   ,+99999,+99999","04,99,5,99,9,99,9,02438,1,99,9,99,9",,,"10108,5,09454,5",,,,,,"MET08107/23/23 15:58:01 METAR PAPT 240058Z 18008KT 25SM SCT080 24/18 A2985 RMK NO SPECI","R01    247TMP046R02    187DPT046D01      0ADE726"
"70249026526","2023-07-24T02:46:00","7","62.0911","-152.7349","566.3","PUNTILLA, AK US","FM-15","PAPT ","V020","170,5,N,0051,5","22000,5,9,N","040234,5,N,5","+0240,C","+0200,C","99999,9",,,,,,,,,,"02,5,+02438,5,99,9",,,"1,99,1,+02438,5,9",,,,"9,AGL   ,+99999,+99999","02,99,5,99,9,99,9,02438,1,99,9,99,9",,,"10105,5,09451,5",,,,,,"MET08607/23/23 17:46:01 METAR PAPT 240246Z 17010KT 25SM FEW080 24/20 A2984 RMK NO SPECI LAST","R01    247TMP046R02    207DPT046D01      0ADE726"
"70249026526","2023-07-24T16:54:00","7","62.0911","-152.7349","566.3","PUNTILLA, AK US","FM-15","PAPT ","V020","030,5,N,0015,5","02438,5,M,N","040234,5,N,5","+0150,C","+0140,C","99999,9",,,,,,,,,,"04,5,+00305,5,99,9","07,5,+02438,5,99,9",,"2,99,1,+00305,5,9","3,99,1,+02438,5,9",,,"9,AGL   ,+99999,+99999","99,99,9,99,9,99,9,00305,1,99,9,99,9",,,"10129,5,09474,5",,,,,,"MET08807/24/23 07:54:02 METAR PAPT 241654Z 03003KT 25SM SCT010 BKN080 15/14 A2991 RMK NO SPECI","R01    157TMP046R02    147DPT046"
"70249026526","2023-07-24T18:52:00","7","62.0911","-152.7349","566.3","PUNTILLA, AK US","FM-15","PAPT ","V020","150,5,N,0031,5","22000,5,9,N","040234,5,N,5","+0180,C","+0160,C","99999,9",,,,,,,,,,"02,5,+00823,5,99,9","04,5,+01829,5,99,9",,"1,99,1,+00823,5,9","2,99,1,+01829,5,9",,,"9,AGL   ,+99999,+99999","04,99,5,99,9,99,9,00823,1,99,9,99,9",,,"10129,5,09474,5",,,,,,"MET08807/24/23 09:52:02 METAR PAPT 241852Z 15006KT 25SM FEW027 SCT060 18/16 A2991 RMK NO SPECI","R01    187TMP046R02    167DPT046D01      0ADE726"
"70249026526","2023-07-24T20:57:00","7","62.0911","-152.7349","566.3","PUNTILLA, AK US","FM-15","PAPT ","V020","180,5,N,0036,5","22000,5,9,N","040234,5,N,5","+0210,C","+0160,C","99999,9",,,,,,,,,,"04,5,+01219,5,99,9",,,"2,99,1,+01219,5,9",,,,"9,AGL   ,+99999,+99999","04,99,5,99,9,99,9,01219,1,99,9,99,9",,,"10129,5,09474,5",,,,,,"MET08107/24/23 11:57:02 METAR PAPT 242057Z 18007KT 25SM SCT040 21/16 A2991 RMK NO SPECI","R01    217TMP046R02    167DPT046D01      0ADE726"
"70249026526","2023-07-24T22:56:00","7","62.0911","-152.7349","566.3","PUNTILLA, AK US","FM-15","PAPT ","V020","180,5,N,0046,5","22000,5,9,N","040234,5,N,5","+0220,C","+0170,C","99999,9",,,,,,,,,,"04,5,+01524,5,99,9",,,"2,99,1,+01524,5,9",,,,"9,AGL   ,+99999,+99999","04,99,5,99,9,99,9,01524,1,99,9,99,9","240,M,+0239,1","240,N,+0151,1","10125,5,09470,5",,,,,,"MET09707/24/23 13:56:02 METAR PAPT 242256Z 18009KT 25SM SCT050 22/17 A2990 RMK NO SPECI 402390151 70000","R01    227TMP046R02    177DPT046D01      0ADE726"
"70249026526","2023-07-25T01:00:00","7","62.0911","-152.7349","566.3","PUNTILLA, AK US","FM-15","PAPT ","V020","180,5,N,0046,5","22000,5,9,N","040234,5,N,5","+0220,C","+0170,C","99999,9",,,,,,,,,,"04,5,+01829,5,99,9",,,"2,99,1,+01829,5,9",,,,"9,AGL   ,+99999,+99999","04,99,5,99,9,99,9,01829,1,99,9,99,9",,,"10122,5,09467,5",,,,,,"MET08107/24/23 16:00:01 METAR PAPT 250100Z 18009KT 25SM SCT060 22/17 A2989 RMK NO SPECI","R01    227TMP046R02    177DPT046D01      0ADE726"
"70249026526","2023-07-25T02:56:00","7","62.0911","-152.7349","566.3","PUNTILLA, AK US","FM-15","PAPT ","V020","190,5,N,0041,5","22000,5,9,N","040234,5,N,5","+0220,C","+0170,C","99999,9",,,,,,,,,,"02,5,+02438,5,99,9",,,"1,99,1,+02438,5,9",,,,"9,AGL   ,+99999,+99999","02,99,5,99,9,99,9,02438,1,99,9,99,9",,,"10112,5,09458,5",,,,,,"MET08607/24/23 17:56:01 METAR PAPT 250256Z 19008KT 25SM FEW080 22/17 A2986 RMK NO SPECI LAST","R01    227TMP046R02    177DPT046D01      0ADE726"
"70249026526","2023-07-25T14:58:00","7","62.0911","-152.7349","566.3","PUNTILLA, AK US","FM-15","PAPT ","V020","040,5,N,0015,5","01829,5,M,N","040234,5,N,5","+0110,C","+0100,C","99999,9",,,,,,,,,,"07,5,+01829,5,99,9",,,"3,99,1,+01829,5,9",,,,"9,AGL   ,+99999,+99999","99,99,9,99,9,99,9,01829,1,99,9,99,9",,,"10146,5,09490,5",,,,,,"MET08707/25/23 05:58:02 METAR PAPT 251458Z 04003KT 25SM BKN060 11/10 A2996 RMK NO SPECI FIRST","R01    117TMP046R02    107DPT046"
"70249026526","2023-07-25T16:40:00","7","62.0911","-152.7349","566.3","PUNTILLA, AK US","FM-15","PAPT ","V020","999,9,C,0000,5","01372,5,M,N","040234,5,N,5","+0130,5","+0120,5","99999,9",,,,,,,,,,"04,5,+00823,5,99,9","07,5,+01372,5,99,9",,"2,99,1,+00823,5,9","3,99,1,+01372,5,9",,,"9,AGL   ,+99999,+99999","99,99,9,99,9,99,9,00823,1,99,9,99,9",,,"10152,5,09496,5",,,,,,"MET08807/25/23 07:40:02 METAR PAPT 251640Z 00000KT 25SM SCT027 BKN045 13/12 A2998 RMK NO SPECI",
"70249026526","2023-07-25T20:55:00","7","62.0911","-152.7349","566.3","PUNTILLA, AK US","FM-15","PAPT ","V020","180,5,N,0026,5","01372,5,M,N","040234,5,N,5","+0210,C","+0170,C","99999,9",,,,,,,,,,"07,5,+01372,5,99,9",,,"3,99,1,+01372,5,9",,,,"9,AGL   ,+99999,+99999","99,99,9,99,9,99,9,01372,1,99,9,99,9",,,"10149,5,09493,5",,,,,,"MET08107/25/23 11:55:02 METAR PAPT 252055Z 18005KT 25SM BKN045 21/17 A2997 RMK NO SPECI","R01    217TMP046R02    177DPT046"
"70249026526","2023-07-25T22:48:00","7","62.0911","-152.7349","566.3","PUNTILLA, AK US","FM-15","PAPT ","V020","220,5,N,0021,5","01372,5,M,N","040234,5,N,5","+0230,C","+0180,C","99999,9",,,,,,,,,,"07,5,+01372,5,99,9",,,"3,99,1,+01372,5,9",,,,"9,AGL   ,+99999,+99999","99,99,9,99,9,99,9,01372,1,99,9,99,9","240,M,+0234,1","240,N,+0106,1","10146,5,09490,5",,,,,,"MET09707/25/23 13:48:02 METAR PAPT 252248Z 22004KT 25SM BKN045 23/18 A2996 RMK NO SPECI 402340106 70000","R01    237TMP046R02    187DPT046"
"70249026526","2023-07-26T00:58:00","7","62.0911","-152.7349","566.3","PUNTILLA, AK US","FM-15","PAPT ","V020","180,5,N,0036,5","01829,5,M,N","040234,5,N,5","+0230,C","+0200,C","99999,9",,,,,,,,,,"07,5,+01829,5,99,9",,,"3,99,1,+01829,5,9",,,,"9,AGL   ,+99999,+99999","99,99,9,99,9,99,9,01829,1,99,9,99,9",,,"10139,5,09483,5",,,,,,"MET08107/25/23 15:58:01 METAR PAPT 260058Z 18007KT 25SM BKN060 23/20 A2994 RMK NO SPECI","R01    237TMP046R02    207DPT046"
"70249026526","2023-07-26T14:53:00","7","62.0911","-152.7349","566.3","PUNTILLA, AK US","FM-15","PAPT ","V020","040,5,N,0026,5","00518,5,M,N","006437,6,N,5","+0130,C","+0120,C","99999,9",,,,,,"2,0,01,0,0,2,6","0,0,00,2,0,3,6","30,6","52,6","02,5,+00305,5,99,9","08,5,+00518,5,99,9",,"1,99,1,+00305,5,9","4,99,1,+00518,5,9",,,,,,,"10179,5,09522,5",,"10,5","53,5","55,6",,"MET09807/26/23 05:53:02 METAR PAPT 261453Z 04005KT 4SM DZFG FEW010 OVC017 13/12 A3006 RMK NO SPECI FIRST","R01   4SM7VIS018R02    137TMP046R03    127DPT046R04  DZFG7AWW018R05SEERMK7MVW018R06  DZFG7MWW018D01      0ADE735"
"70249026526","2023-07-26T16:53:00","7","62.0911","-152.7349","566.3","PUNTILLA, AK US","FM-15","PAPT ","V020","170,5,N,0015,5","00610,5,M,N","024140,5,N,5","+0140,C","+0130,C","99999,9",,,,,,,,,,"04,5,+00305,5,99,9","08,5,+00610,5,99,9",,"2,99,1,+00305,5,9","4,99,1,+00610,5,9",,,"9,AGL   ,+99999,+99999","99,99,9,99,9,99,9,00305,1,99,9,99,9",,,"10190,5,09531,5",,,,,,"MET08807/26/23 07:53:02 METAR PAPT 261653Z 17003KT 15SM SCT010 OVC020 14/13 A3009 RMK NO SPECI","R01    147TMP046R02    137DPT046"
"70249026526","2023-07-26T18:52:00","7","62.0911","-152.7349","566.3","PUNTILLA, AK US","FM-15","PAPT ","V020","170,5,N,0026,5","00762,5,M,N","024140,5,N,5","+0150,C","+0130,C","99999,9",,,,,,,,,,"04,5,+00549,5,99,9","08,5,+00762,5,99,9",,"2,99,1,+00549,5,9","4,99,1,+00762,5,9",,,"9,AGL   ,+99999,+99999","99,99,9,99,9,99,9,00549,1,99,9,99,9",,,"10193,5,09535,5",,,,,,"MET08807/26/23 09:52:02 METAR PAPT 261852Z 17005KT 15SM SCT018 OVC025 15/13 A3010 RMK NO SPECI","R01    157TMP046R02    137DPT046"
"70249026526","2023-07-26T20:55:00","7","62.0911","-152.7349","566.3","PUNTILLA, AK US","FM-15","PAPT ","V020","180,5,N,0041,5","00823,5,M,N","024140,5,N,5","+0170,C","+0150,C","99999,9",,,,,,,,,,"02,5,+00549,5,99,9","08,5,+00823,5,99,9",,"1,99,1,+00549,5,9","4,99,1,+00823,5,9",,,"9,AGL   ,+99999,+99999","99,99,9,99,9,99,9,00549,1,99,9,99,9",,,"10193,5,09535,5",,,,,,"MET08807/26/23 11:55:02 METAR PAPT 262055Z 18008KT 15SM FEW018 OVC027 17/15 A3010 RMK NO SPECI","R01    177TMP046R02    157DPT046"
"70249026526","2023-07-26T22:52:00","7","62.0911","-152.7349","566.3","PUNTILLA, AK US","FM-15","PAPT ","V020","180,5,N,0031,5","00823,5,M,N","040234,5,N,5","+0190,C","+0160,C","99999,9",,,,,,,,,,"02,5,+00549,5,99,9","07,5,+00823,5,99,9",,"1,99,1,+00549,5,9","3,99,1,+00823,5,9",,,"9,AGL   ,+99999,+99999","99,99,9,99,9,99,9,00549,1,99,9,99,9","240,M,+0228,1","240,N,+0134,1","10193,5,09535,5",,,,,,"MET10407/26/23 13:52:02 METAR PAPT 262252Z 18006KT 25SM FEW018 BKN027 19/16 A3010 RMK NO SPECI 402280134 70000","R01    197TMP046R02    167DPT046"
"70249026526","2023-07-27T01:02:00","7","62.0911","-152.7349","566.3","PUNTILLA, AK US","FM-15","PAPT ","V020","200,5,N,0046,5","01372,5,M,N","040234,5,N,5","+0200,5","+0170,5","99999,9",,,,,,,,,,"07,5,+01372,5,99,9",,,"3,99,1,+01372,5,9",,,,"9,AGL   ,+99999,+99999","99,99,9,99,9,99,9,01372,1,99,9,99,9",,,"10193,5,09535,5",,,,,,"MET08107/26/23 16:02:01 METAR PAPT 270102Z 20009KT 25SM BKN045 20/17 A3010 RMK NO SPECI",
"70249026526","2023-07-27T02:51:00","7","62.0911","-152.7349","566.3","PUNTILLA, AK US","FM-15","PAPT ","V020","190,5,N,0036,5","01981,5,M,N","040234,5,N,5","+0180,C","+0160,C","99999,9",,,,,,,,,,"02,5,+00762,5,99,9","07,5,+01981,5,99,9",,"1,99,1,+00762,5,9","3,99,1,+01981,5,9",,,"9,AGL   ,+99999,+99999","99,99,9,99,9,99,9,00762,1,99,9,99,9",,,"10190,5,09531,5",,,,,,"MET09307/26/23 17:51:01 METAR PAPT 270251Z 19007KT 25SM FEW025 BKN065 18/16 A3009 RMK NO SPECI LAST","R01    187TMP046R02    167DPT046"
"70249026526","2023-07-27T08:59:00","O","62.0911","-152.7349","566.3","PUNTILLA, AK US","SOD  ","PAPT ","V020","999,9,9,9999,9","99999,9,9,9","999999,9,9,9","+9999,9","+9999,9","99999,9",,,"MW,14,DZ  ,5","MW,13,BR  ,5",,,,,,,,,,,,,,,,,,,,,,,,
"70249026526","2023-07-27T14:59:00","7","62.0911","-152.7349","566.3","PUNTILLA, AK US","FM-15","PAPT ","V020","999,9,C,0000,5","00122,5,W,N","004828,6,N,5","+0120,C","+0110,C","99999,9",,,,,,"0,0,00,2,0,1,6",,"30,6",,"09,5,+00122,5,99,9",,,"5,99,1,+00122,5,9",,,,"9,AGL   ,+99999,+99999","09,99,1,99,9,99,9,00122,1,99,9,99,9",,,"10213,5,09554,5",,"44,1",,,,"MET08807/27/23 05:59:02 METAR PAPT 271459Z 00000KT 3SM FG VV004 12/11 A3016 RMK NO SPECI FIRST","R01   3SM7VIS018R02    127TMP046R03    117DPT046R04    FG7AWW018R05SEERMK7MVW018R06    FG7MWW018"
"70249026526","2023-07-27T17:00:00","7","62.0911","-152.7349","566.3","PUNTILLA, AK US","FM-15","PAPT ","V020","999,9,C,0000,5","00823,5,M,N","011265,5,N,5","+0130,C","+0120,C","99999,9",,,,,,,,,,"04,5,+00457,5,99,9","07,5,+00823,5,99,9","08,5,+01372,5,99,9","2,99,1,+00457,5,9","3,99,1,+00823,5,9","4,99,1,+01372,5,9",,"9,AGL   ,+99999,+99999","99,99,9,99,9,99,9,00457,1,99,9,99,9",,,"10203,5,09544,5",,,,,,"MET09407/27/23 08:00:02 METAR PAPT 271700Z 00000KT 7SM SCT015 BKN027 OVC045 13/12 A3013 RMK NO SPECI","R01    137TMP046R02    127DPT046"
"70249026526","2023-07-27T18:55:00","7","62.0911","-152.7349","566.3","PUNTILLA, AK US","FM-15","PAPT ","V020","170,5,N,0021,5","01372,5,M,N","040234,5,N,5","+0150,C","+0130,C","99999,9",,,,,,,,,,"02,5,+00549,5,99,9","04,5,+00823,5,99,9","07,5,+01372,5,99,9","1,99,1,+00549,5,9","2,99,1,+00823,5,9","3,99,1,+01372,5,9",,"9,AGL   ,+99999,+99999","99,99,9,99,9,99,9,00549,1,99,9,99,9",,,"10220,5,09560,5",,,,,,"MET09507/27/23 09:55:02 METAR PAPT 271855Z 17004KT 25SM FEW018 SCT027 BKN045 15/13 A3018 RMK NO SPECI","R01    157TMP046R02    137DPT046"
"70249026526","2023-07-27T22:48:00","7","62.0911","-152.7349","566.3","PUNTILLA, AK US","FM-15","PAPT ","V020","190,5,N,0051,5","01981,5,M,N","032187,5,N,5","+0150,C","+0130,C","99999,9",,,,,,,,,,"02,5,+00549,5,99,9","08,5,+01981,5,99,9",,"1,99,1,+00549,5,9","4,99,1,+01981,5,9",,,"9,AGL   ,+99999,+99999","99,99,9,99,9,99,9,00549,1,99,9,99,9","240,M,+0184,1","240,N,+0117,1","10224,5,09563,5",,,,,,"MET10407/27/23 13:48:02 METAR PAPT 272248Z 19010KT 20SM FEW018 OVC065 15/13 A3019 RMK NO SPECI 401840117 70000","R01    157TMP046R02    137DPT046"
"70249026526","2023-07-28T02:50:00","7","62.0911","-152.7349","566.3","PUNTILLA, AK US","FM-15","PAPT ","V020","190,5,N,0041,5","01524,5,M,N","040234,5,N,5","+0160,C","+0140,C","99999,9",,,,,,,,,,"02,5,+00579,5,99,9","08,5,+01524,5,99,9",,"1,99,1,+00579,5,9","4,99,1,+01524,5,9",,,"9,AGL   ,+99999,+99999","99,99,9,99,9,99,9,00579,1,99,9,99,9",,,"10220,5,09560,5",,,,,,"MET09307/27/23 17:50:01 METAR PAPT 280250Z 19008KT 25SM FEW019 OVC050 16/14 A3018 RMK NO SPECI LAST","R01    167TMP046R02    147DPT046"
"70249026526","2023-07-28T16:56:00","7","62.0911","-152.7349","566.3","PUNTILLA, AK US","FM-15","PAPT ","V020","999,9,C,0000,5","01372,5,M,N","024140,5,N,5","+0120,C","+0110,C","99999,9",,,,,,,,,,"02,5,+00549,5,99,9","04,5,+00823,5,99,9","08,5,+01372,5,99,9","1,99,1,+00549,5,9","2,99,1,+00823,5,9","4,99,1,+01372,5,9",,"9,AGL   ,+99999,+99999","99,99,9,99,9,99,9,00549,1,99,9,99,9",,,"10196,5,09538,5",,,,,,"MET09507/28/23 07:56:02 METAR PAPT 281656Z 00000KT 15SM FEW018 SCT027 OVC045 12/11 A3011 RMK NO SPECI","R01    127TMP046R02    117DPT046"
"70249026526","2023-07-28T18:48:00","7","62.0911","-152.7349","566.3","PUNTILLA, AK US","FM-15","PAPT ","V020","170,5,N,0031,5","01219,5,M,N","024140,5,N,5","+0120,C","+0110,C","99999,9",,,,,,,,,,"02,5,+00549,5,99,9","04,5,+00823,5,99,9","08,5,+01219,5,99,9","1,99,1,+00549,5,9","2,99,1,+00823,5,9","4,99,1,+01219,5,9",,"9,AGL   ,+99999,+99999","99,99,9,99,9,99,9,00549,1,99,9,99,9",,,"10193,5,09535,5",,,,,,"MET09507/28/23 09:48:02 METAR PAPT 281848Z 17006KT 15SM FEW018 SCT027 OVC040 12/11 A3010 RMK NO SPECI","R01    127TMP046R02    117DPT046"
"70249026526","2023-07-28T20:57:00","7","62.0911","-152.7349","566.3","PUNTILLA, AK US","FM-15","PAPT ","V020","180,5,N,0051,5","00823,5,M,N","016093,5,N,5","+0130,C","+0120,C","99999,9",,,,,,,,,,"04,5,+00366,5,99,9","07,5,+00823,5,99,9","08,5,+01219,5,99,9","2,99,1,+00366,5,9","3,99,1,+00823,5,9","4,99,1,+01219,5,9",,"9,AGL   ,+99999,+99999","99,99,9,99,9,99,9,00366,1,99,9,99,9",,,"10186,5,09528,5",,,,,,"MET09507/28/23 11:57:02 METAR PAPT 282057Z 18010KT 10SM SCT012 BKN027 OVC040 13/12 A3008 RMK NO SPECI","R01    137TMP046R02    127DPT046"
"70249026526","2023-07-28T22:54:00","7","62.0911","-152.7349","566.3","PUNTILLA, AK US","FM-15","PAPT ","V020","180,5,N,0036,5","00823,5,M,N","011265,5,N,5","+0130,C","+0120,C","99999,9",,,,,,,,,,"04,5,+00366,5,99,9","07,5,+00823,5,99,9","08,5,+01219,5,99,9","2,99,1,+00366,5,9","3,99,1,+00823,5,9","4,99,1,+01219,5,9",,"9,AGL   ,+99999,+99999","99,99,9,99,9,99,9,00366,1,99,9,99,9","240,M,+0156,1","240,N,+0123,1","10183,5,09525,5",,,,,,"MET11007/28/23 13:54:02 METAR PAPT 282254Z 18007KT 7SM SCT012 BKN027 OVC040 13/12 A3007 RMK NO SPECI 401560123 70000","R01    137TMP046R02    127DPT046"
"70249026526","2023-07-29T00:53:00","7","62.0911","-152.7349","566.3","PUNTILLA, AK US","FM-15","PAPT ","V020","180,5,N,0036,5","00823,5,M,N","011265,5,N,5","+0130,C","+0120,C","99999,9",,,,,,"1,0,02,0,0,1,5",,"61,5",,"04,5,+00366,5,99,9","07,5,+00823,5,99,9","08,5,+01219,5,99,9","2,99,1,+00366,5,9","3,99,1,+00823,5,9","4,99,1,+01219,5,9",,"9,AGL   ,+99999,+99999","99,99,9,99,9,99,9,00366,1,99,9,99,9",,,"10179,5,09522,5",,"61,5",,,,"MET09807/28/23 15:53:01 METAR PAPT 290053Z 18007KT 7SM -RA SCT012 BKN027 OVC040 13/12 A3006 RMK NO SPECI","R01    137TMP046R02    127DPT046"
"70249026526","2023-07-29T08:59:00","O","62.0911","-152.7349","566.3","PUNTILLA, AK US","SOD  ","PAPT ","V020","999,9,9,9999,9","99999,9,9,9","999999,9,9,9","+9999,9","+9999,9","99999,9",,,"AU,16,RA  ,5",,,,,,,,,,,,,,,,,,,,,,,,,
"70249026526","2023-07-29T14:59:00","7","62.0911","-152.7349","566.3","PUNTILLA, AK US","FM-15","PAPT ","V020","999,9,C,0000,5","00091,5,W,N","003219,6,N,5","+0120,C","+0110,C","99999,9",,,,,,"0,0,00,2,0,1,6",,"30,6",,"09,5,+00091,5,99,9",,,"5,99,1,+00091,5,9",,,,"9,AGL   ,+99999,+99999","09,99,1,99,9,99,9,00091,1,99,9,99,9",,,"10179,5,09522,5",,"44,1",,,,"MET08807/29/23 05:59:02 METAR PAPT 291459Z 00000KT 2SM FG VV003 12/11 A3006 RMK NO SPECI FIRST","R01   2SM7VIS018R02    127TMP046R03    117DPT046R04    FG7AWW018R05SEERMK7MVW018R06    FG7MWW018"
"70249026526","2023-07-29T16:58:00","7","62.0911","-152.7349","566.3","PUNTILLA, AK US","FM-15","PAPT ","V020","999,9,C,0000,5","00366,5,M,N","008047,5,N,5","+0120,C","+0110,C","99999,9",,,,,,"1,0,02,0,0,2,5","0,2,00,2,0,1,5","61,5",,"07,5,+00366,5,99,9","08,5,+00914,5,99,9",,"3,99,1,+00366,5,9","4,99,1,+00914,5,9",,,,,,,"10186,5,09528,5",,"10,5","61,5",,,"MET09507/29/23 07:58:02 METAR PAPT 291658Z 00000KT 5SM -RAPRFG BKN012 OVC030 12/11 A3008 RMK NO SPECI","R01    127TMP046R02    117DPT046D01      0ADE735"
"70249026526","2023-07-29T18:54:00","7","62.0911","-152.7349","566.3","PUNTILLA, AK US","FM-15","PAPT ","V020","999,9,C,0000,5","00549,5,M,N","032187,5,N,5","+0140,C","+0130,C","99999,9",,,,,,,,,,"07,5,+00549,5,99,9","08,5,+00914,5,99,9",,"3,99,1,+00549,5,9","4,99,1,+00914,5,9",,,"9,AGL   ,+99999,+99999","99,99,9,99,9,99,9,00549,1,99,9,99,9",,,"10186,5,09528,5",,,,,,"MET08807/29/23 09:54:02 METAR PAPT 291854Z 00000KT 20SM BKN018 OVC030 14/13 A3008 RMK NO SPECI","R01    147TMP046R02    137DPT046"
"70249026526","2023-07-29T20:54:00","7","62.0911","-152.7349","566.3","PUNTILLA, AK US","FM-15","PAPT ","V020","350,5,N,0021,5","00914,5,M,N","032187,5,N,5","+0170,C","+0140,C","99999,9",,,,,,,,,,"02,5,+00549,5,99,9","07,5,+00914,5,99,9","08,5,+01219,5,99,9","1,99,1,+00549,5,9","3,99,1,+00914,5,9","4,99,1,+01219,5,9",,"9,AGL   ,+99999,+99999","99,99,9,99,9,99,9,00549,1,99,9,99,9",,,"10186,5,09528,5",,,,,,"MET09507/29/23 11:54:02 METAR PAPT 292054Z 35004KT 20SM FEW018 BKN030 OVC040 17/14 A3008 RMK NO SPECI","R01    177TMP046R02    147DPT046"
"70249026526","2023-07-29T22:48:00","7","62.0911","-152.7349","566.3","PUNTILLA, AK US","FM-15","PAPT ","V020","020,5,N,0021,5","01219,5,M,N","040234,5,N,5","+0170,C","+0140,C","99999,9",,,,,,,,,,"02,5,+00549,5,99,9","04,5,+00823,5,99,9","08,5,+01219,5,99,9","1,99,1,+00549,5,9","2,99,1,+00823,5,9","4,99,1,+01219,5,9",,"9,AGL   ,+99999,+99999","99,99,9,99,9,99,9,00549,1,99,9,99,9","240,M,+0167,1","240,N,+0117,1","10186,5,09528,5",,,,,,"MET11107/29/23 13:48:02 METAR PAPT 292248Z 02004KT 25SM FEW018 SCT027 OVC040 17/14 A3008 RMK NO SPECI 401670117 70006","R01    177TMP046R02    147DPT046"
"70249026526","2023-07-30T00:53:00","7","62.0911","-152.7349","566.3","PUNTILLA, AK US","FM-15","PAPT ","V020","360,5,N,0021,5","01219,5,M,N","040234,5,N,5","+0170,C","+0140,C","99999,9",,,,,,,,,,"04,5,+00823,5,99,9","08,5,+01219,5,99,9",,"2,99,1,+00823,5,9","4,99,1,+01219,5,9",,,"9,AGL   ,+99999,+99999","99,99,9,99,9,99,9,00823,1,99,9,99,9",,,"10186,5,09528,5",,,,,,"MET08807/29/23 15:53:01 METAR PAPT 300053Z 36004KT 25SM SCT027 OVC040 17/14 A3008 RMK NO SPECI","R01    177TMP046R02    147DPT046"
"70249026526","2023-07-30T02:59:00","7","62.0911","-152.7349","566.3","PUNTILLA, AK US","FM-15","PAPT ","V020","360,5,N,0021,5","01524,5,M,N","040234,5,N,5","+0180,C","+0130,C","99999,9",,,,,,,,,,"04,5,+00914,5,99,9","08,5,+01524,5,99,9",,"2,99,1,+00914,5,9","4,99,1,+01524,5,9",,,"9,AGL   ,+99999,+99999","99,99,9,99,9,99,9,00914,1,99,9,99,9",,,"10183,5,09525,5",,,,,,"MET09407/29/23 17:59:02 METAR PAPT 300259Z 36004KT 25SM SCT030 OVC050 18/13 A3007 RMK NO SPECI. LAST","R01    187TMP046R02    137DPT046"
"70249026526","2023-07-30T08:59:00","O","62.0911","-152.7349","566.3","PUNTILLA, AK US","SOD  ","PAPT ","V020","999,9,9,9999,9","99999,9,9,9","999999,9,9,9","+9999,9","+9999,9","99999,9",,,"AU,16,RA  ,5","AU,01,FG  ,5","MW,13,BR  ,5",,,,,,,,,,,,,,,,,,,,,,,
"70249026526","2023-07-30T16:54:00","7","62.0911","-152.7349","566.3","PUNTILLA, AK US","FM-15","PAPT ","V020","999,9,C,0000,5","02438,5,M,N","032187,5,N,5","+0150,C","+0130,C","99999,9",,,,,,,,,,"02,5,+00914,5,99,9","04,5,+01524,5,99,9","08,5,+02438,5,99,9","1,99,1,+00914,5,9","2,99,1,+01524,5,9","4,99,1,+02438,5,9",,"9,AGL   ,+99999,+99999","99,99,9,99,9,99,9,00914,1,99,9,99,9",,,"10190,5,09531,5",,,,,,"MET09607/30/23 07:54:02 METAR PAPT 301654Z 00000KT 20SM FEW030 SCT050 OVC080 15/13 A3009 RMK NO SPECI.","R01    157TMP046R02    137DPT046"
"70249026526","2023-07-30T18:47:00","7","62.0911","-152.7349","566.3","PUNTILLA, AK US","FM-15","PAPT ","V020","230,5,N,0021,5","02438,5,M,N","040234,5,N,5","+0160,C","+0130,C","99999,9",,,,,,,,,,"02,5,+00762,5,99,9","02,5,+01981,5,99,9","08,5,+02438,5,99,9","1,99,1,+00762,5,9","1,99,1,+01981,5,9","4,99,1,+02438,5,9",,"9,AGL   ,+99999,+99999","99,99,9,99,9,99,9,00762,1,99,9,99,9",,,"10186,5,09528,5",,,,,,"MET09607/30/23 09:47:02 METAR PAPT 301847Z 23004KT 25SM FEW025 FEW065 OVC080 16/13 A3008 RMK NO SPECI.","R01    167TMP046R02    137DPT046"
"70249026526","2023-07-30T22:49:00","7","62.0911","-152.7349","566.3","PUNTILLA, AK US","FM-15","PAPT ","V020","050,5,N,0021,5","02438,5,M,N","040234,5,N,5","+0180,C","+0120,C","99999,9",,,,,,,,,,"04,5,+01372,5,99,9","08,5,+02438,5,99,9",,"2,99,1,+01372,5,9","4,99,1,+02438,5,9",,,"9,AGL   ,+99999,+99999","99,99,9,99,9,99,9,01372,1,99,9,99,9","240,M,+0178,1","240,N,+0134,1","10186,5,09528,5",,,,,,"MET10507/30/23 13:49:02 METAR PAPT 302249Z 05004KT 25SM SCT045 OVC080 18/12 A3008 RMK NO SPECI. 401780134 70000","R01    187TMP046R02    127DPT046"
"70249026526","2023-07-31T00:53:00","7","62.0911","-152.7349","566.3","PUNTILLA, AK US","FM-15","PAPT ","V020","360,5,N,0026,5","01524,5,M,N","040234,5,N,5","+0200,C","+0160,C","99999,9",,,,,,,,,,"07,5,+01524,5,99,9",,,"3,99,1,+01524,5,9",,,,"9,AGL   ,+99999,+99999","99,99,9,99,9,99,9,01524,1,99,9,99,9",,,"10179,5,09522,5",,,,,,"MET08207/30/23 15:53:01 METAR PAPT 310053Z 36005KT 25SM BKN050 20/16 A3006 RMK NO SPECI.","R01    207TMP046R02    167DPT046"
"70249026526","2023-07-31T03:04:00","7","62.0911","-152.7349","566.3","PUNTILLA, AK US","FM-15","PAPT ","V020","999,9,C,0000,5","01524,5,M,N","040234,5,N,5","+0200,5","+0170,5","99999,9",,,,,,,,,,"07,5,+01524,5,99,9",,,"3,99,1,+01524,5,9",,,,"9,AGL   ,+99999,+99999","99,99,9,99,9,99,9,01524,1,99,9,99,9",,,"10173,5,09515,5",,,,,,"MET08707/30/23 18:04:02 METAR PAPT 310304Z 00000KT 25SM BKN050 20/17 A3004 RMK NO SPECI. LAST",
"70249026526","2023-07-31T16:52:00","7","62.0911","-152.7349","566.3","PUNTILLA, AK US","FM-15","PAPT ","V020","999,9,C,0000,5","01524,5,M,N","040234,5,N,5","+0110,C","+0090,C","99999,9",,,,,,,,,,"07,5,+01524,5,99,9",,,"3,99,1,+01524,5,9",,,,"9,AGL   ,+99999,+99999","99,99,9,99,9,99,9,01524,1,99,9,99,9",,,"10186,5,09528,5",,,,,,"MET08207/31/23 07:52:02 METAR PAPT 311652Z 00000KT 25SM BKN050 11/09 A3008 RMK NO SPECI.","R01    117TMP046R02    097DPT046"
"70249026526","2023-07-31T18:47:00","7","62.0911","-152.7349","566.3","PUNTILLA, AK US","FM-15","PAPT ","V020","999,9,C,0000,5","01524,5,M,N","040234,5,N,5","+0150,C","+0120,C","99999,9",,,,,,,,,,"07,5,+01524,5,99,9",,,"3,99,1,+01524,5,9",,,,"9,AGL   ,+99999,+99999","99,99,9,99,9,99,9,01524,1,99,9,99,9",,,"10186,5,09528,5",,,,,,"MET08207/31/23 09:47:02 METAR PAPT 311847Z 00000KT 25SM BKN050 15/12 A3008 RMK NO SPECI.","R01    157TMP046R02    127DPT046"
"70249026526","2023-07-31T20:54:00","7","62.0911","-152.7349","566.3","PUNTILLA, AK US","FM-15","PAPT ","V020","350,5,N,0031,5","01524,5,M,N","040234,7,N,5","+0170,C","+0150,C","99999,9",,,,,,"1,0,02,0,0,1,5",,"61,5",,"07,5,+01524,5,99,9",,,"3,99,1,+01524,5,9",,,,"9,AGL   ,+99999,+99999","99,99,9,99,9,99,9,01524,1,99,9,99,9",,,"10186,5,09528,5",,"61,5",,,,"MET08607/31/23 11:54:02 METAR PAPT 312054Z 35006KT 25SM -RA BKN050 17/15 A3008 RMK NO SPECI.","R01  25SM7VIS011R02    177TMP046R03    157DPT046"
"70249026526","2023-07-31T22:59:00","4","62.0911","-152.7349","566.3","PUNTILLA, AK US","FM-15","99999","V020","999,9,C,0000,1","01372,1,9,N","040234,1,9,9","+0180,1","+0160,1","99999,9",,,,,,,,,,,,,"1,99,1,+00823,1,9","3,99,1,+01372,1,9",,,"9,AGL   ,+99999,+99999","99,99,9,99,9,99,9,00823,1,99,9,99,9","240,M,+0201,1","240,N,+0112,1","10183,1,99999,9",,,,,,"MET088METAR PAPT 312259Z 00000KT 25SM FEW027 BKN045 18/16 A3007 RMK NO SPECI. 402010112 70010=",
"70249026526","2023-08-01T00:51:00","4","62.0911","-152.7349","566.3","PUNTILLA, AK US","FM-15","99999","V020","999,9,C,0000,1","01372,1,9,N","040234,1,9,9","+0180,1","+0170,1","99999,9",,,,,,,,,,,,,"1,99,1,+00823,1,9","3,99,1,+01372,1,9",,,"9,AGL   ,+99999,+99999","99,99,9,99,9,99,9,00823,1,99,9,99,9",,,"10183,1,99999,9",,"61,1",,,,"MET076METAR PAPT 010051Z 00000KT 25SM -RA FEW027 BKN045 18/17 A3007 RMK NO SPECI.=",
"70249026526","2023-08-01T02:53:00","4","62.0911","-152.7349","566.3","PUNTILLA, AK US","FM-15","99999","V020","999,9,C,0000,1","01372,1,9,N","040234,1,9,9","+0200,1","+0170,1","99999,9",,,,,,,,,,,,,"3,99,1,+01372,1,9",,,,"9,AGL   ,+99999,+99999","99,99,9,99,9,99,9,01372,1,99,9,99,9",,,"10179,1,99999,9",,,,,,"MET070METAR PAPT 010253Z 00000KT 25SM BKN045 20/17 A3006 RMK NO SPECI. LAST=",
"70249026526","2023-08-01T08:59:00","O","62.0911","-152.7349","566.3","PUNTILLA, AK US","SOD  ","PAPT ","V020","999,9,9,9999,9","99999,9,9,9","999999,9,9,9","+9999,9","+9999,9","99999,9",,,"AU,16,RA  ,5",,,,,,,,,,,,,,,,,,,,,,,,,
"70249026526","2023-08-01T16:48:00","7","62.0911","-152.7349","566.3","PUNTILLA, AK US","FM-15","PAPT ","V020","360,5,N,0015,5","22000,7,9,N","040234,5,N,5","+0150,C","+0120,C","99999,9",,,,,,,,,,"00,7,+99999,9,99,9",,,"0,99,1,+99999,9,9",,,,,"00,99,1,99,9,99,9,99999,9,99,9,99,9",,,"10173,5,09515,5",,,,,,"MET07908/01/23 07:48:02 METAR PAPT 011648Z 36003KT 25SM SKC 15/12 A3004 RMK NO SPECI.","R01   SKC7SKY009R02    157TMP046R03    127DPT046R04   SKC7GAS009"
"70249026526","2023-08-01T18:53:00","7","62.0911","-152.7349","566.3","PUNTILLA, AK US","FM-15","PAPT ","V020","010,5,N,0021,5","22000,5,9,N","040234,5,N,5","+0200,C","+0150,C","99999,9",,,,,,,,,,"02,5,+02134,5,99,9",,,"1,99,1,+02134,5,9",,,,"9,AGL   ,+99999,+99999","02,99,5,99,9,99,9,02134,1,99,9,99,9",,,"10200,5,09541,5",,,,,,"MET08208/01/23 09:53:02 METAR PAPT 011853Z 01004KT 25SM FEW070 20/15 A3012 RMK NO SPECI.","R01    207TMP046R02    157DPT046D01      0ADE726"
"70249026526","2023-08-01T22:51:00","7","62.0911","-152.7349","566.3","PUNTILLA, AK US","FM-15","PAPT ","V020","360,5,N,0031,5","02134,5,M,N","040234,5,N,5","+0240,C","+0180,C","99999,9",,,,,,,,,,"07,5,+02134,5,99,9",,,"3,99,1,+02134,5,9",,,,"9,AGL   ,+99999,+99999","99,99,9,99,9,99,9,02134,1,99,9,99,9",,,"10196,5,09538,5",,,,,,"MET08208/01/23 13:51:02 METAR PAPT 012251Z 36006KT 25SM BKN070 24/18 A3011 RMK NO SPECI.","R01    247TMP046R02    187DPT046"
"70249026526","2023-08-02T01:00:00","7","62.0911","-152.7349","566.3","PUNTILLA, AK US","FM-15","PAPT ","V020","360,5,N,0031,5","02134,5,M,N","040234,5,N,5","+0210,C","+0180,C","99999,9",,,,,,,,,,"07,5,+02134,5,99,9",,,"3,99,1,+02134,5,9",,,,"9,AGL   ,+99999,+99999","99,99,9,99,9,99,9,02134,1,99,9,99,9","240,M,+0239,1","240,N,+0151,1","10193,5,09535,5",,,,,,"MET09808/01/23 16:00:01 METAR PAPT 020100Z 36006KT 25SM BKN070 21/18 A3010 RMK NO SPECI. 402390151 70000","R01    217TMP046R02    187DPT046"
"70249026526","2023-08-02T14:57:00","7","62.0911","-152.7349","566.3","PUNTILLA, AK US","FM-15","PAPT ","V020","350,5,N,0015,5","22000,5,9,N","040234,5,N,5","+0080,C","+0070,C","99999,9",,,,,,,,,,"02,5,+03048,5,99,9",,,"1,99,1,+03048,5,9",,,,"9,AGL   ,+99999,+99999","02,99,5,99,9,99,9,03048,1,99,9,99,9",,,"10210,5,09551,5",,,,,,"MET08808/02/23 05:57:02 METAR PAPT 021457Z 35003KT 25SM FEW100 08/07 A3015 RMK NO SPECI. FIRST","R01    087TMP046R02    077DPT046D01      0ADE726"
"70249026526","2023-08-02T16:48:00","7","62.0911","-152.7349","566.3","PUNTILLA, AK US","FM-15","PAPT ","V020","999,9,C,0000,5","22000,5,9,N","040234,5,N,5","+0130,C","+0110,C","99999,9",,,,,,,,,,"02,5,+03048,5,99,9",,,"1,99,1,+03048,5,9",,,,"9,AGL   ,+99999,+99999","02,99,5,99,9,99,9,03048,1,99,9,99,9",,,"10210,5,09551,5",,,,,,"MET08208/02/23 07:48:02 METAR PAPT 021648Z 00000KT 25SM FEW100 13/11 A3015 RMK NO SPECI.","R01    137TMP046R02    117DPT046D01      0ADE726"
"70249026526","2023-08-02T18:56:00","7","62.0911","-152.7349","566.3","PUNTILLA, AK US","FM-15","PAPT ","V020","999,9,C,0000,5","22000,5,9,N","040234,5,N,5","+0210,C","+0160,C","99999,9",,,,,,,,,,"02,5,+02438,5,99,9",,,"1,99,1,+02438,5,9",,,,"9,AGL   ,+99999,+99999","02,99,5,99,9,99,9,02438,1,99,9,99,9",,,"10200,5,09541,5",,,,,,"MET08208/02/23 09:56:02 METAR PAPT 021856Z 00000KT 25SM FEW080 21/16 A3012 RMK NO SPECI.","R01    217TMP046R02    167DPT046D01      0ADE726"
"70249026526","2023-08-02T20:55:00","7","62.0911","-152.7349","566.3","PUNTILLA, AK US","FM-15","PAPT ","V020","180,5,N,0036,5","22000,5,9,N","040234,5,N,5","+0230,C","+0160,C","99999,9",,,,,,,,,,"02,5,+02438,5,99,9",,,"1,99,1,+02438,5,9",,,,"9,AGL   ,+99999,+99999","02,99,5,99,9,99,9,02438,1,99,9,99,9",,,"10200,5,09541,5",,,,,,"MET08208/02/23 11:55:02 METAR PAPT 022055Z 18007KT 25SM FEW080 23/16 A3012 RMK NO SPECI.","R01    237TMP046R02    167DPT046D01      0ADE726"
"70249026526","2023-08-02T23:00:00","7","62.0911","-152.7349","566.3","PUNTILLA, AK US","FM-15","PAPT ","V020","180,5,N,0036,5","22000,5,9,N","040234,5,N,5","+0260,C","+0180,C","99999,9",,,,,,,,,,"04,5,+02134,5,99,9",,,"2,99,1,+02134,5,9",,,,"9,AGL   ,+99999,+99999","04,99,5,99,9,99,9,02134,1,99,9,99,9","240,M,+0256,1","240,N,+0084,1","10193,5,09535,5",,,,,,"MET09808/02/23 14:00:02 METAR PAPT 022300Z 18007KT 25SM SCT070 26/18 A3010 RMK NO SPECI. 402560084 70000","R01    267TMP046R02    187DPT046D01      0ADE726"
"70249026526","2023-08-03T14:59:00","7","62.0911","-152.7349","566.3","PUNTILLA, AK US","FM-15","PAPT ","V020","999,9,C,0000,5","22000,5,9,N","040234,5,N,5","+0080,C","+0070,C","99999,9",,,,,,,,,,"02,5,+03048,5,99,9",,,"1,99,1,+03048,5,9",,,,"9,AGL   ,+99999,+99999","02,99,5,99,9,99,9,03048,1,99,9,99,9",,,"10193,5,09535,5",,,,,,"MET08808/03/23 05:59:02 METAR PAPT 031459Z 00000KT 25SM FEW100 08/07 A3010 RMK NO SPECI. FIRST","R01    087TMP046R02    077DPT046D01      0ADE726"
"70249026526","2023-08-03T18:55:00","7","62.0911","-152.7349","566.3","PUNTILLA, AK US","FM-15","PAPT ","V020","180,5,N,0026,5","22000,5,9,N","040234,5,N,5","+0180,C","+0160,C","99999,9",,,,,,,,,,"02,5,+00549,5,99,9",,,"1,99,1,+00549,5,9",,,,"9,AGL   ,+99999,+99999","02,99,5,99,9,99,9,00549,1,99,9,99,9",,,"10196,5,09538,5",,,,,,"MET08208/03/23 09:55:02 METAR PAPT 031855Z 18005KT 25SM FEW018 18/16 A3011 RMK NO SPECI.","R01    187TMP046R02    167DPT046D01      0ADE726"
"70249026526","2023-08-03T20:49:00","7","62.0911","-152.7349","566.3","PUNTILLA, AK US","FM-15","PAPT ","V020","180,5,N,0036,5","22000,5,9,N","040234,5,N,5","+0210,C","+0170,C","99999,9",,,,,,,,,,"02,5,+00732,5,99,9","04,5,+01524,5,99,9",,"1,99,1,+00732,5,9","2,99,1,+01524,5,9",,,"9,AGL   ,+99999,+99999","04,99,5,99,9,99,9,00732,1,99,9,99,9",,,"10196,5,09538,5",,,,,,"MET08908/03/23 11:49:02 METAR PAPT 032049Z 18007KT 25SM FEW024 SCT050 21/17 A3011 RMK NO SPECI.","R01    217TMP046R02    177DPT046D01      0ADE726"
"70249026526","2023-08-03T22:50:00","7","62.0911","-152.7349","566.3","PUNTILLA, AK US","FM-15","PAPT ","V020","180,5,N,0051,5","22000,7,9,N","040234,5,N,5","+0210,C","+0180,C","99999,9",,,,,,,,,,,,,"2,99,1,+99999,9,9",,,,"9,AGL   ,+99999,+99999",,,,"10261,5,09599,5",,,,,,"MET08308/03/23 13:50:02 METAR PAPT 032250Z 18010KT 25SM SCT 055 21/18 A3030 RMK NO SPECI.","R01SCT 057SKY009R02    217TMP046R03    187DPT046R04SCT 057GAS009D01      0ADE693D02      0ADE539"
"70249026526","2023-08-04T00:53:00","7","62.0911","-152.7349","566.3","PUNTILLA, AK US","FM-15","PAPT ","V020","190,5,N,0057,5","22000,5,9,N","040234,5,N,5","+0220,C","+0170,C","99999,9",,,,,,,,,,"02,5,+02134,5,99,9","04,5,+03048,5,99,9",,"1,99,1,+02134,5,9","2,99,1,+03048,5,9",,,"9,AGL   ,+99999,+99999","04,99,5,99,9,99,9,02134,1,99,9,99,9","240,M,+0217,1","240,N,+0084,1","10183,5,09525,5",,,,,,"MET10508/03/23 15:53:01 METAR PAPT 040053Z 19011KT 25SM FEW070 SCT100 22/17 A3007 RMK NO SPECI. 402170084 70000","R01    227TMP046R02    177DPT046D01      0ADE726"
"70249026526","2023-08-04T03:03:00","7","62.0911","-152.7349","566.3","PUNTILLA, AK US","FM-15","PAPT ","V020","180,5,N,0072,5","03048,5,M,N","040234,5,N,5","+0210,5","+0180,5","99999,9",,,,,,,,,,"04,5,+02134,5,99,9","07,5,+03048,5,99,9",,"2,99,1,+02134,5,9","3,99,1,+03048,5,9",,,"9,AGL   ,+99999,+99999","99,99,9,99,9,99,9,02134,1,99,9,99,9",,,"10183,5,09525,5",,,,,,"MET09408/03/23 18:03:01 METAR PAPT 040303Z 18014KT 25SM SCT070 BKN100 21/18 A3007 RMK NO SPECI. LAST",
"70249026526","2023-08-04T14:57:00","7","62.0911","-152.7349","566.3","PUNTILLA, AK US","FM-15","PAPT ","V020","999,9,C,0000,5","00061,5,M,N","001609,5,N,5","+0120,C","+0120,C","99999,9",,,,,,,,,,"08,5,+00061,5,99,9",,,"4,99,1,+00061,5,9",,,,"9,AGL   ,+99999,+99999","99,99,9,99,9,99,9,00061,1,99,9,99,9",,,"10217,5,09557,5",,,,,,"MET08708/04/23 05:57:02 METAR PAPT 041457Z 00000KT 1SM OVC002 12/12 A3017 RMK NO SPECI. FIRST","R01    127TMP046R02    127DPT046"
"70249026526","2023-08-04T16:53:00","7","62.0911","-152.7349","566.3","PUNTILLA, AK US","FM-15","PAPT ","V020","160,5,N,0036,5","00366,5,M,N","011265,5,N,5","+0120,C","+0110,C","99999,9",,,,,,,,,,"07,5,+00366,5,99,9","08,5,+00549,5,99,9",,"3,99,1,+00366,5,9","4,99,1,+00549,5,9",,,"9,AGL   ,+99999,+99999","99,99,9,99,9,99,9,00366,1,99,9,99,9",,,"10217,5,09557,5",,,,,,"MET08808/04/23 07:53:02 METAR PAPT 041653Z 16007KT 7SM BKN012 OVC018 12/11 A3017 RMK NO SPECI.","R01    127TMP046R02    117DPT046"
"70249026526","2023-08-04T18:48:00","7","62.0911","-152.7349","566.3","PUNTILLA, AK US","FM-15","PAPT ","V020","170,5,N,0041,5","00792,5,M,N","024140,5,N,5","+0140,C","+0120,C","99999,9",,,,,,,,,,"04,5,+00457,5,99,9","07,5,+00792,5,99,9",,"2,99,1,+00457,5,9","3,99,1,+00792,5,9",,,"9,AGL   ,+99999,+99999","99,99,9,99,9,99,9,00457,1,99,9,99,9",,,"10217,5,09557,5",,,,,,"MET08908/04/23 09:48:02 METAR PAPT 041848Z 17008KT 15SM SCT015 BKN026 14/12 A3017 RMK NO SPECI.","R01    147TMP046R02    127DPT046"
"70249026526","2023-08-04T20:49:00","7","62.0911","-152.7349","566.3","PUNTILLA, AK US","FM-15","PAPT ","V020","180,5,N,0046,5","00823,5,M,N","024140,5,N,5","+0150,C","+0130,C","99999,9",,,,,,,,,,"04,5,+00457,5,99,9","07,5,+00823,5,99,9",,"2,99,1,+00457,5,9","3,99,1,+00823,5,9",,,"9,AGL   ,+99999,+99999","99,99,9,99,9,99,9,00457,1,99,9,99,9",,,"10220,5,09560,5",,,,,,"MET08908/04/23 11:49:02 METAR PAPT 042049Z 18009KT 15SM SCT015 BKN027 15/13 A3018 RMK NO SPECI.","R01    157TMP046R02    137DPT046"
"70249026526","2023-08-04T22:47:00","7","62.0911","-152.7349","566.3","PUNTILLA, AK US","FM-15","PAPT ","V020","170,5,N,0036,5","01219,5,M,N","032187,5,N,5","+0160,C","+0130,C","99999,9",,,,,,,,,,"02,5,+00549,5,99,9","04,5,+00823,5,99,9","07,5,+01219,5,99,9","1,99,1,+00549,5,9","2,99,1,+00823,5,9","3,99,1,+01219,5,9",,"9,AGL   ,+99999,+99999","99,99,9,99,9,99,9,00549,1,99,9,99,9","240,M,+0206,1","240,N,+0123,1","10213,5,09554,5",,,,,,"MET11208/04/23 13:47:02 METAR PAPT 042247Z 17007KT 20SM FEW018 SCT027 BKN040 16/13 A3016 RMK NO SPECI. 402060123 70000","R01    167TMP046R02    137DPT046"
"70249026526","2023-08-05T00:55:00","7","62.0911","-152.7349","566.3","PUNTILLA, AK US","FM-15","PAPT ","V020","190,5,N,0062,5","01981,5,M,N","040234,5,N,5","+0180,C","+0120,C","99999,9",,,,,,,,,,"02,5,+00610,5,99,9","07,5,+01981,5,99,9",,"1,99,1,+00610,5,9","3,99,1,+01981,5,9",,,"9,AGL   ,+99999,+99999","99,99,9,99,9,99,9,00610,1,99,9,99,9",,,"10207,5,09547,5",,,,,,"MET08908/04/23 15:55:01 METAR PAPT 050055Z 19012KT 25SM FEW020 BKN065 18/12 A3014 RMK NO SPECI.","R01    187TMP046R02    127DPT046"
"70249026526","2023-08-05T02:57:00","7","62.0911","-152.7349","566.3","PUNTILLA, AK US","FM-15","PAPT ","V020","190,5,N,0046,5","22000,5,9,N","040234,5,N,5","+0160,C","+0130,C","99999,9",,,,,,,,,,"02,5,+00914,5,99,9","04,5,+01829,5,99,9",,"1,99,1,+00914,5,9","2,99,1,+01829,5,9",,,"9,AGL   ,+99999,+99999","04,99,5,99,9,99,9,00914,1,99,9,99,9",,,"10207,5,09547,5",,,,,,"MET09408/04/23 17:57:02 METAR PAPT 050257Z 19009KT 25SM FEW030 SCT060 16/13 A3014 RMK NO SPECI. LAST","R01    167TMP046R02    137DPT046D01      0ADE726"
"70249026526","2023-08-05T14:57:00","7","62.0911","-152.7349","566.3","PUNTILLA, AK US","FM-15","PAPT ","V020","160,5,N,0026,5","22000,5,9,N","024140,5,N,5","+0110,C","+0090,C","99999,9",,,,,,,,,,"02,5,+00549,5,99,9","04,5,+00914,5,99,9",,"1,99,1,+00549,5,9","2,99,1,+00914,5,9",,,"9,AGL   ,+99999,+99999","04,99,5,99,9,99,9,00549,1,99,9,99,9",,,"10200,5,09541,5",,,,,,"MET09508/05/23 05:57:02 METAR PAPT 051457Z 16005KT 15SM FEW018 SCT030 11/09 A3012 RMK NO SPECI. FIRST","R01    117TMP046R02    097DPT046D01      0ADE726"
"70249026526","2023-08-05T16:47:00","7","62.0911","-152.7349","566.3","PUNTILLA, AK US","FM-15","PAPT ","V020","170,5,N,0036,5","00610,5,M,N","024140,5,N,5","+0120,C","+0100,C","99999,9",,,,,,,,,,"07,5,+00610,5,99,9",,,"3,99,1,+00610,5,9",,,,"9,AGL   ,+99999,+99999","99,99,9,99,9,99,9,00610,1,99,9,99,9",,,"10200,5,09541,5",,,,,,"MET08208/05/23 07:47:02 METAR PAPT 051647Z 17007KT 15SM BKN020 12/10 A3012 RMK NO SPECI.","R01    127TMP046R02    107DPT046"
"70249026526","2023-08-05T18:49:00","7","62.0911","-152.7349","566.3","PUNTILLA, AK US","FM-15","PAPT ","V020","190,5,N,0041,5","00610,5,M,N","024140,5,N,5","+0140,C","+0100,C","99999,9",,,,,,,,,,"07,5,+00610,5,99,9",,,"3,99,1,+00610,5,9",,,,"9,AGL   ,+99999,+99999","99,99,9,99,9,99,9,00610,1,99,9,99,9",,,"10196,5,09538,5",,,,,,"MET08208/05/23 09:49:02 METAR PAPT 051849Z 19008KT 15SM BKN020 14/10 A3011 RMK NO SPECI.","R01    147TMP046R02    107DPT046"
"70249026526","2023-08-05T20:57:00","7","62.0911","-152.7349","566.3","PUNTILLA, AK US","FM-15","PAPT ","V020","180,5,N,0057,5","00914,5,M,N","040234,5,N,5","+0150,C","+0100,C","99999,9",,,,,,,,,,"07,5,+00914,5,99,9",,,"3,99,1,+00914,5,9",,,,"9,AGL   ,+99999,+99999","99,99,9,99,9,99,9,00914,1,99,9,99,9",,,"10193,5,09535,5",,,,,,"MET08208/05/23 11:57:02 METAR PAPT 052057Z 18011KT 25SM BKN030 15/10 A3010 RMK NO SPECI.","R01    157TMP046R02    107DPT046"
"70249026526","2023-08-05T22:50:00","7","62.0911","-152.7349","566.3","PUNTILLA, AK US","FM-15","PAPT ","V020","190,5,N,0051,5","01524,5,M,N","040234,5,N,5","+0170,C","+0100,C","99999,9",,,,,,,,,,"04,5,+00914,5,99,9","07,5,+01524,5,99,9",,"2,99,1,+00914,5,9","3,99,1,+01524,5,9",,,"9,AGL   ,+99999,+99999","99,99,9,99,9,99,9,00914,1,99,9,99,9","240,M,+0167,1","240,N,+0112,1","10186,5,09528,5",,,,,,"MET09908/05/23 13:50:02 METAR PAPT 052250Z 19010KT 25SM SCT030 BKN050 17/10 A3008 RMK NO SPECI. 401670112","R01    177TMP046R02    107DPT046"
"70249026526","2023-08-06T00:53:00","7","62.0911","-152.7349","566.3","PUNTILLA, AK US","FM-15","PAPT ","V020","180,5,N,0041,5","01829,5,M,N","040234,5,N,5","+0170,C","+0110,C","99999,9",,,,,,,,,,"04,5,+00914,5,99,9","07,5,+01829,5,99,9",,"2,99,1,+00914,5,9","3,99,1,+01829,5,9",,,"9,AGL   ,+99999,+99999","99,99,9,99,9,99,9,00914,1,99,9,99,9",,,"10173,5,09515,5",,,,,,"MET08908/05/23 15:53:01 METAR PAPT 060053Z 18008KT 25SM SCT030 BKN060 17/11 A3004 RMK NO SPECI.","R01    177TMP046R02    117DPT046"
"70249026526","2023-08-06T02:58:00","7","62.0911","-152.7349","566.3","PUNTILLA, AK US","FM-15","PAPT ","V020","180,5,N,0062,5","01829,5,M,N","040234,5,N,5","+0180,C","+0100,C","99999,9",,,,,,,,,,"04,5,+01067,5,99,9","07,5,+01829,5,99,9",,"2,99,1,+01067,5,9","3,99,1,+01829,5,9",,,"9,AGL   ,+99999,+99999","99,99,9,99,9,99,9,01067,1,99,9,99,9",,,"10159,5,09502,5",,,,,,"MET09408/05/23 17:58:02 METAR PAPT 060258Z 18012KT 25SM SCT035 BKN060 18/10 A3000 RMK NO SPECI. LAST","R01    187TMP046R02    107DPT046"
"70249026526","2023-08-06T14:50:00","7","62.0911","-152.7349","566.3","PUNTILLA, AK US","FM-15","PAPT ","V020","170,5,N,0041,5","01219,5,M,N","024140,5,N,5","+0120,C","+0110,C","99999,9",,,,,,,,,,"02,5,+00152,5,99,9","04,5,+00457,5,99,9","08,5,+01219,5,99,9","1,99,1,+00152,5,9","2,99,1,+00457,5,9","4,99,1,+01219,5,9",,"9,AGL   ,+99999,+99999","99,99,9,99,9,99,9,00152,1,99,9,99,9",,,"10122,5,09467,5",,,,,,"MET09608/06/23 05:50:02 METAR PAPT 061450Z 17008KT 15SM FEW005 SCT015 OVC040 12/11 A2989 RMK NO SPECI.","R01    127TMP046R02    117DPT046"
"70249026526","2023-08-06T16:54:00","7","62.0911","-152.7349","566.3","PUNTILLA, AK US","FM-15","PAPT ","V020","180,5,N,0062,5","00610,5,M,N","024140,5,N,5","+0130,C","+0120,C","99999,9",,,,,,,,,,"02,5,+00305,5,99,9","08,5,+00610,5,99,9",,"1,99,1,+00305,5,9","4,99,1,+00610,5,9",,,"9,AGL   ,+99999,+99999","99,99,9,99,9,99,9,00305,1,99,9,99,9",,,"10119,5,09464,5",,,,,,"MET08908/06/23 07:54:02 METAR PAPT 061654Z 18012KT 15SM FEW010 OVC020 13/12 A2988 RMK NO SPECI.","R01    137TMP046R02    127DPT046"
"70249026526","2023-08-06T18:48:00","7","62.0911","-152.7349","566.3","PUNTILLA, AK US","FM-15","PAPT ","V020","180,5,N,0026,5","00549,5,M,N","024140,5,N,5","+0130,C","+0120,C","99999,9",,,,,,,,,,"02,5,+00366,5,99,9","08,5,+00549,5,99,9",,"1,99,1,+00366,5,9","4,99,1,+00549,5,9",,,"9,AGL   ,+99999,+99999","99,99,9,99,9,99,9,00366,1,99,9,99,9",,,"10112,5,09458,5",,,,,,"MET08908/06/23 09:48:02 METAR PAPT 061848Z 18005KT 15SM FEW012 OVC018 13/12 A2986 RMK NO SPECI.","R01    137TMP046R02    127DPT046"
"70249026526","2023-08-06T20:47:00","7","62.0911","-152.7349","566.3","PUNTILLA, AK US","FM-15","PAPT ","V020","180,5,N,0041,5","00610,5,M,N","024140,5,N,5","+0140,C","+0120,C","99999,9",,,,,,,,,,"04,5,+00457,5,99,9","08,5,+00610,5,99,9",,"2,99,1,+00457,5,9","4,99,1,+00610,5,9",,,"9,AGL   ,+99999,+99999","99,99,9,99,9,99,9,00457,1,99,9,99,9",,,"10105,5,09451,5",,,,,,"MET08908/06/23 11:47:02 METAR PAPT 062047Z 18008KT 15SM SCT015 OVC020 14/12 A2984 RMK NO SPECI.","R01    147TMP046R02    127DPT046"
"70249026526","2023-08-06T22:54:00","7","62.0911","-152.7349","566.3","PUNTILLA, AK US","FM-15","PAPT ","V020","180,5,N,0041,5","00457,5,M,N","024140,5,N,5","+0150,C","+0120,C","99999,9",,,,,,,,,,"07,5,+00457,5,99,9","08,5,+00610,5,99,9",,"3,99,1,+00457,5,9","4,99,1,+00610,5,9",,,"9,AGL   ,+99999,+99999","99,99,9,99,9,99,9,00457,1,99,9,99,9",,,"10105,5,09451,5",,,,,,"MET08908/06/23 13:54:02 METAR PAPT 062254Z 18008KT 15SM BKN015 OVC020 15/12 A2984 RMK NO SPECI.","R01    157TMP046R02    127DPT046"
"70249026526","2023-08-07T00:50:00","7","62.0911","-152.7349","566.3","PUNTILLA, AK US","FM-15","PAPT ","V020","160,5,N,0026,5","00579,5,M,N","024140,5,N,5","+0150,C","+0130,C","99999,9",,,,,,,,,,"08,5,+00579,5,99,9",,,"4,99,1,+00579,5,9",,,,"9,AGL   ,+99999,+99999","99,99,9,99,9,99,9,00579,1,99,9,99,9",,,"10098,5,09445,5",,,,,,"MET08208/06/23 15:50:01 METAR PAPT 070050Z 16005KT 15SM OVC019 15/13 A2982 RMK NO SPECI.","R01    157TMP046R02    137DPT046"
"70249026526","2023-08-07T02:50:00","7","62.0911","-152.7349","566.3","PUNTILLA, AK US","FM-15","PAPT ","V020","180,5,N,0046,5","00579,5,M,N","011265,5,N,5","+0150,C","+0130,C","99999,9",,,,,,,,,,"08,5,+00579,5,99,9",,,"4,99,1,+00579,5,9",,,,"9,AGL   ,+99999,+99999","99,99,9,99,9,99,9,00579,1,99,9,99,9",,,"10098,5,09445,5",,,,,,"MET08108/06/23 17:50:02 METAR PAPT 070250Z 18009KT 7SM OVC019 15/13 A2982 RMK NO SPECI.","R01    157TMP046R02    137DPT046"
"70249026526","2023-08-07T14:57:00","6","62.0911","-152.7349","566.3","PUNTILLA, AK US","FM-15","PAPT ","V020","190,5,N,0046,5","01829,5,M,N","040234,5,N,5","+0130,C","+0110,C","99999,9",,,,,,,,,,"02,5,+00305,5,99,9","02,5,+00914,5,99,9","07,5,+01829,5,99,9","1,99,1,+00305,5,9","1,99,1,+00914,5,9","3,99,1,+01829,5,9",,,,,,"10102,5,09448,5",,,,,,"MET10208/07/23 05:57:02 METAR PAPT 071457Z 19009KT 25SM FEW010 FEW030 BKN060 13/11 A2983 RMK NO SPECI. FIRST","R01    137TMP046R02    117DPT046"
"70249026526","2023-08-07T16:56:00","7","62.0911","-152.7349","566.3","PUNTILLA, AK US","FM-15","PAPT ","V020","180,5,N,0021,5","99999,9,9,N","040234,5,N,5","+0160,C","+0120,C","99999,9",,,,,,,,,,,,,"3,99,1,+99999,9,9",,,,"9,AGL   ,+99999,+99999",,,,"10102,5,09448,5",,,,,,"MET08308/07/23 07:56:02 METAR PAPT 071656Z 18004KT 25SM BKN 065 16/12 A2983 RMK NO SPECI.","R01BKN 067SKY009R02    167TMP046R03    127DPT046R04BKN 067GAS009D01      0ADE693D02      0ADE539"
"70249026526","2023-08-07T18:48:00","7","62.0911","-152.7349","566.3","PUNTILLA, AK US","FM-15","PAPT ","V020","170,5,N,0051,5","22000,5,9,N","040234,5,N,5","+0170,C","+0110,C","99999,9",,,,,,,,,,"04,5,+00914,5,99,9","04,5,+01981,5,99,9",,"2,99,1,+00914,5,9","2,99,1,+01981,5,9",,,"9,AGL   ,+99999,+99999","04,99,5,99,9,99,9,00914,1,99,9,99,9",,,"10098,5,09445,5",,,,,,"MET08908/07/23 09:48:02 METAR PAPT 071848Z 17010KT 25SM SCT030 SCT065 17/11 A2982 RMK NO SPECI.","R01    177TMP046R02    117DPT046D01      0ADE726"
"70249026526","2023-08-07T20:47:00","7","62.0911","-152.7349","566.3","PUNTILLA, AK US","FM-15","PAPT ","V020","180,5,N,0051,5","01981,5,M,N","040234,5,N,5","+0190,C","+0100,C","99999,9",,,,,,,,,,"04,5,+00914,5,99,9","07,5,+01981,5,99,9",,"2,99,1,+00914,5,9","3,99,1,+01981,5,9",,,"9,AGL   ,+99999,+99999","99,99,9,99,9,99,9,00914,1,99,9,99,9",,,"10095,5,09442,5",,,,,,"MET08908/07/23 11:47:02 METAR PAPT 072047Z 18010KT 25SM SCT030 BKN065 19/10 A2981 RMK NO SPECI.","R01    197TMP046R02    107DPT046"
"70249026526","2023-08-07T22:47:00","7","62.0911","-152.7349","566.3","PUNTILLA, AK US","FM-15","PAPT ","V020","180,5,N,0051,5","22000,5,9,N","040234,5,N,5","+0180,C","+0080,C","99999,9",,,,,,,,,,"02,5,+00457,5,99,9","04,5,+00914,5,99,9","04,5,+01829,5,99,9","1,99,1,+00457,5,9","2,99,1,+00914,5,9","2,99,1,+01829,5,9","3,99,1,+02438,1,9","9,AGL   ,+99999,+99999","99,99,9,99,9,99,9,00457,1,99,9,99,9","240,M,+0189,1","240,N,+0134,1","10091,5,09438,5",,,,,,"MET11208/07/23 13:47:02 METAR PAPT 072247Z 18010KT 25SM FEW015 SCT030 SCT060 18/08 A2980 RMK NO SPECI. 401890134 70010","R01    187TMP046R02    087DPT046"
"70249026526","2023-08-08T00:56:00","7","62.0911","-152.7349","566.3","PUNTILLA, AK US","FM-15","PAPT ","V020","190,5,N,0046,5","22000,6,9,N","040234,5,N,5","+0170,C","+0130,C","99999,9",,,,,,,,,,"04,6,+00914,6,99,9",,,"2,99,1,+00914,6,9",,,,"9,AGL   ,+99999,+99999","04,99,5,99,9,99,9,00914,1,99,9,99,9",,,"10091,5,09438,5",,,,,,"MET08908/07/23 15:56:01 METAR PAPT 080056Z 19009KT 25SM SCT030 BKB045 17/13 A2980 RMK NO SPECI.","R01SCT0307SKY010R02    177TMP046R03    137DPT046R04SCT0307GAS010D01      0ADE693D02      0ADE539D03      0ADE726"
"70249026526","2023-08-08T02:51:00","7","62.0911","-152.7349","566.3","PUNTILLA, AK US","FM-15","PAPT ","V020","170,5,N,0036,5","22000,5,9,N","040234,5,N,5","+0180,C","+0090,C","99999,9",,,,,,,,,,"02,5,+00914,5,99,9","04,5,+02134,5,99,9",,"1,99,1,+00914,5,9","2,99,1,+02134,5,9",,,"9,AGL   ,+99999,+99999","04,99,5,99,9,99,9,00914,1,99,9,99,9",,,"10088,5,09435,5",,,,,,"MET08908/07/23 17:51:02 METAR PAPT 080251Z 17007KT 25SM FEW030 SCT070 18/09 A2979 RMK NO SPECI.","R01    187TMP046R02    097DPT046D01      0ADE726"
"70249026526","2023-08-08T14:58:00","7","62.0911","-152.7349","566.3","PUNTILLA, AK US","FM-15","PAPT ","V020","170,5,N,0015,5","22000,5,9,N","032187,5,N,5","+0060,C","+0050,C","99999,9",,,,,,,,,,"02,5,+00091,5,99,9","02,5,+02438,5,99,9",,"1,99,1,+00091,5,9","1,99,1,+02438,5,9",,,"9,AGL   ,+99999,+99999","02,99,5,99,9,99,9,00091,1,99,9,99,9",,,"10078,5,09425,5",,,,,,"MET10408/08/23 05:58:02 METAR PAPT 081458Z 17003KT 20SM FEW003 FEW080 06/05 A2976 RMK NO SPECI. FIRST MIFG E-S","R01    067TMP046R02    057DPT046D01      0ADE726"
"70249026526","2023-08-08T18:51:00","7","62.0911","-152.7349","566.3","PUNTILLA, AK US","FM-15","PAPT ","V020","190,5,N,0021,5","22000,5,9,N","040234,5,N,5","+0160,C","+0100,C","99999,9",,,,,,,,,,"02,5,+00762,5,99,9","04,5,+03048,5,99,9",,"1,99,1,+00762,5,9","2,99,1,+03048,5,9",,,"9,AGL   ,+99999,+99999","04,99,5,99,9,99,9,00762,1,99,9,99,9",,,"10058,5,09406,5",,,,,,"MET08908/08/23 09:51:02 METAR PAPT 081851Z 19004KT 25SM FEW025 SCT100 16/10 A2970 RMK NO SPECI.","R01    167TMP046R02    107DPT046D01      0ADE726"
"70249026526","2023-08-08T20:46:00","7","62.0911","-152.7349","566.3","PUNTILLA, AK US","FM-15","PAPT ","V020","190,5,N,0021,5","02438,5,M,N","040234,5,N,5","+0170,C","+0110,C","99999,9",,,,,,,,,,"02,5,+00914,5,99,9","08,5,+02438,5,99,9",,"1,99,1,+00914,5,9","4,99,1,+02438,5,9",,,"9,AGL   ,+99999,+99999","99,99,9,99,9,99,9,00914,1,99,9,99,9",,,"10047,5,09397,5",,,,,,"MET08908/08/23 11:46:02 METAR PAPT 082046Z 19004KT 25SM FEW030 OVC080 17/11 A2967 RMK NO SPECI.","R01    177TMP046R02    117DPT046"
"70249026526","2023-08-08T22:47:00","7","62.0911","-152.7349","566.3","PUNTILLA, AK US","FM-15","PAPT ","V020","170,5,N,0015,5","02438,5,M,N","040234,5,N,5","+0180,C","+0130,C","99999,9",,,,,,,,,,"02,5,+01524,5,99,9","07,5,+02438,5,99,9",,"1,99,1,+01524,5,9","3,99,1,+02438,5,9",,,"9,AGL   ,+99999,+99999","99,99,9,99,9,99,9,01524,1,99,9,99,9","240,M,+0184,1","240,N,+0062,1","10037,5,09387,5",,,,,,"MET09908/08/23 13:47:02 METAR PAPT 082247Z 17003KT 25SM FEW050 BKN080 18/13 A2964 RMK NO SPECI. 401840062","R01    187TMP046R02    137DPT046"
"70249026526","2023-08-09T00:50:00","7","62.0911","-152.7349","566.3","PUNTILLA, AK US","FM-15","PAPT ","V020","180,5,N,0026,5","02438,5,M,N","040234,5,N,5","+0180,C","+0110,C","99999,9",,,,,,,,,,"02,5,+01067,5,99,9","07,5,+02438,5,99,9",,"1,99,1,+01067,5,9","3,99,1,+02438,5,9",,,"9,AGL   ,+99999,+99999","99,99,9,99,9,99,9,01067,1,99,9,99,9",,,"10030,5,09381,5",,,,,,"MET08908/08/23 15:50:01 METAR PAPT 090050Z 18005KT 25SM FEW035 BKN080 18/11 A2962 RMK NO SPECI.","R01    187TMP046R02    117DPT046"
"70249026526","2023-08-09T02:50:00","7","62.0911","-152.7349","566.3","PUNTILLA, AK US","FM-15","PAPT ","V020","190,5,N,0031,5","22000,5,9,N","040234,5,N,5","+0180,C","+0130,C","99999,9",,,,,,,,,,"02,5,+00914,5,99,9",,,"1,99,1,+00914,5,9","3,99,1,+99999,9,9",,,"9,AGL   ,+99999,+99999","99,99,9,99,9,99,9,00914,1,99,9,99,9",,,"10024,5,09374,5",,,,,,"MET09308/08/23 17:50:01 METAR PAPT 090250Z 19006KT 25SM FEW030 BKN80 18/13 A2960 RMK NO SPECI. LAST","R01    187TMP046R02    137DPT046"
"70249026526","2023-08-09T14:45:00","7","62.0911","-152.7349","566.3","PUNTILLA, AK US","FM-15","PAPT ","V020","190,5,N,0015,5","00610,5,M,N","008047,5,N,5","+0110,C","+0100,C","99999,9",,,,,,,,,,"02,5,+00061,5,99,9","02,5,+00152,5,99,9","08,5,+00610,5,99,9","1,99,1,+00061,5,9","1,99,1,+00152,5,9","4,99,1,+00610,5,9",,"9,AGL   ,+99999,+99999","99,99,9,99,9,99,9,00061,1,99,9,99,9",,,"10017,5,09368,5",,,,,,"MET10108/09/23 05:45:02 METAR PAPT 091445Z 19003KT 5SM FEW002 FEW005 OVC020 11/10 A2958 RMK NO SPECI. FIRST","R01    117TMP046R02    107DPT046"
"70249026526","2023-08-09T16:49:00","7","62.0911","-152.7349","566.3","PUNTILLA, AK US","FM-15","PAPT ","V020","160,5,N,0026,5","00610,5,M,N","011265,5,N,5","+0120,C","+0100,C","99999,9",,,,,,,,,,"02,5,+00244,5,99,9","04,5,+00549,5,99,9","08,5,+00610,5,99,9","1,99,1,+00244,5,9","2,99,1,+00549,5,9","4,99,1,+00610,5,9",,"9,AGL   ,+99999,+99999","99,99,9,99,9,99,9,00244,1,99,9,99,9",,,"10017,5,09368,5",,,,,,"MET09508/09/23 07:49:02 METAR PAPT 091649Z 16005KT 7SM FEW008 SCT018 OVC020 12/10 A2958 RMK NO SPECI.","R01    127TMP046R02    107DPT046"
"70249026526","2023-08-09T18:54:00","7","62.0911","-152.7349","566.3","PUNTILLA, AK US","FM-15","PAPT ","V020","170,5,N,0036,5","00762,5,M,N","024140,7,N,5","+0130,C","+0120,C","99999,9",,,,,,"1,0,01,0,0,1,5",,"51,5",,"02,5,+00457,5,99,9","07,5,+00762,5,99,9","08,5,+01219,5,99,9","1,99,1,+00457,5,9","3,99,1,+00762,5,9","4,99,1,+01219,5,9",,"9,AGL   ,+99999,+99999","99,99,9,99,9,99,9,00457,1,99,9,99,9",,,"10017,5,09368,5",,"51,5",,,,"MET10008/09/23 09:54:02 METAR PAPT 091854Z 17007KT 15SM -DZ FEW015 BKN025 OVC040 13/12 A2958 RMK NO SPECI.","R01  15SM7VIS011R02    137TMP046R03    127DPT046"
"70249026526","2023-08-09T20:48:00","7","62.0911","-152.7349","566.3","PUNTILLA, AK US","FM-15","PAPT ","V020","180,5,N,0036,5","00549,5,M,N","016093,5,N,5","+0140,C","+0120,C","99999,9",,,,,,,,,,"07,5,+00549,5,99,9","08,5,+01829,5,99,9",,"3,99,1,+00549,5,9","4,99,1,+01829,5,9",,,"9,AGL   ,+99999,+99999","99,99,9,99,9,99,9,00549,1,99,9,99,9",,,"10017,5,09368,5",,,,,,"MET08908/09/23 11:48:02 METAR PAPT 092048Z 18007KT 10SM BKN018 OVC060 14/12 A2958 RMK NO SPECI.","R01    147TMP046R02    127DPT046"
"70249026526","2023-08-09T22:49:00","7","62.0911","-152.7349","566.3","PUNTILLA, AK US","FM-15","PAPT ","V020","170,5,N,0021,5","00549,5,M,N","024140,7,N,5","+0150,C","+0130,C","99999,9",,,,,,"1,0,01,0,0,1,5",,"51,5",,"07,5,+00549,5,99,9","08,5,+01219,5,99,9",,"3,99,1,+00549,5,9","4,99,1,+01219,5,9",,,"9,AGL   ,+99999,+99999","99,99,9,99,9,99,9,00549,1,99,9,99,9",,,"10017,5,09368,5",,"51,5",,,,"MET09308/09/23 13:49:02 METAR PAPT 092249Z 17004KT 15SM -DZ BKN018 OVC040 15/13 A2958 RMK NO SPECI.","R01  15SM7VIS011R02    157TMP046R03    137DPT046"
"70249026526","2023-08-10T00:46:00","7","62.0911","-152.7349","566.3","PUNTILLA, AK US","FM-15","PAPT ","V020","170,5,N,0031,5","00549,5,M,N","024140,7,N,5","+0140,C","+0120,C","99999,9",,,,,,"1,0,01,0,0,1,5",,"51,5",,"07,5,+00549,5,99,9","08,5,+01219,5,99,9",,"3,99,1,+00549,5,9","4,99,1,+01219,5,9",,,"9,AGL   ,+99999,+99999","99,99,9,99,9,99,9,00549,1,99,9,99,9",,,"10014,5,09365,5",,"51,5",,,,"MET09308/09/23 15:46:01 METAR PAPT 100046Z 17006KT 15SM -DZ BKN018 OVC040 14/12 A2957 RMK NO SPECI.","R01  15SM7VIS011R02    147TMP046R03    127DPT046"
"70249026526","2023-08-10T02:43:00","7","62.0911","-152.7349","566.3","PUNTILLA, AK US","FM-15","PAPT ","V020","170,5,N,0026,5","01219,5,M,N","032187,7,N,5","+0130,C","+0110,C","99999,9",,,,,,"2,0,01,0,0,1,5",,"52,5",,"04,5,+00823,5,99,9","08,5,+01219,5,99,9",,"2,99,1,+00823,5,9","4,99,1,+01219,5,9",,,"9,AGL   ,+99999,+99999","99,99,9,99,9,99,9,00823,1,99,9,99,9",,,"10014,5,09365,5",,"53,1","55,5",,,"MET09708/09/23 17:43:01 METAR PAPT 100243Z 17005KT 20SM DZ SCT027 OVC040 13/11 A2957 RMK NO SPECI. LAST","R01  20SM7VIS011R02    137TMP046R03    117DPT046"
"70249026526","2023-08-10T08:59:00","O","62.0911","-152.7349","566.3","PUNTILLA, AK US","SOD  ","PAPT ","V020","999,9,9,9999,9","99999,9,9,9","999999,9,9,9","+9999,9","+9999,9","99999,9",,,"AU,14,DZ  ,5",,,,,,,,,,,,,,,,,,,,,,,,,
"70249026526","2023-08-10T14:45:00","7","62.0911","-152.7349","566.3","PUNTILLA, AK US","FM-15","PAPT ","V020","180,5,N,0021,5","00061,5,M,N","004828,5,N,5","+0110,C","+0100,C","99999,9",,,,,,"1,0,01,0,0,1,5",,"51,5",,"08,5,+00061,5,99,9",,,"4,99,1,+00061,5,9",,,,"9,AGL   ,+99999,+99999","99,99,9,99,9,99,9,00061,1,99,9,99,9",,,"10037,5,09387,5",,"51,5",,,,"MET08508/10/23 05:45:02 METAR PAPT 101445Z 18004KT 3SM -DZ OVC002 11/10 A2964 RMK NO SPECI.","R01    117TMP046R02    107DPT046"
"70249026526","2023-08-10T16:54:00","7","62.0911","-152.7349","566.3","PUNTILLA, AK US","FM-15","PAPT ","V020","050,5,N,0021,5","00091,5,M,N","011265,5,N,5","+0110,C","+0110,C","99999,9",,,,,,"1,0,01,0,0,1,5",,"51,5",,"07,5,+00091,5,99,9","08,5,+01219,5,99,9",,"3,99,1,+00091,5,9","4,99,1,+01219,5,9",,,"9,AGL   ,+99999,+99999","99,99,9,99,9,99,9,00091,1,99,9,99,9",,,"10041,5,09390,5",,"51,5",,,,"MET09208/10/23 07:54:02 METAR PAPT 101654Z 05004KT 7SM -DZ BKN003 OVC040 11/11 A2965 RMK NO SPECI.","R01    117TMP046R02    117DPT046"
"70249026526","2023-08-10T18:45:00","7","62.0911","-152.7349","566.3","PUNTILLA, AK US","FM-15","PAPT ","V020","040,5,N,0015,5","00427,5,M,N","024140,5,N,5","+0130,C","+0110,C","99999,9",,,,,,,,,,"07,5,+00427,5,99,9","08,5,+01219,5,99,9",,"3,99,1,+00427,5,9","4,99,1,+01219,5,9",,,"9,AGL   ,+99999,+99999","99,99,9,99,9,99,9,00427,1,99,9,99,9",,,"10041,5,09390,5",,,,,,"MET08908/10/23 09:45:02 METAR PAPT 101845Z 04003KT 15SM BKN014 OVC040 13/11 A2965 RMK NO SPECI.","R01    137TMP046R02    117DPT046"
"70249026526","2023-08-10T20:40:00","7","62.0911","-152.7349","566.3","PUNTILLA, AK US","FM-15","PAPT ","V020","999,9,N,9999,9","00549,5,M,N","040234,5,N,5","+0140,5","+0120,5","99999,9",,,,,,,,,,"07,5,+00549,5,99,9",,,"3,99,1,+00549,5,9",,,,,,,,"10041,5,09390,5",,,,,,"MET08208/10/23 11:40:02 METAR PAPT 102040Z      KT 25SM BKN018 14/12 A2965 RMK NO SPECI.","D01      0ADE693D02      0ADE539"
"70249026526","2023-08-10T22:51:00","7","62.0911","-152.7349","566.3","PUNTILLA, AK US","FM-15","PAPT ","V020","040,5,N,0015,5","01524,5,M,N","040234,5,N,5","+0170,C","+0110,C","99999,9",,,,,,,,,,"07,5,+01524,5,99,9",,,"3,99,1,+01524,5,9",,,,"9,AGL   ,+99999,+99999","99,99,9,99,9,99,9,01524,1,99,9,99,9","240,M,+0167,1","240,N,+0106,1","10044,5,09393,5",,,,,,"MET09808/10/23 13:51:02 METAR PAPT 102251Z 04003KT 25SM BKN050 17/11 A2966 RMK NO SPECI. 401670106 70004","R01    177TMP046R02    117DPT046"
"70249026526","2023-08-11T00:53:00","7","62.0911","-152.7349","566.3","PUNTILLA, AK US","FM-15","PAPT ","V020","999,9,C,0000,5","01768,5,M,N","040234,5,N,5","+0180,C","+0130,C","99999,9",,,,,,,,,,"07,5,+01768,5,99,9",,,"3,99,1,+01768,5,9",,,,"9,AGL   ,+99999,+99999","99,99,9,99,9,99,9,01768,1,99,9,99,9",,,"10041,5,09390,5",,,,,,"MET08208/10/23 15:53:01 METAR PAPT 110053Z 00000KT 25SM BKN058 18/13 A2965 RMK NO SPECI.","R01    187TMP046R02    137DPT046"
"70249026526","2023-08-11T02:55:00","7","62.0911","-152.7349","566.3","PUNTILLA, AK US","FM-15","PAPT ","V020","170,5,N,0031,5","01890,5,M,N","040234,5,N,5","+0180,C","+0100,C","99999,9",,,,,,,,,,"07,5,+01890,5,99,9",,,"3,99,1,+01890,5,9",,,,"9,AGL   ,+99999,+99999","99,99,9,99,9,99,9,01890,1,99,9,99,9",,,"10041,5,09390,5",,,,,,"MET08708/10/23 17:55:02 METAR PAPT 110255Z 17006KT 25SM BKN062 18/10 A2965 RMK NO SPECI. LAST","R01    187TMP046R02    107DPT046"
"70249026526","2023-08-11T08:59:00","O","62.0911","-152.7349","566.3","PUNTILLA, AK US","SOD  ","PAPT ","V020","999,9,9,9999,9","99999,9,9,9","999999,9,9,9","+9999,9","+9999,9","99999,9",,,"AU,14,DZ  ,5",,,,,,,,,,,,,,,,,,,,,,,,,
"70249026526","2023-08-11T14:56:00","7","62.0911","-152.7349","566.3","PUNTILLA, AK US","FM-15","PAPT ","V020","999,9,C,0000,5","22000,5,9,N","040234,7,N,5","+0030,C","+0010,C","99999,9",,,,,,"0,3,00,2,0,1,5",,"31,5",,"02,5,+02438,5,99,9",,,"1,99,1,+02438,5,9",,,,"9,AGL   ,+99999,+99999","02,99,5,99,9,99,9,02438,1,99,9,99,9",,,"10068,5,09416,5",,"11,1",,,,"MET09308/11/23 05:56:02 METAR PAPT 111456Z 00000KT 25SM BCFG FEW080 03/01 A2973 RMK NO SPECI. FIRST","R01  25SM7VIS011R02    037TMP046R03    017DPT046D01      0ADE726"
"70249026526","2023-08-11T16:54:00","7","62.0911","-152.7349","566.3","PUNTILLA, AK US","FM-15","PAPT ","V020","999,9,C,0000,5","22000,5,9,N","040234,5,N,5","+0090,C","+0080,C","99999,9",,,,,,,,,,"02,5,+02438,5,99,9",,,"1,99,1,+02438,5,9",,,,"9,AGL   ,+99999,+99999","02,99,5,99,9,99,9,02438,1,99,9,99,9",,,"10068,5,09416,5",,,,,,"MET08208/11/23 07:54:02 METAR PAPT 111654Z 00000KT 25SM FEW080 09/08 A2973 RMK NO SPECI.","R01    097TMP046R02    087DPT046D01      0ADE726"
"70249026526","2023-08-11T18:49:00","7","62.0911","-152.7349","566.3","PUNTILLA, AK US","FM-15","PAPT ","V020","180,5,N,0036,5","22000,5,9,N","040234,5,N,5","+0150,C","+0110,C","99999,9",,,,,,,,,,"02,5,+01219,5,99,9","02,5,+02438,5,99,9",,"1,99,1,+01219,5,9","1,99,1,+02438,5,9",,,"9,AGL   ,+99999,+99999","02,99,5,99,9,99,9,01219,1,99,9,99,9",,,"10064,5,09413,5",,,,,,"MET08908/11/23 09:49:02 METAR PAPT 111849Z 18007KT 25SM FEW040 FEW080 15/11 A2972 RMK NO SPECI.","R01    157TMP046R02    117DPT046D01      0ADE726"
"70249026526","2023-08-11T20:49:00","7","62.0911","-152.7349","566.3","PUNTILLA, AK US","FM-15","PAPT ","V020","190,5,N,0036,5","02438,5,M,N","040234,5,N,5","+0160,C","+0110,C","99999,9",,,,,,,,,,"02,5,+00457,5,99,9","07,5,+02438,5,99,9",,"1,99,1,+00457,5,9","3,99,1,+02438,5,9",,,"9,AGL   ,+99999,+99999","99,99,9,99,9,99,9,00457,1,99,9,99,9",,,"10064,5,09413,5",,,,,,"MET08908/11/23 11:49:02 METAR PAPT 112049Z 19007KT 25SM FEW015 BKN080 16/11 A2972 RMK NO SPECI.","R01    167TMP046R02    117DPT046"
"70249026526","2023-08-11T22:51:00","7","62.0911","-152.7349","566.3","PUNTILLA, AK US","FM-15","PAPT ","V020","180,5,N,0062,5","22000,5,9,N","040234,5,N,5","+0170,C","+0080,C","99999,9",,,,,,,,,,"02,5,+00914,5,99,9","04,5,+01829,5,99,9",,"1,99,1,+00914,5,9","2,99,1,+01829,5,9",,,"9,AGL   ,+99999,+99999","04,99,5,99,9,99,9,00914,1,99,9,99,9","240,M,+0178,1","240,N,+0089,1","10058,5,09406,5",,,,,,"MET09908/11/23 13:51:02 METAR PAPT 112251Z 18012KT 25SM FEW030 SCT060 17/08 A2970 RMK NO SPECI. 401780089","R01    177TMP046R02    087DPT046D01      0ADE726"
"70249026526","2023-08-12T00:45:00","7","62.0911","-152.7349","566.3","PUNTILLA, AK US","FM-15","PAPT ","V020","170,5,N,0077,5","01829,5,M,N","040234,7,N,5","+0160,C","+0090,C","99999,9",,,,,,"1,0,02,0,0,2,5",,"61,5",,"04,5,+00914,5,99,9","07,5,+01829,5,99,9",,"2,99,1,+00914,5,9","3,99,1,+01829,5,9",,,,,,,"10054,5,09403,5",,"61,5",,,,"MET09508/11/23 15:45:01 METAR PAPT 120045Z 17015KT 25SM -RAPR SCT030 BKN060 16/09 A2969 RMK NO SPECI.","R01  25SM7VIS011R02    167TMP046R03    097DPT046D01      0ADE735"
"70249026526","2023-08-12T02:53:00","7","62.0911","-152.7349","566.3","PUNTILLA, AK US","FM-15","PAPT ","V020","180,5,N,0051,5","22000,5,9,N","040234,5,N,5","+0170,C","+0080,C","99999,9",,,,,,,,,,"02,5,+00914,5,99,9","04,5,+02134,5,99,9",,"1,99,1,+00914,5,9","2,99,1,+02134,5,9",,,"9,AGL   ,+99999,+99999","04,99,5,99,9,99,9,00914,1,99,9,99,9",,,"10041,5,09390,5",,,,,,"MET09408/11/23 17:53:01 METAR PAPT 120253Z 18010KT 25SM FEW030 SCT070 17/08 A2965 RMK NO SPECI. LAST","R01    177TMP046R02    087DPT046D01      0ADE726"
"70249026526","2023-08-12T08:59:00","O","62.0911","-152.7349","566.3","PUNTILLA, AK US","SOD  ","PAPT ","V020","999,9,9,9999,9","99999,9,9,9","999999,9,9,9","+9999,9","+9999,9","99999,9",,,"AU,16,RA  ,5","AU,01,FG  ,5",,,,,,,,,,,,,,,,,,,,,,,,
"70249026526","2023-08-12T14:54:00","7","62.0911","-152.7349","566.3","PUNTILLA, AK US","FM-15","PAPT ","V020","350,5,N,0021,5","01676,5,M,N","040234,5,N,5","+0100,C","+0090,C","99999,9",,,,,,,,,,"02,5,+00853,5,99,9","07,5,+01676,5,99,9","07,5,+02438,5,99,9","1,99,1,+00853,5,9","3,99,1,+01676,5,9","3,99,1,+02438,5,9",,"9,AGL   ,+99999,+99999","99,99,9,99,9,99,9,00853,1,99,9,99,9",,,"09973,5,09326,5",,,,,,"MET10208/12/23 05:54:02 METAR PAPT 121454Z 35004KT 25SM FEW028 BKN055 BKN080 10/09 A2945 RMK NO SPECI. FIRST","R01    107TMP046R02    097DPT046"
"70249026526","2023-08-12T16:49:00","7","62.0911","-152.7349","566.3","PUNTILLA, AK US","FM-15","PAPT ","V020","180,5,N,0026,5","01676,5,M,N","040234,5,N,5","+0100,C","+0090,C","99999,9",,,,,,,,,,"02,5,+00914,5,99,9","07,5,+01676,5,99,9","08,5,+02438,5,99,9","1,99,1,+00914,5,9","3,99,1,+01676,5,9","4,99,1,+02438,5,9",,"9,AGL   ,+99999,+99999","99,99,9,99,9,99,9,00914,1,99,9,99,9",,,"09953,5,09307,5",,,,,,"MET09608/12/23 07:49:02 METAR PAPT 121649Z 18005KT 25SM FEW030 BKN055 OVC080 10/09 A2939 RMK NO SPECI.","R01    107TMP046R02    097DPT046"
"70249026526","2023-08-12T18:49:00","7","62.0911","-152.7349","566.3","PUNTILLA, AK US","FM-15","PAPT ","V020","190,5,N,0051,5","01676,5,M,N","040234,5,N,5","+0130,C","+0100,C","99999,9",,,,,,,,,,"02,5,+00914,5,99,9","07,5,+01676,5,99,9","08,5,+02438,5,99,9","1,99,1,+00914,5,9","3,99,1,+01676,5,9","4,99,1,+02438,5,9",,"9,AGL   ,+99999,+99999","99,99,9,99,9,99,9,00914,1,99,9,99,9",,,"09939,5,09294,5",,,,,,"MET09608/12/23 09:49:02 METAR PAPT 121849Z 19010KT 25SM FEW030 BKN055 OVC080 13/10 A2935 RMK NO SPECI.","R01    137TMP046R02    107DPT046"
"70249026526","2023-08-12T20:55:00","7","62.0911","-152.7349","566.3","PUNTILLA, AK US","FM-15","PAPT ","V020","190,5,N,0051,5","01219,5,M,N","024140,7,N,5","+0120,C","+0100,C","99999,9",,,,,,"1,0,01,0,0,1,5",,"51,5",,"02,5,+00610,5,99,9","08,5,+01219,5,99,9",,"1,99,1,+00610,5,9","4,99,1,+01219,5,9",,,"9,AGL   ,+99999,+99999","99,99,9,99,9,99,9,00610,1,99,9,99,9",,,"09929,5,09284,5",,"51,5",,,,"MET09308/12/23 11:55:02 METAR PAPT 122055Z 19010KT 15SM -DZ FEW020 OVC040 12/10 A2932 RMK NO SPECI.","R01  15SM7VIS011R02    127TMP046R03    107DPT046"
"70249026526","2023-08-12T22:50:00","7","62.0911","-152.7349","566.3","PUNTILLA, AK US","FM-15","PAPT ","V020","190,5,N,0036,5","01219,5,M,N","016093,5,N,5","+0120,C","+0100,C","99999,9",,,,,,"1,0,01,0,0,1,5",,"51,5",,"02,5,+00457,5,99,9","08,5,+01219,5,99,9",,"1,99,1,+00457,5,9","4,99,1,+01219,5,9",,,"9,AGL   ,+99999,+99999","99,99,9,99,9,99,9,00457,1,99,9,99,9",,,"09929,5,09284,5",,"51,5",,,,"MET09308/12/23 13:50:02 METAR PAPT 122250Z 19007KT 10SM -DZ FEW015 OVC040 12/10 A2932 RMK NO SPECI.","R01    127TMP046R02    107DPT046"
"70249026526","2023-08-13T00:46:00","7","62.0911","-152.7349","566.3","PUNTILLA, AK US","FM-15","PAPT ","V020","190,5,N,0036,5","00762,5,M,N","016093,5,N,5","+0120,C","+0100,C","99999,9",,,,,,"1,0,01,0,0,1,5",,"51,5",,"02,5,+00305,5,99,9","08,5,+00762,5,99,9",,"1,99,1,+00305,5,9","4,99,1,+00762,5,9",,,"9,AGL   ,+99999,+99999","99,99,9,99,9,99,9,00305,1,99,9,99,9",,,"09929,5,09284,5",,"51,5",,,,"MET09308/12/23 15:46:01 METAR PAPT 130046Z 19007KT 10SM -DZ FEW010 OVC025 12/10 A2932 RMK NO SPECI.","R01    127TMP046R02    107DPT046"
"70249026526","2023-08-13T02:48:00","7","62.0911","-152.7349","566.3","PUNTILLA, AK US","FM-15","PAPT ","V020","190,5,N,0036,5","22000,5,9,N","040234,5,N,5","+0130,C","+0110,C","99999,9",,,,,,,,,,"02,5,+00610,5,99,9","04,5,+01219,5,99,9",,"1,99,1,+00610,5,9","2,99,1,+01219,5,9",,,"9,AGL   ,+99999,+99999","04,99,5,99,9,99,9,00610,1,99,9,99,9",,,"09929,5,09284,5",,,,,,"MET09408/12/23 17:48:02 METAR PAPT 130248Z 19007KT 25SM FEW020 SCT040 13/11 A2932 RMK NO SPECI. LAST","R01    137TMP046R02    117DPT046D01      0ADE726"
"70249026526","2023-08-13T08:59:00","O","62.0911","-152.7349","566.3","PUNTILLA, AK US","SOD  ","PAPT ","V020","999,9,9,9999,9","99999,9,9,9","999999,9,9,9","+9999,9","+9999,9","99999,9",,,"AU,14,DZ  ,5",,,,,,,,,,,,,,,,,,,,,,,,,
"70249026526","2023-08-13T14:52:00","7","62.0911","-152.7349","566.3","PUNTILLA, AK US","FM-15","PAPT ","V020","999,9,C,0000,5","01829,5,M,N","040234,5,N,5","+0070,C","+0060,C","99999,9",,,,,,,,,,"02,5,+00914,5,99,9","07,5,+01829,5,99,9",,"1,99,1,+00914,5,9","3,99,1,+01829,5,9",,,"9,AGL   ,+99999,+99999","99,99,9,99,9,99,9,00914,1,99,9,99,9",,,"10010,5,09361,5",,,,,,"MET09508/13/23 05:52:02 METAR PAPT 131452Z 00000KT 25SM FEW030 BKN060 07/06 A2956 RMK NO SPECI. FIRST","R01    077TMP046R02    067DPT046"
"70249026526","2023-08-13T18:50:00","7","62.0911","-152.7349","566.3","PUNTILLA, AK US","FM-15","PAPT ","V020","160,5,N,0026,5","22000,5,9,N","040234,5,N,5","+0150,C","+0100,C","99999,9",,,,,,,,,,"04,5,+00610,5,99,9","04,5,+02438,5,99,9",,"2,99,1,+00610,5,9","2,99,1,+02438,5,9",,,"9,AGL   ,+99999,+99999","04,99,5,99,9,99,9,00610,1,99,9,99,9",,,"10041,5,09390,5",,,,,,"MET08908/13/23 09:50:02 METAR PAPT 131850Z 16005KT 25SM SCT020 SCT080 15/10 A2965 RMK NO SPECI.","R01    157TMP046R02    107DPT046D01      0ADE726"
"70249026526","2023-08-13T20:45:00","7","62.0911","-152.7349","566.3","PUNTILLA, AK US","FM-15","PAPT ","V020","190,5,N,0051,5","01676,5,M,N","040234,5,N,5","+0150,C","+0100,C","99999,9",,,,,,,,,,"02,5,+00762,5,99,9","07,5,+01676,5,99,9",,"1,99,1,+00762,5,9","3,99,1,+01676,5,9",,,"9,AGL   ,+99999,+99999","99,99,9,99,9,99,9,00762,1,99,9,99,9",,,"10058,5,09406,5",,,,,,"MET08908/13/23 11:45:02 METAR PAPT 132045Z 19010KT 25SM FEW025 BKN055 15/10 A2970 RMK NO SPECI.","R01    157TMP046R02    107DPT046"
"70249026526","2023-08-13T22:46:00","7","62.0911","-152.7349","566.3","PUNTILLA, AK US","FM-15","PAPT ","V020","190,5,N,0067,5","01676,5,M,N","040234,5,N,5","+0140,C","+0100,C","99999,9",,,,,,,,,,"02,5,+00549,5,99,9","08,5,+01676,5,99,9",,"1,99,1,+00549,5,9","4,99,1,+01676,5,9",,,"9,AGL   ,+99999,+99999","99,99,9,99,9,99,9,00549,1,99,9,99,9","240,M,+0145,1","240,N,+0056,1","10075,5,09422,5",,,,,,"MET10508/13/23 13:46:02 METAR PAPT 132246Z 19013KT 25SM FEW018 OVC055 14/10 A2975 RMK NO SPECI. 401450056 70012","R01    147TMP046R02    107DPT046"
"70249026526","2023-08-14T00:48:00","7","62.0911","-152.7349","566.3","PUNTILLA, AK US","FM-15","PAPT ","V020","190,5,N,0051,5","02438,5,M,N","040234,5,N,5","+0150,C","+0100,C","99999,9",,,,,,,,,,"02,5,+00792,5,99,9","02,5,+01829,5,99,9","07,5,+02438,5,99,9","1,99,1,+00792,5,9","1,99,1,+01829,5,9","3,99,1,+02438,5,9",,"9,AGL   ,+99999,+99999","99,99,9,99,9,99,9,00792,1,99,9,99,9",,,"10081,5,09429,5",,,,,,"MET09608/13/23 15:48:01 METAR PAPT 140048Z 19010KT 25SM FEW026 FEW060 BKN080 15/10 A2977 RMK NO SPECI.","R01    157TMP046R02    107DPT046"
"70249026526","2023-08-14T02:45:00","7","62.0911","-152.7349","566.3","PUNTILLA, AK US","FM-15","PAPT ","V020","190,5,N,0051,5","02438,5,M,N","040234,5,N,5","+0150,C","+0090,C","99999,9",,,,,,,,,,"02,5,+00792,5,99,9","02,5,+01829,5,99,9","07,5,+02438,5,99,9","1,99,1,+00792,5,9","1,99,1,+01829,5,9","3,99,1,+02438,5,9",,"9,AGL   ,+99999,+99999","99,99,9,99,9,99,9,00792,1,99,9,99,9",,,"10091,5,09438,5",,,,,,"MET10108/13/23 17:45:01 METAR PAPT 140245Z 19010KT 25SM FEW026 FEW060 BKN080 15/09 A2980 RMK NO SPECI. LAST","R01    157TMP046R02    097DPT046"
"70249026526","2023-08-14T14:56:00","7","62.0911","-152.7349","566.3","PUNTILLA, AK US","FM-15","PAPT ","V020","170,5,N,0021,5","00305,5,M,N","008047,5,N,5","+0100,C","+0090,C","99999,9",,,,,,,,"99,7",,"04,5,+00030,5,99,9","08,5,+00305,5,99,9",,"2,99,1,+00030,5,9","4,99,1,+00305,5,9",,,,,,,"10139,5,09483,5",,,,,,"MET09908/14/23 05:56:02 METAR PAPT 141456Z 17004KT 5SM BFCG SCT001 OVC010 10/09 A2994 RMK NO SPECI. FIRST","R01    107TMP046R02    097DPT046R03  BFCG7AWW013R04SEERMK7MVW013R05  BFCG7MWW013D01      0ADE693D02      0ADE539"
"70249026526","2023-08-14T16:54:00","7","62.0911","-152.7349","566.3","PUNTILLA, AK US","FM-15","PAPT ","V020","170,5,N,0021,5","00305,5,M,N","008047,5,N,5","+0100,C","+0100,C","99999,9",,,,,,,,,,"04,5,+00061,5,99,9","08,5,+00305,5,99,9",,"2,99,1,+00061,5,9","4,99,1,+00305,5,9",,,"9,AGL   ,+99999,+99999","99,99,9,99,9,99,9,00061,1,99,9,99,9",,,"10139,5,09483,5",,,,,,"MET08808/14/23 07:54:02 METAR PAPT 141654Z 17004KT 5SM SCT002 OVC010 10/10 A2994 RMK NO SPECI.","R01    107TMP046R02    107DPT046"
"70249026526","2023-08-14T18:52:00","7","62.0911","-152.7349","566.3","PUNTILLA, AK US","FM-15","PAPT ","V020","180,5,N,0041,5","00122,5,M,N","008047,5,N,5","+0110,C","+0100,C","99999,9",,,,,,,,,,"07,5,+00122,5,99,9","08,5,+00305,5,99,9",,"3,99,1,+00122,5,9","4,99,1,+00305,5,9",,,"9,AGL   ,+99999,+99999","99,99,9,99,9,99,9,00122,1,99,9,99,9",,,"10135,5,09480,5",,,,,,"MET08808/14/23 09:52:02 METAR PAPT 141852Z 18008KT 5SM BKN004 OVC010 11/10 A2993 RMK NO SPECI.","R01    117TMP046R02    107DPT046"
"70249026526","2023-08-14T20:47:00","7","62.0911","-152.7349","566.3","PUNTILLA, AK US","FM-15","PAPT ","V020","180,5,N,0041,5","00305,5,M,N","011265,5,N,5","+0110,C","+0100,C","99999,9",,,,,,,,,,"07,5,+00305,5,99,9","08,5,+00610,5,99,9",,"3,99,1,+00305,5,9","4,99,1,+00610,5,9",,,"9,AGL   ,+99999,+99999","99,99,9,99,9,99,9,00305,1,99,9,99,9",,,"10135,5,09480,5",,,,,,"MET08808/14/23 11:47:02 METAR PAPT 142047Z 18008KT 7SM BKN010 OVC020 11/10 A2993 RMK NO SPECI.","R01    117TMP046R02    107DPT046"
"70249026526","2023-08-14T22:44:00","7","62.0911","-152.7349","566.3","PUNTILLA, AK US","FM-15","PAPT ","V020","190,5,N,0062,5","01219,5,M,N","040234,5,N,5","+0140,C","+0120,C","99999,9",,,,,,,,,,"04,5,+00305,5,99,9","04,5,+00610,5,99,9","07,5,+01219,5,99,9","2,99,1,+00305,5,9","2,99,1,+00610,5,9","3,99,1,+01219,5,9",,"9,AGL   ,+99999,+99999","99,99,9,99,9,99,9,00305,1,99,9,99,9","240,M,+0151,1","240,N,+0101,1","10125,5,09470,5",,,,,,"MET11208/14/23 13:44:02 METAR PAPT 142244Z 19012KT 25SM SCT010 SCT020 BKN040 14/12 A2990 RMK NO SPECI. 401510101 70002","R01    147TMP046R02    127DPT046"
"70249026526","2023-08-15T00:50:00","7","62.0911","-152.7349","566.3","PUNTILLA, AK US","FM-15","PAPT ","V020","210,5,N,0041,5","02438,5,M,N","040234,5,N,5","+0150,C","+0110,C","99999,9",,,,,,,,,,"04,5,+00610,5,99,9","07,5,+02438,5,99,9",,"2,99,1,+00610,5,9","3,99,1,+02438,5,9",,,"9,AGL   ,+99999,+99999","99,99,9,99,9,99,9,00610,1,99,9,99,9",,,"10112,5,09458,5",,,,,,"MET08908/14/23 15:50:01 METAR PAPT 150050Z 21008KT 25SM SCT020 BKN080 15/11 A2986 RMK NO SPECI.","R01    157TMP046R02    117DPT046"
"70249026526","2023-08-15T02:45:00","7","62.0911","-152.7349","566.3","PUNTILLA, AK US","FM-15","PAPT ","V020","210,5,N,0026,5","02438,5,M,N","040234,5,N,5","+0150,C","+0110,C","99999,9",,,,,,,,,,"04,5,+00914,5,99,9","07,5,+02438,5,99,9",,"2,99,1,+00914,5,9","3,99,1,+02438,5,9",,,"9,AGL   ,+99999,+99999","99,99,9,99,9,99,9,00914,1,99,9,99,9",,,"10108,5,09454,5",,,,,,"MET09408/14/23 17:45:02 METAR PAPT 150245Z 21005KT 25SM SCT030 BKN080 15/11 A2985 RMK NO SPECI. LAST","R01    157TMP046R02    117DPT046"
"70249026526","2023-08-15T14:58:00","7","62.0911","-152.7349","566.3","PUNTILLA, AK US","FM-15","PAPT ","V020","999,9,N,0021,7","22000,7,9,N","040234,5,N,5","+0040,C","+0030,C","99999,9",,,,,,,,,,"00,7,+99999,9,99,9",,,"0,99,1,+99999,9,9",,,,,,,,"10102,5,09448,5",,,,,,"MET08508/15/23 05:58:02 METAR PAPT 151458Z VAR04KT 25SM SKC 04/03 A2983 RMK NO SPECI. FIRST","R01    047WNS034R02   SKC7SKY009R03    047TMP046R04    037DPT046R05   SKC7GAS009D01      0ADE693D02      0ADE539"
"70249026526","2023-08-15T16:51:00","7","62.0911","-152.7349","566.3","PUNTILLA, AK US","FM-15","PAPT ","V020","999,9,C,0000,5","22000,7,9,N","040234,5,N,5","+0070,C","+0060,C","99999,9",,,,,,,,,,"00,7,+99999,9,99,9",,,"0,99,1,+99999,9,9",,,,,"00,99,1,99,9,99,9,99999,9,99,9,99,9",,,"10098,5,09445,5",,,,,,"MET07908/15/23 07:51:02 METAR PAPT 151651Z 00000KT 25SM SKC 07/06 A2982 RMK NO SPECI.","R01   SKC7SKY009R02    077TMP046R03    067DPT046R04   SKC7GAS009"
"70249026526","2023-08-15T18:45:00","7","62.0911","-152.7349","566.3","PUNTILLA, AK US","FM-15","PAPT ","V020","999,9,C,0000,5","22000,5,9,N","040234,5,N,5","+0140,C","+0110,C","99999,9",,,,,,,,,,"02,5,+00914,5,99,9","02,5,+01981,5,99,9",,"1,99,1,+00914,5,9","1,99,1,+01981,5,9",,,"9,AGL   ,+99999,+99999","02,99,5,99,9,99,9,00914,1,99,9,99,9",,,"10091,5,09438,5",,,,,,"MET08908/15/23 09:45:02 METAR PAPT 151845Z 00000KT 25SM FEW030 FEW065 14/11 A2980 RMK NO SPECI.","R01    147TMP046R02    117DPT046D01      0ADE726"
"70249026526","2023-08-15T20:45:00","7","62.0911","-152.7349","566.3","PUNTILLA, AK US","FM-15","PAPT ","V020","180,5,N,0021,5","02438,5,M,N","040234,5,N,5","+0160,C","+0120,C","99999,9",,,,,,,,,,"02,5,+01524,5,99,9","07,5,+02438,5,99,9",,"1,99,1,+01524,5,9","3,99,1,+02438,5,9",,,"9,AGL   ,+99999,+99999","99,99,9,99,9,99,9,01524,1,99,9,99,9",,,"10081,5,09429,5",,,,,,"MET08908/15/23 11:45:02 METAR PAPT 152045Z 18004KT 25SM FEW050 BKN080 16/12 A2977 RMK NO SPECI.","R01    167TMP046R02    127DPT046"
"70249026526","2023-08-15T22:51:00","7","62.0911","-152.7349","566.3","PUNTILLA, AK US","FM-15","PAPT ","V020","190,5,N,0026,5","02743,5,M,N","040234,5,N,5","+0160,C","+0120,C","99999,9",,,,,,,,,,"02,5,+01676,5,99,9","07,5,+02743,5,99,9",,"1,99,1,+01676,5,9","3,99,1,+02743,5,9",,,"9,AGL   ,+99999,+99999","99,99,9,99,9,99,9,01676,1,99,9,99,9","240,M,+0156,1","240,N,+0039,1","10071,5,09419,5",,,,,,"MET09908/15/23 13:51:02 METAR PAPT 152251Z 19005KT 25SM FEW055 BKN090 16/12 A2974 RMK NO SPECI. 401560039","R01    167TMP046R02    127DPT046"
"70249026526","2023-08-16T00:57:00","7","62.0911","-152.7349","566.3","PUNTILLA, AK US","FM-15","PAPT ","V020","190,5,N,0041,5","01676,5,M,N","040234,5,N,5","+0160,C","+0090,C","99999,9",,,,,,,,,,"07,5,+01676,5,99,9","08,5,+02743,5,99,9",,"3,99,1,+01676,5,9","4,99,1,+02743,5,9",,,"9,AGL   ,+99999,+99999","99,99,9,99,9,99,9,01676,1,99,9,99,9",,,"10054,5,09403,5",,,,,,"MET08908/15/23 15:57:01 METAR PAPT 160057Z 19008KT 25SM BKN055 OVC090 16/09 A2969 RMK NO SPECI.","R01    167TMP046R02    097DPT046"
"70249026526","2023-08-16T02:55:00","7","62.0911","-152.7349","566.3","PUNTILLA, AK US","FM-15","PAPT ","V020","190,5,N,0041,5","01676,5,M,N","040234,5,N,5","+0130,C","+0110,C","99999,9",,,,,,,,,,"02,5,+00549,5,99,9","07,5,+01676,5,99,9","08,5,+02743,5,99,9","1,99,1,+00549,5,9","3,99,1,+01676,5,9","4,99,1,+02743,5,9",,"9,AGL   ,+99999,+99999","99,99,9,99,9,99,9,00549,1,99,9,99,9",,,"10047,5,09397,5",,,,,,"MET10108/15/23 17:55:01 METAR PAPT 160255Z 19008KT 25SM FEW018 BKN055 OVC090 13/11 A2967 RMK NO SPECI. LAST","R01    137TMP046R02    117DPT046"
"70249026526","2023-08-16T14:50:00","7","62.0911","-152.7349","566.3","PUNTILLA, AK US","FM-15","PAPT ","V020","999,9,C,0000,5","02134,5,M,N","011265,5,N,5","+0080,C","+0080,C","99999,9",,,,,,"1,0,02,0,0,1,5",,"61,5",,"02,5,+00305,5,99,9","08,5,+02134,5,99,9",,"1,99,1,+00305,5,9","4,99,1,+02134,5,9",,,"9,AGL   ,+99999,+99999","99,99,9,99,9,99,9,00305,1,99,9,99,9",,,"10037,5,09387,5",,"61,5",,,,"MET09808/16/23 05:50:02 METAR PAPT 161450Z 00000KT 7SM -RA FEW010 OVC070 08/08 A2964 RMK NO SPECI. FIRST","R01    087TMP046R02    087DPT046"
"70249026526","2023-08-16T16:50:00","7","62.0911","-152.7349","566.3","PUNTILLA, AK US","FM-15","PAPT ","V020","999,9,C,0000,5","02134,5,M,N","008047,5,N,5","+0080,C","+0080,C","99999,9",,,,,,"1,0,01,0,0,1,5",,"51,5",,"02,5,+00305,5,99,9","08,5,+02134,5,99,9",,"1,99,1,+00305,5,9","4,99,1,+02134,5,9",,,"9,AGL   ,+99999,+99999","99,99,9,99,9,99,9,00305,1,99,9,99,9",,,"10037,5,09387,5",,"51,5",,,,"MET09208/16/23 07:50:02 METAR PAPT 161650Z 00000KT 5SM -DZ FEW010 OVC070 08/08 A2964 RMK NO SPECI.","R01    087TMP046R02    087DPT046"
"70249026526","2023-08-16T18:50:00","7","62.0911","-152.7349","566.3","PUNTILLA, AK US","FM-15","PAPT ","V020","999,9,C,0000,5","01524,5,M,N","032187,5,N,5","+0090,C","+0090,C","99999,9",,,,,,,,,,"02,5,+00305,5,99,9","08,5,+01524,5,99,9",,"1,99,1,+00305,5,9","4,99,1,+01524,5,9",,,"9,AGL   ,+99999,+99999","99,99,9,99,9,99,9,00305,1,99,9,99,9",,,"10047,5,09397,5",,,,,,"MET08908/16/23 09:50:02 METAR PAPT 161850Z 00000KT 20SM FEW010 OVC050 09/09 A2967 RMK NO SPECI.","R01    097TMP046R02    097DPT046"
"70249026526","2023-08-16T20:42:00","7","62.0911","-152.7349","566.3","PUNTILLA, AK US","FM-15","PAPT ","V020","170,5,N,0026,5","01524,5,M,N","032187,5,N,5","+0100,C","+0090,C","99999,9",,,,,,,,,,"02,5,+00152,5,99,9","08,5,+01524,5,99,9",,"1,99,1,+00152,5,9","4,99,1,+01524,5,9",,,"9,AGL   ,+99999,+99999","99,99,9,99,9,99,9,00152,1,99,9,99,9",,,"10061,5,09409,5",,,,,,"MET08908/16/23 11:42:02 METAR PAPT 162042Z 17005KT 20SM FEW005 OVC050 10/09 A2971 RMK NO SPECI.","R01    107TMP046R02    097DPT046"
"70249026526","2023-08-16T22:54:00","7","62.0911","-152.7349","566.3","PUNTILLA, AK US","FM-15","PAPT ","V020","350,5,N,0062,5","01524,5,M,N","040234,5,N,5","+0140,C","+0090,C","99999,9",,,,,,,,,,"02,5,+00762,5,99,9","08,5,+01524,5,99,9",,"1,99,1,+00762,5,9","4,99,1,+01524,5,9",,,"9,AGL   ,+99999,+99999","99,99,9,99,9,99,9,00762,1,99,9,99,9","240,M,+0162,1","240,N,+0078,1","10075,5,09422,5",,,,,,"MET10508/16/23 13:54:02 METAR PAPT 162254Z 35012KT 25SM FEW025 OVC050 14/09 A2975 RMK NO SPECI. 401620078 70028","R01    147TMP046R02    097DPT046"
"70249026526","2023-08-17T00:45:00","7","62.0911","-152.7349","566.3","PUNTILLA, AK US","FM-15","PAPT ","V020","350,5,N,0041,5","01524,5,M,N","040234,5,N,5","+0150,C","+0090,C","99999,9",,,,,,,,,,"02,5,+00914,5,99,9","08,5,+01524,5,99,9",,"1,99,1,+00914,5,9","4,99,1,+01524,5,9",,,"9,AGL   ,+99999,+99999","99,99,9,99,9,99,9,00914,1,99,9,99,9",,,"10095,5,09442,5",,,,,,"MET08908/16/23 15:45:01 METAR PAPT 170045Z 35008KT 25SM FEW030 OVC050 15/09 A2981 RMK NO SPECI.","R01    157TMP046R02    097DPT046"
"70249026526","2023-08-17T02:54:00","7","62.0911","-152.7349","566.3","PUNTILLA, AK US","FM-15","PAPT ","V020","360,5,N,0036,5","01524,5,M,N","040234,5,N,5","+0140,C","+0090,C","99999,9",,,,,,,,,,"02,5,+00762,5,99,9","08,5,+01524,5,99,9",,"1,99,1,+00762,5,9","4,99,1,+01524,5,9",,,"9,AGL   ,+99999,+99999","99,99,9,99,9,99,9,00762,1,99,9,99,9",,,"10119,5,09464,5",,,,,,"MET09408/16/23 17:54:01 METAR PAPT 170254Z 36007KT 25SM FEW025 OVC050 14/09 A2988 RMK NO SPECI. LAST","R01    147TMP046R02    097DPT046"
"70249026526","2023-08-17T08:59:00","O","62.0911","-152.7349","566.3","PUNTILLA, AK US","SOD  ","PAPT ","V020","999,9,9,9999,9","99999,9,9,9","999999,9,9,9","+9999,9","+9999,9","99999,9",,,"AU,16,RA  ,5","AU,14,DZ  ,5",,,,,,,,,,,,,,,,,,,,,,,,
"70249026526","2023-08-17T14:47:00","6","62.0911","-152.7349","566.3","PUNTILLA, AK US","FM-15","PAPT ","V020","360,5,N,0026,5","22000,5,9,N","040234,5,N,5","+0080,C","+0060,C","99999,9",,,,,,,,,,"04,5,+00762,5,99,9","04,5,+01676,5,99,9",,"2,99,1,+00762,5,9","2,99,1,+01676,5,9",,,,,,,"10186,5,09528,5",,,,,,"MET09508/17/23 05:47:02 METAR PAPT 171447Z 36005KT 25SM SCT025 SCT055 08/06 A3008 RMK NO SPECI. FIRST","R01    087TMP046R02    067DPT046"
"70249026526","2023-08-17T16:47:00","6","62.0911","-152.7349","566.3","PUNTILLA, AK US","FM-15","PAPT ","V020","010,5,N,0026,5","22000,5,9,N","040234,5,N,5","+0100,C","+0070,C","99999,9",,,,,,,,,,"02,5,+00914,5,99,9","04,5,+01676,5,99,9",,"1,99,1,+00914,5,9","2,99,1,+01676,5,9",,,,,,,"10193,5,09535,5",,,,,,"MET08908/17/23 07:47:02 METAR PAPT 171647Z 01005KT 25SM FEW030 SCT055 10/07 A3010 RMK NO SPECI.","R01    107TMP046R02    077DPT046"
"70249026526","2023-08-17T18:50:00","7","62.0911","-152.7349","566.3","PUNTILLA, AK US","FM-15","PAPT ","V020","010,5,N,0026,5","22000,5,9,N","040234,5,N,5","+0120,C","+0030,C","99999,9",,,,,,,,,,"04,5,+01676,5,99,9",,,"2,99,1,+01676,5,9",,,,"9,AGL   ,+99999,+99999","04,99,5,99,9,99,9,01676,1,99,9,99,9",,,"10193,5,09535,5",,,,,,"MET08208/17/23 09:50:02 METAR PAPT 171850Z 01005KT 25SM SCT055 12/03 A3010 RMK NO SPECI.","R01    127TMP046R02    037DPT046D01      0ADE726"
"70249026526","2023-08-17T20:42:00","7","62.0911","-152.7349","566.3","PUNTILLA, AK US","FM-15","PAPT ","V020","350,5,N,0041,5","22000,5,9,N","040234,5,N,5","+0140,C","+0050,C","99999,9",,,,,,,,,,"04,5,+01676,5,99,9",,,"2,99,1,+01676,5,9",,,,"9,AGL   ,+99999,+99999","04,99,5,99,9,99,9,01676,1,99,9,99,9",,,"10193,5,09535,5",,,,,,"MET08208/17/23 11:42:02 METAR PAPT 172042Z 35008KT 25SM SCT055 14/05 A3010 RMK NO SPECI.","R01    147TMP046R02    057DPT046D01      0ADE726"
"70249026526","2023-08-17T22:56:00","7","62.0911","-152.7349","566.3","PUNTILLA, AK US","FM-15","PAPT ","V020","999,9,V,0026,5","22000,5,9,N","040234,5,N,5","+0160,C","+0080,C","99999,9",,,,,,,,,,"04,5,+02134,5,99,9",,,"2,99,1,+02134,5,9",,,,"9,AGL   ,+99999,+99999","04,99,5,99,9,99,9,02134,1,99,9,99,9","240,M,+0162,1","240,N,+0084,1","10183,5,09525,5",,,,,,"MET09208/17/23 13:56:02 METAR PAPT 172256Z VRB05KT 25SM SCT070 16/08 A3007 RMK NO SPECI. 401620084","R01    167TMP046R02    087DPT046D01      0ADE726"
"70249026526","2023-08-18T00:59:00","7","62.0911","-152.7349","566.3","PUNTILLA, AK US","FM-15","PAPT ","V020","020,5,N,0015,5","22000,5,9,N","040234,5,N,5","+0170,C","+0130,C","99999,9",,,,,,,,,,"02,5,+02134,5,99,9",,,"1,99,1,+02134,5,9",,,,"9,AGL   ,+99999,+99999","02,99,5,99,9,99,9,02134,1,99,9,99,9",,,"10176,5,09518,5",,,,,,"MET08208/17/23 15:59:01 METAR PAPT 180059Z 02003KT 25SM FEW070 17/13 A3005 RMK NO SPECI.","R01    177TMP046R02    137DPT046D01      0ADE726"
"70249026526","2023-08-18T02:46:00","7","62.0911","-152.7349","566.3","PUNTILLA, AK US","FM-15","PAPT ","V020","360,5,N,0026,5","22000,5,9,N","040234,5,N,5","+0170,C","+0110,C","99999,9",,,,,,,,,,"02,5,+02134,5,99,9",,,"1,99,1,+02134,5,9",,,,"9,AGL   ,+99999,+99999","02,99,5,99,9,99,9,02134,1,99,9,99,9",,,"10169,5,09512,5",,,,,,"MET08708/17/23 17:46:01 METAR PAPT 180246Z 36005KT 25SM FEW070 17/11 A3003 RMK NO SPECI. LAST","R01    177TMP046R02    117DPT046D01      0ADE726"
"70249026526","2023-08-18T14:57:00","7","62.0911","-152.7349","566.3","PUNTILLA, AK US","FM-15","PAPT ","V020","360,5,N,0021,5","22000,5,9,N","040234,5,N,5","+0030,C","+0010,C","99999,9",,,,,,,,,,"02,5,+03048,5,99,9",,,"1,99,1,+03048,5,9",,,,"9,AGL   ,+99999,+99999","02,99,5,99,9,99,9,03048,1,99,9,99,9",,,"10183,5,09525,5",,,,,,"MET08808/18/23 05:57:02 METAR PAPT 181457Z 36004KT 25SM FEW100 03/01 A3007 RMK NO SPECI. FIRST","R01    037TMP046R02    017DPT046D01      0ADE726"
"70249026526","2023-08-18T16:45:00","7","62.0911","-152.7349","566.3","PUNTILLA, AK US","FM-15","PAPT ","V020","999,9,C,0000,5","22000,5,9,N","040234,5,N,5","+0060,C","+0050,C","99999,9",,,,,,,,,,"02,5,+02438,5,99,9",,,"1,99,1,+02438,5,9",,,,"9,AGL   ,+99999,+99999","02,99,5,99,9,99,9,02438,1,99,9,99,9",,,"10179,5,09522,5",,,,,,"MET08208/18/23 07:45:02 METAR PAPT 181645Z 00000KT 25SM FEW080 06/05 A3006 RMK NO SPECI.","R01    067TMP046R02    057DPT046D01      0ADE726"
"70249026526","2023-08-18T20:52:00","7","62.0911","-152.7349","566.3","PUNTILLA, AK US","FM-15","PAPT ","V020","350,5,N,0021,5","02134,5,M,N","040234,5,N,5","+0130,C","+0100,C","99999,9",,,,,,,,,,"08,5,+02134,5,99,9",,,"4,99,1,+02134,5,9",,,,"9,AGL   ,+99999,+99999","99,99,9,99,9,99,9,02134,1,99,9,99,9",,,"10173,5,09515,5",,,,,,"MET08208/18/23 11:52:02 METAR PAPT 182052Z 35004KT 25SM OVC070 13/10 A3004 RMK NO SPECI.","R01    137TMP046R02    107DPT046"
"70249026526","2023-08-18T22:48:00","7","62.0911","-152.7349","566.3","PUNTILLA, AK US","FM-15","PAPT ","V020","170,5,N,0021,5","02134,5,M,N","040234,5,N,5","+0140,C","+0100,C","99999,9",,,,,,,,,,"08,5,+02134,5,99,9",,,"4,99,1,+02134,5,9",,,,"9,AGL   ,+99999,+99999","99,99,9,99,9,99,9,02134,1,99,9,99,9",,,"10173,5,09515,5",,,,,,"MET09808/18/23 13:48:02 METAR PAPT 182248Z 17004KT 25SM OVC070 14/10 A3004 RMK NO SPECI. 400280173 70000","R01    147TMP046R02    107DPT046"
"70249026526","2023-08-19T00:40:00","7","62.0911","-152.7349","566.3","PUNTILLA, AK US","FM-15","PAPT ","V020","999,9,C,0000,5","02134,5,M,N","040234,5,N,5","+0140,5","+0110,5","99999,9",,,,,,,,,,"08,5,+02134,5,99,9",,,"4,99,1,+02134,5,9",,,,"9,AGL   ,+99999,+99999","99,99,9,99,9,99,9,02134,1,99,9,99,9",,,"10173,5,09515,5",,,,,,"MET08208/18/23 15:40:01 METAR PAPT 190040Z 00000KT 25SM OVC070 14/11 A3004 RMK NO SPECI.",
"70249026526","2023-08-19T02:42:00","7","62.0911","-152.7349","566.3","PUNTILLA, AK US","FM-15","PAPT ","V020","999,9,C,0000,5","02134,5,M,N","040234,5,N,5","+0150,C","+0120,C","99999,9",,,,,,,,,,"08,5,+02134,5,99,9",,,"4,99,1,+02134,5,9",,,,"9,AGL   ,+99999,+99999","99,99,9,99,9,99,9,02134,1,99,9,99,9",,,"10169,5,09512,5",,,,,,"MET08708/18/23 17:42:01 METAR PAPT 190242Z 00000KT 25SM OVC070 15/12 A3003 RMK NO SPECI. LAST","R01    157TMP046R02    127DPT046"
"70249026526","2023-08-19T14:53:00","7","62.0911","-152.7349","566.3","PUNTILLA, AK US","FM-15","PAPT ","V020","999,9,C,0000,5","02438,5,M,N","040234,5,N,5","+0090,C","+0070,C","99999,9",,,,,,,,,,"08,5,+02438,5,99,9",,,"4,99,1,+02438,5,9",,,,"9,AGL   ,+99999,+99999","99,99,9,99,9,99,9,02438,1,99,9,99,9",,,"10183,5,09525,5",,,,,,"MET08808/19/23 05:53:02 METAR PAPT 191453Z 00000KT 25SM OVC080 09/07 A3007 RMK NO SPECI. FIRST","R01    097TMP046R02    077DPT046"
"70249026526","2023-08-19T16:46:00","7","62.0911","-152.7349","566.3","PUNTILLA, AK US","FM-15","PAPT ","V020","010,5,N,0015,5","02438,5,M,N","040234,5,N,5","+0100,C","+0080,C","99999,9",,,,,,,,,,"07,5,+02438,5,99,9",,,"3,99,1,+02438,5,9",,,,"9,AGL   ,+99999,+99999","99,99,9,99,9,99,9,02438,1,99,9,99,9",,,"10183,5,09525,5",,,,,,"MET08208/19/23 07:46:02 METAR PAPT 191646Z 01003KT 25SM BKN080 10/08 A3007 RMK NO SPECI.","R01    107TMP046R02    087DPT046"
"70249026526","2023-08-19T18:41:00","7","62.0911","-152.7349","566.3","PUNTILLA, AK US","FM-15","PAPT ","V020","350,5,N,0015,5","02438,5,M,N","040234,5,N,5","+0140,C","+0110,C","99999,9",,,,,,,,,,"07,5,+02438,5,99,9",,,"3,99,1,+02438,5,9",,,,"9,AGL   ,+99999,+99999","99,99,9,99,9,99,9,02438,1,99,9,99,9",,,"10186,5,09528,5",,,,,,"MET08208/19/23 09:41:02 METAR PAPT 191841Z 35003KT 25SM BKN080 14/11 A3008 RMK NO SPECI.","R01    147TMP046R02    117DPT046"
"70249026526","2023-08-19T22:53:00","7","62.0911","-152.7349","566.3","PUNTILLA, AK US","FM-15","PAPT ","V020","999,9,N,0021,7","02438,5,M,N","040234,5,N,5","+0180,C","+0120,C","99999,9",,,,,,,,,,"02,5,+01524,5,99,9","07,5,+02438,5,99,9",,"1,99,1,+01524,5,9","3,99,1,+02438,5,9",,,,,"240,M,+0184,1","240,N,+0089,1","10179,5,09522,5",,,,,,"MET09908/19/23 13:53:02 METAR PAPT 192253Z VAR04KT 25SM FEW050 BKN080 18/12 A3006 RMK NO SPECI. 401840089","R01    047WNS034R02    187TMP046R03    127DPT046D01      0ADE693D02      0ADE539"
"70249026526","2023-08-20T00:52:00","7","62.0911","-152.7349","566.3","PUNTILLA, AK US","FM-15","PAPT ","V020","200,5,N,0036,5","02438,5,M,N","040234,5,N,5","+0160,C","+0110,C","99999,9",,,,,,,,,,"02,5,+01524,5,99,9","07,5,+02438,5,99,9",,"1,99,1,+01524,5,9","3,99,1,+02438,5,9",,,"9,AGL   ,+99999,+99999","99,99,9,99,9,99,9,01524,1,99,9,99,9",,,"10183,5,09525,5",,,,,,"MET08908/19/23 15:52:01 METAR PAPT 200052Z 20007KT 25SM FEW050 BKN080 16/11 A3007 RMK NO SPECI.","R01    167TMP046R02    117DPT046"
"70249026526","2023-08-20T02:47:00","7","62.0911","-152.7349","566.3","PUNTILLA, AK US","FM-15","PAPT ","V020","180,5,N,0036,5","02438,5,M,N","040234,5,N,5","+0160,C","+0110,C","99999,9",,,,,,,,,,"02,5,+01219,5,99,9","07,5,+02438,5,99,9",,"1,99,1,+01219,5,9","3,99,1,+02438,5,9",,,"9,AGL   ,+99999,+99999","99,99,9,99,9,99,9,01219,1,99,9,99,9",,,"10183,5,09525,5",,,,,,"MET09408/19/23 17:47:01 METAR PAPT 200247Z 18007KT 25SM FEW040 BKN080 16/11 A3007 RMK NO SPECI. LAST","R01    167TMP046R02    117DPT046"
"70249026526","2023-08-20T14:52:00","7","62.0911","-152.7349","566.3","PUNTILLA, AK US","FM-15","PAPT ","V020","999,9,C,0000,5","00152,5,M,N","008047,5,N,5","+0100,C","+0100,C","99999,9",,,,,,,,,,"08,5,+00152,5,99,9",,,"4,99,1,+00152,5,9",,,,"9,AGL   ,+99999,+99999","99,99,9,99,9,99,9,00152,1,99,9,99,9",,,"10193,5,09535,5",,,,,,"MET08708/20/23 05:52:02 METAR PAPT 201452Z 00000KT 5SM OVC005 10/10 A3010 RMK NO SPECI. FIRST","R01    107TMP046R02    107DPT046"
"70249026526","2023-08-20T16:49:00","7","62.0911","-152.7349","566.3","PUNTILLA, AK US","FM-15","PAPT ","V020","190,5,N,0031,5","00091,5,M,N","003219,5,N,5","+0100,C","+0100,C","99999,9",,,,,,"0,0,00,1,0,1,5",,"10,5",,"08,5,+00091,5,99,9",,,"4,99,1,+00091,5,9",,,,"9,AGL   ,+99999,+99999","99,99,9,99,9,99,9,00091,1,99,9,99,9",,,"10196,5,09538,5",,"10,1",,,,"MET08408/20/23 07:49:02 METAR PAPT 201649Z 19006KT 2SM BR OVC003 10/10 A3011 RMK NO SPECI.","R01    107TMP046R02    107DPT046"
"70249026526","2023-08-20T18:52:00","7","62.0911","-152.7349","566.3","PUNTILLA, AK US","FM-15","PAPT ","V020","999,9,C,0000,5","00152,5,M,N","008047,5,N,5","+0110,C","+0100,C","99999,9",,,,,,"0,3,00,2,0,1,5",,"31,5",,"08,5,+00152,5,99,9",,,"4,99,1,+00152,5,9",,,,"9,AGL   ,+99999,+99999","99,99,9,99,9,99,9,00152,1,99,9,99,9",,,"10200,5,09541,5",,"11,1",,,,"MET08608/20/23 09:52:02 METAR PAPT 201852Z 00000KT 5SM BCFG OVC005 11/10 A3012 RMK NO SPECI.","R01    117TMP046R02    107DPT046"
"70249026526","2023-08-20T20:56:00","7","62.0911","-152.7349","566.3","PUNTILLA, AK US","FM-15","PAPT ","V020","180,5,N,0026,5","00305,5,M,N","008047,5,N,5","+0110,C","+0100,C","99999,9",,,,,,"0,3,00,2,0,1,5",,"31,5",,"02,5,+00091,5,99,9","07,5,+00305,5,99,9","08,5,+01524,5,99,9","1,99,1,+00091,5,9","3,99,1,+00305,5,9","4,99,1,+01524,5,9",,"9,AGL   ,+99999,+99999","99,99,9,99,9,99,9,00091,1,99,9,99,9",,,"10203,5,09544,5",,"11,1",,,,"MET10008/20/23 11:56:02 METAR PAPT 202056Z 18005KT 5SM BCFG FEW003 BKN010 OVC050 11/10 A3013 RMK NO SPECI.","R01    117TMP046R02    107DPT046"
"70249026526","2023-08-20T22:48:00","7","62.0911","-152.7349","566.3","PUNTILLA, AK US","FM-15","PAPT ","V020","180,5,N,0015,5","02134,5,M,N","024140,5,N,5","+0130,C","+0120,C","99999,9",,,,,,,,,,"02,5,+00091,5,99,9","02,5,+00305,5,99,9","08,5,+02134,5,99,9","1,99,1,+00091,5,9","1,99,1,+00305,5,9","4,99,1,+02134,5,9",,"9,AGL   ,+99999,+99999","99,99,9,99,9,99,9,00091,1,99,9,99,9",,,"10203,5,09544,5",,,,,,"MET09608/20/23 13:48:02 METAR PAPT 202248Z 18003KT 15SM FEW003 FEW010 OVC070 13/12 A3013 RMK NO SPECI.","R01    137TMP046R02    127DPT046"
"70249026526","2023-08-21T00:45:00","7","62.0911","-152.7349","566.3","PUNTILLA, AK US","FM-15","PAPT ","V020","170,5,N,0026,5","22000,5,9,N","040234,5,N,5","+0130,C","+0120,C","99999,9",,,,,,,,,,"02,5,+00305,5,99,9","02,5,+00914,5,99,9",,"1,99,1,+00305,5,9","1,99,1,+00914,5,9","4,99,1,+02134,1,9",,"9,AGL   ,+99999,+99999","99,99,9,99,9,99,9,00305,1,99,9,99,9","240,M,+0156,1","240,N,+0101,1","10200,5,09541,5",,,,,,"MET10608/20/23 15:45:01 METAR PAPT 210045Z 17005KT 25SM FEW010 FEW030 0VC070 13/12 A3012 RMK NO SPECI. 401560101","R01    137TMP046R02    127DPT046"
"70249026526","2023-08-21T02:51:00","7","62.0911","-152.7349","566.3","PUNTILLA, AK US","FM-15","PAPT ","V020","170,5,N,0026,5","22000,6,9,N","040234,5,N,5","+0130,C","+0120,C","99999,9",,,,,,,,,,"02,6,+00305,6,99,9",,,"1,99,1,+00305,6,9","4,99,1,+02134,1,9",,,"9,AGL   ,+99999,+99999","99,99,9,99,9,99,9,00305,1,99,9,99,9",,,"10200,5,09541,5",,,,,,"MET09408/20/23 17:51:01 METAR PAPT 210251Z 17005KT 25SM FEW010 0VC070 13/12 A3012 RMK NO SPECI. LAST","R01FEW0107SKY010R02    137TMP046R03    127DPT046R04FEW0107GAS010"
"70249026526","2023-08-21T08:59:00","O","62.0911","-152.7349","566.3","PUNTILLA, AK US","SOD  ","PAPT ","V020","999,9,9,9999,9","99999,9,9,9","999999,9,9,9","+9999,9","+9999,9","99999,9",,,"AU,01,FG  ,5","AU,13,BR  ,5",,,,,,,,,,,,,,,,,,,,,,,,
"70249026526","2023-08-21T14:52:00","7","62.0911","-152.7349","566.3","PUNTILLA, AK US","FM-15","PAPT ","V020","999,9,V,0015,5","00152,5,M,N","003219,5,N,5","+0100,C","+0100,C","99999,9",,,,,,"0,0,00,1,0,1,5",,"10,5",,"08,5,+00152,5,99,9",,,"4,99,1,+00152,5,9",,,,"9,AGL   ,+99999,+99999","99,99,9,99,9,99,9,00152,1,99,9,99,9",,,"10190,5,09531,5",,"10,1",,,,"MET09008/21/23 05:52:02 METAR PAPT 211452Z VRB03KT 2SM BR OVC005 10/10 A3009 RMK NO SPECI. FIRST","R01    107TMP046R02    107DPT046"
"70249026526","2023-08-21T16:57:00","7","62.0911","-152.7349","566.3","PUNTILLA, AK US","FM-15","PAPT ","V020","999,9,V,0015,5","00549,5,M,N","008047,5,N,5","+0100,C","+0090,C","99999,9",,,,,,,,,,"02,5,+00152,5,99,9","07,5,+00549,5,99,9",,"1,99,1,+00152,5,9","3,99,1,+00549,5,9",,,"9,AGL   ,+99999,+99999","99,99,9,99,9,99,9,00152,1,99,9,99,9",,,"10193,5,09535,5",,,,,,"MET08808/21/23 07:57:02 METAR PAPT 211657Z VRB03KT 5SM FEW005 BKN018 10/09 A3010 RMK NO SPECI.","R01    107TMP046R02    097DPT046"
"70249026526","2023-08-21T18:41:00","7","62.0911","-152.7349","566.3","PUNTILLA, AK US","FM-15","PAPT ","V020","999,9,V,0015,5","22000,5,9,N","016093,5,N,5","+0120,C","+0110,C","99999,9",,,,,,,,,,"02,5,+00305,5,99,9","04,5,+01219,5,99,9",,"1,99,1,+00305,5,9","2,99,1,+01219,5,9",,,"9,AGL   ,+99999,+99999","04,99,5,99,9,99,9,00305,1,99,9,99,9",,,"10193,5,09535,5",,,,,,"MET08908/21/23 09:41:02 METAR PAPT 211841Z VRB03KT 10SM FEW010 SCT040 12/11 A3010 RMK NO SPECI.","R01    127TMP046R02    117DPT046D01      0ADE726"
"70249026526","2023-08-21T20:56:00","7","62.0911","-152.7349","566.3","PUNTILLA, AK US","FM-15","PAPT ","V020","180,5,N,0026,5","22000,5,9,N","024140,5,N,5","+0130,C","+0110,C","99999,9",,,,,,,,,,"02,5,+00305,5,99,9","04,5,+01219,5,99,9",,"1,99,1,+00305,5,9","2,99,1,+01219,5,9",,,"9,AGL   ,+99999,+99999","04,99,5,99,9,99,9,00305,1,99,9,99,9",,,"10190,5,09531,5",,,,,,"MET08908/21/23 11:56:02 METAR PAPT 212056Z 18005KT 15SM FEW010 SCT040 13/11 A3009 RMK NO SPECI.","R01    137TMP046R02    117DPT046D01      0ADE726"
"70249026526","2023-08-21T22:49:00","7","62.0911","-152.7349","566.3","PUNTILLA, AK US","FM-15","PAPT ","V020","180,5,N,0026,5","22000,5,9,N","040234,5,N,5","+0150,C","+0110,C","99999,9",,,,,,,,,,"02,5,+00305,5,99,9","04,5,+01219,5,99,9",,"1,99,1,+00305,5,9","2,99,1,+01219,5,9",,,"9,AGL   ,+99999,+99999","04,99,5,99,9,99,9,00305,1,99,9,99,9","240,N,+0101,1",,"10186,5,09528,5",,,,,,"MET09908/21/23 13:49:02 METAR PAPT 212249Z 18005KT 25SM FEW010 SCT040 15/11 A3008 RMK NO SPECI. 401170101","R01    157TMP046R02    117DPT046D01      0ADE726"
"70249026526","2023-08-22T00:55:00","7","62.0911","-152.7349","566.3","PUNTILLA, AK US","FM-15","PAPT ","V020","170,5,N,0057,5","02438,5,M,N","040234,5,N,5","+0150,C","+0100,C","99999,9",,,,,,,,,,"02,5,+00610,5,99,9","07,5,+02438,5,99,9",,"1,99,1,+00610,5,9","3,99,1,+02438,5,9",,,"9,AGL   ,+99999,+99999","99,99,9,99,9,99,9,00610,1,99,9,99,9",,,"10179,5,09522,5",,,,,,"MET08908/21/23 15:55:01 METAR PAPT 220055Z 17011KT 25SM FEW020 BKN080 15/10 A3006 RMK NO SPECI.","R01    157TMP046R02    107DPT046"
"70249026526","2023-08-22T02:50:00","7","62.0911","-152.7349","566.3","PUNTILLA, AK US","FM-15","PAPT ","V020","180,5,N,0041,5","22000,5,9,N","040234,5,N,5","+0140,C","+0100,C","99999,9",,,,,,,,,,"02,5,+00610,5,99,9","02,5,+00914,5,99,9",,"1,99,1,+00610,5,9","1,99,1,+00914,5,9",,,"9,AGL   ,+99999,+99999","02,99,5,99,9,99,9,00610,1,99,9,99,9",,,"10179,5,09522,5",,,,,,"MET09408/21/23 17:50:02 METAR PAPT 220250Z 18008KT 25SM FEW020 FEW030 14/10 A3006 RMK NO SPECI. LAST","R01    147TMP046R02    107DPT046D01      0ADE726"
"70249026526","2023-08-22T08:59:00","O","62.0911","-152.7349","566.3","PUNTILLA, AK US","SOD  ","PAPT ","V020","999,9,9,9999,9","99999,9,9,9","999999,9,9,9","+9999,9","+9999,9","99999,9",,,"AU,13,BR  ,5",,,,,,,,,,,,,,,,,,,,,,,,,
"70249026526","2023-08-22T14:54:00","7","62.0911","-152.7349","566.3","PUNTILLA, AK US","FM-15","PAPT ","V020","999,9,N,0015,7","00549,5,M,N","032187,5,N,5","+0080,C","+0080,C","99999,9",,,,,,,,,,"08,5,+00549,5,99,9",,,"4,99,1,+00549,5,9",,,,,,,,"10183,5,09525,5",,,,,,"MET08808/22/23 05:54:02 METAR PAPT 221454Z VAR03KT 20SM OVC018 08/08 A3007 RMK NO SPECI. FIRST","R01    037WNS034R02    087TMP046R03    087DPT046D01      0ADE693D02      0ADE539"
"70249026526","2023-08-22T16:48:00","7","62.0911","-152.7349","566.3","PUNTILLA, AK US","FM-15","PAPT ","V020","999,9,C,0000,5","00549,5,M,N","032187,5,N,5","+0100,C","+0100,C","99999,9",,,,,,,,,,"08,5,+00549,5,99,9",,,"4,99,1,+00549,5,9",,,,"9,AGL   ,+99999,+99999","99,99,9,99,9,99,9,00549,1,99,9,99,9",,,"10186,5,09528,5",,,,,,"MET08208/22/23 07:48:02 METAR PAPT 221648Z 00000KT 20SM OVC018 10/10 A3008 RMK NO SPECI.","R01    107TMP046R02    107DPT046"
"70249026526","2023-08-22T18:48:00","7","62.0911","-152.7349","566.3","PUNTILLA, AK US","FM-15","PAPT ","V020","999,9,C,0000,5","00549,5,M,N","032187,5,N,5","+0120,C","+0110,C","99999,9",,,,,,,,,,"08,5,+00549,5,99,9",,,"4,99,1,+00549,5,9",,,,"9,AGL   ,+99999,+99999","99,99,9,99,9,99,9,00549,1,99,9,99,9",,,"10183,5,09525,5",,,,,,"MET08208/22/23 09:48:02 METAR PAPT 221848Z 00000KT 20SM OVC018 12/11 A3007 RMK NO SPECI.","R01    127TMP046R02    117DPT046"
"70249026526","2023-08-22T20:50:00","7","62.0911","-152.7349","566.3","PUNTILLA, AK US","FM-15","PAPT ","V020","210,5,N,0021,5","22000,5,9,N","032187,5,N,5","+0150,C","+0120,C","99999,9",,,,,,,,,,"04,5,+00549,5,99,9",,,"2,99,1,+00549,5,9",,,,"9,AGL   ,+99999,+99999","04,99,5,99,9,99,9,00549,1,99,9,99,9",,,"10179,5,09522,5",,,,,,"MET08208/22/23 11:50:02 METAR PAPT 222050Z 21004KT 20SM SCT018 15/12 A3006 RMK NO SPECI.","R01    157TMP046R02    127DPT046D01      0ADE726"
"70249026526","2023-08-22T22:56:00","7","62.0911","-152.7349","566.3","PUNTILLA, AK US","FM-15","PAPT ","V020","999,9,V,0021,5","22000,5,9,N","040234,5,N,5","+0180,C","+0110,C","99999,9",,,,,,,,,,"02,5,+01524,5,99,9",,,"1,99,1,+01524,5,9",,,,"9,AGL   ,+99999,+99999","02,99,5,99,9,99,9,01524,1,99,9,99,9","240,M,+0178,1","240,N,+0084,1","10166,5,09509,5",,,,,,"MET09208/22/23 13:56:02 METAR PAPT 222256Z VRB04KT 25SM FEW050 18/11 A3002 RMK NO SPECI. 401780084","R01    187TMP046R02    117DPT046D01      0ADE726"
"70249026526","2023-08-23T00:47:00","7","62.0911","-152.7349","566.3","PUNTILLA, AK US","FM-15","PAPT ","V020","170,5,N,0036,5","22000,5,9,N","040234,5,N,5","+0180,C","+0110,C","99999,9",,,,,,,,,,"02,5,+02134,5,99,9",,,"1,99,1,+02134,5,9",,,,"9,AGL   ,+99999,+99999","02,99,5,99,9,99,9,02134,1,99,9,99,9",,,"10156,5,09499,5",,,,,,"MET08208/22/23 15:47:01 METAR PAPT 230047Z 17007KT 25SM FEW070 18/11 A2999 RMK NO SPECI.","R01    187TMP046R02    117DPT046D01      0ADE726"
"70249026526","2023-08-23T02:45:00","7","62.0911","-152.7349","566.3","PUNTILLA, AK US","FM-15","PAPT ","V020","180,5,N,0036,5","22000,5,9,N","040234,5,N,5","+0170,C","+0120,C","99999,9",,,,,,,,,,"02,5,+02134,5,99,9",,,"1,99,1,+02134,5,9",,,,"9,AGL   ,+99999,+99999","02,99,5,99,9,99,9,02134,1,99,9,99,9",,,"10156,5,09499,5",,,,,,"MET08708/22/23 17:45:01 METAR PAPT 230245Z 18007KT 25SM FEW070 17/12 A2999 RMK NO SPECI. LAST","R01    177TMP046R02    127DPT046D01      0ADE726"
"70249026526","2023-08-23T14:55:00","7","62.0911","-152.7349","566.3","PUNTILLA, AK US","FM-15","PAPT ","V020","999,9,C,0000,5","02134,5,M,N","040234,5,N,5","+0080,C","+0080,C","99999,9",,,,,,,,,,"02,5,+00549,5,99,9","07,5,+02134,5,99,9",,"1,99,1,+00549,5,9","3,99,1,+02134,5,9",,,"9,AGL   ,+99999,+99999","99,99,9,99,9,99,9,00549,1,99,9,99,9",,,"10169,5,09512,5",,,,,,"MET09508/23/23 05:55:02 METAR PAPT 231455Z 00000KT 25SM FEW018 BKN070 08/08 A3003 RMK NO SPECI. FIRST","R01    087TMP046R02    087DPT046"
"70249026526","2023-08-23T16:49:00","7","62.0911","-152.7349","566.3","PUNTILLA, AK US","FM-15","PAPT ","V020","999,9,C,0000,5","02134,5,M,N","032187,5,N,5","+0110,C","+0100,C","99999,9",,,,,,,,,,"02,5,+00305,5,99,9","07,5,+02134,5,99,9",,"1,99,1,+00305,5,9","3,99,1,+02134,5,9",,,"9,AGL   ,+99999,+99999","99,99,9,99,9,99,9,00305,1,99,9,99,9",,,"10166,5,09509,5",,,,,,"MET08908/23/23 07:49:02 METAR PAPT 231649Z 00000KT 20SM FEW010 BKN070 11/10 A3002 RMK NO SPECI.","R01    117TMP046R02    107DPT046"
"70249026526","2023-08-23T18:52:00","7","62.0911","-152.7349","566.3","PUNTILLA, AK US","FM-15","PAPT ","V020","180,5,N,0026,5","00549,5,M,N","032187,5,N,5","+0150,C","+0120,C","99999,9",,,,,,,,,,"07,5,+00549,5,99,9",,,"3,99,1,+00549,5,9",,,,"9,AGL   ,+99999,+99999","99,99,9,99,9,99,9,00549,1,99,9,99,9",,,"10166,5,09509,5",,,,,,"MET08208/23/23 09:52:02 METAR PAPT 231852Z 18005KT 20SM BKN018 15/12 A3002 RMK NO SPECI.","R01    157TMP046R02    127DPT046"
"70249026526","2023-08-23T20:50:00","7","62.0911","-152.7349","566.3","PUNTILLA, AK US","FM-15","PAPT ","V020","180,5,N,0041,5","02438,5,M,N","032187,5,N,5","+0160,C","+0120,C","99999,9",,,,,,,,,,"04,5,+00762,5,99,9","08,5,+02438,5,99,9",,"2,99,1,+00762,5,9","4,99,1,+02438,5,9",,,"9,AGL   ,+99999,+99999","99,99,9,99,9,99,9,00762,1,99,9,99,9",,,"10163,5,09506,5",,,,,,"MET08908/23/23 11:50:02 METAR PAPT 232050Z 18008KT 20SM SCT025 OVC080 16/12 A3001 RMK NO SPECI.","R01    167TMP046R02    127DPT046"
"70249026526","2023-08-23T22:47:00","7","62.0911","-152.7349","566.3","PUNTILLA, AK US","FM-15","PAPT ","V020","170,5,N,0041,5","02438,5,M,N","032187,5,N,5","+0150,C","+0110,C","99999,9",,,,,,,,,,"02,5,+00610,5,99,9","02,5,+01524,5,99,9","08,5,+02438,5,99,9","1,99,1,+00610,5,9","1,99,1,+01524,5,9","4,99,1,+02438,5,9",,"9,AGL   ,+99999,+99999","99,99,9,99,9,99,9,00610,1,99,9,99,9","240,M,+0184,1","240,N,+0078,1","10163,5,09506,5",,,,,,"MET10608/23/23 13:47:02 METAR PAPT 232247Z 17008KT 20SM FEW020 FEW050 OVC080 15/11 A3001 RMK NO SPECI. 401840078","R01    157TMP046R02    117DPT046"
"70249026526","2023-08-24T00:50:00","7","62.0911","-152.7349","566.3","PUNTILLA, AK US","FM-15","PAPT ","V020","180,5,N,0036,5","02438,5,M,N","040234,5,N,5","+0150,C","+0120,C","99999,9",,,,,,,,,,"02,5,+00549,5,99,9","02,5,+01219,5,99,9","08,5,+02438,5,99,9","1,99,1,+00549,5,9","1,99,1,+01219,5,9","4,99,1,+02438,5,9",,"9,AGL   ,+99999,+99999","99,99,9,99,9,99,9,00549,1,99,9,99,9",,,"10159,5,09502,5",,,,,,"MET09608/23/23 15:50:01 METAR PAPT 240050Z 18007KT 25SM FEW018 FEW040 OVC080 15/12 A3000 RMK NO SPECI.","R01    157TMP046R02    127DPT046"
"70249026526","2023-08-24T02:40:00","7","62.0911","-152.7349","566.3","PUNTILLA, AK US","FM-15","PAPT ","V020","180,5,N,0046,5","02438,5,M,N","040234,5,N,5","+0150,5","+0120,5","99999,9",,,,,,,,,,"02,5,+00549,5,99,9","02,5,+01219,5,99,9","08,5,+02438,5,99,9","1,99,1,+00549,5,9","1,99,1,+01219,5,9","4,99,1,+02438,5,9",,"9,AGL   ,+99999,+99999","99,99,9,99,9,99,9,00549,1,99,9,99,9",,,"10159,5,09502,5",,,,,,"MET10108/23/23 17:40:01 METAR PAPT 240240Z 18009KT 25SM FEW018 FEW040 OVC080 15/12 A3000 RMK NO SPECI. LAST",
"70249026526","2023-08-24T14:53:00","6","62.0911","-152.7349","566.3","PUNTILLA, AK US","FM-15","PAPT ","V020","190,5,N,0041,5","00610,5,M,N","040234,5,N,5","+0110,C","+0110,C","99999,9",,,,,,,,,,"02,5,+00305,5,99,9","08,5,+00610,5,99,9",,"1,99,1,+00305,5,9","4,99,1,+00610,5,9",,,,,,,"10135,5,09480,5",,,,,,"MET09508/24/23 05:53:02 METAR PAPT 241453Z 19008KT 25SM FEW010 OVC020 11/11 A2993 RMK NO SPECI. FIRST","R01    117TMP046R02    117DPT046"
"70249026526","2023-08-24T16:48:00","7","62.0911","-152.7349","566.3","PUNTILLA, AK US","FM-15","PAPT ","V020","180,5,N,0031,5","00610,5,M,N","008047,5,N,5","+0110,C","+0110,C","99999,9",,,,,,"2,0,01,0,0,1,5",,"52,5",,"02,5,+00305,5,99,9","08,5,+00610,5,99,9",,"1,99,1,+00305,5,9","4,99,1,+00610,5,9",,,"9,AGL   ,+99999,+99999","99,99,9,99,9,99,9,00305,1,99,9,99,9",,,"10132,5,09477,5",,"53,1","55,5",,,"MET09108/24/23 07:48:02 METAR PAPT 241648Z 18006KT 5SM DZ FEW010 OVC020 11/11 A2992 RMK NO SPECI.","R01    117TMP046R02    117DPT046"
"70249026526","2023-08-24T18:40:00","7","62.0911","-152.7349","566.3","PUNTILLA, AK US","FM-15","PAPT ","V020","170,5,N,0036,5","00610,5,M,N","008047,5,N,5","+0110,5","+0110,5","99999,9",,,,,,"2,0,01,0,0,1,5",,"52,5",,"02,5,+00305,5,99,9","08,5,+00610,5,99,9",,"1,99,1,+00305,5,9","4,99,1,+00610,5,9",,,"9,AGL   ,+99999,+99999","99,99,9,99,9,99,9,00305,1,99,9,99,9",,,"10129,5,09474,5",,"53,1","55,5",,,"MET09108/24/23 09:40:02 METAR PAPT 241840Z 17007KT 5SM DZ FEW010 OVC020 11/11 A2991 RMK NO SPECI.",
"70249026526","2023-08-24T20:51:00","7","62.0911","-152.7349","566.3","PUNTILLA, AK US","FM-15","PAPT ","V020","170,5,N,0036,5","00610,5,M,N","008047,5,N,5","+0110,C","+0110,C","99999,9",,,,,,"2,0,01,0,0,1,5",,"52,5",,"02,5,+00305,5,99,9","08,5,+00610,5,99,9",,"1,99,1,+00305,5,9","4,99,1,+00610,5,9",,,"9,AGL   ,+99999,+99999","99,99,9,99,9,99,9,00305,1,99,9,99,9",,,"10122,5,09467,5",,"53,1","55,5",,,"MET09108/24/23 11:51:02 METAR PAPT 242051Z 17007KT 5SM DZ FEW010 OVC020 11/11 A2989 RMK NO SPECI.","R01    117TMP046R02    117DPT046"
"70249026526","2023-08-24T22:54:00","7","62.0911","-152.7349","566.3","PUNTILLA, AK US","FM-15","PAPT ","V020","190,5,N,0051,5","00610,5,M,N","008047,5,N,5","+0120,C","+0110,C","99999,9",,,,,,"1,0,01,0,0,1,5",,"51,5",,"02,5,+00305,5,99,9","08,5,+00610,5,99,9",,"1,99,1,+00305,5,9","4,99,1,+00610,5,9",,,"9,AGL   ,+99999,+99999","99,99,9,99,9,99,9,00305,1,99,9,99,9","240,M,+0145,1","240,N,+0112,1","10115,5,09461,5",,"51,5",,,,"MET10808/24/23 13:54:02 METAR PAPT 242254Z 19010KT 5SM -DZ FEW010 OVC020 12/11 A2987 RMK NO SPECI. 401450112 70054","R01    127TMP046R02    117DPT046"
"70249026526","2023-08-25T00:47:00","7","62.0911","-152.7349","566.3","PUNTILLA, AK US","FM-15","PAPT ","V020","170,5,N,0036,5","00610,5,M,N","024140,5,N,5","+0130,C","+0110,C","99999,9",,,,,,,,,,"02,5,+00305,5,99,9","08,5,+00610,5,99,9",,"1,99,1,+00305,5,9","4,99,1,+00610,5,9",,,"9,AGL   ,+99999,+99999","99,99,9,99,9,99,9,00305,1,99,9,99,9",,,"10112,5,09458,5",,,,,,"MET08908/24/23 15:47:01 METAR PAPT 250047Z 17007KT 15SM FEW010 OVC020 13/11 A2986 RMK NO SPECI.","R01    137TMP046R02    117DPT046"
"70249026526","2023-08-25T02:50:00","7","62.0911","-152.7349","566.3","PUNTILLA, AK US","FM-15","PAPT ","V020","180,5,N,0041,5","00610,5,M,N","024140,5,N,5","+0130,C","+0110,C","99999,9",,,,,,,,,,"02,5,+00305,5,99,9","08,5,+00610,5,99,9",,"1,99,1,+00305,5,9","4,99,1,+00610,5,9",,,"9,AGL   ,+99999,+99999","99,99,9,99,9,99,9,00305,1,99,9,99,9",,,"10102,5,09448,5",,,,,,"MET09408/24/23 17:50:01 METAR PAPT 250250Z 18008KT 15SM FEW010 OVC020 13/11 A2983 RMK NO SPECI. LAST","R01    137TMP046R02    117DPT046"
"70249026526","2023-08-25T08:59:00","O","62.0911","-152.7349","566.3","PUNTILLA, AK US","SOD  ","PAPT ","V020","999,9,9,9999,9","99999,9,9,9","999999,9,9,9","+9999,9","+9999,9","99999,9",,,"AU,14,DZ  ,5",,,,,,,,,,,,,,,,,,,,,,,,,
"70249026526","2023-08-25T14:52:00","6","62.0911","-152.7349","566.3","PUNTILLA, AK US","FM-15","PAPT ","V020","170,5,N,0041,5","00610,5,M,N","008047,5,N,5","+0110,C","+0100,C","99999,9",,,,,,"0,3,00,2,0,1,5",,"31,5",,"04,5,+00305,5,99,9","08,5,+00610,5,99,9",,"2,99,1,+00305,5,9","4,99,1,+00610,5,9",,,,,,,"10095,5,09442,5",,,,,,"MET09908/25/23 05:52:02 METAR PAPT 251452Z 17008KT 5SM BCFG SCT010 OVC020 11/10 A2981 RMK NO SPECI. FIRST","R01    117TMP046R02    107DPT046"
"70249026526","2023-08-25T16:50:00","7","62.0911","-152.7349","566.3","PUNTILLA, AK US","FM-15","PAPT ","V020","170,5,N,0041,5","00366,5,M,N","016093,5,N,5","+0110,C","+0100,C","99999,9",,,,,,,,,,"07,5,+00366,5,99,9",,,"3,99,1,+00366,5,9",,,,"9,AGL   ,+99999,+99999","99,99,9,99,9,99,9,00366,1,99,9,99,9",,,"10098,5,09445,5",,,,,,"MET08208/25/23 07:50:02 METAR PAPT 251650Z 17008KT 10SM BKN012 11/10 A2982 RMK NO SPECI.","R01    117TMP046R02    107DPT046"
"70249026526","2023-08-25T18:50:00","7","62.0911","-152.7349","566.3","PUNTILLA, AK US","FM-15","PAPT ","V020","170,5,N,0041,5","00457,5,M,N","024140,5,N,5","+0130,C","+0110,C","99999,9",,,,,,,,,,"07,5,+00457,5,99,9",,,"3,99,1,+00457,5,9",,,,"9,AGL   ,+99999,+99999","99,99,9,99,9,99,9,00457,1,99,9,99,9",,,"10102,5,09448,5",,,,,,"MET08208/25/23 09:50:02 METAR PAPT 251850Z 17008KT 15SM BKN015 13/11 A2983 RMK NO SPECI.","R01    137TMP046R02    117DPT046"
"70249026526","2023-08-25T20:49:00","7","62.0911","-152.7349","566.3","PUNTILLA, AK US","FM-15","PAPT ","V020","170,5,N,0051,5","22000,5,9,N","040234,5,N,5","+0140,C","+0110,C","99999,9",,,,,,,,,,"04,5,+00549,5,99,9","04,5,+01219,5,99,9",,"2,99,1,+00549,5,9","2,99,1,+01219,5,9",,,"9,AGL   ,+99999,+99999","04,99,5,99,9,99,9,00549,1,99,9,99,9",,,"10105,5,09451,5",,,,,,"MET08908/25/23 11:49:02 METAR PAPT 252049Z 17010KT 25SM SCT018 SCT040 14/11 A2984 RMK NO SPECI.","R01    147TMP046R02    117DPT046D01      0ADE726"
"70249026526","2023-08-25T22:41:00","7","62.0911","-152.7349","566.3","PUNTILLA, AK US","FM-15","PAPT ","V020","180,5,N,0062,5","00610,5,M,N","040234,5,N,5","+0140,C","+0100,C","99999,9",,,,,,,,,,"07,5,+00610,5,99,9",,,"3,99,1,+00610,5,9",,,,"9,AGL   ,+99999,+99999","99,99,9,99,9,99,9,00610,1,99,9,99,9","240,M,+0139,1","240,N,+0112,1","10102,5,09448,5",,,,,,"MET09808/25/23 13:41:02 METAR PAPT 252241Z 18012KT 25SM BKN020 14/10 A2983 RMK NO SPECI. 401390112 70000","R01    147TMP046R02    107DPT046"
"70249026526","2023-08-26T00:47:00","7","62.0911","-152.7349","566.3","PUNTILLA, AK US","FM-15","PAPT ","V020","190,5,N,0051,5","00549,5,M,N","040234,5,N,5","+0130,C","+0090,C","99999,9",,,,,,,,,,"07,5,+00549,5,99,9",,,"3,99,1,+00549,5,9",,,,"9,AGL   ,+99999,+99999","99,99,9,99,9,99,9,00549,1,99,9,99,9",,,"10108,5,09454,5",,,,,,"MET08208/25/23 15:47:01 METAR PAPT 260047Z 19010KT 25SM BKN018 13/09 A2985 RMK NO SPECI.","R01    137TMP046R02    097DPT046"
"70249026526","2023-08-26T02:46:00","7","62.0911","-152.7349","566.3","PUNTILLA, AK US","FM-15","PAPT ","V020","190,5,N,0041,5","00549,5,M,N","040234,5,N,5","+0120,C","+0100,C","99999,9",,,,,,,,,,"08,5,+00549,5,99,9",,,"4,99,1,+00549,5,9",,,,"9,AGL   ,+99999,+99999","99,99,9,99,9,99,9,00549,1,99,9,99,9",,,"10105,5,09451,5",,,,,,"MET08708/25/23 17:46:01 METAR PAPT 260246Z 19008KT 25SM OVC018 12/10 A2984 RMK NO SPECI. LAST","R01    127TMP046R02    107DPT046"
"70249026526","2023-08-26T08:59:00","O","62.0911","-152.7349","566.3","PUNTILLA, AK US","SOD  ","PAPT ","V020","999,9,9,9999,9","99999,9,9,9","999999,9,9,9","+9999,9","+9999,9","99999,9",,,"AU,01,FG  ,5",,,,,,,,,,,,,,,,,,,,,,,,,
"70249026526","2023-08-26T14:50:00","7","62.0911","-152.7349","566.3","PUNTILLA, AK US","FM-15","PAPT ","V020","190,5,N,0041,5","00244,5,M,N","008047,5,N,5","+0110,C","+0110,C","99999,9",,,,,,"2,0,01,0,0,1,5",,"52,5",,"08,5,+00244,5,99,9",,,"4,99,1,+00244,5,9",,,,"9,AGL   ,+99999,+99999","99,99,9,99,9,99,9,00244,1,99,9,99,9",,,"10071,5,09419,5",,"53,1","55,5",,,"MET08408/26/23 05:50:02 METAR PAPT 261450Z 19008KT 5SM DZ OVC008 11/11 A2974 RMK NO SPECI.","R01    117TMP046R02    117DPT046"
"70249026526","2023-08-26T16:46:00","7","62.0911","-152.7349","566.3","PUNTILLA, AK US","FM-15","PAPT ","V020","190,5,N,0057,5","00244,5,M,N","008047,5,N,5","+0110,C","+0110,C","99999,9",,,,,,"1,0,02,0,0,1,5",,"61,5",,"08,5,+00244,5,99,9",,,"4,99,1,+00244,5,9",,,,"9,AGL   ,+99999,+99999","99,99,9,99,9,99,9,00244,1,99,9,99,9",,,"10068,5,09416,5",,"61,5",,,,"MET08508/26/23 07:46:02 METAR PAPT 261646Z 19011KT 5SM -RA OVC008 11/11 A2973 RMK NO SPECI.","R01    117TMP046R02    117DPT046"
"70249026526","2023-08-26T18:57:00","7","62.0911","-152.7349","566.3","PUNTILLA, AK US","FM-15","PAPT ","V020","160,5,N,0031,5","00305,5,M,N","008047,5,N,5","+0110,C","+0100,C","99999,9",,,,,,"1,0,02,0,0,1,5",,"61,5",,"08,5,+00305,5,99,9",,,"4,99,1,+00305,5,9",,,,"9,AGL   ,+99999,+99999","99,99,9,99,9,99,9,00305,1,99,9,99,9",,,"10058,5,09406,5",,"61,5",,,,"MET08508/26/23 09:57:02 METAR PAPT 261857Z 16006KT 5SM -RA OVC010 11/10 A2970 RMK NO SPECI.","R01    117TMP046R02    107DPT046"
"70249026526","2023-08-26T20:50:00","7","62.0911","-152.7349","566.3","PUNTILLA, AK US","FM-15","PAPT ","V020","190,5,N,0072,5","00762,5,M,N","016093,5,N,5","+0130,C","+0120,C","99999,9",,,,,,,,,,"04,5,+00305,5,99,9","08,5,+00762,5,99,9",,"2,99,1,+00305,5,9","4,99,1,+00762,5,9",,,"9,AGL   ,+99999,+99999","99,99,9,99,9,99,9,00305,1,99,9,99,9",,,"10047,5,09397,5",,,,,,"MET08908/26/23 11:50:02 METAR PAPT 262050Z 19014KT 10SM SCT010 OVC025 13/12 A2967 RMK NO SPECI.","R01    137TMP046R02    127DPT046"
"70249026526","2023-08-26T22:49:00","7","62.0911","-152.7349","566.3","PUNTILLA, AK US","FM-15","PAPT ","V020","180,5,N,0051,5","00914,5,M,N","024140,5,N,5","+0160,C","+0130,C","99999,9",,,,,,,,,,"04,5,+00457,5,99,9","07,5,+00914,5,99,9",,"2,99,1,+00457,5,9","3,99,1,+00914,5,9",,,"9,AGL   ,+99999,+99999","99,99,9,99,9,99,9,00457,1,99,9,99,9","240,M,+0157,1","240,N,+0106,1","10041,5,09390,5",,,,,,"MET10508/26/23 13:49:02 METAR PAPT 262249Z 18010KT 15SM SCT015 BKN030 16/13 A2965 RMK NO SPECI. 401570106 70029","R01    167TMP046R02    137DPT046"
"70249026526","2023-08-27T00:55:00","7","62.0911","-152.7349","566.3","PUNTILLA, AK US","FM-15","PAPT ","V020","190,5,N,0067,5","00457,5,M,N","024140,5,N,5","+0150,C","+0120,C","99999,9",,,,,,,,,,"07,5,+00457,5,99,9",,,"3,99,1,+00457,5,9",,,,"9,AGL   ,+99999,+99999","99,99,9,99,9,99,9,00457,1,99,9,99,9",,,"10037,5,09387,5",,,,,,"MET08208/26/23 15:55:01 METAR PAPT 270055Z 19013KT 15SM BKN015 15/12 A2964 RMK NO SPECI.","R01    157TMP046R02    127DPT046"
"70249026526","2023-08-27T02:58:00","7","62.0911","-152.7349","566.3","PUNTILLA, AK US","FM-15","PAPT ","V020","190,5,N,0062,5","00762,5,M,N","040234,5,N,5","+0150,C","+0120,C","99999,9",,,,,,,,,,"07,5,+00762,5,99,9",,,"3,99,1,+00762,5,9",,,,"9,AGL   ,+99999,+99999","99,99,9,99,9,99,9,00762,1,99,9,99,9",,,"10041,5,09390,5",,,,,,"MET08708/26/23 17:58:02 METAR PAPT 270258Z 19012KT 25SM BKN025 15/12 A2965 RMK NO SPECI. LAST","R01    157TMP046R02    127DPT046"
"70249026526","2023-08-27T08:59:00","O","62.0911","-152.7349","566.3","PUNTILLA, AK US","SOD  ","PAPT ","V020","999,9,9,9999,9","99999,9,9,9","999999,9,9,9","+9999,9","+9999,9","99999,9",,,"AU,16,RA  ,5","AU,14,DZ  ,5",,,,,,,,,,,,,,,,,,,,,,,,
"70249026526","2023-08-27T14:49:00","7","62.0911","-152.7349","566.3","PUNTILLA, AK US","FM-15","PAPT ","V020","180,5,N,0026,5","02134,5,M,N","040234,5,N,5","+0120,C","+0110,C","99999,9",,,,,,,,,,"02,5,+00549,5,99,9","07,5,+02134,5,99,9",,"1,99,1,+00549,5,9","3,99,1,+02134,5,9",,,"9,AGL   ,+99999,+99999","99,99,9,99,9,99,9,00549,1,99,9,99,9",,,"10061,5,09409,5",,,,,,"MET09508/27/23 05:49:02 METAR PAPT 271449Z 18005KT 25SM FEW018 BKN070 12/11 A2971 RMK NO SPECI. FIRST","R01    127TMP046R02    117DPT046"
"70249026526","2023-08-27T16:54:00","7","62.0911","-152.7349","566.3","PUNTILLA, AK US","FM-15","PAPT ","V020","190,5,N,0051,5","02134,5,M,N","040234,5,N,5","+0130,C","+0110,C","99999,9",,,,,,,,,,"02,5,+00549,5,99,9","07,5,+02134,5,99,9",,"1,99,1,+00549,5,9","3,99,1,+02134,5,9",,,"9,AGL   ,+99999,+99999","99,99,9,99,9,99,9,00549,1,99,9,99,9",,,"10061,5,09409,5",,,,,,"MET08908/27/23 07:54:02 METAR PAPT 271654Z 19010KT 25SM FEW018 BKN070 13/11 A2971 RMK NO SPECI.","R01    137TMP046R02    117DPT046"
"70249026526","2023-08-27T18:52:00","7","62.0911","-152.7349","566.3","PUNTILLA, AK US","FM-15","PAPT ","V020","190,5,N,0036,5","01219,5,M,N","040234,7,N,5","+0130,C","+0110,C","99999,9",,,,,,"1,0,01,0,0,1,5",,"51,5",,"02,5,+00366,5,99,9","07,5,+01219,5,99,9",,"1,99,1,+00366,5,9","3,99,1,+01219,5,9",,,"9,AGL   ,+99999,+99999","99,99,9,99,9,99,9,00366,1,99,9,99,9",,,"10071,5,09419,5",,"51,5",,,,"MET09308/27/23 09:52:02 METAR PAPT 271852Z 19007KT 25SM -DZ FEW012 BKN040 13/11 A2974 RMK NO SPECI.","R01  25SM7VIS011R02    137TMP046R03    117DPT046"
"70249026526","2023-08-27T20:55:00","6","62.0911","-152.7349","566.3","PUNTILLA, AK US","FM-15","PAPT ","V020","190,5,N,0041,5","00457,5,M,N","032187,5,N,5","+0140,C","+0120,C","99999,9",,,,,,,,,,"07,5,+00457,5,99,9",,,"3,99,1,+00457,5,9",,,,,,,,"10081,5,09429,5",,,,,,"MET08208/27/23 11:55:02 METAR PAPT 272055Z 19008KT 20SM BKN015 14/12 A2977 RMK NO SPECI.","R01    147TMP046R02    127DPT046"
"70249026526","2023-08-27T22:55:00","7","62.0911","-152.7349","566.3","PUNTILLA, AK US","FM-15","PAPT ","V020","180,5,N,0051,5","02134,5,M,N","040234,5,N,5","+0150,C","+0110,C","99999,9",,,,,,,,,,"02,5,+00549,5,99,9","07,5,+02134,5,99,9",,"1,99,1,+00549,5,9","3,99,1,+02134,5,9",,,"9,AGL   ,+99999,+99999","99,99,9,99,9,99,9,00549,1,99,9,99,9","240,M,+0151,1","240,N,+0117,1","10091,5,09438,5",,,,,,"MET10508/27/23 13:55:02 METAR PAPT 272255Z 18010KT 25SM FEW018 BKN070 15/11 A2980 RMK NO SPECI. 401510117 70003","R01    157TMP046R02    117DPT046"
"70249026526","2023-08-28T00:53:00","7","62.0911","-152.7349","566.3","PUNTILLA, AK US","FM-15","PAPT ","V020","190,5,N,0051,5","02134,5,M,N","040234,5,N,5","+0150,C","+0110,C","99999,9",,,,,,,,,,"02,5,+00549,5,99,9","07,5,+02134,5,99,9",,"1,99,1,+00549,5,9","3,99,1,+02134,5,9",,,"9,AGL   ,+99999,+99999","99,99,9,99,9,99,9,00549,1,99,9,99,9",,,"10102,5,09448,5",,,,,,"MET08908/27/23 15:53:01 METAR PAPT 280053Z 19010KT 25SM FEW018 BKN070 15/11 A2983 RMK NO SPECI.","R01    157TMP046R02    117DPT046"
"70249026526","2023-08-28T02:51:00","7","62.0911","-152.7349","566.3","PUNTILLA, AK US","FM-15","PAPT ","V020","190,5,N,0041,5","22000,5,9,N","040234,5,N,5","+0160,C","+0120,C","99999,9",,,,,,,,,,"02,5,+00610,5,99,9","04,5,+02134,5,99,9",,"1,99,1,+00610,5,9","2,99,1,+02134,5,9",,,"9,AGL   ,+99999,+99999","04,99,5,99,9,99,9,00610,1,99,9,99,9",,,"10108,5,09454,5",,,,,,"MET09408/27/23 17:51:01 METAR PAPT 280251Z 19008KT 25SM FEW020 SCT070 16/12 A2985 RMK NO SPECI. LAST","R01    167TMP046R02    127DPT046D01      0ADE726"
"70249026526","2023-08-28T08:59:00","O","62.0911","-152.7349","566.3","PUNTILLA, AK US","SOD  ","PAPT ","V020","999,9,9,9999,9","99999,9,9,9","999999,9,9,9","+9999,9","+9999,9","99999,9",,,"AU,14,DZ  ,5",,,,,,,,,,,,,,,,,,,,,,,,,
"70249026526","2023-08-28T14:50:00","7","62.0911","-152.7349","566.3","PUNTILLA, AK US","FM-15","PAPT ","V020","010,5,N,0021,5","01524,5,M,N","040234,5,N,5","+0070,C","+0060,C","99999,9",,,,,,,,,,"08,5,+01524,5,99,9",,,"4,99,1,+01524,5,9",,,,"9,AGL   ,+99999,+99999","99,99,9,99,9,99,9,01524,1,99,9,99,9",,,"10139,5,09483,5",,,,,,"MET08808/28/23 05:50:02 METAR PAPT 281450Z 01004KT 25SM OVC050 07/06 A2994 RMK NO SPECI. FIRST","R01    077TMP046R02    067DPT046"
"70249026526","2023-08-28T16:46:00","7","62.0911","-152.7349","566.3","PUNTILLA, AK US","FM-15","PAPT ","V020","350,5,N,0021,5","00762,5,M,N","024140,5,N,5","+0070,C","+0060,C","99999,9",,,,,,,,,,"08,5,+00762,5,99,9",,,"4,99,1,+00762,5,9",,,,"9,AGL   ,+99999,+99999","99,99,9,99,9,99,9,00762,1,99,9,99,9",,,"10139,5,09483,5",,,,,,"MET08208/28/23 07:46:02 METAR PAPT 281646Z 35004KT 15SM OVC025 07/06 A2994 RMK NO SPECI.","R01    077TMP046R02    067DPT046"
"70249026526","2023-08-28T18:54:00","7","62.0911","-152.7349","566.3","PUNTILLA, AK US","FM-15","PAPT ","V020","999,9,C,0000,5","01219,5,M,N","024140,5,N,5","+0090,C","+0070,C","99999,9",,,,,,,,,,"02,5,+00610,5,99,9","04,5,+00823,5,99,9","08,5,+01219,5,99,9","1,99,1,+00610,5,9","2,99,1,+00823,5,9","4,99,1,+01219,5,9",,"9,AGL   ,+99999,+99999","99,99,9,99,9,99,9,00610,1,99,9,99,9",,,"10135,5,09480,5",,,,,,"MET09608/28/23 09:54:02 METAR PAPT 281854Z 00000KT 15SM FEW020 SCT027 OVC040 09/07 A2993 RMK NO SPECI.","R01    097TMP046R02    077DPT046"
"70249026526","2023-08-28T20:58:00","7","62.0911","-152.7349","566.3","PUNTILLA, AK US","FM-15","PAPT ","V020","999,9,C,0000,5","00549,5,M,N","016093,5,N,5","+0100,C","+0100,C","99999,9",,,,,,"1,0,02,0,0,1,5","1,0,01,0,0,1,5","51,5","61,5","08,5,+00549,5,99,9",,,"4,99,1,+00549,5,9",,,,"9,AGL   ,+99999,+99999","99,99,9,99,9,99,9,00549,1,99,9,99,9",,,"10132,5,09477,5",,"51,5","61,5",,,"MET09008/28/23 11:58:02 METAR PAPT 282058Z 00000KT 10SM -RA -DZ OVC018 10/10 A2992 RMK NO SPECI.","R01    107TMP046R02    107DPT046"
"70249026526","2023-08-28T22:58:00","7","62.0911","-152.7349","566.3","PUNTILLA, AK US","FM-15","PAPT ","V020","999,9,C,0000,5","00305,5,M,N","008047,5,N,5","+0100,C","+0100,C","99999,9",,,,,,"1,0,02,0,0,1,5","1,0,01,0,0,1,5","51,5","61,5","02,5,+00183,5,99,9","07,5,+00305,5,99,9","08,5,+00610,5,99,9","1,99,1,+00183,5,9","3,99,1,+00305,5,9","4,99,1,+00610,5,9",,"9,AGL   ,+99999,+99999","99,99,9,99,9,99,9,00183,1,99,9,99,9","240,M,+0156,1","240,N,+0073,1","10122,5,09467,5",,"51,5","61,5",,,"MET11908/28/23 13:58:02 METAR PAPT 282258Z 00000KT 5SM -RA -DZ FEW006 BKN010 OVC020 10/10 A2989 RMK NO SPECI. 401560073 70010","R01    107TMP046R02    107DPT046"
"70249026526","2023-08-29T00:45:00","7","62.0911","-152.7349","566.3","PUNTILLA, AK US","FM-15","PAPT ","V020","999,9,C,0000,5","00305,5,M,N","008047,5,N,5","+0100,C","+0100,C","99999,9",,,,,,"1,0,02,0,0,1,5",,"61,5",,"02,5,+00183,5,99,9","07,5,+00305,5,99,9","08,5,+00610,5,99,9","1,99,1,+00183,5,9","3,99,1,+00305,5,9","4,99,1,+00610,5,9",,"9,AGL   ,+99999,+99999","99,99,9,99,9,99,9,00183,1,99,9,99,9",,,"10108,5,09454,5",,"61,5",,,,"MET09908/28/23 15:45:01 METAR PAPT 290045Z 00000KT 5SM -RA FEW006 BKN010 OVC020 10/10 A2985 RMK NO SPECI.","R01    107TMP046R02    107DPT046"
"70249026526","2023-08-29T02:53:00","7","62.0911","-152.7349","566.3","PUNTILLA, AK US","FM-15","PAPT ","V020","999,9,C,0000,5","00305,5,M,N","008047,5,N,5","+0100,C","+0100,C","99999,9",,,,,,"1,0,02,0,0,1,5","0,0,00,1,0,1,5","10,5","61,5","02,5,+00183,5,99,9","07,5,+00305,5,99,9","08,5,+00610,5,99,9","1,99,1,+00183,5,9","3,99,1,+00305,5,9","4,99,1,+00610,5,9",,"9,AGL   ,+99999,+99999","99,99,9,99,9,99,9,00183,1,99,9,99,9",,,"10098,5,09445,5",,"10,1","61,5",,,"MET10708/28/23 17:53:01 METAR PAPT 290253Z 00000KT 5SM -RA BR FEW006 BKN010 OVC020 10/10 A2982 RMK NO SPECI. LAST","R01    107TMP046R02    107DPT046"
"70249026526","2023-08-29T08:59:00","O","62.0911","-152.7349","566.3","PUNTILLA, AK US","SOD  ","PAPT ","V020","999,9,9,9999,9","99999,9,9,9","999999,9,9,9","+9999,9","+9999,9","99999,9",,,"AU,16,RA  ,5","AU,14,DZ  ,5","AU,13,BR  ,5",,,,,,,,,,,,,,,,,,,,,,,
"70249026526","2023-08-29T14:55:00","7","62.0911","-152.7349","566.3","PUNTILLA, AK US","FM-15","PAPT ","V020","999,9,C,0000,5","00152,5,M,N","003219,5,N,5","+0100,C","+0100,C","99999,9",,,,,,"1,0,01,0,0,1,5","0,0,00,1,0,1,5","10,5","51,5","08,5,+00152,5,99,9",,,"4,99,1,+00152,5,9",,,,"9,AGL   ,+99999,+99999","99,99,9,99,9,99,9,00152,1,99,9,99,9",,,"10041,5,09390,5",,"10,1","51,5",,,"MET09408/29/23 05:55:02 METAR PAPT 291455Z 00000KT 2SM -DZ BR OVC005 10/10 A2965 RMK NO SPECI. FIRST","R01    107TMP046R02    107DPT046"
"70249026526","2023-08-29T16:45:00","7","62.0911","-152.7349","566.3","PUNTILLA, AK US","FM-15","PAPT ","V020","999,9,V,0021,5","00305,5,M,N","008047,5,N,5","+0110,C","+0100,C","99999,9",,,,,,"0,3,00,2,0,1,5",,"31,5",,"04,5,+00152,5,99,9","08,5,+00305,5,99,9",,"2,99,1,+00152,5,9","4,99,1,+00305,5,9",,,"9,AGL   ,+99999,+99999","99,99,9,99,9,99,9,00152,1,99,9,99,9",,,"10037,5,09387,5",,"11,1",,,,"MET09308/29/23 07:45:02 METAR PAPT 291645Z VRB04KT 5SM BCFG SCT005 OVC010 11/10 A2964 RMK NO SPECI.","R01    117TMP046R02    107DPT046"
"70249026526","2023-08-29T18:55:00","7","62.0911","-152.7349","566.3","PUNTILLA, AK US","FM-15","PAPT ","V020","180,5,N,0036,5","00914,5,M,N","024140,5,N,5","+0120,C","+0110,C","99999,9",,,,,,,,,,"02,5,+00305,5,99,9","07,5,+00914,5,99,9",,"1,99,1,+00305,5,9","3,99,1,+00914,5,9","4,99,1,+02134,1,9",,"9,AGL   ,+99999,+99999","99,99,9,99,9,99,9,00305,1,99,9,99,9",,,"10037,5,09387,5",,,,,,"MET09608/29/23 09:55:02 METAR PAPT 291855Z 18007KT 15SM FEW010 BKN030 0VC070 12/11 A2964 RMK NO SPECI.","R01    127TMP046R02    117DPT046"
"70249026526","2023-08-29T20:49:00","7","62.0911","-152.7349","566.3","PUNTILLA, AK US","FM-15","PAPT ","V020","180,5,N,0062,5","01524,5,M,N","024140,5,N,5","+0130,C","+0120,C","99999,9",,,,,,,,,,"04,5,+00549,5,99,9","07,5,+01524,5,99,9","08,5,+02134,5,99,9","2,99,1,+00549,5,9","3,99,1,+01524,5,9","4,99,1,+02134,5,9",,"9,AGL   ,+99999,+99999","99,99,9,99,9,99,9,00549,1,99,9,99,9",,,"10030,5,09381,5",,,,,,"MET09608/29/23 11:49:02 METAR PAPT 292049Z 18012KT 15SM SCT018 BKN050 OVC070 13/12 A2962 RMK NO SPECI.","R01    137TMP046R02    127DPT046"
"70249026526","2023-08-29T23:02:00","7","62.0911","-152.7349","566.3","PUNTILLA, AK US","FM-15","PAPT ","V020","180,5,N,0077,5","01524,5,M,N","024140,5,N,5","+0150,5","+0120,5","99999,9",,,,,,,,,,"04,5,+00549,5,99,9","07,5,+01524,5,99,9","08,5,+02134,5,99,9","2,99,1,+00549,5,9","3,99,1,+01524,5,9","4,99,1,+02134,5,9",,"9,AGL   ,+99999,+99999","99,99,9,99,9,99,9,00549,1,99,9,99,9","240,M,+0145,1","240,N,+0095,1","10027,5,09377,5",,,,,,"MET11208/29/23 14:02:02 METAR PAPT 292302Z 18015KT 15SM SCT018 BKN050 OVC070 15/12 A2961 RMK NO SPECI. 401450095 70029",
"70249026526","2023-08-30T00:45:00","7","62.0911","-152.7349","566.3","PUNTILLA, AK US","FM-15","PAPT ","V020","180,5,N,0051,5","01524,5,M,N","040234,5,N,5","+0150,C","+0110,C","99999,9",,,,,,,,,,"04,5,+00549,5,99,9","07,5,+01524,5,99,9","08,5,+02134,5,99,9","2,99,1,+00549,5,9","3,99,1,+01524,5,9","4,99,1,+02134,5,9",,"9,AGL   ,+99999,+99999","99,99,9,99,9,99,9,00549,1,99,9,99,9",,,"10024,5,09374,5",,,,,,"MET09608/29/23 15:45:01 METAR PAPT 300045Z 18010KT 25SM SCT018 BKN050 OVC070 15/11 A2960 RMK NO SPECI.","R01    157TMP046R02    117DPT046"
"70249026526","2023-08-30T02:53:00","7","62.0911","-152.7349","566.3","PUNTILLA, AK US","FM-15","PAPT ","V020","190,5,N,0051,5","01524,5,M,N","040234,5,N,5","+0140,C","+0110,C","99999,9",,,,,,,,,,"04,5,+00549,5,99,9","07,5,+01524,5,99,9","08,5,+02134,5,99,9","2,99,1,+00549,5,9","3,99,1,+01524,5,9","4,99,1,+02134,5,9",,"9,AGL   ,+99999,+99999","99,99,9,99,9,99,9,00549,1,99,9,99,9",,,"10024,5,09374,5",,,,,,"MET10108/29/23 17:53:02 METAR PAPT 300253Z 19010KT 25SM SCT018 BKN050 OVC070 14/11 A2960 RMK NO SPECI. LAST","R01    147TMP046R02    117DPT046"
"70249026526","2023-08-30T08:59:00","O","62.0911","-152.7349","566.3","PUNTILLA, AK US","SOD  ","PAPT ","V020","999,9,9,9999,9","99999,9,9,9","999999,9,9,9","+9999,9","+9999,9","99999,9",,,"AU,14,DZ  ,5","AU,01,FG  ,5","AU,13,BR  ,5",,,,,,,,,,,,,,,,,,,,,,,
"70249026526","2023-08-30T14:43:00","7","62.0911","-152.7349","566.3","PUNTILLA, AK US","FM-15","PAPT ","V020","160,5,N,0026,5","00122,5,M,N","004828,5,N,5","+0070,C","+0070,C","99999,9",,,,,,"0,3,00,2,0,1,5",,"31,5",,"07,5,+00122,5,99,9","08,5,+00305,5,99,9",,"3,99,1,+00122,5,9","4,99,1,+00305,5,9",,,"9,AGL   ,+99999,+99999","99,99,9,99,9,99,9,00122,1,99,9,99,9",,,"10058,5,09406,5",,"11,1",,,,"MET09908/30/23 05:43:02 METAR PAPT 301443Z 16005KT 3SM BCFG BKN004 OVC010 07/07 A2970 RMK NO SPECI. FIRST","R01    077TMP046R02    077DPT046"
"70249026526","2023-08-30T22:40:00","7","62.0911","-152.7349","566.3","PUNTILLA, AK US","FM-15","PAPT ","V020","190,5,N,0051,5","00549,5,M,N","024140,7,N,5","+0090,5","+0070,5","99999,9",,,,,,"0,0,00,1,0,1,5",,"10,5",,"07,5,+00549,5,99,9","08,5,+01524,5,99,9",,"3,99,1,+00549,5,9","4,99,1,+01524,5,9",,,"9,AGL   ,+99999,+99999","99,99,9,99,9,99,9,00549,1,99,9,99,9","240,M,+0145,1","240,N,+0073,1","10071,5,09419,5",,"10,1",,,,"MET10808/30/23 13:40:02 METAR PAPT 302240Z 19010KT 15SM BR BKN018 OVC050 09/07 A2974 RMK NO SPECI. 401450073 70003","R01  15SM7VIS011"
"70249026526","2023-08-31T00:57:00","7","62.0911","-152.7349","566.3","PUNTILLA, AK US","FM-15","PAPT ","V020","180,5,N,0041,5","00549,5,M,N","024140,5,N,5","+0090,C","+0080,C","99999,9",,,,,,,,,,"07,5,+00549,5,99,9","08,5,+01524,5,99,9",,"3,99,1,+00549,5,9","4,99,1,+01524,5,9",,,"9,AGL   ,+99999,+99999","99,99,9,99,9,99,9,00549,1,99,9,99,9",,,"10075,5,09422,5",,,,,,"MET08908/30/23 15:57:01 METAR PAPT 310057Z 18008KT 15SM BKN018 OVC050 09/08 A2975 RMK NO SPECI.","R01    097TMP046R02    087DPT046"
"70249026526","2023-08-31T02:56:00","7","62.0911","-152.7349","566.3","PUNTILLA, AK US","FM-15","PAPT ","V020","190,5,N,0036,5","00549,5,M,N","024140,5,N,5","+0090,C","+0080,C","99999,9",,,,,,,,,,"07,5,+00549,5,99,9","08,5,+01524,5,99,9",,"3,99,1,+00549,5,9","4,99,1,+01524,5,9",,,"9,AGL   ,+99999,+99999","99,99,9,99,9,99,9,00549,1,99,9,99,9",,,"10078,5,09425,5",,,,,,"MET09408/30/23 17:56:02 METAR PAPT 310256Z 19007KT 15SM BKN018 OVC050 09/08 A2976 RMK NO SPECI. LAST","R01    097TMP046R02    087DPT046"
"70249026526","2023-08-31T08:59:00","O","62.0911","-152.7349","566.3","PUNTILLA, AK US","SOD  ","PAPT ","V020","999,9,9,9999,9","99999,9,9,9","999999,9,9,9","+9999,9","+9999,9","99999,9",,,"AU,01,FG  ,5","AU,13,BR  ,5",,,,,,,,,,,,,,,,,,,,,,,,
"70249026526","2023-08-31T14:56:00","7","62.0911","-152.7349","566.3","PUNTILLA, AK US","FM-15","PAPT ","V020","190,5,N,0062,5","01524,5,M,N","024140,5,N,5","+0080,C","+0070,C","99999,9",,,,,,,,,,"04,5,+00549,5,99,9","08,5,+01524,5,99,9",,"2,99,1,+00549,5,9","4,99,1,+01524,5,9",,,"9,AGL   ,+99999,+99999","99,99,9,99,9,99,9,00549,1,99,9,99,9",,,"10014,5,09365,5",,,,,,"MET09508/31/23 05:56:02 METAR PAPT 311456Z 19012KT 15SM SCT018 OVC050 08/07 A2957 RMK NO SPECI. FIRST","R01    087TMP046R02    077DPT046"
"70249026526","2023-08-31T16:52:00","7","62.0911","-152.7349","566.3","PUNTILLA, AK US","FM-15","PAPT ","V020","190,5,N,0041,5","01524,5,M,N","011265,5,N,5","+0080,C","+0070,C","99999,9",,,,,,"1,0,02,0,0,1,5","0,0,00,1,0,1,5","10,5","61,5","04,5,+00549,5,99,9","08,5,+01524,5,99,9",,"2,99,1,+00549,5,9","4,99,1,+01524,5,9",,,"9,AGL   ,+99999,+99999","99,99,9,99,9,99,9,00549,1,99,9,99,9",,,"09986,5,09339,5",,"10,1","61,5",,,"MET09508/31/23 07:52:02 METAR PAPT 311652Z 19008KT 7SM -RA BR SCT018 OVC050 08/07 A2949 RMK NO SPECI.","R01    087TMP046R02    077DPT046"
"70249026526","2023-08-31T18:47:00","7","62.0911","-152.7349","566.3","PUNTILLA, AK US","FM-15","PAPT ","V020","170,5,N,0051,5","01524,5,M,N","011265,5,N,5","+0090,C","+0070,C","99999,9",,,,,,,,,,"04,5,+00549,5,99,9","08,5,+01524,5,99,9",,"2,99,1,+00549,5,9","4,99,1,+01524,5,9",,,"9,AGL   ,+99999,+99999","99,99,9,99,9,99,9,00549,1,99,9,99,9",,,"09966,5,09320,5",,,,,,"MET08808/31/23 09:47:02 METAR PAPT 311847Z 17010KT 7SM SCT018 OVC050 09/07 A2943 RMK NO SPECI.","R01    097TMP046R02    077DPT046"
"70249026526","2023-08-31T20:53:00","7","62.0911","-152.7349","566.3","PUNTILLA, AK US","FM-15","PAPT ","V020","190,5,N,0088,5","01524,5,M,N","024140,5,N,5","+0100,C","+0070,C","99999,9",,,,,,,,,,"04,5,+00549,5,99,9","08,5,+01524,5,99,9",,"2,99,1,+00549,5,9","4,99,1,+01524,5,9",,,"9,AGL   ,+99999,+99999","99,99,9,99,9,99,9,00549,1,99,9,99,9",,,"09946,5,09300,5",,,,,,"MET08908/31/23 11:53:02 METAR PAPT 312053Z 19017KT 15SM SCT018 OVC050 10/07 A2937 RMK NO SPECI.","R01    107TMP046R02    077DPT046"
"70249026526","2023-08-31T22:47:00","4","62.0911","-152.7349","566.3","PUNTILLA, AK US","FM-15","99999","V020","180,1,N,0036,1","01676,1,9,N","024140,1,9,9","+0110,1","+0070,1","99999,9",,,,,,,,,,,,,"1,99,1,+00579,1,9","3,99,1,+01676,1,9",,,"9,AGL   ,+99999,+99999","99,99,9,99,9,99,9,00579,1,99,9,99,9","240,M,+0106,1","240,N,+0084,1","09915,1,99999,9",,,,,,"MET088METAR PAPT 312247Z 18007KT 15SM FEW019 BKN055 11/07 A2928 RMK NO SPECI. 401060084 70007=",
"70249026526","2023-09-01T00:50:00","4","62.0911","-152.7349","566.3","PUNTILLA, AK US","FM-15","99999","V020","190,1,N,0051,1","00549,1,9,N","024140,1,9,9","+0100,1","+0080,1","99999,9",,,,,,,,,,,,,"3,99,1,+00549,1,9","3,99,1,+01524,1,9","4,99,1,+02134,1,9",,"9,AGL   ,+99999,+99999","99,99,9,99,9,99,9,00549,1,99,9,99,9",,,"09902,1,99999,9",,,,,,"MET079METAR PAPT 010050Z 19010KT 15SM BKN018 BKN050 OVC070 10/08 A2924 RMK NO SPECI.=",
"70249026526","2023-09-01T02:47:00","4","62.0911","-152.7349","566.3","PUNTILLA, AK US","FM-15","99999","V020","180,1,N,0036,1","00366,1,9,N","008047,1,9,9","+0100,1","+0080,1","99999,9",,,,,,,,,,,,,"3,99,1,+00366,1,9","4,99,1,+01524,1,9",,,"9,AGL   ,+99999,+99999","99,99,9,99,9,99,9,00366,1,99,9,99,9",,,"09895,1,99999,9",,"61,1",,,,"MET080METAR PAPT 010247Z 18007KT 5SM -RA BKN012 OVC050 10/08 A2922 RMK NO SPECI. LAST=",
"70249026526","2023-09-01T08:59:00","O","62.0911","-152.7349","566.3","PUNTILLA, AK US","SOD  ","PAPT ","V020","999,9,9,9999,9","99999,9,9,9","999999,9,9,9","+9999,9","+9999,9","99999,9",,,"AU,16,RA  ,5","AU,13,BR  ,5",,,,,,,,,,,,,,,,,,,,,,,,
"70249026526","2023-09-01T14:52:00","7","62.0911","-152.7349","566.3","PUNTILLA, AK US","FM-15","PAPT ","V020","999,9,C,0000,5","00914,5,M,N","003219,5,N,5","+0060,C","+0060,C","99999,9",,,,,,"0,3,00,2,0,1,5",,"31,5",,"04,5,+00030,5,99,9","07,5,+00914,5,99,9",,"2,99,1,+00030,5,9","3,99,1,+00914,5,9",,,"9,AGL   ,+99999,+99999","99,99,9,99,9,99,9,00030,1,99,9,99,9",,,"09986,5,09339,5",,"11,1",,,,"MET09909/01/23 05:52:02 METAR PAPT 011452Z 00000KT 2SM BCFG SCT001 BKN030 06/06 A2949 RMK NO SPECI. FIRST","R01    067TMP046R02    067DPT046"
"70249026526","2023-09-01T16:56:00","7","62.0911","-152.7349","566.3","PUNTILLA, AK US","FM-15","PAPT ","V020","999,9,C,0000,5","02134,5,M,N","040234,7,N,5","+0070,C","+0070,C","99999,9",,,,,,"0,3,00,2,0,1,5",,"31,5",,"04,5,+00914,5,99,9","07,5,+02134,5,99,9",,"2,99,1,+00914,5,9","3,99,1,+02134,5,9",,,"9,AGL   ,+99999,+99999","99,99,9,99,9,99,9,00914,1,99,9,99,9",,,"10000,5,09352,5",,"11,1",,,,"MET09409/01/23 07:56:02 METAR PAPT 011656Z 00000KT 25SM BCFG SCT030 BKN070 07/07 A2953 RMK NO SPECI.","R01  25SM7VIS011R02    077TMP046R03    077DPT046"
"70249026526","2023-09-01T18:49:00","7","62.0911","-152.7349","566.3","PUNTILLA, AK US","FM-15","PAPT ","V020","999,9,C,0000,5","02134,5,M,N","040234,5,N,5","+0100,C","+0080,C","99999,9",,,,,,,,,,"02,5,+00305,5,99,9","07,5,+02134,5,99,9",,"1,99,1,+00305,5,9","3,99,1,+02134,5,9",,,"9,AGL   ,+99999,+99999","99,99,9,99,9,99,9,00305,1,99,9,99,9",,,"10017,5,09368,5",,,,,,"MET08909/01/23 09:49:02 METAR PAPT 011849Z 00000KT 25SM FEW010 BKN070 10/08 A2958 RMK NO SPECI.","R01    107TMP046R02    087DPT046"
"70249026526","2023-09-01T20:47:00","7","62.0911","-152.7349","566.3","PUNTILLA, AK US","FM-15","PAPT ","V020","040,5,N,0015,5","02134,5,M,N","040234,5,N,5","+0130,C","+0110,C","99999,9",,,,,,,,,,"07,5,+02134,5,99,9",,,"3,99,1,+02134,5,9",,,,"9,AGL   ,+99999,+99999","99,99,9,99,9,99,9,02134,1,99,9,99,9",,,"10030,5,09381,5",,,,,,"MET08209/01/23 11:47:02 METAR PAPT 012047Z 04003KT 25SM BKN070 13/11 A2962 RMK NO SPECI.","R01    137TMP046R02    117DPT046"
"70249026526","2023-09-01T22:47:00","7","62.0911","-152.7349","566.3","PUNTILLA, AK US","FM-15","PAPT ","V020","180,5,N,0026,5","02134,5,M,N","040234,5,N,5","+0150,C","+0080,C","99999,9",,,,,,,,,,"07,5,+02134,5,99,9",,,"3,99,1,+02134,5,9",,,,"9,AGL   ,+99999,+99999","99,99,9,99,9,99,9,02134,1,99,9,99,9","240,M,+0145,1","240,N,+0062,1","10037,5,09387,5",,,,,,"MET09809/01/23 13:47:02 METAR PAPT 012247Z 18005KT 25SM BKN070 15/08 A2964 RMK NO SPECI. 401450062 70005","R01    157TMP046R02    087DPT046"
"70249026526","2023-09-02T00:50:00","7","62.0911","-152.7349","566.3","PUNTILLA, AK US","FM-15","PAPT ","V020","220,5,N,0021,5","02134,5,M,N","040234,5,N,5","+0130,C","+0070,C","99999,9",,,,,,,,,,"07,5,+02134,5,99,9","08,5,+02438,5,99,9",,"3,99,1,+02134,5,9","4,99,1,+02438,5,9",,,"9,AGL   ,+99999,+99999","99,99,9,99,9,99,9,02134,1,99,9,99,9",,,"10037,5,09387,5",,,,,,"MET08909/01/23 15:50:01 METAR PAPT 020050Z 22004KT 25SM BKN070 OVC080 13/07 A2964 RMK NO SPECI.","R01    137TMP046R02    077DPT046"
"70249026526","2023-09-02T02:52:00","7","62.0911","-152.7349","566.3","PUNTILLA, AK US","FM-15","PAPT ","V020","999,9,C,0000,5","01829,5,M,N","040234,5,N,5","+0100,C","+0080,C","99999,9",,,,,,,,,,"02,5,+00762,5,99,9","07,5,+01829,5,99,9","08,5,+02438,5,99,9","1,99,1,+00762,5,9","3,99,1,+01829,5,9","4,99,1,+02438,5,9",,"9,AGL   ,+99999,+99999","99,99,9,99,9,99,9,00762,1,99,9,99,9",,,"10054,5,09403,5",,,,,,"MET10109/01/23 17:52:01 METAR PAPT 020252Z 00000KT 25SM FEW025 BKN060 OVC080 10/08 A2969 RMK NO SPECI. LAST","R01    107TMP046R02    087DPT046"
"70249026526","2023-09-02T08:59:00","O","62.0911","-152.7349","566.3","PUNTILLA, AK US","SOD  ","PAPT ","V020","999,9,9,9999,9","99999,9,9,9","999999,9,9,9","+9999,9","+9999,9","99999,9",,,"AU,01,FG  ,5",,,,,,,,,,,,,,,,,,,,,,,,,
"70249026526","2023-09-02T14:55:00","7","62.0911","-152.7349","566.3","PUNTILLA, AK US","FM-15","PAPT ","V020","999,9,V,0015,5","01981,5,M,N","040234,5,N,5","+0050,C","+0030,C","99999,9",,,,,,,,,,"04,5,+00762,5,99,9","07,5,+01981,5,99,9",,"2,99,1,+00762,5,9","3,99,1,+01981,5,9",,,"9,AGL   ,+99999,+99999","99,99,9,99,9,99,9,00762,1,99,9,99,9",,,"10129,5,09474,5",,,,,,"MET09509/02/23 05:55:02 METAR PAPT 021455Z VRB03KT 25SM SCT025 BKN065 05/03 A2991 RMK NO SPECI. FIRST","R01    057TMP046R02    037DPT046"
"70249026526","2023-09-02T16:49:00","7","62.0911","-152.7349","566.3","PUNTILLA, AK US","FM-15","PAPT ","V020","999,9,V,0015,5","02134,5,M,N","040234,5,N,5","+0060,C","+0050,C","99999,9",,,,,,,,,,"07,5,+02134,5,99,9",,,"3,99,1,+02134,5,9",,,,"9,AGL   ,+99999,+99999","99,99,9,99,9,99,9,02134,1,99,9,99,9",,,"10135,5,09480,5",,,,,,"MET08209/02/23 07:49:02 METAR PAPT 021649Z VRB03KT 25SM BKN070 06/05 A2993 RMK NO SPECI.","R01    067TMP046R02    057DPT046"
"70249026526","2023-09-02T18:56:00","7","62.0911","-152.7349","566.3","PUNTILLA, AK US","FM-15","PAPT ","V020","350,5,N,0015,5","02134,5,M,N","040234,5,N,5","+0100,C","+0050,C","99999,9",,,,,,,,,,"02,5,+00579,5,99,9","02,5,+00762,5,99,9","07,5,+02134,5,99,9","1,99,1,+00579,5,9","1,99,1,+00762,5,9","3,99,1,+02134,5,9",,"9,AGL   ,+99999,+99999","99,99,9,99,9,99,9,00579,1,99,9,99,9",,,"10132,5,09477,5",,,,,,"MET09609/02/23 09:56:02 METAR PAPT 021856Z 35003KT 25SM FEW019 FEW025 BKN070 10/05 A2992 RMK NO SPECI.","R01    107TMP046R02    057DPT046"
"70249026526","2023-09-02T20:51:00","7","62.0911","-152.7349","566.3","PUNTILLA, AK US","FM-15","PAPT ","V020","999,9,V,0015,5","02438,5,M,N","040234,5,N,5","+0120,C","+0070,C","99999,9",,,,,,,,,,"02,5,+00762,5,99,9","02,5,+02134,5,99,9","07,5,+02438,5,99,9","1,99,1,+00762,5,9","1,99,1,+02134,5,9","3,99,1,+02438,5,9",,"9,AGL   ,+99999,+99999","99,99,9,99,9,99,9,00762,1,99,9,99,9",,,"10135,5,09480,5",,,,,,"MET09609/02/23 11:51:02 METAR PAPT 022051Z VRB03KT 25SM FEW025 FEW070 BKN080 12/07 A2993 RMK NO SPECI.","R01    127TMP046R02    077DPT046"
"70249026526","2023-09-02T22:51:00","7","62.0911","-152.7349","566.3","PUNTILLA, AK US","FM-15","PAPT ","V020","210,5,N,0015,5","02438,5,M,N","040234,5,N,5","+0130,C","+0050,C","99999,9",,,,,,,,,,"07,5,+02438,5,99,9",,,"3,99,1,+02438,5,9",,,,"9,AGL   ,+99999,+99999","99,99,9,99,9,99,9,02438,1,99,9,99,9",,,"10129,5,09474,5",,,,,,"MET08209/02/23 13:51:02 METAR PAPT 022251Z 21003KT 25SM BKN080 13/05 A2991 RMK NO SPECI.","R01    137TMP046R02    057DPT046"
"70249026526","2023-09-03T00:50:00","7","62.0911","-152.7349","566.3","PUNTILLA, AK US","FM-15","PAPT ","V020","190,5,N,0026,5","02438,5,M,N","040234,5,N,5","+0120,C","+0060,C","99999,9",,,,,,,,,,"02,5,+00914,5,99,9","08,5,+02438,5,99,9",,"1,99,1,+00914,5,9","4,99,1,+02438,5,9",,,"9,AGL   ,+99999,+99999","99,99,9,99,9,99,9,00914,1,99,9,99,9","240,M,+0128,1","240,N,+0045,1","10125,5,09470,5",,,,,,"MET10509/02/23 15:50:01 METAR PAPT 030050Z 19005KT 25SM FEW030 OVC080 12/06 A2990 RMK NO SPECI. 401280045 70011","R01    127TMP046R02    067DPT046"
"70249026526","2023-09-03T02:52:00","7","62.0911","-152.7349","566.3","PUNTILLA, AK US","FM-15","PAPT ","V020","170,5,N,0026,5","02134,5,M,N","040234,5,N,5","+0110,C","+0070,C","99999,9",,,,,,,,,,"02,5,+00762,5,99,9","08,5,+02134,5,99,9",,"1,99,1,+00762,5,9","4,99,1,+02134,5,9",,,"9,AGL   ,+99999,+99999","99,99,9,99,9,99,9,00762,1,99,9,99,9",,,"10119,5,09464,5",,,,,,"MET09409/02/23 17:52:01 METAR PAPT 030252Z 17005KT 25SM FEW025 OVC070 11/07 A2988 RMK NO SPECI. LAST","R01    117TMP046R02    077DPT046"
"70249026526","2023-09-03T14:56:00","7","62.0911","-152.7349","566.3","PUNTILLA, AK US","FM-15","PAPT ","V020","999,9,V,0015,5","01829,5,M,N","008047,5,N,5","+0070,C","+0070,C","99999,9",,,,,,,,,,"02,5,+00122,5,99,9","04,5,+00305,5,99,9","08,5,+01829,5,99,9","1,99,1,+00122,5,9","2,99,1,+00305,5,9","4,99,1,+01829,5,9",,"9,AGL   ,+99999,+99999","99,99,9,99,9,99,9,00122,1,99,9,99,9",,,"10051,5,09400,5",,,,,,"MET10109/03/23 05:56:02 METAR PAPT 031456Z VRB03KT 5SM FEW004 SCT010 OVC060 07/07 A2968 RMK NO SPECI. FIRST","R01    077TMP046R02    077DPT046"
"70249026526","2023-09-03T16:58:00","7","62.0911","-152.7349","566.3","PUNTILLA, AK US","FM-15","PAPT ","V020","999,9,C,0000,5","01829,5,M,N","011265,5,N,5","+0070,C","+0070,C","99999,9",,,,,,,,,,"02,5,+00122,5,99,9","04,5,+00305,5,99,9","08,5,+01829,5,99,9","1,99,1,+00122,5,9","2,99,1,+00305,5,9","4,99,1,+01829,5,9",,"9,AGL   ,+99999,+99999","99,99,9,99,9,99,9,00122,1,99,9,99,9",,,"10041,5,09390,5",,,,,,"MET09509/03/23 07:58:02 METAR PAPT 031658Z 00000KT 7SM FEW004 SCT010 OVC060 07/07 A2965 RMK NO SPECI.","R01    077TMP046R02    077DPT046"
"70249026526","2023-09-03T18:46:00","7","62.0911","-152.7349","566.3","PUNTILLA, AK US","FM-15","PAPT ","V020","180,5,N,0036,5","00305,5,M,N","024140,5,N,5","+0080,C","+0070,C","99999,9",,,,,,,,,,"07,5,+00305,5,99,9","08,5,+01829,5,99,9",,"3,99,1,+00305,5,9","4,99,1,+01829,5,9",,,"9,AGL   ,+99999,+99999","99,99,9,99,9,99,9,00305,1,99,9,99,9",,,"10037,5,09387,5",,,,,,"MET08909/03/23 09:46:02 METAR PAPT 031846Z 18007KT 15SM BKN010 OVC060 08/07 A2964 RMK NO SPECI.","R01    087TMP046R02    077DPT046"
"70249026526","2023-09-03T20:53:00","7","62.0911","-152.7349","566.3","PUNTILLA, AK US","FM-15","PAPT ","V020","180,5,N,0036,5","00549,5,M,N","011265,5,N,5","+0080,C","+0070,C","99999,9",,,,,,"1,0,02,0,0,1,5",,"61,5",,"07,5,+00549,5,99,9","08,5,+01829,5,99,9",,"3,99,1,+00549,5,9","4,99,1,+01829,5,9",,,"9,AGL   ,+99999,+99999","99,99,9,99,9,99,9,00549,1,99,9,99,9",,,"10041,5,09390,5",,"61,5",,,,"MET09209/03/23 11:53:02 METAR PAPT 032053Z 18007KT 7SM -RA BKN018 OVC060 08/07 A2965 RMK NO SPECI.","R01    087TMP046R02    077DPT046"
"70249026526","2023-09-03T22:45:00","7","62.0911","-152.7349","566.3","PUNTILLA, AK US","FM-15","PAPT ","V020","190,5,N,0026,5","00549,5,M,N","011265,5,N,5","+0080,C","+0070,C","99999,9",,,,,,"1,0,02,0,0,1,5",,"61,5",,"07,5,+00549,5,99,9","08,5,+01829,5,99,9",,"3,99,1,+00549,5,9","4,99,1,+01829,5,9",,,"9,AGL   ,+99999,+99999","99,99,9,99,9,99,9,00549,1,99,9,99,9","240,M,+0117,1","240,N,+0073,1","10041,5,09390,5",,"61,5",,,,"MET10809/03/23 13:45:02 METAR PAPT 032245Z 19005KT 7SM -RA BKN018 OVC060 08/07 A2965 RMK NO SPECI. 401170073 70044","R01    087TMP046R02    077DPT046"
"70249026526","2023-09-04T00:57:00","7","62.0911","-152.7349","566.3","PUNTILLA, AK US","FM-15","PAPT ","V020","180,5,N,0026,5","00549,5,M,N","011265,5,N,5","+0090,C","+0080,C","99999,9",,,,,,"0,0,00,1,0,1,5",,"10,5",,"07,5,+00549,5,99,9","08,5,+01829,5,99,9",,"3,99,1,+00549,5,9","4,99,1,+01829,5,9",,,"9,AGL   ,+99999,+99999","99,99,9,99,9,99,9,00549,1,99,9,99,9",,,"10037,5,09387,5",,"10,1",,,,"MET09109/03/23 15:57:01 METAR PAPT 040057Z 18005KT 7SM BR BKN018 OVC060 09/08 A2964 RMK NO SPECI.","R01    097TMP046R02    087DPT046"
"70249026526","2023-09-04T02:42:00","7","62.0911","-152.7349","566.3","PUNTILLA, AK US","FM-15","PAPT ","V020","999,9,V,0015,5","00457,5,M,N","011265,5,N,5","+0080,C","+0070,C","99999,9",,,,,,"0,0,00,1,0,1,5",,"10,5",,"07,5,+00457,5,99,9","08,5,+00914,5,99,9",,"3,99,1,+00457,5,9","4,99,1,+00914,5,9",,,"9,AGL   ,+99999,+99999","99,99,9,99,9,99,9,00457,1,99,9,99,9",,,"10041,5,09390,5",,"10,1",,,,"MET09609/03/23 17:42:01 METAR PAPT 040242Z VRB03KT 7SM BR BKN015 OVC030 08/07 A2965 RMK NO SPECI. LAST","R01    087TMP046R02    077DPT046"
"70249026526","2023-09-04T08:59:00","O","62.0911","-152.7349","566.3","PUNTILLA, AK US","SOD  ","PAPT ","V020","999,9,9,9999,9","99999,9,9,9","999999,9,9,9","+9999,9","+9999,9","99999,9",,,"AU,16,RA  ,5","AU,13,BR  ,5",,,,,,,,,,,,,,,,,,,,,,,,
"70249026526","2023-09-04T14:56:00","7","62.0911","-152.7349","566.3","PUNTILLA, AK US","FM-15","PAPT ","V020","999,9,V,0015,5","01676,5,M,N","040234,7,N,5","+0060,C","+0060,C","99999,9",,,,,,"0,0,00,1,0,1,5",,"10,5",,"02,5,+00305,5,99,9","08,5,+01676,5,99,9",,"1,99,1,+00305,5,9","4,99,1,+01676,5,9",,,"9,AGL   ,+99999,+99999","99,99,9,99,9,99,9,00305,1,99,9,99,9",,,"10095,5,09442,5",,"10,1",,,,"MET09809/04/23 05:56:02 METAR PAPT 041456Z VRB03KT 25SM BR FEW010 OVC055 06/06 A2981 RMK NO SPECI. FIRST","R01  25SM7VIS011R02    067TMP046R03    067DPT046"
"70249026526","2023-09-04T16:53:00","7","62.0911","-152.7349","566.3","PUNTILLA, AK US","FM-15","PAPT ","V020","999,9,V,0015,5","22000,5,9,N","040234,5,N,5","+0070,C","+0060,C","99999,9",,,,,,,,,,"04,5,+01676,5,99,9",,,"2,99,1,+01676,5,9",,,,"9,AGL   ,+99999,+99999","04,99,5,99,9,99,9,01676,1,99,9,99,9",,,"10102,5,09448,5",,,,,,"MET08209/04/23 07:53:02 METAR PAPT 041653Z VRB03KT 25SM SCT055 07/06 A2983 RMK NO SPECI.","R01    077TMP046R02    067DPT046D01      0ADE726"
"70249026526","2023-09-04T18:52:00","7","62.0911","-152.7349","566.3","PUNTILLA, AK US","FM-15","PAPT ","V020","340,5,N,0036,5","22000,5,9,N","040234,5,N,5","+0110,C","+0090,C","99999,9",,,,,,,,,,"02,5,+00762,5,99,9","04,5,+01676,5,99,9",,"1,99,1,+00762,5,9","2,99,1,+01676,5,9",,,"9,AGL   ,+99999,+99999","04,99,5,99,9,99,9,00762,1,99,9,99,9",,,"10115,5,09461,5",,,,,,"MET08909/04/23 09:52:02 METAR PAPT 041852Z 34007KT 25SM FEW025 SCT055 11/09 A2987 RMK NO SPECI.","R01    117TMP046R02    097DPT046D01      0ADE726"
"70249026526","2023-09-04T20:54:00","7","62.0911","-152.7349","566.3","PUNTILLA, AK US","FM-15","PAPT ","V020","999,9,V,0021,5","01829,5,M,N","040234,5,N,5","+0110,C","+0080,C","99999,9",,,,,,,,,,"02,5,+00914,5,99,9","07,5,+01829,5,99,9",,"1,99,1,+00914,5,9","3,99,1,+01829,5,9",,,"9,AGL   ,+99999,+99999","99,99,9,99,9,99,9,00914,1,99,9,99,9",,,"10125,5,09470,5",,,,,,"MET08909/04/23 11:54:02 METAR PAPT 042054Z VRB04KT 25SM FEW030 BKN060 11/08 A2990 RMK NO SPECI.","R01    117TMP046R02    087DPT046"
"70249026526","2023-09-04T22:43:00","7","62.0911","-152.7349","566.3","PUNTILLA, AK US","FM-15","PAPT ","V020","999,9,V,0026,5","22000,5,9,N","040234,5,N,5","+0140,C","+0080,C","99999,9",,,,,,,,,,"04,5,+01829,5,99,9",,,"2,99,1,+01829,5,9",,,,"9,AGL   ,+99999,+99999","04,99,5,99,9,99,9,01829,1,99,9,99,9","240,M,+0139,1","240,N,+0062,1","10132,5,09477,5",,,,,,"MET09809/04/23 13:43:02 METAR PAPT 042243Z VRB05KT 25SM SCT060 14/08 A2992 RMK NO SPECI. 401390062 70028","R01    147TMP046R02    087DPT046D01      0ADE726"
"70249026526","2023-09-05T00:48:00","7","62.0911","-152.7349","566.3","PUNTILLA, AK US","FM-15","PAPT ","V020","340,5,N,0026,5","22000,5,9,N","040234,5,N,5","+0150,C","+0090,C","99999,9",,,,,,,,,,"04,5,+01829,5,99,9",,,"2,99,1,+01829,5,9",,,,"9,AGL   ,+99999,+99999","04,99,5,99,9,99,9,01829,1,99,9,99,9",,,"10135,5,09480,5",,,,,,"MET08209/04/23 15:48:01 METAR PAPT 050048Z 34005KT 25SM SCT060 15/09 A2993 RMK NO SPECI.","R01    157TMP046R02    097DPT046D01      0ADE726"
"70249026526","2023-09-05T02:50:00","7","62.0911","-152.7349","566.3","PUNTILLA, AK US","FM-15","PAPT ","V020","340,5,N,0026,5","22000,5,9,N","040234,5,N,5","+0140,C","+0090,C","99999,9",,,,,,,,,,"00,5,+99999,9,99,9",,,"0,99,1,+99999,9,9",,,,,"00,99,1,99,9,99,9,99999,9,99,9,99,9",,,"10132,5,09477,5",,,,,,"MET08409/04/23 17:50:02 METAR PAPT 050250Z 34005KT 25SM CLR 14/09 A2992 RMK NO SPECI. LAST","R01    147TMP046R02    097DPT046"
"70249026526","2023-09-05T08:59:00","O","62.0911","-152.7349","566.3","PUNTILLA, AK US","SOD  ","PAPT ","V020","999,9,9,9999,9","99999,9,9,9","999999,9,9,9","+9999,9","+9999,9","99999,9",,,"AU,13,BR  ,5",,,,,,,,,,,,,,,,,,,,,,,,,
"70249026526","2023-09-05T14:58:00","7","62.0911","-152.7349","566.3","PUNTILLA, AK US","FM-15","PAPT ","V020","999,9,C,0000,5","00488,5,M,N","040234,5,N,5","+0050,C","+0040,C","99999,9",,,,,,,,,,"08,5,+00488,5,99,9",,,"4,99,1,+00488,5,9",,,,"9,AGL   ,+99999,+99999","99,99,9,99,9,99,9,00488,1,99,9,99,9",,,"10122,5,09467,5",,,,,,"MET08809/05/23 05:58:02 METAR PAPT 051458Z 00000KT 25SM OVC016 05/04 A2989 RMK NO SPECI. FIRST","R01    057TMP046R02    047DPT046"
"70249026526","2023-09-05T16:54:00","7","62.0911","-152.7349","566.3","PUNTILLA, AK US","FM-15","PAPT ","V020","999,9,C,0000,5","00061,5,M,N","003219,5,N,5","+0060,C","+0060,C","99999,9",,,,,,"0,3,00,2,0,1,5",,"31,5",,"08,5,+00061,5,99,9",,,"4,99,1,+00061,5,9",,,,"9,AGL   ,+99999,+99999","99,99,9,99,9,99,9,00061,1,99,9,99,9",,,"10115,5,09461,5",,"11,1",,,,"MET08609/05/23 07:54:02 METAR PAPT 051654Z 00000KT 2SM BCFG OVC002 06/06 A2987 RMK NO SPECI.","R01    067TMP046R02    067DPT046"
"70249026526","2023-09-05T18:46:00","7","62.0911","-152.7349","566.3","PUNTILLA, AK US","FM-15","PAPT ","V020","999,9,V,0015,5","99999,9,9,N","000805,5,N,5","+0070,5","+0070,5","99999,9",,,,,,"0,0,00,2,0,1,5",,"30,5",,,,,,,,,,,,,"10105,5,09451,5",,"44,1",,,,"MET07809/05/23 09:46:02 METAR PAPT 051846Z VRB03KT 1/2SM FG V/V0 A2984 RMK NO SPECI.","R01      7SKY009R02      7GAS009D01      0ADE693D02      0ADE539"
"70249026526","2023-09-05T20:49:00","7","62.0911","-152.7349","566.3","PUNTILLA, AK US","FM-15","PAPT ","V020","170,5,N,0026,5","00152,5,M,N","004828,5,N,5","+0080,C","+0080,C","99999,9",,,,,,,,,,"08,5,+00152,5,99,9",,,"4,99,1,+00152,5,9",,,,"9,AGL   ,+99999,+99999","99,99,9,99,9,99,9,00152,1,99,9,99,9",,,"10095,5,09442,5",,,,,,"MET08109/05/23 11:49:02 METAR PAPT 052049Z 17005KT 3SM OVC005 08/08 A2981 RMK NO SPECI.","R01    087TMP046R02    087DPT046"
"70249026526","2023-09-05T22:54:00","7","62.0911","-152.7349","566.3","PUNTILLA, AK US","FM-15","PAPT ","V020","170,5,N,0026,5","00305,5,M,N","011265,5,N,5","+0090,C","+0080,C","99999,9",,,,,,,,,,"08,5,+00305,5,99,9",,,"4,99,1,+00305,5,9",,,,"9,AGL   ,+99999,+99999","99,99,9,99,9,99,9,00305,1,99,9,99,9","240,M,+0151,1","240,N,+0051,1","10081,5,09429,5",,,,,,"MET09709/05/23 13:54:02 METAR PAPT 052254Z 17005KT 7SM OVC010 09/08 A2977 RMK NO SPECI. 401510051 70002","R01    097TMP046R02    087DPT046"
"70249026526","2023-09-06T00:55:00","7","62.0911","-152.7349","566.3","PUNTILLA, AK US","FM-15","PAPT ","V020","180,5,N,0036,5","00305,5,M,N","011265,5,N,5","+0090,C","+0080,C","99999,9",,,,,,"1,0,02,0,0,1,5",,"61,5",,"08,5,+00305,5,99,9",,,"4,99,1,+00305,5,9",,,,"9,AGL   ,+99999,+99999","99,99,9,99,9,99,9,00305,1,99,9,99,9",,,"10068,5,09416,5",,"61,5",,,,"MET08509/05/23 15:55:01 METAR PAPT 060055Z 18007KT 7SM -RA OVC010 09/08 A2973 RMK NO SPECI.","R01    097TMP046R02    087DPT046"
"70249026526","2023-09-06T02:46:00","7","62.0911","-152.7349","566.3","PUNTILLA, AK US","FM-15","PAPT ","V020","999,9,C,0000,5","00305,5,M,N","011265,5,N,5","+0080,C","+0070,C","99999,9",,,,,,,,,,"07,5,+00305,5,99,9","08,5,+00914,5,99,9",,"3,99,1,+00305,5,9","4,99,1,+00914,5,9",,,"9,AGL   ,+99999,+99999","99,99,9,99,9,99,9,00305,1,99,9,99,9",,,"10061,5,09409,5",,,,,,"MET09309/05/23 17:46:01 METAR PAPT 060246Z 00000KT 7SM BKN010 OVC030 08/07 A2971 RMK NO SPECI. LAST","R01    087TMP046R02    077DPT046"
"70249026526","2023-09-06T08:59:00","O","62.0911","-152.7349","566.3","PUNTILLA, AK US","SOD  ","PAPT ","V020","999,9,9,9999,9","99999,9,9,9","999999,9,9,9","+9999,9","+9999,9","99999,9",,,"AU,16,RA  ,5","AU,01,FG  ,5",,,,,,,,,,,,,,,,,,,,,,,,
"70249026526","2023-09-06T14:54:00","7","62.0911","-152.7349","566.3","PUNTILLA, AK US","FM-15","PAPT ","V020","999,9,V,0015,5","01676,5,M,N","011265,5,N,5","+0060,C","+0060,C","99999,9",,,,,,,,,,"02,5,+00152,5,99,9","02,5,+00305,5,99,9","07,5,+01676,5,99,9","1,99,1,+00152,5,9","1,99,1,+00305,5,9","3,99,1,+01676,5,9",,"9,AGL   ,+99999,+99999","99,99,9,99,9,99,9,00152,1,99,9,99,9",,,"10020,5,09371,5",,,,,,"MET10109/06/23 05:54:02 METAR PAPT 061454Z VRB03KT 7SM FEW005 FEW010 BKN055 06/06 A2959 RMK NO SPECI. FIRST","R01    067TMP046R02    067DPT046"
"70249026526","2023-09-06T16:41:00","7","62.0911","-152.7349","566.3","PUNTILLA, AK US","FM-15","PAPT ","V020","360,5,N,0026,5","01676,5,M,N","040234,5,N,5","+0050,C","+0050,C","99999,9",,,,,,,,,,"02,5,+00152,5,99,9","02,5,+00305,5,99,9","07,5,+01676,5,99,9","1,99,1,+00152,5,9","1,99,1,+00305,5,9","3,99,1,+01676,5,9",,"9,AGL   ,+99999,+99999","99,99,9,99,9,99,9,00152,1,99,9,99,9",,,"10017,5,09368,5",,,,,,"MET09609/06/23 07:41:02 METAR PAPT 061641Z 36005KT 25SM FEW005 FEW010 BKN055 05/05 A2958 RMK NO SPECI.","R01    057TMP046R02    057DPT046"
"70249026526","2023-09-06T18:57:00","7","62.0911","-152.7349","566.3","PUNTILLA, AK US","FM-15","PAPT ","V020","360,5,N,0026,5","01829,5,M,N","040234,5,N,5","+0070,C","+0060,C","99999,9",,,,,,,,,,"02,5,+01524,5,99,9","08,5,+01829,5,99,9",,"1,99,1,+01524,5,9","4,99,1,+01829,5,9",,,"9,AGL   ,+99999,+99999","99,99,9,99,9,99,9,01524,1,99,9,99,9",,,"10017,5,09368,5",,,,,,"MET08909/06/23 09:57:02 METAR PAPT 061857Z 36005KT 25SM FEW050 OVC060 07/06 A2958 RMK NO SPECI.","R01    077TMP046R02    067DPT046"
"70249026526","2023-09-06T20:41:00","7","62.0911","-152.7349","566.3","PUNTILLA, AK US","FM-15","PAPT ","V020","999,9,V,0015,5","00914,5,M,N","040234,7,N,5","+0070,C","+0060,C","99999,9",,,,,,,,,,"08,5,+00914,5,99,9",,,"4,99,1,+00914,5,9",,,,"9,AGL   ,+99999,+99999","99,99,9,99,9,99,9,00914,1,99,9,99,9",,,"10027,5,09377,5","02,5","16,1",,,,"MET08709/06/23 11:41:02 METAR PAPT 062041Z VRB03KT 25SM VCSH OVC030 07/06 A2961 RMK NO SPECI.","R01  25SM7VIS011R02    077TMP046R03    067DPT046"
"70249026526","2023-09-06T22:59:00","7","62.0911","-152.7349","566.3","PUNTILLA, AK US","FM-15","PAPT ","V020","999,9,V,0015,5","01524,5,M,N","040234,7,N,5","+0090,C","+0060,C","99999,9",,,,,,,,,,"08,5,+01524,5,99,9",,,"4,99,1,+01524,5,9",,,,"9,AGL   ,+99999,+99999","99,99,9,99,9,99,9,01524,1,99,9,99,9","240,M,+0089,1","240,N,+0051,1","10024,5,09374,5","02,5","16,1",,,,"MET10309/06/23 13:59:02 METAR PAPT 062259Z VRB03KT 25SM VCSH OVC050 09/06 A2960 RMK NO SPECI. 400890051 70005","R01  25SM7VIS011R02    097TMP046R03    067DPT046"
"70249026526","2023-09-07T00:49:00","7","62.0911","-152.7349","566.3","PUNTILLA, AK US","FM-15","PAPT ","V020","999,9,V,0015,5","01524,5,M,N","040234,5,N,5","+0120,C","+0060,C","99999,9",,,,,,,,,,"07,5,+01524,5,99,9",,,"3,99,1,+01524,5,9",,,,"9,AGL   ,+99999,+99999","99,99,9,99,9,99,9,01524,1,99,9,99,9",,,"10017,5,09368,5",,,,,,"MET08209/06/23 15:49:01 METAR PAPT 070049Z VRB03KT 25SM BKN050 12/06 A2958 RMK NO SPECI.","R01    127TMP046R02    067DPT046"
"70249026526","2023-09-07T02:55:00","7","62.0911","-152.7349","566.3","PUNTILLA, AK US","FM-15","PAPT ","V020","999,9,V,0015,5","22000,5,9,N","040234,5,N,5","+0100,C","+0060,C","99999,9",,,,,,,,,,"04,5,+01524,5,99,9",,,"2,99,1,+01524,5,9",,,,"9,AGL   ,+99999,+99999","04,99,5,99,9,99,9,01524,1,99,9,99,9",,,"10017,5,09368,5",,,,,,"MET08709/06/23 17:55:01 METAR PAPT 070255Z VRB03KT 25SM SCT050 10/06 A2958 RMK NO SPECI. LAST","R01    107TMP046R02    067DPT046D01      0ADE726"
"70249026526","2023-09-07T14:58:00","7","62.0911","-152.7349","566.3","PUNTILLA, AK US","FM-15","PAPT ","V020","999,9,C,0000,5","01524,5,M,N","040234,5,N,5","+0020,C","+0010,C","99999,9",,,,,,,,,,"02,5,+00914,5,99,9","07,5,+01524,5,99,9",,"1,99,1,+00914,5,9","3,99,1,+01524,5,9",,,"9,AGL   ,+99999,+99999","99,99,9,99,9,99,9,00914,1,99,9,99,9",,,"10041,5,09390,5",,,,,,"MET09509/07/23 05:58:02 METAR PAPT 071458Z 00000KT 25SM FEW030 BKN050 02/01 A2965 RMK NO SPECI. FIRST","R01    027TMP046R02    017DPT046"
"70249026526","2023-09-07T16:58:00","7","62.0911","-152.7349","566.3","PUNTILLA, AK US","FM-15","PAPT ","V020","999,9,C,0000,5","22000,5,9,N","040234,5,N,5","+0020,C","+0020,C","99999,9",,,,,,,,,,"04,5,+01219,5,99,9",,,"2,99,1,+01219,5,9",,,,"9,AGL   ,+99999,+99999","04,99,5,99,9,99,9,01219,1,99,9,99,9",,,"10047,5,09397,5",,,,,,"MET08209/07/23 07:58:02 METAR PAPT 071658Z 00000KT 25SM SCT040 02/02 A2967 RMK NO SPECI.","R01    027TMP046R02    027DPT046D01      0ADE726"
"70249026526","2023-09-07T18:49:00","7","62.0911","-152.7349","566.3","PUNTILLA, AK US","FM-15","PAPT ","V020","999,9,C,0000,5","01829,5,M,N","040234,5,N,5","+0060,C","+0040,C","99999,9",,,,,,,,,,"07,5,+01829,5,99,9",,,"3,99,1,+01829,5,9",,,,"9,AGL   ,+99999,+99999","99,99,9,99,9,99,9,01829,1,99,9,99,9",,,"10047,5,09397,5",,,,,,"MET08209/07/23 09:49:02 METAR PAPT 071849Z 00000KT 25SM BKN060 06/04 A2967 RMK NO SPECI.","R01    067TMP046R02    047DPT046"
"70249026526","2023-09-07T20:54:00","7","62.0911","-152.7349","566.3","PUNTILLA, AK US","FM-15","PAPT ","V020","999,9,V,0015,5","01219,5,M,N","040234,5,N,5","+0080,C","+0040,C","99999,9",,,,,,,,,,"07,5,+01219,5,99,9",,,"3,99,1,+01219,5,9",,,,"9,AGL   ,+99999,+99999","99,99,9,99,9,99,9,01219,1,99,9,99,9",,,"10051,5,09400,5",,,,,,"MET08209/07/23 11:54:02 METAR PAPT 072054Z VRB03KT 25SM BKN040 08/04 A2968 RMK NO SPECI.","R01    087TMP046R02    047DPT046"
"70249026526","2023-09-07T22:58:00","7","62.0911","-152.7349","566.3","PUNTILLA, AK US","FM-15","PAPT ","V020","999,9,V,0015,5","01219,5,M,N","040234,5,N,5","+0100,C","+0060,C","99999,9",,,,,,,,,,"07,5,+01219,5,99,9",,,"3,99,1,+01219,5,9",,,,"9,AGL   ,+99999,+99999","99,99,9,99,9,99,9,01219,1,99,9,99,9","240,M,+0117,1","240,N,+0017,1","10047,5,09397,5",,,,,,"MET09809/07/23 13:58:02 METAR PAPT 072258Z VRB03KT 25SM BKN040 10/06 A2967 RMK NO SPECI. 401170017 70000","R01    107TMP046R02    067DPT046"
"70249026526","2023-09-08T00:44:00","7","62.0911","-152.7349","566.3","PUNTILLA, AK US","FM-15","PAPT ","V020","999,9,V,0015,5","01219,5,M,N","040234,7,N,5","+0070,C","+0040,C","99999,9",,,,,,,,,,"08,5,+01219,5,99,9",,,"4,99,1,+01219,5,9",,,,"9,AGL   ,+99999,+99999","99,99,9,99,9,99,9,01219,1,99,9,99,9",,,"10054,5,09403,5","02,5","16,1",,,,"MET08709/07/23 15:44:01 METAR PAPT 080044Z VRB03KT 25SM VCSH OVC040 07/04 A2969 RMK NO SPECI.","R01  25SM7VIS011R02    077TMP046R03    047DPT046"
"70249026526","2023-09-08T02:49:00","7","62.0911","-152.7349","566.3","PUNTILLA, AK US","FM-15","PAPT ","V020","340,5,N,0026,5","22000,5,9,N","040234,5,N,5","+0080,C","+0060,C","99999,9",,,,,,,,,,"02,5,+00914,5,99,9","04,5,+01524,5,99,9",,"1,99,1,+00914,5,9","2,99,1,+01524,5,9",,,"9,AGL   ,+99999,+99999","04,99,5,99,9,99,9,00914,1,99,9,99,9",,,"10061,5,09409,5",,,,,,"MET09409/07/23 17:49:01 METAR PAPT 080249Z 34005KT 25SM FEW030 SCT050 08/06 A2971 RMK NO SPECI. LAST","R01    087TMP046R02    067DPT046D01      0ADE726"
"70249026526","2023-09-08T14:55:00","7","62.0911","-152.7349","566.3","PUNTILLA, AK US","FM-15","PAPT ","V020","999,9,C,0000,5","01219,5,M,N","040234,5,N,5","+0010,C","+0010,C","99999,9",,,,,,,,,,"02,5,+00914,5,99,9","07,5,+01219,5,99,9",,"1,99,1,+00914,5,9","3,99,1,+01219,5,9",,,"9,AGL   ,+99999,+99999","99,99,9,99,9,99,9,00914,1,99,9,99,9",,,"10098,5,09445,5",,,,,,"MET09509/08/23 05:55:02 METAR PAPT 081455Z 00000KT 25SM FEW030 BKN040 01/01 A2982 RMK NO SPECI. FIRST","R01    017TMP046R02    017DPT046"
"70249026526","2023-09-08T16:51:00","7","62.0911","-152.7349","566.3","PUNTILLA, AK US","FM-15","PAPT ","V020","999,9,C,0000,5","22000,5,9,N","040234,5,N,5","+0020,C","+0010,C","99999,9",,,,,,,,,,"02,5,+01219,5,99,9",,,"1,99,1,+01219,5,9",,,,"9,AGL   ,+99999,+99999","02,99,5,99,9,99,9,01219,1,99,9,99,9",,,"10098,5,09445,5",,,,,,"MET08209/08/23 07:51:02 METAR PAPT 081651Z 00000KT 25SM FEW040 02/01 A2982 RMK NO SPECI.","R01    027TMP046R02    017DPT046D01      0ADE726"
"70249026526","2023-09-08T18:40:00","7","62.0911","-152.7349","566.3","PUNTILLA, AK US","FM-15","PAPT ","V020","160,5,N,0021,5","02134,5,M,N","040234,5,N,5","+0060,5","+0040,5","99999,9",,,,,,,,,,"07,5,+02134,5,99,9",,,"3,99,1,+02134,5,9",,,,"9,AGL   ,+99999,+99999","99,99,9,99,9,99,9,02134,1,99,9,99,9",,,"10098,5,09445,5",,,,,,"MET08209/08/23 09:40:02 METAR PAPT 081840Z 16004KT 25SM BKN070 06/04 A2982 RMK NO SPECI.",
"70249026526","2023-09-08T20:46:00","7","62.0911","-152.7349","566.3","PUNTILLA, AK US","FM-15","PAPT ","V020","230,5,N,0015,5","02134,5,M,N","040234,5,N,5","+0090,C","+0060,C","99999,9",,,,,,,,,,"07,5,+02134,5,99,9",,,"3,99,1,+02134,5,9",,,,"9,AGL   ,+99999,+99999","99,99,9,99,9,99,9,02134,1,99,9,99,9",,,"10088,5,09435,5",,,,,,"MET08209/08/23 11:46:02 METAR PAPT 082046Z 23003KT 25SM BKN070 09/06 A2979 RMK NO SPECI.","R01    097TMP046R02    067DPT046"
"70249026526","2023-09-08T22:45:00","7","62.0911","-152.7349","566.3","PUNTILLA, AK US","FM-15","PAPT ","V020","210,5,N,0031,5","02134,5,M,N","040234,5,N,5","+0110,C","+0070,C","99999,9",,,,,,,,,,"07,5,+02134,5,99,9",,,"3,99,1,+02134,5,9",,,,"9,AGL   ,+99999,+99999","99,99,9,99,9,99,9,02134,1,99,9,99,9","240,M,+0106,1","240,N,+0012,1","10078,5,09425,5",,,,,,"MET09809/08/23 13:45:02 METAR PAPT 082245Z 21006KT 25SM BKN070 11/07 A2976 RMK NO SPECI. 401060012 70002","R01    117TMP046R02    077DPT046"
"70249026526","2023-09-09T00:54:00","7","62.0911","-152.7349","566.3","PUNTILLA, AK US","FM-15","PAPT ","V020","200,5,N,0031,5","01524,5,M,N","040234,5,N,5","+0100,C","+0070,C","99999,9",,,,,,,,,,"07,5,+01524,5,99,9",,,"3,99,1,+01524,5,9",,,,"9,AGL   ,+99999,+99999","99,99,9,99,9,99,9,01524,1,99,9,99,9",,,"10071,5,09419,5",,,,,,"MET08209/08/23 15:54:01 METAR PAPT 090054Z 20006KT 25SM BKN050 10/07 A2974 RMK NO SPECI.","R01    107TMP046R02    077DPT046"
"70249026526","2023-09-09T02:40:00","7","62.0911","-152.7349","566.3","PUNTILLA, AK US","FM-15","PAPT ","V020","190,5,N,0021,5","03048,5,M,N","040234,5,N,5","+0110,5","+0060,5","99999,9",,,,,,,,,,"04,5,+02134,5,99,9","07,5,+03048,5,99,9",,"2,99,1,+02134,5,9","3,99,1,+03048,5,9",,,"9,AGL   ,+99999,+99999","99,99,9,99,9,99,9,02134,1,99,9,99,9",,,"10061,5,09409,5",,,,,,"MET09409/08/23 17:40:01 METAR PAPT 090240Z 19004KT 25SM SCT070 BKN100 11/06 A2971 RMK NO SPECI. LAST",
"70249026526","2023-09-09T14:57:00","7","62.0911","-152.7349","566.3","PUNTILLA, AK US","FM-15","PAPT ","V020","999,9,V,0015,5","00914,5,M,N","011265,5,N,5","+0050,C","+0050,C","99999,9",,,,,,"2,0,02,0,0,1,5",,"62,5",,"08,5,+00914,5,99,9",,,"4,99,1,+00914,5,9",,,,"9,AGL   ,+99999,+99999","99,99,9,99,9,99,9,00914,1,99,9,99,9",,,"10003,5,09355,5",,"63,1","65,5",,,"MET09009/09/23 05:57:02 METAR PAPT 091457Z VRB03KT 7SM RA OVC030 05/05 A2954 RMK NO SPECI. FIRST","R01    057TMP046R02    057DPT046"
"70249026526","2023-09-09T16:57:00","7","62.0911","-152.7349","566.3","PUNTILLA, AK US","FM-15","PAPT ","V020","999,9,C,0000,5","00914,5,M,N","011265,5,N,5","+0050,C","+0050,C","99999,9",,,,,,"2,0,02,0,0,1,5",,"62,5",,"08,5,+00914,5,99,9",,,"4,99,1,+00914,5,9",,,,"9,AGL   ,+99999,+99999","99,99,9,99,9,99,9,00914,1,99,9,99,9",,,"10003,5,09355,5",,"63,1","65,5",,,"MET08409/09/23 07:57:02 METAR PAPT 091657Z 00000KT 7SM RA OVC030 05/05 A2954 RMK NO SPECI.","R01    057TMP046R02    057DPT046"
"70249026526","2023-09-09T18:50:00","7","62.0911","-152.7349","566.3","PUNTILLA, AK US","FM-15","PAPT ","V020","999,9,C,0000,5","00914,5,M,N","011265,5,N,5","+0070,C","+0070,C","99999,9",,,,,,"1,0,02,0,0,1,5",,"61,5",,"02,5,+00305,5,99,9","08,5,+00914,5,99,9",,"1,99,1,+00305,5,9","4,99,1,+00914,5,9",,,"9,AGL   ,+99999,+99999","99,99,9,99,9,99,9,00305,1,99,9,99,9",,,"10010,5,09361,5",,"61,5",,,,"MET09209/09/23 09:50:02 METAR PAPT 091850Z 00000KT 7SM -RA FEW010 OVC030 07/07 A2956 RMK NO SPECI.","R01    077TMP046R02    077DPT046"
"70249026526","2023-09-09T20:51:00","7","62.0911","-152.7349","566.3","PUNTILLA, AK US","FM-15","PAPT ","V020","180,5,N,0026,5","00305,5,M,N","008047,5,N,5","+0060,C","+0060,C","99999,9",,,,,,"0,0,00,1,0,1,5",,"10,5",,"08,5,+00305,5,99,9",,,"4,99,1,+00305,5,9",,,,"9,AGL   ,+99999,+99999","99,99,9,99,9,99,9,00305,1,99,9,99,9",,,"10017,5,09368,5",,"10,1",,,,"MET08409/09/23 11:51:02 METAR PAPT 092051Z 18005KT 5SM BR OVC010 06/06 A2958 RMK NO SPECI.","R01    067TMP046R02    067DPT046"
"70249026526","2023-09-09T22:52:00","7","62.0911","-152.7349","566.3","PUNTILLA, AK US","FM-15","PAPT ","V020","190,5,N,0041,5","00762,5,M,N","024140,5,N,5","+0070,C","+0070,C","99999,9",,,,,,,,,,"07,5,+00762,5,99,9","08,5,+01829,5,99,9",,"3,99,1,+00762,5,9","4,99,1,+01829,5,9",,,"9,AGL   ,+99999,+99999","99,99,9,99,9,99,9,00762,1,99,9,99,9",,,"10020,5,09371,5",,,,,,"MET08909/09/23 13:52:02 METAR PAPT 092252Z 19008KT 15SM BKN025 OVC060 07/07 A2959 RMK NO SPECI.","R01    077TMP046R02    077DPT046"
"70249026526","2023-09-10T00:45:00","7","62.0911","-152.7349","566.3","PUNTILLA, AK US","FM-15","PAPT ","V020","190,5,N,0041,5","00914,5,M,N","040234,5,N,5","+0080,C","+0070,C","99999,9",,,,,,,,,,"07,5,+00914,5,99,9",,,"3,99,1,+00914,5,9",,,,"9,AGL   ,+99999,+99999","99,99,9,99,9,99,9,00914,1,99,9,99,9",,,"10020,5,09371,5",,,,,,"MET08209/09/23 15:45:01 METAR PAPT 100045Z 19008KT 25SM BKN030 08/07 A2959 RMK NO SPECI.","R01    087TMP046R02    077DPT046"
"70249026526","2023-09-10T02:56:00","7","62.0911","-152.7349","566.3","PUNTILLA, AK US","FM-15","PAPT ","V020","190,5,N,0041,5","00914,5,M,N","040234,5,N,5","+0070,C","+0050,C","99999,9",,,,,,,,,,"07,5,+00914,5,99,9",,,"3,99,1,+00914,5,9",,,,"9,AGL   ,+99999,+99999","99,99,9,99,9,99,9,00914,1,99,9,99,9",,,"10027,5,09377,5",,,,,,"MET08709/09/23 17:56:02 METAR PAPT 100256Z 19008KT 25SM BKN030 07/05 A2961 RMK NO SPECI. LAST","R01    077TMP046R02    057DPT046"
"70249026526","2023-09-10T08:59:00","O","62.0911","-152.7349","566.3","PUNTILLA, AK US","SOD  ","PAPT ","V020","999,9,9,9999,9","99999,9,9,9","999999,9,9,9","+9999,9","+9999,9","99999,9",,,"AU,16,RA  ,5","AU,13,BR  ,5",,,,,,,,,,,,,,,,,,,,,,,,
"70249026526","2023-09-10T14:57:00","7","62.0911","-152.7349","566.3","PUNTILLA, AK US","FM-15","PAPT ","V020","999,9,C,0000,5","00914,5,M,N","024140,5,N,5","+0040,C","+0040,C","99999,9",,,,,,,,,,"08,5,+00914,5,99,9",,,"4,99,1,+00914,5,9",,,,"9,AGL   ,+99999,+99999","99,99,9,99,9,99,9,00914,1,99,9,99,9",,,"10047,5,09397,5",,,,,,"MET08809/10/23 05:57:02 METAR PAPT 101457Z 00000KT 15SM OVC030 04/04 A2967 RMK NO SPECI. FIRST","R01    047TMP046R02    047DPT046"
"70249026526","2023-09-10T16:49:00","7","62.0911","-152.7349","566.3","PUNTILLA, AK US","FM-15","PAPT ","V020","999,9,C,0000,5","00914,5,M,N","016093,5,N,5","+0040,C","+0040,C","99999,9",,,,,,,,,,"02,5,+00305,5,99,9","07,5,+00914,5,99,9",,"1,99,1,+00305,5,9","3,99,1,+00914,5,9",,,"9,AGL   ,+99999,+99999","99,99,9,99,9,99,9,00305,1,99,9,99,9",,,"10044,5,09393,5",,,,,,"MET08909/10/23 07:49:02 METAR PAPT 101649Z 00000KT 10SM FEW010 BKN030 04/04 A2966 RMK NO SPECI.","R01    047TMP046R02    047DPT046"
"70249026526","2023-09-10T18:51:00","7","62.0911","-152.7349","566.3","PUNTILLA, AK US","FM-15","PAPT ","V020","180,5,N,0015,5","00853,5,M,N","016093,5,N,5","+0070,C","+0060,C","99999,9",,,,,,,,,,"07,5,+00853,5,99,9",,,"3,99,1,+00853,5,9",,,,"9,AGL   ,+99999,+99999","99,99,9,99,9,99,9,00853,1,99,9,99,9",,,"10041,5,09390,5",,,,,,"MET08209/10/23 09:51:02 METAR PAPT 101851Z 18003KT 10SM BKN028 07/06 A2965 RMK NO SPECI.","R01    077TMP046R02    067DPT046"
"70249026526","2023-09-10T20:52:00","7","62.0911","-152.7349","566.3","PUNTILLA, AK US","FM-15","PAPT ","V020","999,9,V,0015,5","00853,5,M,N","024140,7,N,5","+0070,C","+0050,C","99999,9",,,,,,"0,0,00,1,0,1,5",,"10,5",,"07,5,+00853,5,99,9",,,"3,99,1,+00853,5,9",,,,"9,AGL   ,+99999,+99999","99,99,9,99,9,99,9,00853,1,99,9,99,9",,,"10034,5,09384,5",,"10,1",,,,"MET08509/10/23 11:52:02 METAR PAPT 102052Z VRB03KT 15SM BR BKN028 07/05 A2963 RMK NO SPECI.","R01  15SM7VIS011R02    077TMP046R03    057DPT046"
"70249026526","2023-09-10T22:54:00","7","62.0911","-152.7349","566.3","PUNTILLA, AK US","FM-15","PAPT ","V020","999,9,V,0015,5","22000,5,9,N","024140,5,N,5","+0110,C","+0060,C","99999,9",,,,,,,,,,"04,5,+00975,5,99,9",,,"2,99,1,+00975,5,9",,,,"9,AGL   ,+99999,+99999","04,99,5,99,9,99,9,00975,1,99,9,99,9","240,M,+0106,1","240,N,+0039,1","10020,5,09371,5",,,,,,"MET09809/10/23 13:54:02 METAR PAPT 102254Z VRB03KT 15SM SCT032 11/06 A2959 RMK NO SPECI. 401060039 70000","R01    117TMP046R02    067DPT046D01      0ADE726"
"70249026526","2023-09-11T00:48:00","7","62.0911","-152.7349","566.3","PUNTILLA, AK US","FM-15","PAPT ","V020","999,9,V,0015,5","02438,5,M,N","040234,5,N,5","+0100,C","+0060,C","99999,9",,,,,,,,,,"04,5,+01067,5,99,9","08,5,+02438,5,99,9",,"2,99,1,+01067,5,9","4,99,1,+02438,5,9",,,"9,AGL   ,+99999,+99999","99,99,9,99,9,99,9,01067,1,99,9,99,9",,,"10007,5,09358,5",,,,,,"MET08909/10/23 15:48:01 METAR PAPT 110048Z VRB03KT 25SM SCT035 OVC080 10/06 A2955 RMK NO SPECI.","R01    107TMP046R02    067DPT046"
"70249026526","2023-09-11T02:50:00","7","62.0911","-152.7349","566.3","PUNTILLA, AK US","FM-15","PAPT ","V020","230,5,N,0026,5","02438,5,M,N","040234,5,N,5","+0080,C","+0050,C","99999,9",,,,,,,,,,"02,5,+01158,5,99,9","08,5,+02438,5,99,9",,"1,99,1,+01158,5,9","4,99,1,+02438,5,9",,,"9,AGL   ,+99999,+99999","99,99,9,99,9,99,9,01158,1,99,9,99,9",,,"09997,5,09348,5",,,,,,"MET09409/10/23 17:50:01 METAR PAPT 110250Z 23005KT 25SM FEW038 OVC080 08/05 A2952 RMK NO SPECI. LAST","R01    087TMP046R02    057DPT046"
"70249026526","2023-09-11T08:59:00","O","62.0911","-152.7349","566.3","PUNTILLA, AK US","SOD  ","PAPT ","V020","999,9,9,9999,9","99999,9,9,9","999999,9,9,9","+9999,9","+9999,9","99999,9",,,"AU,13,BR  ,5",,,,,,,,,,,,,,,,,,,,,,,,,
"70249026526","2023-09-11T14:52:00","7","62.0911","-152.7349","566.3","PUNTILLA, AK US","FM-15","PAPT ","V020","350,5,N,0021,5","00914,5,M,N","040234,5,N,5","+0050,C","+0030,C","99999,9",,,,,,,,,,"07,5,+00914,5,99,9",,,"3,99,1,+00914,5,9",,,,"9,AGL   ,+99999,+99999","99,99,9,99,9,99,9,00914,1,99,9,99,9",,,"09980,5,09332,5",,,,,,"MET08809/11/23 05:52:02 METAR PAPT 111452Z 35004KT 25SM BKN030 05/03 A2947 RMK NO SPECI. FIRST","R01    057TMP046R02    037DPT046"
"70249026526","2023-09-11T16:48:00","7","62.0911","-152.7349","566.3","PUNTILLA, AK US","FM-15","PAPT ","V020","360,5,N,0021,5","00914,5,M,N","040234,5,N,5","+0050,C","+0030,C","99999,9",,,,,,,,,,"07,5,+00914,5,99,9",,,"3,99,1,+00914,5,9",,,,"9,AGL   ,+99999,+99999","99,99,9,99,9,99,9,00914,1,99,9,99,9",,,"09980,5,09332,5",,,,,,"MET08209/11/23 07:48:02 METAR PAPT 111648Z 36004KT 25SM BKN030 05/03 A2947 RMK NO SPECI.","R01    057TMP046R02    037DPT046"
"70249026526","2023-09-11T18:56:00","7","62.0911","-152.7349","566.3","PUNTILLA, AK US","FM-15","PAPT ","V020","999,9,V,0015,5","01067,5,M,N","040234,5,N,5","+0060,C","+0040,C","99999,9",,,,,,,,,,"07,5,+01067,5,99,9",,,"3,99,1,+01067,5,9",,,,"9,AGL   ,+99999,+99999","99,99,9,99,9,99,9,01067,1,99,9,99,9",,,"09983,5,09336,5",,,,,,"MET08209/11/23 09:56:02 METAR PAPT 111856Z VRB03KT 25SM BKN035 06/04 A2948 RMK NO SPECI.","R01    067TMP046R02    047DPT046"
"70249026526","2023-09-11T20:47:00","7","62.0911","-152.7349","566.3","PUNTILLA, AK US","FM-15","PAPT ","V020","999,9,C,0000,5","01219,5,M,N","040234,5,N,5","+0080,C","+0050,C","99999,9",,,,,,,,,,"07,5,+01219,5,99,9",,,"3,99,1,+01219,5,9",,,,"9,AGL   ,+99999,+99999","99,99,9,99,9,99,9,01219,1,99,9,99,9",,,"09983,5,09336,5",,,,,,"MET08209/11/23 11:47:02 METAR PAPT 112047Z 00000KT 25SM BKN040 08/05 A2948 RMK NO SPECI.","R01    087TMP046R02    057DPT046"
"70249026526","2023-09-11T22:49:00","7","62.0911","-152.7349","566.3","PUNTILLA, AK US","FM-15","PAPT ","V020","360,5,N,0021,5","01372,5,M,N","040234,5,N,5","+0100,C","+0020,C","99999,9",,,,,,,,,,"07,5,+01372,5,99,9",,,"3,99,1,+01372,5,9",,,,"9,AGL   ,+99999,+99999","99,99,9,99,9,99,9,01372,1,99,9,99,9","240,M,+0095,1","240,N,+0039,1","09980,5,09332,5",,,,,,"MET09809/11/23 13:49:02 METAR PAPT 112249Z 36004KT 25SM BKN045 10/02 A2947 RMK NO SPECI. 400950039 70000","R01    107TMP046R02    027DPT046"
"70249026526","2023-09-12T00:49:00","7","62.0911","-152.7349","566.3","PUNTILLA, AK US","FM-15","PAPT ","V020","999,9,V,0021,5","01372,5,M,N","040234,5,N,5","+0100,C","+0050,C","99999,9",,,,,,,,,,"07,5,+01372,5,99,9",,,"3,99,1,+01372,5,9",,,,"9,AGL   ,+99999,+99999","99,99,9,99,9,99,9,01372,1,99,9,99,9",,,"09976,5,09329,5",,,,,,"MET08209/11/23 15:49:01 METAR PAPT 120049Z VRB04KT 25SM BKN045 10/05 A2946 RMK NO SPECI.","R01    107TMP046R02    057DPT046"
"70249026526","2023-09-12T02:50:00","7","62.0911","-152.7349","566.3","PUNTILLA, AK US","FM-15","PAPT ","V020","999,9,V,0015,5","22000,5,9,N","040234,5,N,5","+0100,C","+0050,C","99999,9",,,,,,,,,,"04,5,+01524,5,99,9",,,"2,99,1,+01524,5,9",,,,"9,AGL   ,+99999,+99999","04,99,5,99,9,99,9,01524,1,99,9,99,9",,,"09973,5,09326,5",,,,,,"MET08709/11/23 17:50:02 METAR PAPT 120250Z VRB03KT 25SM SCT050 10/05 A2945 RMK NO SPECI. LAST","R01    107TMP046R02    057DPT046D01      0ADE726"
"70249026526","2023-09-12T14:54:00","7","62.0911","-152.7349","566.3","PUNTILLA, AK US","FM-15","PAPT ","V020","999,9,C,0000,5","00152,5,M,N","008047,5,N,5","+0030,C","+0030,C","99999,9",,,,,,"0,0,00,1,0,1,5",,"10,5",,"08,5,+00152,5,99,9",,,"4,99,1,+00152,5,9",,,,"9,AGL   ,+99999,+99999","99,99,9,99,9,99,9,00152,1,99,9,99,9",,,"10007,5,09358,5",,"10,1",,,,"MET09009/12/23 05:54:02 METAR PAPT 121454Z 00000KT 5SM BR OVC005 03/03 A2955 RMK NO SPECI. FIRST","R01    037TMP046R02    037DPT046"
"70249026526","2023-09-12T16:56:00","7","62.0911","-152.7349","566.3","PUNTILLA, AK US","FM-15","PAPT ","V020","180,5,N,0026,5","00122,5,M,N","004828,5,N,5","+0050,C","+0050,C","99999,9",,,,,,"0,0,00,1,0,1,5",,"10,5",,"08,5,+00122,5,99,9",,,"4,99,1,+00122,5,9",,,,"9,AGL   ,+99999,+99999","99,99,9,99,9,99,9,00122,1,99,9,99,9",,,"10010,5,09361,5",,"10,1",,,,"MET08409/12/23 07:56:02 METAR PAPT 121656Z 18005KT 3SM BR OVC004 05/05 A2956 RMK NO SPECI.","R01    057TMP046R02    057DPT046"
"70249026526","2023-09-12T18:46:00","7","62.0911","-152.7349","566.3","PUNTILLA, AK US","FM-15","PAPT ","V020","180,5,N,0026,5","00427,5,M,N","011265,5,N,5","+0050,C","+0040,C","99999,9",,,,,,"1,0,02,0,0,1,5",,"61,5",,"08,5,+00427,5,99,9",,,"4,99,1,+00427,5,9",,,,"9,AGL   ,+99999,+99999","99,99,9,99,9,99,9,00427,1,99,9,99,9",,,"10017,5,09368,5",,"61,5",,,,"MET08509/12/23 09:46:02 METAR PAPT 121846Z 18005KT 7SM -RA OVC014 05/04 A2958 RMK NO SPECI.","R01    057TMP046R02    047DPT046"
"70249026526","2023-09-12T20:47:00","7","62.0911","-152.7349","566.3","PUNTILLA, AK US","FM-15","PAPT ","V020","180,5,N,0026,5","00457,5,M,N","024140,7,N,5","+0060,C","+0050,C","99999,9",,,,,,"1,0,02,0,0,1,5",,"61,5",,"08,5,+00457,5,99,9",,,"4,99,1,+00457,5,9",,,,"9,AGL   ,+99999,+99999","99,99,9,99,9,99,9,00457,1,99,9,99,9",,,"10024,5,09374,5",,"61,5",,,,"MET08609/12/23 11:47:02 METAR PAPT 122047Z 18005KT 15SM -RA OVC015 06/05 A2960 RMK NO SPECI.","R01  15SM7VIS011R02    067TMP046R03    057DPT046"
"70249026526","2023-09-12T22:48:00","7","62.0911","-152.7349","566.3","PUNTILLA, AK US","FM-15","PAPT ","V020","210,5,N,0026,5","00610,5,M,N","040234,5,N,5","+0070,C","+0060,C","99999,9",,,,,,,,,,"08,5,+00610,5,99,9",,,"4,99,1,+00610,5,9",,,,"9,AGL   ,+99999,+99999","99,99,9,99,9,99,9,00610,1,99,9,99,9","240,M,+0101,1","240,N,+0034,1","10024,5,09374,5",,,,,,"MET09809/12/23 13:48:02 METAR PAPT 122248Z 21005KT 25SM OVC020 07/06 A2960 RMK NO SPECI. 401010034 70005","R01    077TMP046R02    067DPT046"
"70249026526","2023-09-13T00:53:00","7","62.0911","-152.7349","566.3","PUNTILLA, AK US","FM-15","PAPT ","V020","180,5,N,0026,5","00610,5,M,N","040234,7,N,5","+0070,C","+0060,C","99999,9",,,,,,"1,0,02,0,0,1,5",,"61,5",,"07,5,+00610,5,99,9","08,5,+01829,5,99,9",,"3,99,1,+00610,5,9","4,99,1,+01829,5,9",,,"9,AGL   ,+99999,+99999","99,99,9,99,9,99,9,00610,1,99,9,99,9",,,"10024,5,09374,5",,"61,5",,,,"MET09309/12/23 15:53:01 METAR PAPT 130053Z 18005KT 25SM -RA BKN020 OVC060 07/06 A2960 RMK NO SPECI.","R01  25SM7VIS011R02    077TMP046R03    067DPT046"
"70249026526","2023-09-13T02:42:00","7","62.0911","-152.7349","566.3","PUNTILLA, AK US","FM-15","PAPT ","V020","190,5,N,0036,5","01829,5,M,N","040234,7,N,5","+0070,C","+0060,C","99999,9",,,,,,"0,0,00,1,0,1,5",,"10,5",,"04,5,+00762,5,99,9","07,5,+01829,5,99,9",,"2,99,1,+00762,5,9","3,99,1,+01829,5,9",,,"9,AGL   ,+99999,+99999","99,99,9,99,9,99,9,00762,1,99,9,99,9",,,"10024,5,09374,5",,"10,1",,,,"MET09709/12/23 17:42:01 METAR PAPT 130242Z 19007KT 25SM BR SCT025 BKN060 07/06 A2960 RMK NO SPECI. LAST","R01  25SM7VIS011R02    077TMP046R03    067DPT046"
"70249026526","2023-09-13T08:59:00","O","62.0911","-152.7349","566.3","PUNTILLA, AK US","SOD  ","PAPT ","V020","999,9,9,9999,9","99999,9,9,9","999999,9,9,9","+9999,9","+9999,9","99999,9",,,"AU,16,RA  ,5","AU,13,BR  ,5",,,,,,,,,,,,,,,,,,,,,,,,
"70249026526","2023-09-13T14:58:00","7","62.0911","-152.7349","566.3","PUNTILLA, AK US","FM-15","PAPT ","V020","999,9,C,0000,5","00610,5,M,N","011265,5,N,5","+0030,C","+0030,C","99999,9",,,,,,"0,0,00,1,0,1,5",,"10,5",,"02,5,+00152,5,99,9","08,5,+00610,5,99,9",,"1,99,1,+00152,5,9","4,99,1,+00610,5,9",,,"9,AGL   ,+99999,+99999","99,99,9,99,9,99,9,00152,1,99,9,99,9",,,"10051,5,09400,5",,"10,1",,,,"MET09709/13/23 05:58:02 METAR PAPT 131458Z 00000KT 7SM BR FEW005 OVC020 03/03 A2968 RMK NO SPECI. FIRST","R01    037TMP046R02    037DPT046"
"70249026526","2023-09-13T16:49:00","7","62.0911","-152.7349","566.3","PUNTILLA, AK US","FM-15","PAPT ","V020","180,5,N,0015,5","00610,5,M,N","008047,5,N,5","+0050,C","+0050,C","99999,9",,,,,,"0,0,00,1,0,1,5",,"10,5",,"02,5,+00152,5,99,9","08,5,+00610,5,99,9",,"1,99,1,+00152,5,9","4,99,1,+00610,5,9",,,"9,AGL   ,+99999,+99999","99,99,9,99,9,99,9,00152,1,99,9,99,9",,,"10054,5,09403,5",,"10,1",,,,"MET09109/13/23 07:49:02 METAR PAPT 131649Z 18003KT 5SM BR FEW005 OVC020 05/05 A2969 RMK NO SPECI.","R01    057TMP046R02    057DPT046"
"70249026526","2023-09-13T18:55:00","7","62.0911","-152.7349","566.3","PUNTILLA, AK US","FM-15","PAPT ","V020","170,5,N,0015,5","00305,5,M,N","008047,5,N,5","+0050,C","+0050,C","99999,9",,,,,,"0,0,00,1,0,1,5",,"10,5",,"02,5,+00152,5,99,9","08,5,+00305,5,99,9",,"1,99,1,+00152,5,9","4,99,1,+00305,5,9",,,"9,AGL   ,+99999,+99999","99,99,9,99,9,99,9,00152,1,99,9,99,9",,,"10058,5,09406,5",,"10,1",,,,"MET09109/13/23 09:55:02 METAR PAPT 131855Z 17003KT 5SM BR FEW005 OVC010 05/05 A2970 RMK NO SPECI.","R01    057TMP046R02    057DPT046"
"70249026526","2023-09-13T20:50:00","7","62.0911","-152.7349","566.3","PUNTILLA, AK US","FM-15","PAPT ","V020","170,5,N,0015,5","00610,5,M,N","024140,7,N,5","+0060,C","+0050,C","99999,9",,,,,,"0,0,00,1,0,1,5",,"10,5",,"08,5,+00610,5,99,9",,,"4,99,1,+00610,5,9",,,,"9,AGL   ,+99999,+99999","99,99,9,99,9,99,9,00610,1,99,9,99,9",,,"10058,5,09406,5",,"10,1",,,,"MET08509/13/23 11:50:02 METAR PAPT 132050Z 17003KT 15SM BR OVC020 06/05 A2970 RMK NO SPECI.","R01  15SM7VIS011R02    067TMP046R03    057DPT046"
"70249026526","2023-09-13T22:45:00","7","62.0911","-152.7349","566.3","PUNTILLA, AK US","FM-15","PAPT ","V020","180,5,N,0031,5","00762,5,M,N","024140,5,N,5","+0070,C","+0060,C","99999,9",,,,,,,,,,"08,5,+00762,5,99,9",,,"4,99,1,+00762,5,9",,,,"9,AGL   ,+99999,+99999","99,99,9,99,9,99,9,00762,1,99,9,99,9","240,M,+0067,1","240,N,+0034,1","10054,5,09403,5",,,,,,"MET09809/13/23 13:45:02 METAR PAPT 132245Z 18006KT 15SM OVC025 07/06 A2969 RMK NO SPECI. 400670034 70015","R01    077TMP046R02    067DPT046"
"70249026526","2023-09-14T02:49:00","7","62.0911","-152.7349","566.3","PUNTILLA, AK US","FM-15","PAPT ","V020","999,9,C,0000,5","00762,5,M,N","016093,5,N,5","+0070,C","+0060,C","99999,9",,,,,,"0,0,00,1,0,1,5",,"10,5",,"02,5,+00457,5,99,9","08,5,+00762,5,99,9",,"1,99,1,+00457,5,9","4,99,1,+00762,5,9",,,"9,AGL   ,+99999,+99999","99,99,9,99,9,99,9,00457,1,99,9,99,9",,,"10041,5,09390,5",,"10,1",,,,"MET09709/13/23 17:49:02 METAR PAPT 140249Z 00000KT 10SM BR FEW015 OVC025 07/06 A2965 RMK NO SPECI. LAST","R01    077TMP046R02    067DPT046"
"70249026526","2023-09-14T08:59:00","O","62.0911","-152.7349","566.3","PUNTILLA, AK US","SOD  ","PAPT ","V020","999,9,9,9999,9","99999,9,9,9","999999,9,9,9","+9999,9","+9999,9","99999,9",,,"AU,13,BR  ,5",,,,,,,,,,,,,,,,,,,,,,,,,
"70249026526","2023-09-14T14:59:00","7","62.0911","-152.7349","566.3","PUNTILLA, AK US","FM-15","PAPT ","V020","999,9,C,0000,5","00762,5,M,N","011265,5,N,5","+0030,C","+0030,C","99999,9",,,,,,"1,0,02,0,0,1,5",,"61,5",,"08,5,+00762,5,99,9",,,"4,99,1,+00762,5,9",,,,"9,AGL   ,+99999,+99999","99,99,9,99,9,99,9,00762,1,99,9,99,9",,,"09963,5,09316,5",,"61,5",,,,"MET09109/14/23 05:59:02 METAR PAPT 141459Z 00000KT 7SM -RA OVC025 03/03 A2942 RMK NO SPECI. FIRST","R01    037TMP046R02    037DPT046"
"70249026526","2023-09-14T16:53:00","7","62.0911","-152.7349","566.3","PUNTILLA, AK US","FM-15","PAPT ","V020","360,5,N,0015,5","00305,5,M,N","011265,5,N,5","+0030,C","+0030,C","99999,9",,,,,,"1,0,02,0,0,1,5",,"61,5",,"07,5,+00305,5,99,9","08,5,+01219,5,99,9",,"3,99,1,+00305,5,9","4,99,1,+01219,5,9",,,"9,AGL   ,+99999,+99999","99,99,9,99,9,99,9,00305,1,99,9,99,9",,,"09953,5,09307,5",,"61,5",,,,"MET09209/14/23 07:53:01 METAR PAPT 141653Z 36003KT 7SM -RA BKN010 OVC040 03/03 A2939 RMK NO SPECI.","R01    037TMP046R02    037DPT046"
"70249026526","2023-09-14T18:52:00","7","62.0911","-152.7349","566.3","PUNTILLA, AK US","FM-15","PAPT ","V020","999,9,C,0000,5","00305,5,M,N","040234,5,N,5","+0050,C","+0050,C","99999,9",,,,,,,,,,"07,5,+00305,5,99,9","08,5,+01524,5,99,9",,"3,99,1,+00305,5,9","4,99,1,+01524,5,9",,,"9,AGL   ,+99999,+99999","99,99,9,99,9,99,9,00305,1,99,9,99,9",,,"09953,5,09307,5",,,,,,"MET08909/14/23 09:52:02 METAR PAPT 141852Z 00000KT 25SM BKN010 OVC050 05/05 A2939 RMK NO SPECI.","R01    057TMP046R02    057DPT046"
"70249026526","2023-09-14T20:48:00","7","62.0911","-152.7349","566.3","PUNTILLA, AK US","FM-15","PAPT ","V020","999,9,C,0000,5","00549,5,M,N","040234,5,N,5","+0070,C","+0060,C","99999,9",,,,,,,,,,"07,5,+00549,5,99,9",,,"3,99,1,+00549,5,9",,,,"9,AGL   ,+99999,+99999","99,99,9,99,9,99,9,00549,1,99,9,99,9",,,"09936,5,09291,5",,,,,,"MET08209/14/23 11:48:02 METAR PAPT 142048Z 00000KT 25SM BKN018 07/06 A2934 RMK NO SPECI.","R01    077TMP046R02    067DPT046"
"70249026526","2023-09-14T22:43:00","7","62.0911","-152.7349","566.3","PUNTILLA, AK US","FM-15","PAPT ","V020","999,9,C,0000,5","00914,5,M,N","040234,5,N,5","+0070,C","+0050,C","99999,9",,,,,,,,,,"07,5,+00914,5,99,9","08,5,+01829,5,99,9",,"3,99,1,+00914,5,9","4,99,1,+01829,5,9",,,"9,AGL   ,+99999,+99999","99,99,9,99,9,99,9,00914,1,99,9,99,9","240,M,+0067,1","240,N,+0034,1","09936,5,09291,5",,,,,,"MET10509/14/23 13:43:02 METAR PAPT 142243Z 00000KT 25SM BKN030 OVC060 07/05 A2934 RMK NO SPECI. 400670034 70009","R01    077TMP046R02    057DPT046"
"70249026526","2023-09-15T00:48:00","7","62.0911","-152.7349","566.3","PUNTILLA, AK US","FM-15","PAPT ","V020","190,5,N,0021,5","01829,5,M,N","040234,5,N,5","+0080,C","+0060,C","99999,9",,,,,,,,,,"04,5,+00914,5,99,9","07,5,+01829,5,99,9",,"2,99,1,+00914,5,9","3,99,1,+01829,5,9",,,"9,AGL   ,+99999,+99999","99,99,9,99,9,99,9,00914,1,99,9,99,9",,,"09929,5,09284,5",,,,,,"MET08909/14/23 15:48:01 METAR PAPT 150048Z 19004KT 25SM SCT030 BKN060 08/06 A2932 RMK NO SPECI.","R01    087TMP046R02    067DPT046"
"70249026526","2023-09-15T02:41:00","7","62.0911","-152.7349","566.3","PUNTILLA, AK US","FM-15","PAPT ","V020","180,5,N,0031,5","01219,5,M,N","040234,5,N,5","+0070,C","+0050,C","99999,9",,,,,,,,,,"02,5,+00853,5,99,9","07,5,+01219,5,99,9","08,5,+01829,5,99,9","1,99,1,+00853,5,9","3,99,1,+01219,5,9","4,99,1,+01829,5,9",,"9,AGL   ,+99999,+99999","99,99,9,99,9,99,9,00853,1,99,9,99,9",,,"09929,5,09284,5",,,,,,"MET10109/14/23 17:41:01 METAR PAPT 150241Z 18006KT 25SM FEW028 BKN040 OVC060 07/05 A2932 RMK NO SPECI. LAST","R01    077TMP046R02    057DPT046"
"70249026526","2023-09-15T08:59:00","O","62.0911","-152.7349","566.3","PUNTILLA, AK US","SOD  ","PAPT ","V020","999,9,9,9999,9","99999,9,9,9","999999,9,9,9","+9999,9","+9999,9","99999,9",,,"AU,16,RA  ,5",,,,,,,,,,,,,,,,,,,,,,,,,
"70249026526","2023-09-15T14:55:00","7","62.0911","-152.7349","566.3","PUNTILLA, AK US","FM-15","PAPT ","V020","170,5,N,0031,5","00914,5,M,N","004828,5,N,5","+0040,C","+0040,C","99999,9",,,,,,"0,0,00,1,0,1,5",,"10,5",,"02,5,+00152,5,99,9","08,5,+00914,5,99,9",,"1,99,1,+00152,5,9","4,99,1,+00914,5,9",,,"9,AGL   ,+99999,+99999","99,99,9,99,9,99,9,00152,1,99,9,99,9",,,"09946,5,09300,5",,"10,1",,,,"MET09709/15/23 05:55:02 METAR PAPT 151455Z 17006KT 3SM BR FEW005 OVC030 04/04 A2937 RMK NO SPECI. FIRST","R01    047TMP046R02    047DPT046"
"70249026526","2023-09-15T16:48:00","7","62.0911","-152.7349","566.3","PUNTILLA, AK US","FM-15","PAPT ","V020","170,5,N,0031,5","00853,5,M,N","011265,5,N,5","+0030,C","+0030,C","99999,9",,,,,,,,,,"02,5,+00061,5,99,9","08,5,+00853,5,99,9",,"1,99,1,+00061,5,9","4,99,1,+00853,5,9",,,"9,AGL   ,+99999,+99999","99,99,9,99,9,99,9,00061,1,99,9,99,9",,,"09949,5,09304,5",,,,,,"MET08809/15/23 07:48:02 METAR PAPT 151648Z 17006KT 7SM FEW002 OVC028 03/03 A2938 RMK NO SPECI.","R01    037TMP046R02    037DPT046"
"70249026526","2023-09-15T18:40:00","7","62.0911","-152.7349","566.3","PUNTILLA, AK US","FM-15","PAPT ","V020","190,5,N,0031,5","00061,5,M,N","008047,5,N,5","+0040,5","+0040,5","99999,9",,,,,,,,,,"07,5,+00061,5,99,9","08,5,+00914,5,99,9",,"3,99,1,+00061,5,9","4,99,1,+00914,5,9",,,"9,AGL   ,+99999,+99999","99,99,9,99,9,99,9,00061,1,99,9,99,9",,,"09949,5,09304,5",,,,,,"MET08809/15/23 09:40:02 METAR PAPT 151840Z 19006KT 5SM BKN002 OVC030 04/04 A2938 RMK NO SPECI.",
"70249026526","2023-09-15T20:42:00","7","62.0911","-152.7349","566.3","PUNTILLA, AK US","FM-15","PAPT ","V020","190,5,N,0051,5","00366,5,M,N","024140,5,N,5","+0050,C","+0050,C","99999,9",,,,,,,,,,"08,5,+00366,5,99,9",,,"4,99,1,+00366,5,9",,,,"9,AGL   ,+99999,+99999","99,99,9,99,9,99,9,00366,1,99,9,99,9",,,"09956,5,09310,5",,,,,,"MET08209/15/23 11:42:02 METAR PAPT 152042Z 19010KT 15SM OVC012 05/05 A2940 RMK NO SPECI.","R01    057TMP046R02    057DPT046"
"70249026526","2023-09-15T22:45:00","7","62.0911","-152.7349","566.3","PUNTILLA, AK US","FM-15","PAPT ","V020","190,5,N,0041,5","00610,5,M,N","024140,5,N,5","+0060,C","+0050,C","99999,9",,,,,,,,,,"08,5,+00610,5,99,9",,,"4,99,1,+00610,5,9",,,,"9,AGL   ,+99999,+99999","99,99,9,99,9,99,9,00610,1,99,9,99,9","240,M,+0084,1","240,N,+0034,1","09956,5,09310,5",,,,,,"MET09809/15/23 13:45:02 METAR PAPT 152245Z 19008KT 15SM OVC020 06/05 A2940 RMK NO SPECI. 400840034 70007","R01    067TMP046R02    057DPT046"
"70249026526","2023-09-16T00:52:00","7","62.0911","-152.7349","566.3","PUNTILLA, AK US","FM-15","PAPT ","V020","190,5,N,0041,5","00610,5,M,N","024140,5,N,5","+0060,C","+0050,C","99999,9",,,,,,,,,,"08,5,+00610,5,99,9",,,"4,99,1,+00610,5,9",,,,"9,AGL   ,+99999,+99999","99,99,9,99,9,99,9,00610,1,99,9,99,9",,,"09949,5,09304,5",,,,,,"MET08209/15/23 15:52:01 METAR PAPT 160052Z 19008KT 15SM OVC020 06/05 A2938 RMK NO SPECI.","R01    067TMP046R02    057DPT046"
"70249026526","2023-09-16T02:51:00","7","62.0911","-152.7349","566.3","PUNTILLA, AK US","FM-15","PAPT ","V020","180,5,N,0031,5","00914,5,M,N","016093,5,N,5","+0040,C","+0040,C","99999,9",,,,,,"0,0,00,1,0,1,5",,"10,5",,"02,5,+00305,5,99,9","08,5,+00914,5,99,9",,"1,99,1,+00305,5,9","4,99,1,+00914,5,9",,,"9,AGL   ,+99999,+99999","99,99,9,99,9,99,9,00305,1,99,9,99,9",,,"09946,5,09300,5",,"10,1",,,,"MET09709/15/23 17:51:01 METAR PAPT 160251Z 18006KT 10SM BR FEW010 OVC030 04/04 A2937 RMK NO SPECI. LAST","R01    047TMP046R02    047DPT046"
"70249026526","2023-09-16T08:59:00","O","62.0911","-152.7349","566.3","PUNTILLA, AK US","SOD  ","PAPT ","V020","999,9,9,9999,9","99999,9,9,9","999999,9,9,9","+9999,9","+9999,9","99999,9",,,"AU,13,BR  ,5",,,,,,,,,,,,,,,,,,,,,,,,,
"70249026526","2023-09-16T14:54:00","7","62.0911","-152.7349","566.3","PUNTILLA, AK US","FM-15","PAPT ","V020","190,5,N,0051,5","00914,5,M,N","016093,5,N,5","+0050,C","+0050,C","99999,9",,,,,,,,,,"04,5,+00610,5,99,9","08,5,+00914,5,99,9",,"2,99,1,+00610,5,9","4,99,1,+00914,5,9",,,"9,AGL   ,+99999,+99999","99,99,9,99,9,99,9,00610,1,99,9,99,9",,,"09895,5,09252,5",,,,,,"MET09509/16/23 05:54:02 METAR PAPT 161454Z 19010KT 10SM SCT020 OVC030 05/05 A2922 RMK NO SPECI. FIRST","R01    057TMP046R02    057DPT046"
"70249026526","2023-09-16T16:51:00","7","62.0911","-152.7349","566.3","PUNTILLA, AK US","FM-15","PAPT ","V020","180,5,N,0026,5","01219,5,M,N","024140,5,N,5","+0040,C","+0040,C","99999,9",,,,,,,,,,"02,5,+00152,5,99,9","02,5,+00610,5,99,9","08,5,+01219,5,99,9","1,99,1,+00152,5,9","1,99,1,+00610,5,9","4,99,1,+01219,5,9",,"9,AGL   ,+99999,+99999","99,99,9,99,9,99,9,00152,1,99,9,99,9",,,"09878,5,09236,5",,,,,,"MET09609/16/23 07:51:02 METAR PAPT 161651Z 18005KT 15SM FEW005 FEW020 OVC040 04/04 A2917 RMK NO SPECI.","R01    047TMP046R02    047DPT046"
"70249026526","2023-09-16T18:58:00","7","62.0911","-152.7349","566.3","PUNTILLA, AK US","FM-15","PAPT ","V020","170,5,N,0026,5","01219,5,M,N","011265,5,N,5","+0050,C","+0050,C","99999,9",,,,,,,,,,"02,5,+00152,5,99,9","02,5,+00610,5,99,9","08,5,+01219,5,99,9","1,99,1,+00152,5,9","1,99,1,+00610,5,9","4,99,1,+01219,5,9",,"9,AGL   ,+99999,+99999","99,99,9,99,9,99,9,00152,1,99,9,99,9",,,"09861,5,09220,5",,,,,,"MET09509/16/23 09:58:02 METAR PAPT 161858Z 17005KT 7SM FEW005 FEW020 OVC040 05/05 A2912 RMK NO SPECI.","R01    057TMP046R02    057DPT046"
"70249026526","2023-09-16T20:45:00","7","62.0911","-152.7349","566.3","PUNTILLA, AK US","FM-15","PAPT ","V020","170,5,N,0051,5","01219,5,M,N","008047,5,N,5","+0060,C","+0050,C","99999,9",,,,,,,,,,"02,5,+00152,5,99,9","02,5,+00610,5,99,9","08,5,+01219,5,99,9","1,99,1,+00152,5,9","1,99,1,+00610,5,9","4,99,1,+01219,5,9",,"9,AGL   ,+99999,+99999","99,99,9,99,9,99,9,00152,1,99,9,99,9",,,"09848,5,09207,5",,,,,,"MET09509/16/23 11:45:02 METAR PAPT 162045Z 17010KT 5SM FEW005 FEW020 OVC040 06/05 A2908 RMK NO SPECI.","R01    067TMP046R02    057DPT046"
"70249026526","2023-09-16T22:48:00","7","62.0911","-152.7349","566.3","PUNTILLA, AK US","FM-15","PAPT ","V020","180,5,N,0041,5","01219,5,M,N","011265,5,N,5","+0060,C","+0050,C","99999,9",,,,,,,,,,"02,5,+00152,5,99,9","02,5,+00610,5,99,9","08,5,+01219,5,99,9","1,99,1,+00152,5,9","1,99,1,+00610,5,9","4,99,1,+01219,5,9",,"9,AGL   ,+99999,+99999","99,99,9,99,9,99,9,00152,1,99,9,99,9","240,M,+0062,1","240,N,+0039,1","09837,5,09198,5",,,,,,"MET11109/16/23 13:48:02 METAR PAPT 162248Z 18008KT 7SM FEW005 FEW020 OVC040 06/05 A2905 RMK NO SPECI. 400620039 70004","R01    067TMP046R02    057DPT046"
"70249026526","2023-09-17T00:42:00","7","62.0911","-152.7349","566.3","PUNTILLA, AK US","FM-15","PAPT ","V020","999,9,C,0000,5","01219,5,M,N","024140,5,N,5","+0070,C","+0060,C","99999,9",,,,,,,,,,"02,5,+00610,5,99,9","08,5,+01219,5,99,9",,"1,99,1,+00610,5,9","4,99,1,+01219,5,9",,,"9,AGL   ,+99999,+99999","99,99,9,99,9,99,9,00610,1,99,9,99,9",,,"09834,5,09195,5",,,,,,"MET08909/16/23 15:42:01 METAR PAPT 170042Z 00000KT 15SM FEW020 OVC040 07/06 A2904 RMK NO SPECI.","R01    077TMP046R02    067DPT046"
"70249026526","2023-09-17T15:03:00","7","62.0911","-152.7349","566.3","PUNTILLA, AK US","FM-15","PAPT ","V020","350,5,N,0051,5","01067,5,M,N","040234,5,N,5","+0060,5","+0010,5","99999,9",,,,,,,,,,"07,5,+01067,5,99,9","08,5,+01524,5,99,9",,"3,99,1,+01067,5,9","4,99,1,+01524,5,9",,,"9,AGL   ,+99999,+99999","99,99,9,99,9,99,9,01067,1,99,9,99,9",,,"09915,5,09272,5",,,,,"0103,5","MET09809/17/23 06:03:02 METAR PAPT 171503Z 35010G20KT 25SM BKN035 OVC050 06/01 A2928 RMK NO SPECI. FIRST",
"70249026526","2023-09-17T16:56:00","7","62.0911","-152.7349","566.3","PUNTILLA, AK US","FM-15","PAPT ","V020","350,5,N,0041,5","01067,5,M,N","040234,5,N,5","+0060,C","+0010,C","99999,9",,,,,,,,,,"07,5,+01067,5,99,9","08,5,+01524,5,99,9",,"3,99,1,+01067,5,9","4,99,1,+01524,5,9",,,"9,AGL   ,+99999,+99999","99,99,9,99,9,99,9,01067,1,99,9,99,9",,,"09932,5,09288,5",,,,,"0077,5","MET09209/17/23 07:56:02 METAR PAPT 171656Z 35008G15KT 25SM BKN035 OVC050 06/01 A2933 RMK NO SPECI.","R01    067TMP046R02    017DPT046"
"70249026526","2023-09-17T18:57:00","7","62.0911","-152.7349","566.3","PUNTILLA, AK US","FM-15","PAPT ","V020","350,5,N,0062,5","01067,5,M,N","040234,5,N,5","+0060,C","+0010,C","99999,9",,,,,,,,,,"07,5,+01067,5,99,9","08,5,+01829,5,99,9",,"3,99,1,+01067,5,9","4,99,1,+01829,5,9",,,"9,AGL   ,+99999,+99999","99,99,9,99,9,99,9,01067,1,99,9,99,9",,,"09946,5,09300,5",,,,,"0103,5","MET09209/17/23 09:57:02 METAR PAPT 171857Z 35012G20KT 25SM BKN035 OVC060 06/01 A2937 RMK NO SPECI.","R01    067TMP046R02    017DPT046"
"70249026526","2023-09-17T20:57:00","7","62.0911","-152.7349","566.3","PUNTILLA, AK US","FM-15","PAPT ","V020","360,5,N,0051,5","02134,5,M,N","040234,5,N,5","+0070,C","+0000,C","99999,9",,,,,,,,,,"04,5,+01219,5,99,9","07,5,+02134,5,99,9",,"2,99,1,+01219,5,9","3,99,1,+02134,5,9",,,"9,AGL   ,+99999,+99999","99,99,9,99,9,99,9,01219,1,99,9,99,9",,,"09959,5,09313,5",,,,,,"MET08909/17/23 11:57:02 METAR PAPT 172057Z 36010KT 25SM SCT040 BKN070 07/00 A2941 RMK NO SPECI.","R01    077TMP046R02    007DPT046"
"70249026526","2023-09-17T22:53:00","7","62.0911","-152.7349","566.3","PUNTILLA, AK US","FM-15","PAPT ","V020","360,5,N,0041,5","02134,5,M,N","040234,5,N,5","+0070,C","+0030,C","99999,9",,,,,,,,,,"04,5,+01219,5,99,9","07,5,+02134,5,99,9",,"2,99,1,+01219,5,9","3,99,1,+02134,5,9",,,"9,AGL   ,+99999,+99999","99,99,9,99,9,99,9,01219,1,99,9,99,9","240,M,+0073,1","240,N,+0034,1","09963,5,09316,5",,,,,,"MET10509/17/23 13:53:02 METAR PAPT 172253Z 36008KT 25SM SCT040 BKN070 07/03 A2942 RMK NO SPECI. 400730034 70022","R01    077TMP046R02    037DPT046"
"70249026526","2023-09-18T00:52:00","7","62.0911","-152.7349","566.3","PUNTILLA, AK US","FM-15","PAPT ","V020","350,5,N,0041,5","02134,5,M,N","040234,5,N,5","+0070,C","+0010,C","99999,9",,,,,,,,,,"04,5,+01219,5,99,9","07,5,+02134,5,99,9",,"2,99,1,+01219,5,9","3,99,1,+02134,5,9",,,"9,AGL   ,+99999,+99999","99,99,9,99,9,99,9,01219,1,99,9,99,9",,,"09970,5,09323,5",,,,,,"MET08909/17/23 15:52:01 METAR PAPT 180052Z 35008KT 25SM SCT040 BKN070 07/01 A2944 RMK NO SPECI.","R01    077TMP046R02    017DPT046"
"70249026526","2023-09-18T02:40:00","7","62.0911","-152.7349","566.3","PUNTILLA, AK US","FM-15","PAPT ","V020","350,5,N,0036,5","22000,5,9,N","040234,5,N,5","+0070,5","+0010,5","99999,9",,,,,,,,,,"04,5,+01219,5,99,9",,,"2,99,1,+01219,5,9",,,,"9,AGL   ,+99999,+99999","04,99,5,99,9,99,9,01219,1,99,9,99,9",,,"09970,5,09323,5",,,,,"0077,5","MET09009/17/23 17:40:01 METAR PAPT 180240Z 35007G15KT 25SM SCT040 07/01 A2944 RMK NO SPECI. LAST","D01      0ADE726"
"70249026526","2023-09-18T14:58:00","7","62.0911","-152.7349","566.3","PUNTILLA, AK US","FM-15","PAPT ","V020","350,5,N,0015,5","01829,5,M,N","040234,5,N,5","+0000,C","+0000,C","99999,9",,,,,,,,,,"07,5,+01829,5,99,9",,,"3,99,1,+01829,5,9",,,,"9,AGL   ,+99999,+99999","99,99,9,99,9,99,9,01829,1,99,9,99,9",,,"09966,5,09320,5",,,,,,"MET08809/18/23 05:58:02 METAR PAPT 181458Z 35003KT 25SM BKN060 00/00 A2943 RMK NO SPECI. FIRST","R01    007TMP046R02    007DPT046"
"70249026526","2023-09-18T16:49:00","7","62.0911","-152.7349","566.3","PUNTILLA, AK US","FM-15","PAPT ","V020","350,5,N,0015,5","22000,5,9,N","040234,5,N,5","+0000,C","-0010,C","99999,9",,,,,,,,,,"02,5,+01219,5,99,9",,,"1,99,1,+01219,5,9",,,,"9,AGL   ,+99999,+99999","02,99,5,99,9,99,9,01219,1,99,9,99,9",,,"09966,5,09320,5",,,,,,"MET08309/18/23 07:49:02 METAR PAPT 181649Z 35003KT 25SM FEW040 00/M01 A2943 RMK NO SPECI.","R01    007TMP046R02   M017DPT046D01      0ADE726"
"70249026526","2023-09-18T18:47:00","7","62.0911","-152.7349","566.3","PUNTILLA, AK US","FM-15","PAPT ","V020","220,5,N,0015,5","22000,5,9,N","040234,5,N,5","+0050,C","+0020,C","99999,9",,,,,,,,,,"02,5,+00914,5,99,9",,,"1,99,1,+00914,5,9",,,,"9,AGL   ,+99999,+99999","02,99,5,99,9,99,9,00914,1,99,9,99,9",,,"09970,5,09323,5",,,,,,"MET08209/18/23 09:47:02 METAR PAPT 181847Z 22003KT 25SM FEW030 05/02 A2944 RMK NO SPECI.","R01    057TMP046R02    027DPT046D01      0ADE726"
"70249026526","2023-09-18T20:39:00","7","62.0911","-152.7349","566.3","PUNTILLA, AK US","FM-15","PAPT ","V020","999,9,C,0000,5","22000,5,9,N","040234,5,N,5","+0070,5","+0020,5","99999,9",,,,,,,,,,"02,5,+01219,5,99,9",,,"1,99,1,+01219,5,9",,,,"9,AGL   ,+99999,+99999","02,99,5,99,9,99,9,01219,1,99,9,99,9",,,"09980,5,09332,5",,,,,,"MET08209/18/23 11:39:02 METAR PAPT 182039Z 00000KT 25SM FEW040 07/02 A2947 RMK NO SPECI.","D01      0ADE726"
"70249026526","2023-09-18T22:47:00","7","62.0911","-152.7349","566.3","PUNTILLA, AK US","FM-15","PAPT ","V020","360,5,N,0041,5","22000,5,9,N","040234,5,N,5","+0080,C","+0010,C","99999,9",,,,,,,,,,"02,5,+01219,5,99,9",,,"1,99,1,+01219,5,9",,,,"9,AGL   ,+99999,+99999","02,99,5,99,9,99,9,01219,1,99,9,99,9","240,M,+0084,1","240,N,+0001,1","09997,5,09348,5",,,,,,"MET09809/18/23 13:47:02 METAR PAPT 182247Z 36008KT 25SM FEW040 08/01 A2952 RMK NO SPECI. 400840001 70000","R01    087TMP046R02    017DPT046D01      0ADE726"
"70249026526","2023-09-19T00:50:00","7","62.0911","-152.7349","566.3","PUNTILLA, AK US","FM-15","PAPT ","V020","999,9,V,0026,5","22000,5,9,N","040234,5,N,5","+0080,C","+0020,C","99999,9",,,,,,,,,,"02,5,+01219,5,99,9",,,"1,99,1,+01219,5,9",,,,"9,AGL   ,+99999,+99999","02,99,5,99,9,99,9,01219,1,99,9,99,9",,,"10024,5,09374,5",,,,,,"MET08209/18/23 15:50:01 METAR PAPT 190050Z VRB05KT 25SM FEW040 08/02 A2960 RMK NO SPECI.","R01    087TMP046R02    027DPT046D01      0ADE726"
"70249026526","2023-09-19T02:45:00","7","62.0911","-152.7349","566.3","PUNTILLA, AK US","FM-15","PAPT ","V020","999,9,V,0026,5","22000,5,9,N","040234,5,N,5","+0060,C","-0010,C","99999,9",,,,,,,,,,"02,5,+01219,5,99,9",,,"1,99,1,+01219,5,9",,,,"9,AGL   ,+99999,+99999","02,99,5,99,9,99,9,01219,1,99,9,99,9",,,"10044,5,09393,5",,,,,,"MET08809/18/23 17:45:01 METAR PAPT 190245Z VRB05KT 25SM FEW040 06/M01 A2966 RMK NO SPECI. LAST","R01    067TMP046R02   M017DPT046D01      0ADE726"
"70249026526","2023-09-19T14:47:00","6","62.0911","-152.7349","566.3","PUNTILLA, AK US","FM-15","PAPT ","V020","999,9,C,0000,5","22000,7,9,N","040234,5,N,5","-0030,C","+9999,9","99999,9",,,,,,,,,,"00,7,+99999,9,99,9",,,"0,99,1,+99999,9,9",,,,,,,,"10115,5,09461,5",,,,,,"MET08309/19/23 05:47:02 METAR PAPT 191447Z 00000KT 25SM SKC M03/A2987 RMK NO SPECI. FIRST","R01   SKC7SKY009R02   M037TMP046R03   SKC7GAS009"
"70249026526","2023-09-19T16:57:00","6","62.0911","-152.7349","566.3","PUNTILLA, AK US","FM-15","PAPT ","V020","999,9,C,0000,5","22000,7,9,N","040234,5,N,5","-0040,C","+9999,9","99999,9",,,,,,,,,,"00,7,+99999,9,99,9",,,"0,99,1,+99999,9,9",,,,,,,,"10119,5,09464,5",,,,,,"MET07709/19/23 07:57:02 METAR PAPT 191657Z 00000KT 25SM SKC M04/A2988 RMK NO SPECI.","R01   SKC7SKY009R02   M047TMP046R03   SKC7GAS009"
"70249026526","2023-09-19T18:52:00","6","62.0911","-152.7349","566.3","PUNTILLA, AK US","FM-15","PAPT ","V020","999,9,C,0000,5","22000,7,9,N","040234,5,N,5","+0030,C","-0050,C","99999,9",,,,,,,,,,"00,7,+99999,9,99,9",,,"0,99,1,+99999,9,9",,,,,,,,"10119,5,09464,5",,,,,,"MET08009/19/23 09:52:02 METAR PAPT 191852Z 00000KT 25SM SKC 03/M05 A2988 RMK NO SPECI.","R01   SKC7SKY009R02    037TMP046R03   M057DPT046R04   SKC7GAS009"
"70249026526","2023-09-19T20:52:00","6","62.0911","-152.7349","566.3","PUNTILLA, AK US","FM-15","PAPT ","V020","190,5,N,0021,5","22000,7,9,N","040234,5,N,5","+0070,C","+0020,C","99999,9",,,,,,,,,,"00,7,+99999,9,99,9",,,"0,99,1,+99999,9,9",,,,,,,,"10115,5,09461,5",,,,,,"MET07909/19/23 11:52:02 METAR PAPT 192052Z 19004KT 25SM SKC 07/02 A2987 RMK NO SPECI.","R01   SKC7SKY009R02    077TMP046R03    027DPT046R04   SKC7GAS009"
"70249026526","2023-09-19T22:42:00","6","62.0911","-152.7349","566.3","PUNTILLA, AK US","FM-15","PAPT ","V020","190,5,N,0036,5","22000,7,9,N","040234,5,N,5","+0070,C","+0010,C","99999,9",,,,,,,,,,"00,7,+99999,9,99,9",,,"0,99,1,+99999,9,9",,,,,,,,"10115,5,09461,5",,,,,,"MET09509/19/23 13:42:02 METAR PAPT 192242Z 19007KT 25SM SKC 07/01 A2987 RMK NO SPECI. 400840M44 70000","R01   SKC7SKY009R02    077TMP046R03    017DPT046R04   SKC7GAS009"
"70249026526","2023-09-20T00:47:00","6","62.0911","-152.7349","566.3","PUNTILLA, AK US","FM-15","PAPT ","V020","190,5,N,0036,5","02438,5,M,N","040234,5,N,5","+0070,C","+0020,C","99999,9",,,,,,,,,,"02,5,+01524,5,99,9","08,5,+02438,5,99,9",,"1,99,1,+01524,5,9","4,99,1,+02438,5,9",,,,,,,"10112,5,09458,5",,,,,,"MET08909/19/23 15:47:01 METAR PAPT 200047Z 19007KT 25SM FEW050 OVC080 07/02 A2986 RMK NO SPECI.","R01    077TMP046R02    027DPT046"
"70249026526","2023-09-20T02:45:00","7","62.0911","-152.7349","566.3","PUNTILLA, AK US","FM-15","PAPT ","V020","190,5,N,0036,5","02438,5,M,N","040234,5,N,5","+0060,C","+0010,C","99999,9",,,,,,,,,,"02,5,+01524,5,99,9","08,5,+02438,5,99,9",,"1,99,1,+01524,5,9","4,99,1,+02438,5,9",,,"9,AGL   ,+99999,+99999","99,99,9,99,9,99,9,01524,1,99,9,99,9",,,"10105,5,09451,5",,,,,,"MET09409/19/23 17:45:01 METAR PAPT 200245Z 19007KT 25SM FEW050 OVC080 06/01 A2984 RMK NO SPECI. LAST","R01    067TMP046R02    017DPT046"
"70249026526","2023-09-20T14:53:00","7","62.0911","-152.7349","566.3","PUNTILLA, AK US","FM-15","PAPT ","V020","999,9,C,0000,5","00305,5,M,N","040234,7,N,5","+0010,C","+0010,C","99999,9",,,,,,"1,0,02,0,0,1,5","0,0,00,1,0,1,5","10,5","61,5","08,5,+00305,5,99,9",,,"4,99,1,+00305,5,9",,,,"9,AGL   ,+99999,+99999","99,99,9,99,9,99,9,00305,1,99,9,99,9",,,"10037,5,09387,5",,"10,1","61,5",,,"MET09509/20/23 05:53:02 METAR PAPT 201453Z 00000KT 25SM -RA BR OVC010 01/01 A2964 RMK NO SPECI. FIRST","R01  25SM7VIS011R02    017TMP046R03    017DPT046"
"70249026526","2023-09-20T16:58:00","7","62.0911","-152.7349","566.3","PUNTILLA, AK US","FM-15","PAPT ","V020","160,5,N,0021,5","00152,5,M,N","003219,5,N,5","+0010,C","+0010,C","99999,9",,,,,,"1,0,03,0,0,1,5","1,0,02,0,0,1,5","61,5","71,5","07,5,+00152,5,99,9","08,5,+00610,5,99,9",,"3,99,1,+00152,5,9","4,99,1,+00610,5,9",,,"9,AGL   ,+99999,+99999","99,99,9,99,9,99,9,00152,1,99,9,99,9",,,"10020,5,09371,5",,"61,5","71,5",,,"MET09609/20/23 07:58:02 METAR PAPT 201658Z 16004KT 2SM -SN -RA BKN005 OVC020 01/01 A2959 RMK NO SPECI.","R01    017TMP046R02    017DPT046"
"70249026526","2023-09-20T18:56:00","7","62.0911","-152.7349","566.3","PUNTILLA, AK US","FM-15","PAPT ","V020","999,9,C,0000,5","00244,5,W,N","001609,7,N,5","+0010,C","+0010,C","99999,9",,,,,,"2,0,03,0,0,1,7",,"72,7",,"09,5,+00244,5,99,9",,,"5,99,1,+00244,5,9",,,,"9,AGL   ,+99999,+99999","09,99,1,99,9,99,9,00244,1,99,9,99,9",,,"10007,5,09358,5",,"73,7",,,,"MET08309/20/23 09:56:02 METAR PAPT 201856Z 00000KT 1SM SN VV008 01/01 A2955 RMK NO SPECI.","R01   1SM7VIS012R02    017TMP046R03    017DPT046R04    SN7AWW012R05SEERMK7MVW012R06    SN7MWW012"
"70249026526","2023-09-20T20:45:00","7","62.0911","-152.7349","566.3","PUNTILLA, AK US","FM-15","PAPT ","V020","180,5,N,0026,5","00183,5,M,N","003219,5,N,5","+0020,C","+0020,C","99999,9",,,,,,"1,0,03,0,0,1,5",,"71,5",,"07,5,+00183,5,99,9","08,5,+00457,5,99,9",,"3,99,1,+00183,5,9","4,99,1,+00457,5,9",,,"9,AGL   ,+99999,+99999","99,99,9,99,9,99,9,00183,1,99,9,99,9",,,"09997,5,09348,5",,"71,5",,,,"MET09209/20/23 11:45:02 METAR PAPT 202045Z 18005KT 2SM -SN BKN006 OVC015 02/02 A2952 RMK NO SPECI.","R01    027TMP046R02    027DPT046"
"70249026526","2023-09-20T22:47:00","7","62.0911","-152.7349","566.3","PUNTILLA, AK US","FM-15","PAPT ","V020","999,9,V,0026,5","00274,5,M,N","011265,5,N,5","+0040,C","+0040,C","99999,9",,,,,,,,,,"08,5,+00274,5,99,9",,,"4,99,1,+00274,5,9",,,,"9,AGL   ,+99999,+99999","99,99,9,99,9,99,9,00274,1,99,9,99,9","240,M,+0067,1","240,N,+0006,1","09986,5,09339,5",,,,,,"MET09709/20/23 13:47:02 METAR PAPT 202247Z VRB05KT 7SM OVC009 04/04 A2949 RMK NO SPECI. 400670006 70030","R01    047TMP046R02    047DPT046"
"70249026526","2023-09-21T00:51:00","7","62.0911","-152.7349","566.3","PUNTILLA, AK US","FM-15","PAPT ","V020","190,5,N,0026,5","00457,5,M,N","024140,5,N,5","+0050,C","+0030,C","99999,9",,,,,,,,,,"07,5,+00457,5,99,9","08,5,+01829,5,99,9",,"3,99,1,+00457,5,9","4,99,1,+01829,5,9",,,"9,AGL   ,+99999,+99999","99,99,9,99,9,99,9,00457,1,99,9,99,9",,,"09980,5,09332,5",,,,,,"MET08909/20/23 15:51:01 METAR PAPT 210051Z 19005KT 15SM BKN015 OVC060 05/03 A2947 RMK NO SPECI.","R01    057TMP046R02    037DPT046"
"70249026526","2023-09-21T02:50:00","7","62.0911","-152.7349","566.3","PUNTILLA, AK US","FM-15","PAPT ","V020","350,5,N,0015,5","01829,5,M,N","024140,7,N,5","+0040,C","+0040,C","99999,9",,,,,,,,,,"08,5,+01829,5,99,9",,,"4,99,1,+01829,5,9",,,,,,,,"09976,5,09329,5",,,,,,"MET09409/20/23 17:50:02 METAR PAPT 210250Z 35003KT 15SM SCY015 OVC060 04/04 A2946 RMK NO SPECI. LAST","R01  15SM7VIS011R02    047TMP046R03    047DPT046D01      0ADE693D02      0ADE539"
"70249026526","2023-09-21T08:59:00","O","62.0911","-152.7349","566.3","PUNTILLA, AK US","SOD  ","PAPT ","V020","999,9,9,9999,9","99999,9,9,9","999999,9,9,9","+9999,9","+9999,9","99999,9",,,"AU,16,RA  ,5","AU,18,SN  ,5","AU,13,BR  ,5",,,,,,,,,,,,,,,,,,,,,,,
"70249026526","2023-09-21T14:58:00","7","62.0911","-152.7349","566.3","PUNTILLA, AK US","FM-15","PAPT ","V020","350,5,N,0021,5","00975,5,M,N","040234,5,N,5","+0000,C","+0000,C","99999,9",,,,,,,,,,"07,5,+00975,5,99,9",,,"3,99,1,+00975,5,9",,,,"9,AGL   ,+99999,+99999","99,99,9,99,9,99,9,00975,1,99,9,99,9",,,"10010,5,09361,5",,,,,,"MET08809/21/23 05:58:02 METAR PAPT 211458Z 35004KT 25SM BKN032 00/00 A2956 RMK NO SPECI. FIRST","R01    007TMP046R02    007DPT046"
"70249026526","2023-09-21T16:49:00","7","62.0911","-152.7349","566.3","PUNTILLA, AK US","FM-15","PAPT ","V020","350,5,N,0021,5","22000,5,9,N","040234,5,N,5","+0000,C","+0000,C","99999,9",,,,,,,,,,"02,5,+00914,5,99,9","04,5,+01524,5,99,9",,"1,99,1,+00914,5,9","2,99,1,+01524,5,9",,,"9,AGL   ,+99999,+99999","04,99,5,99,9,99,9,00914,1,99,9,99,9",,,"10020,5,09371,5",,,,,,"MET08909/21/23 07:49:02 METAR PAPT 211649Z 35004KT 25SM FEW030 SCT050 00/00 A2959 RMK NO SPECI.","R01    007TMP046R02    007DPT046D01      0ADE726"
"70249026526","2023-09-21T18:55:00","7","62.0911","-152.7349","566.3","PUNTILLA, AK US","FM-15","PAPT ","V020","999,9,C,0000,5","01829,5,M,N","040234,5,N,5","+0050,C","+0030,C","99999,9",,,,,,,,,,"02,5,+00975,5,99,9","07,5,+01829,5,99,9",,"1,99,1,+00975,5,9","3,99,1,+01829,5,9",,,"9,AGL   ,+99999,+99999","99,99,9,99,9,99,9,00975,1,99,9,99,9",,,"10030,5,09381,5",,,,,,"MET08909/21/23 09:55:02 METAR PAPT 211855Z 00000KT 25SM FEW032 BKN060 05/03 A2962 RMK NO SPECI.","R01    057TMP046R02    037DPT046"
"70249026526","2023-09-21T20:48:00","7","62.0911","-152.7349","566.3","PUNTILLA, AK US","FM-15","PAPT ","V020","999,9,V,0021,5","01829,5,M,N","040234,5,N,5","+0070,C","+0030,C","99999,9",,,,,,,,,,"02,5,+00975,5,99,9","07,5,+01829,5,99,9",,"1,99,1,+00975,5,9","3,99,1,+01829,5,9",,,"9,AGL   ,+99999,+99999","99,99,9,99,9,99,9,00975,1,99,9,99,9",,,"10037,5,09387,5",,,,,,"MET08909/21/23 11:48:02 METAR PAPT 212048Z VRB04KT 25SM FEW032 BKN060 07/03 A2964 RMK NO SPECI.","R01    077TMP046R02    037DPT046"
"70249026526","2023-09-21T22:49:00","7","62.0911","-152.7349","566.3","PUNTILLA, AK US","FM-15","PAPT ","V020","350,5,N,0036,5","01006,5,M,N","040234,5,N,5","+0090,C","+0050,C","99999,9",,,,,,,,,,"07,5,+01006,5,99,9",,,"3,99,1,+01006,5,9",,,,"9,AGL   ,+99999,+99999","99,99,9,99,9,99,9,01006,1,99,9,99,9","240,M,+0089,1","240,N,+0001,1","10044,5,09393,5",,,,,,"MET09809/21/23 13:49:02 METAR PAPT 212249Z 35007KT 25SM BKN033 09/05 A2966 RMK NO SPECI. 400890001 70003","R01    097TMP046R02    057DPT046"
"70249026526","2023-09-22T00:52:00","7","62.0911","-152.7349","566.3","PUNTILLA, AK US","FM-15","PAPT ","V020","350,5,N,0036,5","01006,5,M,N","040234,5,N,5","+0070,C","+0030,C","99999,9",,,,,,,,,,"07,5,+01006,5,99,9",,,"3,99,1,+01006,5,9",,,,"9,AGL   ,+99999,+99999","99,99,9,99,9,99,9,01006,1,99,9,99,9",,,"10047,5,09397,5",,,,,,"MET08209/21/23 15:52:01 METAR PAPT 220052Z 35007KT 25SM BKN033 07/03 A2967 RMK NO SPECI.","R01    077TMP046R02    037DPT046"
"70249026526","2023-09-22T02:57:00","7","62.0911","-152.7349","566.3","PUNTILLA, AK US","FM-15","PAPT ","V020","350,5,N,0036,5","01006,5,M,N","040234,5,N,5","+0050,C","+0010,C","99999,9",,,,,,,,,,"07,5,+01006,5,99,9",,,"3,99,1,+01006,5,9",,,,"9,AGL   ,+99999,+99999","99,99,9,99,9,99,9,01006,1,99,9,99,9",,,"10051,5,09400,5",,,,,,"MET08709/21/23 17:57:01 METAR PAPT 220257Z 35007KT 25SM BKN033 05/01 A2968 RMK NO SPECI. LAST","R01    057TMP046R02    017DPT046"
"70249026526","2023-09-22T14:56:00","7","62.0911","-152.7349","566.3","PUNTILLA, AK US","FM-15","PAPT ","V020","999,9,V,0021,5","22000,7,9,N","040234,5,N,5","-0020,C","+9999,9","99999,9",,,,,,,,,,"00,7,+99999,9,99,9",,,"0,99,1,+99999,9,9",,,,,"00,99,1,99,9,99,9,99999,9,99,9,99,9",,,"10051,5,09400,5",,,,,,"MET08309/22/23 05:56:02 METAR PAPT 221456Z VRB04KT 25SM SKC M02/A2968 RMK NO SPECI. FIRST","R01   SKC7SKY009R02   M027TMP046R03   SKC7GAS009"
"70249026526","2023-09-22T16:52:00","7","62.0911","-152.7349","566.3","PUNTILLA, AK US","FM-15","PAPT ","V020","999,9,V,0021,5","22000,7,9,N","040234,5,N,5","-0030,C","+9999,9","99999,9",,,,,,,,,,"00,7,+99999,9,99,9",,,"0,99,1,+99999,9,9",,,,,"00,99,1,99,9,99,9,99999,9,99,9,99,9",,,"10051,5,09400,5",,,,,,"MET07709/22/23 07:52:02 METAR PAPT 221652Z VRB04KT 25SM SKC M03/A2968 RMK NO SPECI.","R01   SKC7SKY009R02   M037TMP046R03   SKC7GAS009"
"70249026526","2023-09-22T18:52:00","7","62.0911","-152.7349","566.3","PUNTILLA, AK US","FM-15","PAPT ","V020","999,9,V,0021,5","22000,7,9,N","040234,5,N,5","+0030,C","+0000,C","99999,9",,,,,,,,,,"00,7,+99999,9,99,9",,,"0,99,1,+99999,9,9",,,,,"00,99,1,99,9,99,9,99999,9,99,9,99,9",,,"10044,5,09393,5",,,,,,"MET07909/22/23 09:52:02 METAR PAPT 221852Z VRB04KT 25SM SKC 03/00 A2966 RMK NO SPECI.","R01   SKC7SKY009R02    037TMP046R03    007DPT046R04   SKC7GAS009"
"70249026526","2023-09-22T20:54:00","7","62.0911","-152.7349","566.3","PUNTILLA, AK US","FM-15","PAPT ","V020","010,5,N,0036,5","22000,7,9,N","040234,5,N,5","+0060,C","+0020,C","99999,9",,,,,,,,,,"00,7,+99999,9,99,9",,,"0,99,1,+99999,9,9",,,,,"00,99,1,99,9,99,9,99999,9,99,9,99,9",,,"10041,5,09390,5",,,,,,"MET07909/22/23 11:54:02 METAR PAPT 222054Z 01007KT 25SM SKC 06/02 A2965 RMK NO SPECI.","R01   SKC7SKY009R02    067TMP046R03    027DPT046R04   SKC7GAS009"
"70249026526","2023-09-22T22:56:00","7","62.0911","-152.7349","566.3","PUNTILLA, AK US","FM-15","PAPT ","V020","050,5,N,0026,5","22000,5,9,N","040234,5,N,5","+0080,C","+0040,C","99999,9",,,,,,,,,,"02,5,+01219,5,99,9",,,"1,99,1,+01219,5,9",,,,"9,AGL   ,+99999,+99999","02,99,5,99,9,99,9,01219,1,99,9,99,9",,,"10030,5,09381,5",,,,,,"MET08209/22/23 13:56:02 METAR PAPT 222256Z 05005KT 25SM FEW040 08/04 A2962 RMK NO SPECI.","R01    087TMP046R02    047DPT046D01      0ADE726"
"70249026526","2023-09-23T00:51:00","7","62.0911","-152.7349","566.3","PUNTILLA, AK US","FM-15","PAPT ","V020","999,9,V,0026,5","22000,5,9,N","040234,5,N,5","+0080,C","+0030,C","99999,9",,,,,,,,,,"02,5,+01372,5,99,9",,,"1,99,1,+01372,5,9",,,,"9,AGL   ,+99999,+99999","02,99,5,99,9,99,9,01372,1,99,9,99,9","240,M,+0084,1","240,N,-0033,1","10024,5,09374,5",,,,,,"MET09809/22/23 15:51:01 METAR PAPT 230051Z VRB05KT 25SM FEW045 08/03 A2960 RMK NO SPECI. 400841033 70000","R01    087TMP046R02    037DPT046D01      0ADE726"
"70249026526","2023-09-23T02:52:00","7","62.0911","-152.7349","566.3","PUNTILLA, AK US","FM-15","PAPT ","V020","350,5,N,0026,5","22000,5,9,N","040234,5,N,5","+0060,C","+0020,C","99999,9",,,,,,,,,,"02,5,+01372,5,99,9",,,"1,99,1,+01372,5,9",,,,"9,AGL   ,+99999,+99999","02,99,5,99,9,99,9,01372,1,99,9,99,9",,,"10020,5,09371,5",,,,,,"MET08709/22/23 17:52:01 METAR PAPT 230252Z 35005KT 25SM FEW045 06/02 A2959 RMK NO SPECI. LAST","R01    067TMP046R02    027DPT046D01      0ADE726"
"70249026526","2023-09-23T14:52:00","7","62.0911","-152.7349","566.3","PUNTILLA, AK US","FM-15","PAPT ","V020","999,9,C,0000,5","00914,5,M,N","040234,5,N,5","-0060,C","+9999,9","99999,9",,,,,,,,,,"07,5,+00914,5,99,9",,,"3,99,1,+00914,5,9",,,,"9,AGL   ,+99999,+99999","99,99,9,99,9,99,9,00914,1,99,9,99,9",,,"10024,5,09374,5",,,,,,"MET08009/23/23 05:52:02 METAR PAPT 231452Z 00000KT 25SM BKN030 M06/A2960 RMK NO SPECI.","R01   M067TMP046"
"70249026526","2023-09-23T16:50:00","7","62.0911","-152.7349","566.3","PUNTILLA, AK US","FM-15","PAPT ","V020","999,9,C,0000,5","01524,5,M,N","040234,5,N,5","-0030,C","+9999,9","99999,9",,,,,,,,,,"07,5,+01524,5,99,9",,,"3,99,1,+01524,5,9",,,,"9,AGL   ,+99999,+99999","99,99,9,99,9,99,9,01524,1,99,9,99,9",,,"10020,5,09371,5",,,,,,"MET08009/23/23 07:50:02 METAR PAPT 231650Z 00000KT 25SM BKN050 M03/A2959 RMK NO SPECI.","R01   M037TMP046"
"70249026526","2023-09-23T19:02:00","7","62.0911","-152.7349","566.3","PUNTILLA, AK US","FM-15","PAPT ","V020","999,9,C,0000,5","01524,5,M,N","040234,5,N,5","+0010,5","-0020,5","99999,9",,,,,,,,,,"07,5,+01524,5,99,9",,,"3,99,1,+01524,5,9",,,,"9,AGL   ,+99999,+99999","99,99,9,99,9,99,9,01524,1,99,9,99,9",,,"10024,5,09374,5",,,,,,"MET08309/23/23 10:02:02 METAR PAPT 231902Z 00000KT 25SM BKN050 01/M02 A2960 RMK NO SPECI.",
"70249026526","2023-09-23T20:51:00","7","62.0911","-152.7349","566.3","PUNTILLA, AK US","FM-15","PAPT ","V020","999,9,C,0000,5","01524,5,M,N","040234,5,N,5","+0040,C","+0010,C","99999,9",,,,,,,,,,"08,5,+01524,5,99,9",,,"4,99,1,+01524,5,9",,,,"9,AGL   ,+99999,+99999","99,99,9,99,9,99,9,01524,1,99,9,99,9",,,"10027,5,09377,5",,,,,,"MET08209/23/23 11:51:02 METAR PAPT 232051Z 00000KT 25SM OVC050 04/01 A2961 RMK NO SPECI.","R01    047TMP046R02    017DPT046"
"70249026526","2023-09-23T22:50:00","7","62.0911","-152.7349","566.3","PUNTILLA, AK US","FM-15","PAPT ","V020","190,5,N,0036,5","01372,5,M,N","040234,5,N,5","+0070,C","+0020,C","99999,9",,,,,,,,,,"07,5,+01372,5,99,9",,,"3,99,1,+01372,5,9",,,,"9,AGL   ,+99999,+99999","99,99,9,99,9,99,9,01372,1,99,9,99,9","240,M,+0078,1","240,N,-0055,1","10024,5,09374,5",,,,,,"MET09809/23/23 13:50:02 METAR PAPT 232250Z 19007KT 25SM BKN045 07/02 A2960 RMK NO SPECI. 400781055 70000","R01    077TMP046R02    027DPT046"
"70249026526","2023-09-24T00:46:00","7","62.0911","-152.7349","566.3","PUNTILLA, AK US","FM-15","PAPT ","V020","999,9,C,0000,5","01372,5,M,N","040234,5,N,5","+0060,C","+0020,C","99999,9",,,,,,,,,,"07,5,+01372,5,99,9",,,"3,99,1,+01372,5,9",,,,"9,AGL   ,+99999,+99999","99,99,9,99,9,99,9,01372,1,99,9,99,9",,,"10027,5,09377,5",,,,,,"MET08209/23/23 15:46:01 METAR PAPT 240046Z 00000KT 25SM BKN045 06/02 A2961 RMK NO SPECI.","R01    067TMP046R02    027DPT046"
"70249026526","2023-09-24T02:44:00","7","62.0911","-152.7349","566.3","PUNTILLA, AK US","FM-15","PAPT ","V020","999,9,C,0000,5","01524,5,M,N","040234,5,N,5","+0060,C","+0030,C","99999,9",,,,,,,,,,"08,5,+01524,5,99,9",,,"4,99,1,+01524,5,9",,,,"9,AGL   ,+99999,+99999","99,99,9,99,9,99,9,01524,1,99,9,99,9",,,"10030,5,09381,5",,,,,,"MET08709/23/23 17:44:01 METAR PAPT 240244Z 00000KT 25SM OVC050 06/03 A2962 RMK NO SPECI. LAST","R01    067TMP046R02    037DPT046"
"70249026526","2023-09-24T14:53:00","7","62.0911","-152.7349","566.3","PUNTILLA, AK US","FM-15","PAPT ","V020","999,9,C,0000,5","00914,5,M,N","024140,5,N,5","+0010,C","-0010,C","99999,9",,,,,,,,,,"08,5,+00914,5,99,9",,,"4,99,1,+00914,5,9",,,,"9,AGL   ,+99999,+99999","99,99,9,99,9,99,9,00914,1,99,9,99,9",,,"10068,5,09416,5",,,,,,"MET08909/24/23 05:53:02 METAR PAPT 241453Z 00000KT 15SM OVC030 01/M01 A2973 RMK NO SPECI. FIRST","R01    017TMP046R02   M017DPT046"
"70249026526","2023-09-24T16:40:00","7","62.0911","-152.7349","566.3","PUNTILLA, AK US","FM-15","PAPT ","V020","999,9,C,0000,5","01829,5,M,N","040234,5,N,5","+0000,5","+9999,9","99999,9",,,,,,,,,,"07,5,+01829,5,99,9",,,"3,99,1,+01829,5,9",,,,"9,AGL   ,+99999,+99999","99,99,9,99,9,99,9,01829,1,99,9,99,9",,,"10071,5,09419,5",,,,,,"MET07909/24/23 07:40:02 METAR PAPT 241640Z 00000KT 25SM BKN060 00/A2974 RMK NO SPECI.",
"70249026526","2023-09-24T18:44:00","7","62.0911","-152.7349","566.3","PUNTILLA, AK US","FM-15","PAPT ","V020","340,5,N,0021,5","01829,5,M,N","040234,5,N,5","+0030,C","+0020,C","99999,9",,,,,,,,,,"08,5,+01829,5,99,9",,,"4,99,1,+01829,5,9",,,,"9,AGL   ,+99999,+99999","99,99,9,99,9,99,9,01829,1,99,9,99,9",,,"10075,5,09422,5",,,,,,"MET08209/24/23 09:44:02 METAR PAPT 241844Z 34004KT 25SM OVC060 03/02 A2975 RMK NO SPECI.","R01    037TMP046R02    027DPT046"
"70249026526","2023-09-24T20:52:00","7","62.0911","-152.7349","566.3","PUNTILLA, AK US","FM-15","PAPT ","V020","340,5,N,0021,5","01829,5,M,N","040234,5,N,5","+0060,C","+0020,C","99999,9",,,,,,,,,,"08,5,+01829,5,99,9",,,"4,99,1,+01829,5,9",,,,"9,AGL   ,+99999,+99999","99,99,9,99,9,99,9,01829,1,99,9,99,9",,,"10078,5,09425,5",,,,,,"MET08209/24/23 11:52:02 METAR PAPT 242052Z 34004KT 25SM OVC060 06/02 A2976 RMK NO SPECI.","R01    067TMP046R02    027DPT046"
"70249026526","2023-09-24T23:00:00","7","62.0911","-152.7349","566.3","PUNTILLA, AK US","FM-15","PAPT ","V020","230,5,N,0031,5","01829,5,M,N","040234,5,N,5","+0090,C","+0030,C","99999,9",,,,,,,,,,"07,5,+01829,5,99,9",,,"3,99,1,+01829,5,9",,,,"9,AGL   ,+99999,+99999","99,99,9,99,9,99,9,01829,1,99,9,99,9","240,M,+0089,1","240,N,+0006,1","10075,5,09422,5",,,,,,"MET09809/24/23 14:00:02 METAR PAPT 242300Z 23006KT 25SM BKN060 09/03 A2975 RMK NO SPECI. 400890006 70000","R01    097TMP046R02    037DPT046"
"70249026526","2023-09-25T00:58:00","7","62.0911","-152.7349","566.3","PUNTILLA, AK US","FM-15","PAPT ","V020","340,5,N,0036,5","01829,5,M,N","040234,5,N,5","+0070,C","+0020,C","99999,9",,,,,,,,,,"08,5,+01829,5,99,9",,,"4,99,1,+01829,5,9",,,,"9,AGL   ,+99999,+99999","99,99,9,99,9,99,9,01829,1,99,9,99,9",,,"10071,5,09419,5",,,,,,"MET08209/24/23 15:58:01 METAR PAPT 250058Z 34007KT 25SM OVC060 07/02 A2974 RMK NO SPECI.","R01    077TMP046R02    027DPT046"
"70249026526","2023-09-25T02:48:00","7","62.0911","-152.7349","566.3","PUNTILLA, AK US","FM-15","PAPT ","V020","220,5,N,0026,5","01829,5,M,N","040234,5,N,5","+0070,C","+0030,C","99999,9",,,,,,,,,,"07,5,+01829,5,99,9",,,"3,99,1,+01829,5,9",,,,"9,AGL   ,+99999,+99999","99,99,9,99,9,99,9,01829,1,99,9,99,9",,,"10071,5,09419,5",,,,,,"MET08709/24/23 17:48:01 METAR PAPT 250248Z 22005KT 25SM BKN060 07/03 A2974 RMK NO SPECI. LAST","R01    077TMP046R02    037DPT046"
"70249026526","2023-09-25T14:57:00","7","62.0911","-152.7349","566.3","PUNTILLA, AK US","FM-15","PAPT ","V020","350,5,N,0015,5","01829,5,M,N","032187,5,N,5","+0000,C","+0000,C","99999,9",,,,,,,,,,"08,5,+01829,5,99,9",,,"4,99,1,+01829,5,9",,,,"9,AGL   ,+99999,+99999","99,99,9,99,9,99,9,01829,1,99,9,99,9",,,"10044,5,09393,5",,,,,,"MET08809/25/23 05:57:02 METAR PAPT 251457Z 35003KT 20SM OVC060 00/00 A2966 RMK NO SPECI. FIRST","R01    007TMP046R02    007DPT046"
"70249026526","2023-09-25T16:51:00","7","62.0911","-152.7349","566.3","PUNTILLA, AK US","FM-15","PAPT ","V020","360,5,N,0015,5","02134,5,M,N","040234,5,N,5","+0010,C","-0010,C","99999,9",,,,,,,,,,"08,5,+02134,5,99,9",,,"4,99,1,+02134,5,9",,,,"9,AGL   ,+99999,+99999","99,99,9,99,9,99,9,02134,1,99,9,99,9",,,"10037,5,09387,5",,,,,,"MET08309/25/23 07:51:02 METAR PAPT 251651Z 36003KT 25SM OVC070 01/M01 A2964 RMK NO SPECI.","R01    017TMP046R02   M017DPT046"
"70249026526","2023-09-25T18:50:00","7","62.0911","-152.7349","566.3","PUNTILLA, AK US","FM-15","PAPT ","V020","999,9,C,0000,5","02134,5,M,N","040234,5,N,5","+0030,C","+0020,C","99999,9",,,,,,,,,,"07,5,+02134,5,99,9",,,"3,99,1,+02134,5,9",,,,"9,AGL   ,+99999,+99999","99,99,9,99,9,99,9,02134,1,99,9,99,9",,,"10030,5,09381,5",,,,,,"MET08209/25/23 09:50:02 METAR PAPT 251850Z 00000KT 25SM BKN070 03/02 A2962 RMK NO SPECI.","R01    037TMP046R02    027DPT046"
"70249026526","2023-09-25T21:00:00","7","62.0911","-152.7349","566.3","PUNTILLA, AK US","FM-15","PAPT ","V020","999,9,C,0000,5","02134,5,M,N","040234,5,N,5","+0060,C","+0020,C","99999,9",,,,,,,,,,"07,5,+02134,5,99,9",,,"3,99,1,+02134,5,9",,,,"9,AGL   ,+99999,+99999","99,99,9,99,9,99,9,02134,1,99,9,99,9",,,"10020,5,09371,5",,,,,,"MET08209/25/23 12:00:02 METAR PAPT 252100Z 00000KT 25SM BKN070 06/02 A2959 RMK NO SPECI.","R01    067TMP046R02    027DPT046"
"70249026526","2023-09-25T22:49:00","7","62.0911","-152.7349","566.3","PUNTILLA, AK US","FM-15","PAPT ","V020","230,5,N,0031,5","22000,5,9,N","040234,5,N,5","+0100,C","+0030,C","99999,9",,,,,,,,,,"04,5,+02438,5,99,9",,,"2,99,1,+02438,5,9",,,,"9,AGL   ,+99999,+99999","04,99,5,99,9,99,9,02438,1,99,9,99,9","240,M,+0101,1","240,N,+0001,1","10010,5,09361,5",,,,,,"MET09809/25/23 13:49:02 METAR PAPT 252249Z 23006KT 25SM SCT080 10/03 A2956 RMK NO SPECI. 401010001 70000","R01    107TMP046R02    037DPT046D01      0ADE726"
"70249026526","2023-09-26T00:49:00","7","62.0911","-152.7349","566.3","PUNTILLA, AK US","FM-15","PAPT ","V020","999,9,C,0000,5","22000,5,9,N","040234,5,N,5","+0080,C","+0030,C","99999,9",,,,,,,,,,"04,5,+02438,5,99,9",,,"2,99,1,+02438,5,9",,,,"9,AGL   ,+99999,+99999","04,99,5,99,9,99,9,02438,1,99,9,99,9",,,"10000,5,09352,5",,,,,,"MET08209/25/23 15:49:01 METAR PAPT 260049Z 00000KT 25SM SCT080 08/03 A2953 RMK NO SPECI.","R01    087TMP046R02    037DPT046D01      0ADE726"
"70249026526","2023-09-26T02:47:00","7","62.0911","-152.7349","566.3","PUNTILLA, AK US","FM-15","PAPT ","V020","340,5,N,0036,5","02438,5,M,N","040234,5,N,5","+0060,C","+0030,C","99999,9",,,,,,,,,,"07,5,+02438,5,99,9",,,"3,99,1,+02438,5,9",,,,"9,AGL   ,+99999,+99999","99,99,9,99,9,99,9,02438,1,99,9,99,9",,,"10000,5,09352,5",,,,,,"MET08709/25/23 17:47:01 METAR PAPT 260247Z 34007KT 25SM BKN080 06/03 A2953 RMK NO SPECI. LAST","R01    067TMP046R02    037DPT046"
"70249026526","2023-09-26T14:58:00","7","62.0911","-152.7349","566.3","PUNTILLA, AK US","FM-15","PAPT ","V020","350,5,N,0021,5","02438,5,M,N","040234,5,N,5","+0000,C","+0000,C","99999,9",,,,,,,,,,"07,5,+02438,5,99,9",,,"3,99,1,+02438,5,9",,,,"9,AGL   ,+99999,+99999","99,99,9,99,9,99,9,02438,1,99,9,99,9",,,"10003,5,09355,5",,,,,,"MET08809/26/23 05:58:02 METAR PAPT 261458Z 35004KT 25SM BKN080 00/00 A2954 RMK NO SPECI. FIRST","R01    007TMP046R02    007DPT046"
"70249026526","2023-09-26T16:51:00","7","62.0911","-152.7349","566.3","PUNTILLA, AK US","FM-15","PAPT ","V020","360,5,N,0015,5","02438,5,M,N","040234,5,N,5","-0010,C","-0010,C","99999,9",,,,,,,,,,"07,5,+02438,5,99,9",,,"3,99,1,+02438,5,9",,,,"9,AGL   ,+99999,+99999","99,99,9,99,9,99,9,02438,1,99,9,99,9",,,"10003,5,09355,5",,,,,,"MET08409/26/23 07:51:02 METAR PAPT 261651Z 36003KT 25SM BKN080 M01/M01 A2954 RMK NO SPECI.","R01   M017TMP046R02   M017DPT046"
"70249026526","2023-09-26T18:50:00","7","62.0911","-152.7349","566.3","PUNTILLA, AK US","FM-15","PAPT ","V020","350,5,N,0026,5","22000,5,9,N","040234,5,N,5","+0050,C","-0010,C","99999,9",,,,,,,,,,"02,5,+02438,5,99,9","04,5,+03048,5,99,9",,"1,99,1,+02438,5,9","2,99,1,+03048,5,9",,,"9,AGL   ,+99999,+99999","04,99,5,99,9,99,9,02438,1,99,9,99,9",,,"10000,5,09352,5",,,,,,"MET09009/26/23 09:50:02 METAR PAPT 261850Z 35005KT 25SM FEW080 SCT100 05/M01 A2953 RMK NO SPECI.","R01    057TMP046R02   M017DPT046D01      0ADE726"
"70249026526","2023-09-26T20:51:00","7","62.0911","-152.7349","566.3","PUNTILLA, AK US","FM-15","PAPT ","V020","340,5,N,0031,5","22000,5,9,N","040234,5,N,5","+0060,C","+0010,C","99999,9",,,,,,,,,,"04,5,+01372,5,99,9",,,"2,99,1,+01372,5,9",,,,"9,AGL   ,+99999,+99999","04,99,5,99,9,99,9,01372,1,99,9,99,9",,,"10003,5,09355,5",,,,,,"MET08209/26/23 11:51:02 METAR PAPT 262051Z 34006KT 25SM SCT045 06/01 A2954 RMK NO SPECI.","R01    067TMP046R02    017DPT046D01      0ADE726"
"70249026526","2023-09-26T22:40:00","7","62.0911","-152.7349","566.3","PUNTILLA, AK US","FM-15","PAPT ","V020","360,5,N,0041,5","22000,5,9,N","040234,5,N,5","+0070,5","+0020,5","99999,9",,,,,,,,,,"04,5,+01463,5,99,9",,,"2,99,1,+01463,5,9",,,,"9,AGL   ,+99999,+99999","04,99,5,99,9,99,9,01463,1,99,9,99,9","240,M,+0078,1","240,N,+0001,1","10003,5,09355,5",,,,,,"MET09809/26/23 13:40:02 METAR PAPT 262240Z 36008KT 25SM SCT048 07/02 A2954 RMK NO SPECI. 400780001 70000","D01      0ADE726"
"70249026526","2023-09-27T00:44:00","7","62.0911","-152.7349","566.3","PUNTILLA, AK US","FM-15","PAPT ","V020","350,5,N,0041,5","01372,5,M,N","040234,5,N,5","+0060,C","+0020,C","99999,9",,,,,,,,,,"07,5,+01372,5,99,9",,,"3,99,1,+01372,5,9",,,,"9,AGL   ,+99999,+99999","99,99,9,99,9,99,9,01372,1,99,9,99,9",,,"10010,5,09361,5",,,,,,"MET08209/26/23 15:44:01 METAR PAPT 270044Z 35008KT 25SM BKN045 06/02 A2956 RMK NO SPECI.","R01    067TMP046R02    027DPT046"
"70249026526","2023-09-27T02:44:00","7","62.0911","-152.7349","566.3","PUNTILLA, AK US","FM-15","PAPT ","V020","350,5,N,0041,5","01372,5,M,N","040234,5,N,5","+0040,C","+0000,C","99999,9",,,,,,,,,,"07,5,+01372,5,99,9",,,"3,99,1,+01372,5,9",,,,"9,AGL   ,+99999,+99999","99,99,9,99,9,99,9,01372,1,99,9,99,9",,,"10017,5,09368,5",,,,,,"MET08709/26/23 17:44:01 METAR PAPT 270244Z 35008KT 25SM BKN045 04/00 A2958 RMK NO SPECI. LAST","R01    047TMP046R02    007DPT046"
"70249026526","2023-09-27T14:55:00","7","62.0911","-152.7349","566.3","PUNTILLA, AK US","FM-15","PAPT ","V020","350,5,N,0062,5","01372,5,M,N","040234,5,N,5","+0020,C","-0040,C","99999,9",,,,,,,,,,"07,5,+01372,5,99,9",,,"3,99,1,+01372,5,9",,,,"9,AGL   ,+99999,+99999","99,99,9,99,9,99,9,01372,1,99,9,99,9",,,"10058,5,09406,5",,,,,,"MET08909/27/23 05:55:02 METAR PAPT 271455Z 35012KT 25SM BKN045 02/M04 A2970 RMK NO SPECI. FIRST","R01    027TMP046R02   M047DPT046"
"70249026526","2023-09-27T16:45:00","7","62.0911","-152.7349","566.3","PUNTILLA, AK US","FM-15","PAPT ","V020","350,5,N,0082,5","01372,5,M,N","040234,5,N,5","+0020,C","-0020,C","99999,9",,,,,,,,,,"07,5,+01372,5,99,9",,,"3,99,1,+01372,5,9",,,,"9,AGL   ,+99999,+99999","99,99,9,99,9,99,9,01372,1,99,9,99,9",,,"10061,5,09409,5",,,,,,"MET08309/27/23 07:45:02 METAR PAPT 271645Z 35016KT 25SM BKN045 02/M02 A2971 RMK NO SPECI.","R01    027TMP046R02   M027DPT046"
"70249026526","2023-09-27T18:45:00","7","62.0911","-152.7349","566.3","PUNTILLA, AK US","FM-15","PAPT ","V020","350,5,N,0082,5","01463,5,M,N","040234,5,N,5","+0020,C","-0010,C","99999,9",,,,,,,,,,"07,5,+01463,5,99,9",,,"3,99,1,+01463,5,9",,,,"9,AGL   ,+99999,+99999","99,99,9,99,9,99,9,01463,1,99,9,99,9",,,"10071,5,09419,5",,,,,,"MET08309/27/23 09:45:02 METAR PAPT 271845Z 35016KT 25SM BKN048 02/M01 A2974 RMK NO SPECI.","R01    027TMP046R02   M017DPT046"
"70249026526","2023-09-27T20:45:00","7","62.0911","-152.7349","566.3","PUNTILLA, AK US","FM-15","PAPT ","V020","350,5,N,0062,5","01463,5,M,N","040234,5,N,5","+0040,C","-0020,C","99999,9",,,,,,,,,,"07,5,+01463,5,99,9",,,"3,99,1,+01463,5,9",,,,"9,AGL   ,+99999,+99999","99,99,9,99,9,99,9,01463,1,99,9,99,9",,,"10078,5,09425,5",,,,,,"MET08309/27/23 11:45:02 METAR PAPT 272045Z 35012KT 25SM BKN048 04/M02 A2976 RMK NO SPECI.","R01    047TMP046R02   M027DPT046"
"70249026526","2023-09-27T22:51:00","7","62.0911","-152.7349","566.3","PUNTILLA, AK US","FM-15","PAPT ","V020","350,5,N,0077,5","01524,5,M,N","040234,5,N,5","+0040,C","-0020,C","99999,9",,,,,,,,,,"07,5,+01524,5,99,9",,,"3,99,1,+01524,5,9",,,,"9,AGL   ,+99999,+99999","99,99,9,99,9,99,9,01524,1,99,9,99,9","240,M,+0044,1","240,N,+0001,1","10091,5,09438,5",,,,,,"MET09909/27/23 13:51:02 METAR PAPT 272251Z 35015KT 25SM BKN050 04/M02 A2980 RMK NO SPECI. 400440001 70000","R01    047TMP046R02   M027DPT046"
"70249026526","2023-09-28T00:51:00","7","62.0911","-152.7349","566.3","PUNTILLA, AK US","FM-15","PAPT ","V020","360,5,N,0041,5","01524,5,M,N","040234,5,N,5","+0050,C","+0010,C","99999,9",,,,,,,,,,"07,5,+01524,5,99,9",,,"3,99,1,+01524,5,9",,,,"9,AGL   ,+99999,+99999","99,99,9,99,9,99,9,01524,1,99,9,99,9",,,"10105,5,09451,5",,,,,,"MET08209/27/23 15:51:01 METAR PAPT 280051Z 36008KT 25SM BKN050 05/01 A2984 RMK NO SPECI.","R01    057TMP046R02    017DPT046"
"70249026526","2023-09-28T02:45:00","7","62.0911","-152.7349","566.3","PUNTILLA, AK US","FM-15","PAPT ","V020","350,5,N,0036,5","01463,5,M,N","040234,5,N,5","+0020,C","-0020,C","99999,9",,,,,,,,,,"07,5,+01463,5,99,9",,,"3,99,1,+01463,5,9",,,,"9,AGL   ,+99999,+99999","99,99,9,99,9,99,9,01463,1,99,9,99,9",,,"10115,5,09461,5",,,,,,"MET08809/27/23 17:45:01 METAR PAPT 280245Z 35007KT 25SM BKN048 02/M02 A2987 RMK NO SPECI. LAST","R01    027TMP046R02   M027DPT046"
"70249026526","2023-09-28T14:52:00","7","62.0911","-152.7349","566.3","PUNTILLA, AK US","FM-15","PAPT ","V020","360,5,N,0010,5","22000,7,9,N","040234,5,N,5","-0070,C","-0070,C","99999,9",,,,,,,,,,"00,7,+99999,9,99,9",,,"0,99,1,+99999,9,9",,,,,"00,99,1,99,9,99,9,99999,9,99,9,99,9",,,"10139,5,09483,5",,,,,,"MET08709/28/23 05:52:02 METAR PAPT 281452Z 36002KT 25SM SKC M07/M07 A2994 RMK NO SPECI. FIRST","R01   SKC7SKY009R02   M077TMP046R03   M077DPT046R04   SKC7GAS009"
"70249026526","2023-09-28T16:47:00","7","62.0911","-152.7349","566.3","PUNTILLA, AK US","FM-15","PAPT ","V020","350,5,N,0026,5","22000,7,9,N","040234,5,N,5","-0080,C","-0080,C","99999,9",,,,,,,,,,"00,7,+99999,9,99,9",,,"0,99,1,+99999,9,9",,,,,"00,99,1,99,9,99,9,99999,9,99,9,99,9",,,"10146,5,09490,5",,,,,,"MET08109/28/23 07:47:02 METAR PAPT 281647Z 35005KT 25SM SKC M08/M08 A2996 RMK NO SPECI.","R01   SKC7SKY009R02   M087TMP046R03   M087DPT046R04   SKC7GAS009"
"70249026526","2023-09-28T18:48:00","7","62.0911","-152.7349","566.3","PUNTILLA, AK US","FM-15","PAPT ","V020","230,5,N,0000,5","22000,5,9,N","040234,5,N,5","-0010,C","-0010,C","99999,9",,,,,,,,,,"02,5,+03048,5,99,9",,,"1,99,1,+03048,5,9",,,,"9,AGL   ,+99999,+99999","02,99,5,99,9,99,9,03048,1,99,9,99,9",,,"10146,5,09490,5",,,,,,"MET08409/28/23 09:48:02 METAR PAPT 281848Z 23000KT 25SM FEW100 M01/M01 A2996 RMK NO SPECI.","R01   M017TMP046R02   M017DPT046D01      0ADE726"
"70249026526","2023-09-28T20:55:00","7","62.0911","-152.7349","566.3","PUNTILLA, AK US","FM-15","PAPT ","V020","230,5,N,0000,5","22000,5,9,N","040234,5,N,5","+0050,C","+0010,C","99999,9",,,,,,,,,,"04,5,+03048,5,99,9",,,"2,99,1,+03048,5,9",,,,"9,AGL   ,+99999,+99999","04,99,5,99,9,99,9,03048,1,99,9,99,9",,,"10142,5,09486,5",,,,,,"MET08209/28/23 11:55:02 METAR PAPT 282055Z 23000KT 25SM SCT100 05/01 A2995 RMK NO SPECI.","R01    057TMP046R02    017DPT046D01      0ADE726"
"70249026526","2023-09-28T22:50:00","7","62.0911","-152.7349","566.3","PUNTILLA, AK US","FM-15","PAPT ","V020","170,5,N,0026,5","03048,5,M,N","040234,5,N,5","+0060,C","+0010,C","99999,9",,,,,,,,,,"07,5,+03048,5,99,9",,,"3,99,1,+03048,5,9",,,,"9,AGL   ,+99999,+99999","99,99,9,99,9,99,9,03048,1,99,9,99,9","240,M,+0062,1","240,N,-0078,1","10139,5,09483,5",,,,,,"MET09809/28/23 13:50:02 METAR PAPT 282250Z 17005KT 25SM BKN100 06/01 A2994 RMK NO SPECI. 400621078 70000","R01    067TMP046R02    017DPT046"
"70249026526","2023-09-29T00:48:00","7","62.0911","-152.7349","566.3","PUNTILLA, AK US","FM-15","PAPT ","V020","190,5,N,0031,5","03048,5,M,N","040234,5,N,5","+0060,C","+0020,C","99999,9",,,,,,,,,,"08,5,+03048,5,99,9",,,"4,99,1,+03048,5,9",,,,"9,AGL   ,+99999,+99999","99,99,9,99,9,99,9,03048,1,99,9,99,9",,,"10135,5,09480,5",,,,,,"MET08209/28/23 15:48:01 METAR PAPT 290048Z 19006KT 25SM OVC100 06/02 A2993 RMK NO SPECI.","R01    067TMP046R02    027DPT046"
"70249026526","2023-09-29T02:48:00","7","62.0911","-152.7349","566.3","PUNTILLA, AK US","FM-15","PAPT ","V020","160,5,N,0021,5","03048,5,M,N","040234,5,N,5","+0050,C","+0030,C","99999,9",,,,,,,,,,"08,5,+03048,5,99,9",,,"4,99,1,+03048,5,9",,,,"9,AGL   ,+99999,+99999","99,99,9,99,9,99,9,03048,1,99,9,99,9",,,"10135,5,09480,5",,,,,,"MET08709/28/23 17:48:01 METAR PAPT 290248Z 16004KT 25SM OVC100 05/03 A2993 RMK NO SPECI. LAST","R01    057TMP046R02    037DPT046"
"70249026526","2023-09-29T14:56:00","7","62.0911","-152.7349","566.3","PUNTILLA, AK US","FM-15","PAPT ","V020","999,9,C,0000,5","03048,5,M,N","040234,5,N,5","+0000,C","-0020,C","99999,9",,,,,,,,,,"08,5,+03048,5,99,9",,,"4,99,1,+03048,5,9",,,,"9,AGL   ,+99999,+99999","99,99,9,99,9,99,9,03048,1,99,9,99,9",,,"10142,5,09486,5",,,,,,"MET08309/29/23 05:56:02 METAR PAPT 291456Z 00000KT 25SM OVC100 00/M02 A2995 RMK NO SPECI.","R01    007TMP046R02   M027DPT046"
"70249026526","2023-09-29T16:46:00","7","62.0911","-152.7349","566.3","PUNTILLA, AK US","FM-15","PAPT ","V020","030,5,N,0021,5","02438,5,M,N","040234,5,N,5","-0010,C","-0010,C","99999,9",,,,,,,,,,"07,5,+02438,5,99,9",,,"3,99,1,+02438,5,9",,,,"9,AGL   ,+99999,+99999","99,99,9,99,9,99,9,02438,1,99,9,99,9",,,"10142,5,09486,5",,,,,,"MET08409/29/23 07:46:02 METAR PAPT 291646Z 03004KT 25SM BKN080 M01/M01 A2995 RMK NO SPECI.","R01   M017TMP046R02   M017DPT046"
"70249026526","2023-09-29T18:50:00","7","62.0911","-152.7349","566.3","PUNTILLA, AK US","FM-15","PAPT ","V020","200,5,N,0015,5","02438,5,M,N","040234,5,N,5","+0040,C","+0030,C","99999,9",,,,,,,,,,"07,5,+02438,5,99,9",,,"3,99,1,+02438,5,9",,,,"9,AGL   ,+99999,+99999","99,99,9,99,9,99,9,02438,1,99,9,99,9",,,"10149,5,09493,5",,,,,,"MET08209/29/23 09:50:02 METAR PAPT 291850Z 20003KT 25SM BKN080 04/03 A2997 RMK NO SPECI.","R01    047TMP046R02    037DPT046"
"70249026526","2023-09-29T20:54:00","7","62.0911","-152.7349","566.3","PUNTILLA, AK US","FM-15","PAPT ","V020","999,9,C,0000,5","22000,5,9,N","040234,5,N,5","+0070,C","+0020,C","99999,9",,,,,,,,,,"02,5,+03048,5,99,9",,,"1,99,1,+03048,5,9",,,,"9,AGL   ,+99999,+99999","02,99,5,99,9,99,9,03048,1,99,9,99,9",,,"10149,5,09493,5",,,,,,"MET08209/29/23 11:54:02 METAR PAPT 292054Z 00000KT 25SM FEW100 07/02 A2997 RMK NO SPECI.","R01    077TMP046R02    027DPT046D01      0ADE726"
"70249026526","2023-09-29T22:51:00","7","62.0911","-152.7349","566.3","PUNTILLA, AK US","FM-15","PAPT ","V020","180,5,N,0021,5","22000,5,9,N","040234,5,N,5","+0090,C","+0050,C","99999,9",,,,,,,,,,"02,5,+03048,5,99,9",,,"1,99,1,+03048,5,9",,,,"9,AGL   ,+99999,+99999","02,99,5,99,9,99,9,03048,1,99,9,99,9","240,M,+0089,1","240,N,-0011,1","10149,5,09493,5",,,,,,"MET09809/29/23 13:51:02 METAR PAPT 292251Z 18004KT 25SM FEW100 09/05 A2997 RMK NO SPECI. 400891011 70000","R01    097TMP046R02    057DPT046D01      0ADE726"
"70249026526","2023-09-30T00:54:00","7","62.0911","-152.7349","566.3","PUNTILLA, AK US","FM-15","PAPT ","V020","220,5,N,0031,5","22000,5,9,N","040234,5,N,5","+0090,C","+0070,C","99999,9",,,,,,,,,,"02,5,+02134,5,99,9",,,"1,99,1,+02134,5,9",,,,"9,AGL   ,+99999,+99999","02,99,5,99,9,99,9,02134,1,99,9,99,9",,,"10146,5,09490,5",,,,,,"MET08209/29/23 15:54:01 METAR PAPT 300054Z 22006KT 25SM FEW070 09/07 A2996 RMK NO SPECI.","R01    097TMP046R02    077DPT046D01      0ADE726"
"70249026526","2023-09-30T02:50:00","7","62.0911","-152.7349","566.3","PUNTILLA, AK US","FM-15","PAPT ","V020","200,5,N,0088,5","22000,5,9,N","040234,5,N,5","+0050,C","+0030,C","99999,9",,,,,,,,,,"00,5,+99999,9,99,9",,,"0,99,1,+99999,9,9",,,,,"00,99,1,99,9,99,9,99999,9,99,9,99,9",,,"10146,5,09490,5",,,,,,"MET08709/29/23 17:50:01 METAR PAPT 300250Z 20017KT 25SM SKC100 05/03 A2996 RMK NO SPECI. LAST","R01    057TMP046R02    037DPT046D01      0ADE693D02      0ADE539"
"70249026526","2023-09-30T14:55:00","7","62.0911","-152.7349","566.3","PUNTILLA, AK US","FM-15","PAPT ","V020","999,9,C,0000,5","03048,5,M,N","040234,5,N,5","-0040,C","-0040,C","99999,9",,,,,,,,,,"04,5,+01219,5,99,9","08,5,+03048,5,99,9",,"2,99,1,+01219,5,9","4,99,1,+03048,5,9",,,"9,AGL   ,+99999,+99999","99,99,9,99,9,99,9,01219,1,99,9,99,9",,,"10108,5,09454,5",,,,,,"MET09709/30/23 05:55:02 METAR PAPT 301455Z 00000KT 25SM SCT040 OVC100 M04/M04 A2985 RMK NO SPECI. FIRST","R01   M047TMP046R02   M047DPT046"
"70249026526","2023-09-30T16:49:00","7","62.0911","-152.7349","566.3","PUNTILLA, AK US","FM-15","PAPT ","V020","999,9,C,0000,5","01219,5,M,N","040234,5,N,5","-0020,C","-0020,C","99999,9",,,,,,,,,,"08,5,+01219,5,99,9",,,"4,99,1,+01219,5,9",,,,"9,AGL   ,+99999,+99999","99,99,9,99,9,99,9,01219,1,99,9,99,9",,,"10091,5,09438,5",,,,,,"MET08409/30/23 07:49:02 METAR PAPT 301649Z 00000KT 25SM OVC040 M02/M02 A2980 RMK NO SPECI.","R01   M027TMP046R02   M027DPT046"
"70249026526","2023-09-30T18:59:00","7","62.0911","-152.7349","566.3","PUNTILLA, AK US","FM-15","PAPT ","V020","160,5,N,0031,5","00762,5,M,N","040234,5,N,5","+0020,C","-0040,C","99999,9",,,,,,,,,,"02,5,+01372,5,99,9","08,5,+00762,5,99,9",,"1,99,1,+01372,5,9","4,99,1,+00762,5,9",,,"9,AGL   ,+99999,+99999","99,99,9,99,9,99,9,01372,1,99,9,99,9",,,"10078,5,09425,5",,,,,,"MET09009/30/23 09:59:02 METAR PAPT 301859Z 16006KT 25SM FEW045 OVC025 02/M04 A2976 RMK NO SPECI.","R01    027TMP046R02   M047DPT046"
"70249026526","2023-09-30T20:54:00","7","62.0911","-152.7349","566.3","PUNTILLA, AK US","FM-15","PAPT ","V020","190,5,N,0051,5","00457,5,M,N","003219,5,N,5","-0010,C","-0010,C","99999,9",,,,,,"1,0,03,0,0,1,5",,"71,5",,"02,5,+00183,5,99,9","08,5,+00457,5,99,9",,"1,99,1,+00183,5,9","4,99,1,+00457,5,9",,,"9,AGL   ,+99999,+99999","99,99,9,99,9,99,9,00183,1,99,9,99,9",,,"10068,5,09416,5",,"71,5",,,,"MET09409/30/23 11:54:02 METAR PAPT 302054Z 19010KT 2SM -SN FEW006 OVC015 M01/M01 A2973 RMK NO SPECI.","R01   M017TMP046R02   M017DPT046"
"70249026526","2023-09-30T22:45:00","7","62.0911","-152.7349","566.3","PUNTILLA, AK US","FM-15","PAPT ","V020","999,9,C,0000,5","02438,5,M,N","003219,5,N,5","+0020,C","+0010,C","99999,9",,,,,,"1,0,03,0,0,1,5",,"71,5",,"07,5,+02438,5,99,9","08,5,+00762,5,99,9",,"3,99,1,+02438,5,9","4,99,1,+00762,5,9",,,"9,AGL   ,+99999,+99999","99,99,9,99,9,99,9,02438,1,99,9,99,9","240,M,+0089,1","240,N,-0039,1","10054,5,09403,5",,"71,5",,,,"MET10809/30/23 13:45:02 METAR PAPT 302245Z 00000KT 2SM -SN BKN080 OVC025 02/01 A2969 RMK NO SPECI. 400891039 70000","R01    027TMP046R02    017DPT046"
"70249026526","2023-10-01T00:49:00","4","62.0911","-152.7349","566.3","PUNTILLA, AK US","FM-15","99999","V020","180,1,N,0021,1","00457,1,9,N","003219,1,9,9","+0020,1","+0010,1","99999,9",,,,,,,,,,,,,"2,99,1,+00183,1,9","4,99,1,+00457,1,9",,,"9,AGL   ,+99999,+99999","99,99,9,99,9,99,9,00183,1,99,9,99,9",,,"10034,1,99999,9",,"61,1",,,,"MET075METAR PAPT 010049Z 18004KT 2SM -RA SCT006 OVC015 02/01 A2963 RMK NO SPECI.=",
"70249026526","2023-10-01T02:48:00","4","62.0911","-152.7349","566.3","PUNTILLA, AK US","FM-15","99999","V020","160,1,N,0026,1","00183,1,9,N","004828,1,9,9","+0010,1","+0010,1","99999,9",,,,,,,,,,,,,"3,99,1,+00183,1,9","4,99,1,+00549,1,9",,,"9,AGL   ,+99999,+99999","99,99,9,99,9,99,9,00183,1,99,9,99,9",,,"10010,1,99999,9",,"71,1",,,,"MET080METAR PAPT 010248Z 16005KT 3SM -SN BKN006 OVC018 01/01 A2956 RMK NO SPECI. LAST=",
"70249026526","2023-10-01T08:59:00","O","62.0911","-152.7349","566.3","PUNTILLA, AK US","SOD  ","PAPT ","V020","999,9,9,9999,9","99999,9,9,9","999999,9,9,9","+9999,9","+9999,9","99999,9",,,"AU,18,SN  ,5",,,,,,,,,,,,,,,,,,,,,,,,,
"70249026526","2023-10-01T16:52:00","7","62.0911","-152.7349","566.3","PUNTILLA, AK US","FM-15","PAPT ","V020","350,5,N,0015,5","01372,5,M,N","040234,5,N,5","+0010,C","+0010,C","99999,9",,,,,,,,,,"07,5,+01372,5,99,9",,,"3,99,1,+01372,5,9",,,,"9,AGL   ,+99999,+99999","99,99,9,99,9,99,9,01372,1,99,9,99,9",,,"09939,5,09294,5",,,,,,"MET08810/01/23 07:52:02 METAR PAPT 011652Z 35003KT 25SM BKN045 01/01 A2935 RMK NO SPECI. FIRST","R01    017TMP046R02    017DPT046"
"70249026526","2023-10-01T18:52:00","7","62.0911","-152.7349","566.3","PUNTILLA, AK US","FM-15","PAPT ","V020","350,5,N,0021,5","01372,5,M,N","040234,5,N,5","+0020,C","+0010,C","99999,9",,,,,,,,,,"04,5,+00762,5,99,9","07,5,+01372,5,99,9",,"2,99,1,+00762,5,9","3,99,1,+01372,5,9",,,"9,AGL   ,+99999,+99999","99,99,9,99,9,99,9,00762,1,99,9,99,9",,,"09939,5,09294,5",,,,,,"MET08910/01/23 09:52:02 METAR PAPT 011852Z 35004KT 25SM SCT025 BKN045 02/01 A2935 RMK NO SPECI.","R01    027TMP046R02    017DPT046"
"70249026526","2023-10-01T20:47:00","7","62.0911","-152.7349","566.3","PUNTILLA, AK US","FM-15","PAPT ","V020","350,5,N,0021,5","02134,5,M,N","040234,5,N,5","+0060,C","+0030,C","99999,9",,,,,,,,,,"04,5,+00762,5,99,9","07,5,+02134,5,99,9",,"2,99,1,+00762,5,9","3,99,1,+02134,5,9",,,"9,AGL   ,+99999,+99999","99,99,9,99,9,99,9,00762,1,99,9,99,9",,,"09942,5,09297,5",,,,,,"MET08910/01/23 11:47:02 METAR PAPT 012047Z 35004KT 25SM SCT025 BKN070 06/03 A2936 RMK NO SPECI.","R01    067TMP046R02    037DPT046"
"70249026526","2023-10-01T22:49:00","7","62.0911","-152.7349","566.3","PUNTILLA, AK US","FM-15","PAPT ","V020","200,5,N,0021,5","02134,5,M,N","040234,5,N,5","+0080,C","+0040,C","99999,9",,,,,,,,,,"04,5,+01219,5,99,9","07,5,+02134,5,99,9",,"2,99,1,+01219,5,9","3,99,1,+02134,5,9",,,"9,AGL   ,+99999,+99999","99,99,9,99,9,99,9,01219,1,99,9,99,9","240,M,+0084,1","240,N,+0006,1","09942,5,09297,5",,,,,,"MET10510/01/23 13:49:02 METAR PAPT 012249Z 20004KT 25SM SCT040 BKN070 08/04 A2936 RMK NO SPECI. 400840006 70003","R01    087TMP046R02    047DPT046"
"70249026526","2023-10-10T22:52:00","7","62.0911","-152.7349","566.3","PUNTILLA, AK US","FM-15","PAPT ","V020","010,5,N,0036,5","22000,5,9,N","040234,5,N,5","-0010,C","-0010,C","99999,9",,,,,,,,,,"02,5,+03048,5,99,9",,,"1,99,1,+03048,5,9",,,,"9,AGL   ,+99999,+99999","02,99,5,99,9,99,9,03048,1,99,9,99,9",,,"09983,5,09336,5",,,,,,"MET08410/10/23 13:52:02 METAR PAPT 102252Z 01007KT 25SM FEW100 M01/M01 A2948 RMK NO SPECI.","R01   M017TMP046R02   M017DPT046D01      0ADE726"
"70249026526","2023-10-11T00:45:00","7","62.0911","-152.7349","566.3","PUNTILLA, AK US","FM-15","PAPT ","V020","360,5,N,0031,5","22000,5,9,N","040234,5,N,5","-0030,C","-0030,C","99999,9",,,,,,,,,,"02,5,+03048,5,99,9",,,"1,99,1,+03048,5,9",,,,"9,AGL   ,+99999,+99999","02,99,5,99,9,99,9,03048,1,99,9,99,9",,,"09986,5,09339,5",,,,,,"MET08910/10/23 15:45:01 METAR PAPT 110045Z 36006KT 25SM FEW100 M03/M03 A2949 RMK NO SPECI. LAST","R01   M037TMP046R02   M037DPT046D01      0ADE726"
"70249026526","2023-10-11T16:47:00","7","62.0911","-152.7349","566.3","PUNTILLA, AK US","FM-15","PAPT ","V020","350,5,N,0015,5","22000,5,9,N","040234,5,N,5","-0120,C","-0120,C","99999,9",,,,,,,,,,"02,5,+03048,5,99,9",,,"1,99,1,+03048,5,9",,,,"9,AGL   ,+99999,+99999","02,99,5,99,9,99,9,03048,1,99,9,99,9",,,"10044,5,09393,5",,,,,,"MET09010/11/23 07:47:02 METAR PAPT 111647Z 35003KT 25SM FEW100 M12/M12 A2966 RMK NO SPECI. FIRST","R01   M127TMP046R02   M127DPT046D01      0ADE726"
"70249026526","2023-10-11T18:46:00","7","62.0911","-152.7349","566.3","PUNTILLA, AK US","FM-15","PAPT ","V020","999,9,C,0000,5","01372,5,M,N","040234,5,N,5","-0080,C","-0080,C","99999,9",,,,,,,,,,"07,5,+01372,5,99,9",,,"3,99,1,+01372,5,9",,,,"9,AGL   ,+99999,+99999","99,99,9,99,9,99,9,01372,1,99,9,99,9",,,"10051,5,09400,5",,,,,,"MET08410/11/23 09:46:02 METAR PAPT 111846Z 00000KT 25SM BKN045 M08/M08 A2968 RMK NO SPECI.","R01   M087TMP046R02   M087DPT046"
"70249026526","2023-10-11T20:47:00","7","62.0911","-152.7349","566.3","PUNTILLA, AK US","FM-15","PAPT ","V020","020,5,N,0036,5","01372,5,M,N","040234,5,N,5","-0040,C","-0040,C","99999,9",,,,,,,,,,"08,5,+01372,5,99,9",,,"4,99,1,+01372,5,9",,,,"9,AGL   ,+99999,+99999","99,99,9,99,9,99,9,01372,1,99,9,99,9",,,"10051,5,09400,5",,,,,,"MET08410/11/23 11:47:02 METAR PAPT 112047Z 02007KT 25SM OVC045 M04/M04 A2968 RMK NO SPECI.","R01   M047TMP046R02   M047DPT046"
"70249026526","2023-10-11T22:47:00","7","62.0911","-152.7349","566.3","PUNTILLA, AK US","FM-15","PAPT ","V020","350,5,N,0026,5","01372,5,M,N","040234,5,N,5","-0030,C","-0030,C","99999,9",,,,,,,,,,"08,5,+01372,5,99,9",,,"4,99,1,+01372,5,9",,,,"9,AGL   ,+99999,+99999","99,99,9,99,9,99,9,01372,1,99,9,99,9","240,M,+0001,1",,"10058,5,09406,5",,,,,,"MET10010/11/23 13:47:02 METAR PAPT 112247Z 35005KT 25SM OVC045 M03/M03 A2970 RMK NO SPECI. 400011012 70000","Q01-1.2  2EATMN R01   M037TMP046R02   M037DPT046"
"70249026526","2023-10-12T00:52:00","7","62.0911","-152.7349","566.3","PUNTILLA, AK US","FM-15","PAPT ","V020","350,5,N,0021,5","01372,5,M,N","040234,5,N,5","-0030,C","-0030,C","99999,9",,,,,,,,,,"07,5,+01372,5,99,9",,,"3,99,1,+01372,5,9",,,,"9,AGL   ,+99999,+99999","99,99,9,99,9,99,9,01372,1,99,9,99,9",,,"10058,5,09406,5",,,,,,"MET08910/11/23 15:52:01 METAR PAPT 120052Z 35004KT 25SM BKN045 M03/M03 A2970 RMK NO SPECI. LAST","R01   M037TMP046R02   M037DPT046"
"70249026526","2023-10-12T16:52:00","7","62.0911","-152.7349","566.3","PUNTILLA, AK US","FM-15","PAPT ","V020","999,9,C,0000,5","01676,5,M,N","024140,5,N,5","-0080,C","-0080,C","99999,9",,,,,,,,,,"08,5,+01676,5,99,9",,,"4,99,1,+01676,5,9",,,,"9,AGL   ,+99999,+99999","99,99,9,99,9,99,9,01676,1,99,9,99,9",,,"10020,5,09371,5",,,,,,"MET09010/12/23 07:52:02 METAR PAPT 121652Z 00000KT 15SM OVC055 M08/M08 A2959 RMK NO SPECI. FIRST","R01   M087TMP046R02   M087DPT046"
"70249026526","2023-10-12T18:45:00","7","62.0911","-152.7349","566.3","PUNTILLA, AK US","FM-15","PAPT ","V020","350,5,N,0015,5","00914,5,M,N","011265,5,N,5","-0070,C","-0070,C","99999,9",,,,,,"1,0,03,0,0,1,5",,"71,5",,"08,5,+00914,5,99,9",,,"4,99,1,+00914,5,9",,,,"9,AGL   ,+99999,+99999","99,99,9,99,9,99,9,00914,1,99,9,99,9",,,"10003,5,09355,5",,"71,5",,,,"MET08710/12/23 09:45:02 METAR PAPT 121845Z 35003KT 7SM -SN OVC030 M07/M07 A2954 RMK NO SPECI.","R01   M077TMP046R02   M077DPT046"
"70249026526","2023-10-12T20:49:00","6","62.0911","-152.7349","566.3","PUNTILLA, AK US","FM-15","PAPT ","V020","999,9,C,0000,5","01676,5,M,N","024140,5,N,5","-0050,C","-0050,C","99999,9",,,,,,,,,,"08,5,+01676,5,99,9",,,"4,99,1,+01676,5,9",,,,,,,,"09983,5,09336,5",,,,,,"MET08410/12/23 11:49:02 METAR PAPT 122049Z 00000KT 15SM OVC055 M05/M05 A2948 RMK NO SPECI.","R01   M057TMP046R02   M057DPT046"
"70249026526","2023-10-12T22:47:00","7","62.0911","-152.7349","566.3","PUNTILLA, AK US","FM-15","PAPT ","V020","999,9,C,0000,5","01372,5,M,N","024140,5,N,5","-0020,C","-0020,C","99999,9",,,,,,,,,,"08,5,+01372,5,99,9",,,"4,99,1,+01372,5,9",,,,"9,AGL   ,+99999,+99999","99,99,9,99,9,99,9,01372,1,99,9,99,9","240,M,+0002,1","240,N,-0078,1","09963,5,09316,5",,,,,,"MET10010/12/23 13:47:02 METAR PAPT 122247Z 00000KT 15SM OVC045 M02/M02 A2942 RMK NO SPECI. 400021078 70000","R01   M027TMP046R02   M027DPT046"
"70249026526","2023-10-13T00:45:00","7","62.0911","-152.7349","566.3","PUNTILLA, AK US","FM-15","PAPT ","V020","040,5,N,0026,5","01676,5,M,N","024140,5,N,5","-0010,C","-0010,C","99999,9",,,,,,,,,,"08,5,+01676,5,99,9",,,"4,99,1,+01676,5,9",,,,"9,AGL   ,+99999,+99999","99,99,9,99,9,99,9,01676,1,99,9,99,9",,,"09939,5,09294,5",,,,,,"MET08910/12/23 15:45:01 METAR PAPT 130045Z 04005KT 15SM OVC055 M01/M01 A2935 RMK NO SPECI. LAST","R01   M017TMP046R02   M017DPT046"
"70249026526","2023-10-13T08:59:00","O","62.0911","-152.7349","566.3","PUNTILLA, AK US","SOD  ","PAPT ","V020","999,9,9,9999,9","99999,9,9,9","999999,9,9,9","+9999,9","+9999,9","99999,9",,,"AU,18,SN  ,5",,,,,,,,,,,,,,,,,,,,,,,,,
"70249026526","2023-10-13T16:47:00","7","62.0911","-152.7349","566.3","PUNTILLA, AK US","FM-15","PAPT ","V020","999,9,C,0000,5","00457,5,M,N","004828,5,N,5","-0040,C","-0040,C","99999,9",,,,,,,,,,"08,5,+00457,5,99,9",,,"4,99,1,+00457,5,9",,,,"9,AGL   ,+99999,+99999","99,99,9,99,9,99,9,00457,1,99,9,99,9",,,"09932,5,09288,5",,,,,,"MET08910/13/23 07:47:01 METAR PAPT 131647Z 00000KT 3SM OVC015 M04/M04 A2933 RMK NO SPECI. FIRST","R01   M047TMP046R02   M047DPT046"
"70249026526","2023-10-13T18:47:00","7","62.0911","-152.7349","566.3","PUNTILLA, AK US","FM-15","PAPT ","V020","999,9,C,0000,5","00457,5,M,N","001609,5,N,5","-0020,C","-0020,C","99999,9",,,,,,"1,0,03,0,0,1,5",,"71,5",,"07,5,+00457,5,99,9",,,"3,99,1,+00457,5,9",,,,"9,AGL   ,+99999,+99999","99,99,9,99,9,99,9,00457,1,99,9,99,9",,,"09942,5,09297,5",,"71,5",,,,"MET08710/13/23 09:47:02 METAR PAPT 131847Z 00000KT 1SM -SN BKN015 M02/M02 A2936 RMK NO SPECI.","R01   M027TMP046R02   M027DPT046"
"70249026526","2023-10-13T20:48:00","7","62.0911","-152.7349","566.3","PUNTILLA, AK US","FM-15","PAPT ","V020","180,5,N,0036,5","00457,5,M,N","004828,5,N,5","+0000,C","+0000,C","99999,9",,,,,,,,,,"07,5,+00457,5,99,9","04,5,+00610,5,99,9",,"3,99,1,+00457,5,9","2,99,1,+00610,5,9",,,"9,AGL   ,+99999,+99999","99,99,9,99,9,99,9,00457,1,99,9,99,9",,,"09953,5,09307,5",,,,,,"MET08810/13/23 11:48:02 METAR PAPT 132048Z 18007KT 3SM BKN015 SCT020 00/00 A2939 RMK NO SPECI.","R01    007TMP046R02    007DPT046"
"70249026526","2023-10-13T22:50:00","7","62.0911","-152.7349","566.3","PUNTILLA, AK US","FM-15","PAPT ","V020","170,5,N,0046,5","00457,5,M,N","004828,5,N,5","+0000,C","+0000,C","99999,9",,,,,,"1,0,03,0,0,1,5",,"71,5",,"08,5,+00457,5,99,9",,,"4,99,1,+00457,5,9",,,,"9,AGL   ,+99999,+99999","99,99,9,99,9,99,9,00457,1,99,9,99,9","240,M,+0001,1","240,N,-0039,1","09959,5,09313,5",,"71,5",,,,"MET10110/13/23 13:50:02 METAR PAPT 132250Z 17009KT 3SM -SN OVC015 00/00 A2941 RMK NO SPECI. 400011039 70003","R01    007TMP046R02    007DPT046"
"70249026526","2023-10-14T00:47:00","7","62.0911","-152.7349","566.3","PUNTILLA, AK US","FM-15","PAPT ","V020","170,5,N,0031,5","00610,5,M,N","004828,5,N,5","+0010,C","+0010,C","99999,9",,,,,,,,,,"07,5,+00610,5,99,9",,,"3,99,1,+00610,5,9",,,,"9,AGL   ,+99999,+99999","99,99,9,99,9,99,9,00610,1,99,9,99,9",,,"09959,5,09313,5",,,,,,"MET08610/13/23 15:47:01 METAR PAPT 140047Z 17006KT 3SM BKN020 01/01 A2941 RMK NO SPECI. LAST","R01    017TMP046R02    017DPT046"
"70249026526","2023-10-14T08:59:00","O","62.0911","-152.7349","566.3","PUNTILLA, AK US","SOD  ","PAPT ","V020","999,9,9,9999,9","99999,9,9,9","999999,9,9,9","+9999,9","+9999,9","99999,9",,,"AU,18,SN  ,5",,,,,,,,,,,,,,,,,,,,,,,,,
"70249026526","2023-10-14T16:56:00","7","62.0911","-152.7349","566.3","PUNTILLA, AK US","FM-15","PAPT ","V020","350,5,N,0026,5","01981,5,M,N","040234,5,N,5","-0060,C","-0060,C","99999,9",,,,,,,,,,"08,5,+01981,5,99,9",,,"4,99,1,+01981,5,9",,,,"9,AGL   ,+99999,+99999","99,99,9,99,9,99,9,01981,1,99,9,99,9",,,"09919,5,09275,5",,,,,,"MET09010/14/23 07:56:02 METAR PAPT 141656Z 35005KT 25SM OVC065 M06/M06 A2929 RMK NO SPECI. FIRST","R01   M067TMP046R02   M067DPT046"
"70249026526","2023-10-14T18:48:00","7","62.0911","-152.7349","566.3","PUNTILLA, AK US","FM-15","PAPT ","V020","350,5,N,0021,5","00762,5,M,N","004828,5,N,5","-0040,C","-0040,C","99999,9",,,,,,,,,,"08,5,+00762,5,99,9",,,"4,99,1,+00762,5,9",,,,"9,AGL   ,+99999,+99999","99,99,9,99,9,99,9,00762,1,99,9,99,9",,,"09926,5,09281,5",,,,,,"MET08310/14/23 09:48:02 METAR PAPT 141848Z 35004KT 3SM OVC025 M04/M04 A2931 RMK NO SPECI.","R01   M047TMP046R02   M047DPT046"
"70249026526","2023-10-14T20:46:00","7","62.0911","-152.7349","566.3","PUNTILLA, AK US","FM-15","PAPT ","V020","999,9,C,0000,5","00762,5,M,N","004828,5,N,5","-0010,C","-0010,C","99999,9",,,,,,"1,0,03,0,0,1,5",,"71,5",,"08,5,+00762,5,99,9",,,"4,99,1,+00762,5,9",,,,"9,AGL   ,+99999,+99999","99,99,9,99,9,99,9,00762,1,99,9,99,9",,,"09926,5,09281,5",,"71,5",,,,"MET08710/14/23 11:46:02 METAR PAPT 142046Z 00000KT 3SM -SN OVC025 M01/M01 A2931 RMK NO SPECI.","R01   M017TMP046R02   M017DPT046"
"70249026526","2023-10-14T22:50:00","7","62.0911","-152.7349","566.3","PUNTILLA, AK US","FM-15","PAPT ","V020","220,5,N,0021,5","01219,5,M,N","024140,5,N,5","+0030,C","-0030,C","99999,9",,,,,,,,,,"08,5,+01219,5,99,9",,,"4,99,1,+01219,5,9",,,,"9,AGL   ,+99999,+99999","99,99,9,99,9,99,9,01219,1,99,9,99,9","240,M,+0028,1","240,N,-0061,1","09926,5,09281,5",,,,,,"MET09910/14/23 13:50:02 METAR PAPT 142250Z 22004KT 15SM OVC040 03/M03 A2931 RMK NO SPECI. 400281061 70001","R01    037TMP046R02   M037DPT046"
"70249026526","2023-10-15T00:53:00","7","62.0911","-152.7349","566.3","PUNTILLA, AK US","FM-15","PAPT ","V020","350,5,N,0021,5","00762,5,M,N","040234,5,N,5","+0030,C","+0020,C","99999,9",,,,,,,,,,"08,5,+00762,5,99,9",,,"4,99,1,+00762,5,9",,,,"9,AGL   ,+99999,+99999","99,99,9,99,9,99,9,00762,1,99,9,99,9",,,"09932,5,09288,5",,,,,,"MET08710/14/23 15:53:01 METAR PAPT 150053Z 35004KT 25SM OVC025 03/02 A2933 RMK NO SPECI. LAST","R01    037TMP046R02    027DPT046"
"70249026526","2023-10-15T08:59:00","O","62.0911","-152.7349","566.3","PUNTILLA, AK US","SOD  ","PAPT ","V020","999,9,9,9999,9","99999,9,9,9","999999,9,9,9","+9999,9","+9999,9","99999,9",,,"AU,18,SN  ,5",,,,,,,,,,,,,,,,,,,,,,,,,
"70249026526","2023-10-15T16:54:00","7","62.0911","-152.7349","566.3","PUNTILLA, AK US","FM-15","PAPT ","V020","170,5,N,0036,5","22000,5,9,N","024140,5,N,5","+0010,C","-0010,C","99999,9",,,,,,,,,,"04,5,+00762,5,99,9",,,"2,99,1,+00762,5,9",,,,"9,AGL   ,+99999,+99999","04,99,5,99,9,99,9,00762,1,99,9,99,9",,,"10081,5,09429,5",,,,,,"MET08910/15/23 07:54:02 METAR PAPT 151654Z 17007KT 15SM SCT025 01/M01 A2977 RMK NO SPECI. FIRST","R01    017TMP046R02   M017DPT046D01      0ADE726"
"70249026526","2023-10-15T18:47:00","7","62.0911","-152.7349","566.3","PUNTILLA, AK US","FM-15","PAPT ","V020","999,9,C,0000,5","00183,5,M,N","004828,5,N,5","+0010,C","-0010,C","99999,9",,,,,,,,,,"08,5,+00183,5,99,9",,,"4,99,1,+00183,5,9",,,,"9,AGL   ,+99999,+99999","99,99,9,99,9,99,9,00183,1,99,9,99,9",,,"10088,5,09435,5",,,,,,"MET08210/15/23 09:47:02 METAR PAPT 151847Z 00000KT 3SM OVC006 01/M01 A2979 RMK NO SPECI.","R01    017TMP046R02   M017DPT046"
"70249026526","2023-10-15T20:50:00","7","62.0911","-152.7349","566.3","PUNTILLA, AK US","FM-15","PAPT ","V020","180,5,N,0031,5","00762,5,M,N","011265,5,N,5","+0020,C","+0010,C","99999,9",,,,,,,,,,"08,5,+00762,5,99,9",,,"4,99,1,+00762,5,9",,,,"9,AGL   ,+99999,+99999","99,99,9,99,9,99,9,00762,1,99,9,99,9",,,"10091,5,09438,5",,,,,,"MET08110/15/23 11:50:02 METAR PAPT 152050Z 18006KT 7SM OVC025 02/01 A2980 RMK NO SPECI.","R01    027TMP046R02    017DPT046"
"70249026526","2023-10-15T22:50:00","7","62.0911","-152.7349","566.3","PUNTILLA, AK US","FM-15","PAPT ","V020","160,5,N,0026,5","00762,5,M,N","011265,5,N,5","+0020,C","+0010,C","99999,9",,,,,,,,,,"08,5,+00762,5,99,9",,,"4,99,1,+00762,5,9",,,,"9,AGL   ,+99999,+99999","99,99,9,99,9,99,9,00762,1,99,9,99,9","240,M,+0034,1","240,N,-0001,1","10091,5,09438,5",,,,,,"MET09710/15/23 13:50:02 METAR PAPT 152250Z 16005KT 7SM OVC025 02/01 A2980 RMK NO SPECI. 400341001 70000","R01    027TMP046R02    017DPT046"
"70249026526","2023-10-16T00:52:00","7","62.0911","-152.7349","566.3","PUNTILLA, AK US","FM-15","PAPT ","V020","160,5,N,0021,5","00762,5,M,N","011265,5,N,5","+0020,C","+0010,C","99999,9",,,,,,,,,,"08,5,+00762,5,99,9",,,"4,99,1,+00762,5,9",,,,"9,AGL   ,+99999,+99999","99,99,9,99,9,99,9,00762,1,99,9,99,9",,,"10088,5,09435,5",,,,,,"MET08610/15/23 15:52:01 METAR PAPT 160052Z 16004KT 7SM OVC025 02/01 A2979 RMK NO SPECI. LAST","R01    027TMP046R02    017DPT046"
"70249026526","2023-10-16T18:49:00","7","62.0911","-152.7349","566.3","PUNTILLA, AK US","FM-15","PAPT ","V020","350,5,N,0021,5","00823,5,M,N","024140,5,N,5","+0010,C","+0000,C","99999,9",,,,,,,,,,"07,5,+00823,5,99,9",,,"3,99,1,+00823,5,9",,,,"9,AGL   ,+99999,+99999","99,99,9,99,9,99,9,00823,1,99,9,99,9",,,"10007,5,09358,5",,,,,,"MET08210/16/23 09:49:02 METAR PAPT 161849Z 35004KT 15SM BKN027 01/00 A2955 RMK NO SPECI.","R01    017TMP046R02    007DPT046"
"70249026526","2023-10-16T20:51:00","7","62.0911","-152.7349","566.3","PUNTILLA, AK US","FM-15","PAPT ","V020","999,9,C,0000,5","01524,5,M,N","040234,5,N,5","+0030,C","+0010,C","99999,9",,,,,,,,,,"08,5,+01524,5,99,9",,,"4,99,1,+01524,5,9",,,,"9,AGL   ,+99999,+99999","99,99,9,99,9,99,9,01524,1,99,9,99,9",,,"09990,5,09342,5",,,,,,"MET08210/16/23 11:51:02 METAR PAPT 162051Z 00000KT 25SM OVC050 03/01 A2950 RMK NO SPECI.","R01    037TMP046R02    017DPT046"
"70249026526","2023-10-16T22:46:00","7","62.0911","-152.7349","566.3","PUNTILLA, AK US","FM-15","PAPT ","V020","999,9,C,0000,5","01981,5,M,N","040234,5,N,5","+0040,C","+0030,C","99999,9",,,,,,,,,,"08,5,+01981,5,99,9",,,"4,99,1,+01981,5,9",,,,"9,AGL   ,+99999,+99999","99,99,9,99,9,99,9,01981,1,99,9,99,9","240,M,+0039,1","240,N,-0001,1","09966,5,09320,5",,,,,,"MET09810/16/23 13:46:02 METAR PAPT 162246Z 00000KT 25SM OVC065 04/03 A2943 RMK NO SPECI. 400391001 70000","R01    047TMP046R02    037DPT046"
"70249026526","2023-10-17T00:46:00","7","62.0911","-152.7349","566.3","PUNTILLA, AK US","FM-15","PAPT ","V020","999,9,C,0000,5","01981,5,M,N","040234,5,N,5","+0040,C","+0030,C","99999,9",,,,,,,,,,"08,5,+01981,5,99,9",,,"4,99,1,+01981,5,9",,,,"9,AGL   ,+99999,+99999","99,99,9,99,9,99,9,01981,1,99,9,99,9",,,"09953,5,09307,5",,,,,,"MET08710/16/23 15:46:01 METAR PAPT 170046Z 00000KT 25SM OVC065 04/03 A2939 RMK NO SPECI. LAST","R01    047TMP046R02    037DPT046"
"70249026526","2023-10-17T16:55:00","7","62.0911","-152.7349","566.3","PUNTILLA, AK US","FM-15","PAPT ","V020","350,5,N,0031,5","02134,5,M,N","040234,5,N,5","+0010,C","+0000,C","99999,9",,,,,,,,,,"08,5,+02134,5,99,9",,,"4,99,1,+02134,5,9",,,,"9,AGL   ,+99999,+99999","99,99,9,99,9,99,9,02134,1,99,9,99,9",,,"09932,5,09288,5",,,,,,"MET08810/17/23 07:55:02 METAR PAPT 171655Z 35006KT 25SM OVC070 01/00 A2933 RMK NO SPECI. FIRST","R01    017TMP046R02    007DPT046"
"70249026526","2023-10-17T18:46:00","7","62.0911","-152.7349","566.3","PUNTILLA, AK US","FM-15","PAPT ","V020","360,5,N,0026,5","22000,5,9,N","040234,5,N,5","+0020,C","-0010,C","99999,9",,,,,,,,,,"04,5,+03048,5,99,9",,,"2,99,1,+03048,5,9",,,,"9,AGL   ,+99999,+99999","04,99,5,99,9,99,9,03048,1,99,9,99,9",,,"09939,5,09294,5",,,,,,"MET08310/17/23 09:46:02 METAR PAPT 171846Z 36005KT 25SM SCT100 02/M01 A2935 RMK NO SPECI.","R01    027TMP046R02   M017DPT046D01      0ADE726"
"70249026526","2023-10-17T20:46:00","6","62.0911","-152.7349","566.3","PUNTILLA, AK US","FM-15","PAPT ","V020","350,5,N,0031,5","03048,5,M,N","040234,5,N,5","+0030,C","+0010,C","99999,9",,,,,,,,,,"07,5,+03048,5,99,9",,,"3,99,1,+03048,5,9",,,,,,,,"09942,5,09297,5",,,,,,"MET08210/17/23 11:46:02 METAR PAPT 172046Z 35006KT 25SM BKN100 03/01 A2936 RMK NO SPECI.","R01    037TMP046R02    017DPT046"
"70249026526","2023-10-17T22:50:00","7","62.0911","-152.7349","566.3","PUNTILLA, AK US","FM-15","PAPT ","V020","030,5,N,0051,5","03048,5,M,N","040234,5,N,5","+0060,C","+0020,C","99999,9",,,,,,,,,,"07,5,+03048,5,99,9",,,"3,99,1,+03048,5,9",,,,"9,AGL   ,+99999,+99999","99,99,9,99,9,99,9,03048,1,99,9,99,9","240,M,+0062,1","240,N,+0006,1","09942,5,09297,5",,,,,,"MET09810/17/23 13:50:02 METAR PAPT 172250Z 03010KT 25SM BKN100 06/02 A2936 RMK NO SPECI. 400620006 70000","R01    067TMP046R02    027DPT046"
"70249026526","2023-10-18T00:50:00","7","62.0911","-152.7349","566.3","PUNTILLA, AK US","FM-15","PAPT ","V020","360,5,N,0041,5","03048,5,M,N","040234,5,N,5","+0060,C","+0050,C","99999,9",,,,,,,,,,"07,5,+03048,5,99,9",,,"3,99,1,+03048,5,9",,,,"9,AGL   ,+99999,+99999","99,99,9,99,9,99,9,03048,1,99,9,99,9",,,"09939,5,09294,5",,,,,,"MET08710/17/23 15:50:01 METAR PAPT 180050Z 36008KT 25SM BKN100 06/05 A2935 RMK NO SPECI. LAST","R01    067TMP046R02    057DPT046"
"70249026526","2023-10-18T16:55:00","7","62.0911","-152.7349","566.3","PUNTILLA, AK US","FM-15","PAPT ","V020","350,5,N,0026,5","22000,7,9,N","040234,5,N,5","-0030,C","-0030,C","99999,9",,,,,,,,,,"00,7,+99999,9,99,9",,,"0,99,1,+99999,9,9",,,,,"00,99,1,99,9,99,9,99999,9,99,9,99,9",,,"09966,5,09320,5",,,,,,"MET08710/18/23 07:55:02 METAR PAPT 181655Z 35005KT 25SM SKC M03/M03 A2943 RMK NO SPECI. FIRST","R01   SKC7SKY009R02   M037TMP046R03   M037DPT046R04   SKC7GAS009"
"70249026526","2023-10-18T18:53:00","7","62.0911","-152.7349","566.3","PUNTILLA, AK US","FM-15","PAPT ","V020","360,5,N,0057,5","22000,5,9,N","040234,5,N,5","-0010,C","-0010,C","99999,9",,,,,,,,,,"02,5,+03048,5,99,9",,,"1,99,1,+03048,5,9",,,,"9,AGL   ,+99999,+99999","02,99,5,99,9,99,9,03048,1,99,9,99,9",,,"09970,5,09323,5",,,,,,"MET08410/18/23 09:53:02 METAR PAPT 181853Z 36011KT 25SM FEW100 M01/M01 A2944 RMK NO SPECI.","R01   M017TMP046R02   M017DPT046D01      0ADE726"
"70249026526","2023-10-18T20:46:00","7","62.0911","-152.7349","566.3","PUNTILLA, AK US","FM-15","PAPT ","V020","020,5,N,0062,5","22000,5,9,N","040234,5,N,5","+0010,C","-0010,C","99999,9",,,,,,,,,,"04,5,+02134,5,99,9",,,"2,99,1,+02134,5,9",,,,"9,AGL   ,+99999,+99999","04,99,5,99,9,99,9,02134,1,99,9,99,9",,,"09966,5,09320,5",,,,,,"MET08310/18/23 11:46:02 METAR PAPT 182046Z 02012KT 25SM SCT070 01/M01 A2943 RMK NO SPECI.","R01    017TMP046R02   M017DPT046D01      0ADE726"
"70249026526","2023-10-18T22:50:00","7","62.0911","-152.7349","566.3","PUNTILLA, AK US","FM-15","PAPT ","V020","350,5,N,0051,5","22000,5,9,N","040234,5,N,5","+0050,C","-0020,C","99999,9",,,,,,,,,,"04,5,+02134,5,99,9",,,"2,99,1,+02134,5,9",,,,"9,AGL   ,+99999,+99999","04,99,5,99,9,99,9,02134,1,99,9,99,9","240,M,+0056,1","240,N,-0028,1","09959,5,09313,5",,,,,,"MET09910/18/23 13:50:02 METAR PAPT 182250Z 35010KT 25SM SCT070 05/M02 A2941 RMK NO SPECI. 400561028 70000","R01    057TMP046R02   M027DPT046D01      0ADE726"
"70249026526","2023-10-19T00:53:00","7","62.0911","-152.7349","566.3","PUNTILLA, AK US","FM-15","PAPT ","V020","020,5,N,0021,5","22000,5,9,N","040234,5,N,5","+0020,C","-0020,C","99999,9",,,,,,,,,,"04,5,+02134,5,99,9",,,"2,99,1,+02134,5,9",,,,"9,AGL   ,+99999,+99999","04,99,5,99,9,99,9,02134,1,99,9,99,9",,,"09949,5,09304,5",,,,,,"MET08810/18/23 15:53:01 METAR PAPT 190053Z 02004KT 25SM SCT070 02/M02 A2938 RMK NO SPECI. LAST","R01    027TMP046R02   M027DPT046D01      0ADE726"
"70249026526","2023-10-19T16:51:00","7","62.0911","-152.7349","566.3","PUNTILLA, AK US","FM-15","PAPT ","V020","350,5,N,0051,5","00823,5,M,N","040234,5,N,5","-0030,C","-0030,C","99999,9",,,,,,,,,,"07,5,+00823,5,99,9",,,"3,99,1,+00823,5,9",,,,"9,AGL   ,+99999,+99999","99,99,9,99,9,99,9,00823,1,99,9,99,9",,,"10041,5,09390,5",,,,,,"MET09010/19/23 07:51:02 METAR PAPT 191651Z 35010KT 25SM BKN027 M03/M03 A2965 RMK NO SPECI. FIRST","R01   M037TMP046R02   M037DPT046"
"70249026526","2023-10-19T18:53:00","7","62.0911","-152.7349","566.3","PUNTILLA, AK US","FM-15","PAPT ","V020","350,5,N,0051,5","01981,5,M,N","040234,5,N,5","-0040,C","-0040,C","99999,9",,,,,,,,,,"07,5,+01981,5,99,9",,,"3,99,1,+01981,5,9",,,,"9,AGL   ,+99999,+99999","99,99,9,99,9,99,9,01981,1,99,9,99,9",,,"10061,5,09409,5",,,,,,"MET08410/19/23 09:53:02 METAR PAPT 191853Z 35010KT 25SM BKN065 M04/M04 A2971 RMK NO SPECI.","R01   M047TMP046R02   M047DPT046"
"70249026526","2023-10-19T20:47:00","7","62.0911","-152.7349","566.3","PUNTILLA, AK US","FM-15","PAPT ","V020","350,5,N,0062,5","01981,5,M,N","040234,5,N,5","-0030,C","-0030,C","99999,9",,,,,,,,,,"07,5,+01981,5,99,9",,,"3,99,1,+01981,5,9",,,,"9,AGL   ,+99999,+99999","99,99,9,99,9,99,9,01981,1,99,9,99,9",,,"10081,5,09429,5",,,,,,"MET08410/19/23 11:47:02 METAR PAPT 192047Z 35012KT 25SM BKN065 M03/M03 A2977 RMK NO SPECI.","R01   M037TMP046R02   M037DPT046"
"70249026526","2023-10-19T22:48:00","7","62.0911","-152.7349","566.3","PUNTILLA, AK US","FM-15","PAPT ","V020","350,5,N,0088,5","01981,5,M,N","040234,5,N,5","-0030,C","-0030,C","99999,9",,,,,,,,,,"07,5,+01981,5,99,9",,,"3,99,1,+01981,5,9",,,,"9,AGL   ,+99999,+99999","99,99,9,99,9,99,9,01981,1,99,9,99,9","240,M,+0023,1","240,N,-0039,1","10098,5,09445,5",,,,,,"MET10010/19/23 13:48:02 METAR PAPT 192248Z 35017KT 25SM BKN065 M03/M03 A2982 RMK NO SPECI. 400231039 70000","R01   M037TMP046R02   M037DPT046"
"70249026526","2023-10-20T00:48:00","7","62.0911","-152.7349","566.3","PUNTILLA, AK US","FM-15","PAPT ","V020","360,5,N,0062,5","22000,5,9,N","040234,5,N,5","-0050,C","-0050,C","99999,9",,,,,,,,,,"02,5,+03048,5,99,9",,,"1,99,1,+03048,5,9",,,,"9,AGL   ,+99999,+99999","02,99,5,99,9,99,9,03048,1,99,9,99,9",,,"10115,5,09461,5",,,,,,"MET08910/19/23 15:48:01 METAR PAPT 200048Z 36012KT 25SM FEW100 M05/M05 A2987 RMK NO SPECI. LAST","R01   M057TMP046R02   M057DPT046D01      0ADE726"
"70249026526","2023-10-20T16:55:00","7","62.0911","-152.7349","566.3","PUNTILLA, AK US","FM-15","PAPT ","V020","350,5,N,0036,5","22000,7,9,N","040234,5,N,5","-0160,C","-0160,C","99999,9",,,,,,,,,,"00,7,+99999,9,99,9",,,"0,99,1,+99999,9,9",,,,,"00,99,1,99,9,99,9,99999,9,99,9,99,9",,,"10217,5,09557,5",,,,,,"MET08710/20/23 07:55:02 METAR PAPT 201655Z 35007KT 25SM SKC M16/M16 A3017 RMK NO SPECI. FIRST","R01   SKC7SKY009R02   M167TMP046R03   M167DPT046R04   SKC7GAS009"
"70249026526","2023-10-20T18:53:00","7","62.0911","-152.7349","566.3","PUNTILLA, AK US","FM-15","PAPT ","V020","350,5,N,0021,5","22000,7,9,N","040234,5,N,5","-0120,C","-0120,C","99999,9",,,,,,,,,,"00,7,+99999,9,99,9",,,"0,99,1,+99999,9,9",,,,,"00,99,1,99,9,99,9,99999,9,99,9,99,9",,,"10230,5,09570,5",,,,,,"MET08110/20/23 09:53:02 METAR PAPT 201853Z 35004KT 25SM SKC M12/M12 A3021 RMK NO SPECI.","R01   SKC7SKY009R02   M127TMP046R03   M127DPT046R04   SKC7GAS009"
"70249026526","2023-10-20T20:45:00","7","62.0911","-152.7349","566.3","PUNTILLA, AK US","FM-15","PAPT ","V020","210,5,N,0021,5","22000,7,9,N","040234,5,N,5","-0060,C","-0060,C","99999,9",,,,,,,,,,"00,7,+99999,9,99,9",,,"0,99,1,+99999,9,9",,,,,"00,99,1,99,9,99,9,99999,9,99,9,99,9",,,"10237,5,09576,5",,,,,,"MET08110/20/23 11:45:02 METAR PAPT 202045Z 21004KT 25SM SKC M06/M06 A3023 RMK NO SPECI.","R01   SKC7SKY009R02   M067TMP046R03   M067DPT046R04   SKC7GAS009"
"70249026526","2023-10-20T22:46:00","7","62.0911","-152.7349","566.3","PUNTILLA, AK US","FM-15","PAPT ","V020","220,5,N,0041,5","22000,7,9,N","040234,5,N,5","-0040,C","-0040,C","99999,9",,,,,,,,,,"00,7,+99999,9,99,9",,,"0,99,1,+99999,9,9",,,,,"00,99,1,99,9,99,9,99999,9,99,9,99,9","240,M,-0039,1","240,N,-0160,1","10240,5,09579,5",,,,,,"MET09710/20/23 13:46:02 METAR PAPT 202246Z 22008KT 25SM SKC M04/M04 A3024 RMK NO SPECI. 410391160 70000","R01   SKC7SKY009R02   M047TMP046R03   M047DPT046R04   SKC7GAS009"
"70249026526","2023-10-21T00:46:00","7","62.0911","-152.7349","566.3","PUNTILLA, AK US","FM-15","PAPT ","V020","350,5,N,0015,5","22000,7,9,N","040234,5,N,5","-0060,C","-0060,C","99999,9",,,,,,,,,,"00,7,+99999,9,99,9",,,"0,99,1,+99999,9,9",,,,,"00,99,1,99,9,99,9,99999,9,99,9,99,9",,,"10240,5,09579,5",,,,,,"MET08610/20/23 15:46:01 METAR PAPT 210046Z 35003KT 25SM SKC M06/M06 A3024 RMK NO SPECI. LAST","R01   SKC7SKY009R02   M067TMP046R03   M067DPT046R04   SKC7GAS009"
"70249026526","2023-10-21T16:56:00","7","62.0911","-152.7349","566.3","PUNTILLA, AK US","FM-15","PAPT ","V020","999,9,C,0000,5","22000,7,9,N","040234,5,N,5","-0120,C","-0120,C","99999,9",,,,,,,,,,"00,7,+99999,9,99,9",,,"0,99,1,+99999,9,9",,,,,"00,99,1,99,9,99,9,99999,9,99,9,99,9",,,"10284,5,09621,5",,,,,,"MET08710/21/23 07:56:02 METAR PAPT 211656Z 00000KT 25SM SKC M12/M12 A3037 RMK NO SPECI. FIRST","R01   SKC7SKY009R02   M127TMP046R03   M127DPT046R04   SKC7GAS009"
"70249026526","2023-10-21T18:53:00","7","62.0911","-152.7349","566.3","PUNTILLA, AK US","FM-15","PAPT ","V020","020,5,N,0021,5","22000,7,9,N","040234,5,N,5","-0120,C","-0120,C","99999,9",,,,,,,,,,"00,7,+99999,9,99,9",,,"0,99,1,+99999,9,9",,,,,"00,99,1,99,9,99,9,99999,9,99,9,99,9",,,"10291,5,09628,5",,,,,,"MET08110/21/23 09:53:02 METAR PAPT 211853Z 02004KT 25SM SKC M12/M12 A3039 RMK NO SPECI.","R01   SKC7SKY009R02   M127TMP046R03   M127DPT046R04   SKC7GAS009"
"70249026526","2023-10-21T20:51:00","7","62.0911","-152.7349","566.3","PUNTILLA, AK US","FM-15","PAPT ","V020","010,5,N,0041,5","22000,7,9,N","040234,5,N,5","-0030,C","-0030,C","99999,9",,,,,,,,,,"00,7,+99999,9,99,9",,,"0,99,1,+99999,9,9",,,,,"00,99,1,99,9,99,9,99999,9,99,9,99,9",,,"10288,5,09624,5",,,,,,"MET08110/21/23 11:51:02 METAR PAPT 212051Z 01008KT 25SM SKC M03/M03 A3038 RMK NO SPECI.","R01   SKC7SKY009R02   M037TMP046R03   M037DPT046R04   SKC7GAS009"
"70249026526","2023-10-21T22:47:00","7","62.0911","-152.7349","566.3","PUNTILLA, AK US","FM-15","PAPT ","V020","020,5,N,0021,5","22000,7,9,N","040234,5,N,5","+0010,C","-0010,C","99999,9",,,,,,,,,,"00,7,+99999,9,99,9",,,"0,99,1,+99999,9,9",,,,,"00,99,1,99,9,99,9,99999,9,99,9,99,9","240,M,+0006,1","240,N,-0117,1","10281,5,09618,5",,,,,,"MET09610/21/23 13:47:02 METAR PAPT 212247Z 02004KT 25SM SKC 01/M01 A3036 RMK NO SPECI. 400061117 70000","R01   SKC7SKY009R02    017TMP046R03   M017DPT046R04   SKC7GAS009"
"70249026526","2023-10-22T00:46:00","7","62.0911","-152.7349","566.3","PUNTILLA, AK US","FM-15","PAPT ","V020","360,5,N,0021,5","22000,7,9,N","040234,5,N,5","-0020,C","-0020,C","99999,9",,,,,,,,,,"00,7,+99999,9,99,9",,,"0,99,1,+99999,9,9",,,,,"00,99,1,99,9,99,9,99999,9,99,9,99,9",,,"10281,5,09618,5",,,,,,"MET08610/21/23 15:46:01 METAR PAPT 220046Z 36004KT 25SM SKC M02/M02 A3036 RMK NO SPECI. LAST","R01   SKC7SKY009R02   M027TMP046R03   M027DPT046R04   SKC7GAS009"
"70249026526","2023-10-22T16:47:00","7","62.0911","-152.7349","566.3","PUNTILLA, AK US","FM-15","PAPT ","V020","350,5,N,0021,5","22000,7,9,N","040234,5,N,5","-0090,C","-0090,C","99999,9",,,,,,,,,,"00,7,+99999,9,99,9",,,"0,99,1,+99999,9,9",,,,,"00,99,1,99,9,99,9,99999,9,99,9,99,9",,,"10291,5,09628,5",,,,,,"MET08710/22/23 07:47:02 METAR PAPT 221647Z 35004KT 25SM SKC M09/M09 A3039 RMK NO SPECI. FIRST","R01   SKC7SKY009R02   M097TMP046R03   M097DPT046R04   SKC7GAS009"
"70249026526","2023-10-22T18:47:00","7","62.0911","-152.7349","566.3","PUNTILLA, AK US","FM-15","PAPT ","V020","350,5,N,0031,5","22000,7,9,N","040234,5,N,5","-0070,C","-0070,C","99999,9",,,,,,,,,,"00,7,+99999,9,99,9",,,"0,99,1,+99999,9,9",,,,,"00,99,1,99,9,99,9,99999,9,99,9,99,9",,,"10291,5,09628,5",,,,,,"MET08110/22/23 09:47:02 METAR PAPT 221847Z 35006KT 25SM SKC M07/M07 A3039 RMK NO SPECI.","R01   SKC7SKY009R02   M077TMP046R03   M077DPT046R04   SKC7GAS009"
"70249026526","2023-10-22T22:47:00","7","62.0911","-152.7349","566.3","PUNTILLA, AK US","FM-15","PAPT ","V020","210,5,N,0031,5","22000,5,9,N","040234,5,N,5","+0000,C","+0000,C","99999,9",,,,,,,,,,"02,5,+03048,5,99,9",,,"1,99,1,+03048,5,9",,,,"9,AGL   ,+99999,+99999","02,99,5,99,9,99,9,03048,1,99,9,99,9","240,M,+0001,1","240,N,-0089,1","10281,5,09618,5",,,,,,"MET10010/22/23 13:47:02 METAR PAPT 222247Z 21006KT 25SM FEW100 M00/M00 A3036 RMK NO SPECI. 400011089 70000","R01   M007TMP046R02   M007DPT046D01      0ADE726"
"70249026526","2023-10-23T00:51:00","7","62.0911","-152.7349","566.3","PUNTILLA, AK US","FM-15","PAPT ","V020","350,5,N,0021,5","22000,5,9,N","040234,5,N,5","-0020,C","-0020,C","99999,9",,,,,,,,,,"02,5,+03048,5,99,9",,,"1,99,1,+03048,5,9",,,,"9,AGL   ,+99999,+99999","02,99,5,99,9,99,9,03048,1,99,9,99,9",,,"10278,5,09615,5",,,,,,"MET08910/22/23 15:51:01 METAR PAPT 230051Z 35004KT 25SM FEW100 M02/M02 A3035 RMK NO SPECI. LAST","R01   M027TMP046R02   M027DPT046D01      0ADE726"
"70249026526","2023-10-23T16:52:00","7","62.0911","-152.7349","566.3","PUNTILLA, AK US","FM-15","PAPT ","V020","350,5,N,0015,5","01829,5,M,N","040234,5,N,5","-0040,C","-0040,C","99999,9",,,,,,,,,,"08,5,+01829,5,99,9",,,"4,99,1,+01829,5,9",,,,"9,AGL   ,+99999,+99999","99,99,9,99,9,99,9,01829,1,99,9,99,9",,,"10281,5,09618,5",,,,,,"MET09010/23/23 07:52:02 METAR PAPT 231652Z 35003KT 25SM OVC060 M04/M04 A3036 RMK NO SPECI. FIRST","R01   M047TMP046R02   M047DPT046"
"70249026526","2023-10-23T19:06:00","7","62.0911","-152.7349","566.3","PUNTILLA, AK US","FM-15","PAPT ","V020","999,9,C,0000,5","01981,5,M,N","040234,5,N,5","-0030,5","-0030,5","99999,9",,,,,,,,,,"08,5,+01981,5,99,9",,,"4,99,1,+01981,5,9",,,,"9,AGL   ,+99999,+99999","99,99,9,99,9,99,9,01981,1,99,9,99,9",,,"10288,5,09624,5",,,,,,"MET08410/23/23 10:06:02 METAR PAPT 231906Z 00000KT 25SM OVC065 M03/M03 A3038 RMK NO SPECI.",
"70249026526","2023-10-23T20:55:00","7","62.0911","-152.7349","566.3","PUNTILLA, AK US","FM-15","PAPT ","V020","999,9,C,0000,5","01981,5,M,N","040234,5,N,5","+0000,C","+0000,C","99999,9",,,,,,,,,,"08,5,+01981,5,99,9",,,"4,99,1,+01981,5,9",,,,"9,AGL   ,+99999,+99999","99,99,9,99,9,99,9,01981,1,99,9,99,9",,,"10291,5,09628,5",,,,,,"MET08210/23/23 11:55:02 METAR PAPT 232055Z 00000KT 25SM OVC065 00/00 A3039 RMK NO SPECI.","R01    007TMP046R02    007DPT046"
"70249026526","2023-10-23T22:46:00","7","62.0911","-152.7349","566.3","PUNTILLA, AK US","FM-15","PAPT ","V020","220,5,N,0021,5","22000,5,9,N","040234,5,N,5","+0030,C","+0000,C","99999,9",,,,,,,,,,"04,5,+03048,5,99,9",,,"2,99,1,+03048,5,9",,,,"9,AGL   ,+99999,+99999","04,99,5,99,9,99,9,03048,1,99,9,99,9","240,M,+0028,1","240,N,-0044,1","10288,5,09624,5",,,,,,"MET09810/23/23 13:46:02 METAR PAPT 232246Z 22004KT 25SM SCT100 03/00 A3038 RMK NO SPECI. 400281044 70000","R01    037TMP046R02    007DPT046D01      0ADE726"
"70249026526","2023-10-24T00:45:00","7","62.0911","-152.7349","566.3","PUNTILLA, AK US","FM-15","PAPT ","V020","350,5,N,0021,5","22000,5,9,N","040234,5,N,5","+0000,C","-0030,C","99999,9",,,,,,,,,,"04,5,+03048,5,99,9",,,"2,99,1,+03048,5,9",,,,"9,AGL   ,+99999,+99999","04,99,5,99,9,99,9,03048,1,99,9,99,9",,,"10284,5,09621,5",,,,,,"MET08810/23/23 15:45:01 METAR PAPT 240045Z 35004KT 25SM SCT100 00/M03 A3037 RMK NO SPECI. LAST","R01    007TMP046R02   M037DPT046D01      0ADE726"
"70249026526","2023-10-24T16:56:00","7","62.0911","-152.7349","566.3","PUNTILLA, AK US","FM-15","PAPT ","V020","999,9,C,0000,5","03048,5,M,N","040234,5,N,5","-0120,C","-0120,C","99999,9",,,,,,,,,,"07,5,+03048,5,99,9",,,"3,99,1,+03048,5,9",,,,"9,AGL   ,+99999,+99999","99,99,9,99,9,99,9,03048,1,99,9,99,9",,,"10308,5,09644,5",,,,,,"MET09010/24/23 07:56:02 METAR PAPT 241656Z 00000KT 25SM BKN100 M12/M12 A3044 RMK NO SPECI. FIRST","R01   M127TMP046R02   M127DPT046"
"70249026526","2023-10-24T18:49:00","7","62.0911","-152.7349","566.3","PUNTILLA, AK US","FM-15","PAPT ","V020","999,9,C,0000,5","22000,5,9,N","040234,5,N,5","-0100,C","-0100,C","99999,9",,,,,,,,,,"02,5,+03048,5,99,9",,,"1,99,1,+03048,5,9",,,,"9,AGL   ,+99999,+99999","02,99,5,99,9,99,9,03048,1,99,9,99,9",,,"10312,5,09647,5",,,,,,"MET08410/24/23 09:49:02 METAR PAPT 241849Z 00000KT 25SM FEW100 M10/M10 A3045 RMK NO SPECI.","R01   M107TMP046R02   M107DPT046D01      0ADE726"
"70249026526","2023-10-24T20:45:00","7","62.0911","-152.7349","566.3","PUNTILLA, AK US","FM-15","PAPT ","V020","999,9,C,0000,5","01981,5,M,N","040234,5,N,5","-0040,C","-0040,C","99999,9",,,,,,,,,,"07,5,+01981,5,99,9",,,"3,99,1,+01981,5,9",,,,"9,AGL   ,+99999,+99999","99,99,9,99,9,99,9,01981,1,99,9,99,9",,,"10308,5,09644,5",,,,,,"MET08410/24/23 11:45:02 METAR PAPT 242045Z 00000KT 25SM BKN065 M04/M04 A3044 RMK NO SPECI.","R01   M047TMP046R02   M047DPT046"
"70249026526","2023-10-24T22:50:00","7","62.0911","-152.7349","566.3","PUNTILLA, AK US","FM-15","PAPT ","V020","999,9,C,0000,5","03048,5,M,N","040234,5,N,5","+0010,C","-0020,C","99999,9",,,,,,,,,,"07,5,+03048,5,99,9",,,"3,99,1,+03048,5,9",,,,"9,AGL   ,+99999,+99999","99,99,9,99,9,99,9,03048,1,99,9,99,9","240,M,+0006,1","240,N,-0122,1","10301,5,09637,5",,,,,,"MET09910/24/23 13:50:02 METAR PAPT 242250Z 00000KT 25SM BKN100 01/M02 A3042 RMK NO SPECI. 400061122 70000","R01    017TMP046R02   M027DPT046"
"70249026526","2023-10-25T00:48:00","7","62.0911","-152.7349","566.3","PUNTILLA, AK US","FM-15","PAPT ","V020","999,9,C,0000,5","03048,5,M,N","040234,5,N,5","+0010,C","-0020,C","99999,9",,,,,,,,,,"07,5,+03048,5,99,9",,,"3,99,1,+03048,5,9",,,,"9,AGL   ,+99999,+99999","99,99,9,99,9,99,9,03048,1,99,9,99,9",,,"10295,5,09631,5",,,,,,"MET08810/24/23 15:48:01 METAR PAPT 250048Z 00000KT 25SM BKN100 01/M02 A3040 RMK NO SPECI. LAST","R01    017TMP046R02   M027DPT046"
"70249026526","2023-10-25T16:49:00","7","62.0911","-152.7349","566.3","PUNTILLA, AK US","FM-15","PAPT ","V020","350,5,N,0021,5","03048,5,M,N","040234,5,N,5","-0060,C","-0060,C","99999,9",,,,,,,,,,"07,5,+03048,5,99,9",,,"3,99,1,+03048,5,9",,,,"9,AGL   ,+99999,+99999","99,99,9,99,9,99,9,03048,1,99,9,99,9",,,"10264,5,09602,5",,,,,,"MET09010/25/23 07:49:02 METAR PAPT 251649Z 35004KT 25SM BKN100 M06/M06 A3031 RMK NO SPECI. FIRST","R01   M067TMP046R02   M067DPT046"
"70249026526","2023-10-25T18:50:00","7","62.0911","-152.7349","566.3","PUNTILLA, AK US","FM-15","PAPT ","V020","999,9,C,0000,5","03048,5,M,N","040234,5,N,5","-0040,C","-0040,C","99999,9",,,,,,,,,,"07,5,+03048,5,99,9",,,"3,99,1,+03048,5,9",,,,"9,AGL   ,+99999,+99999","99,99,9,99,9,99,9,03048,1,99,9,99,9",,,"10268,5,09605,5",,,,,,"MET08410/25/23 09:50:02 METAR PAPT 251850Z 00000KT 25SM BKN100 M04/M04 A3032 RMK NO SPECI.","R01   M047TMP046R02   M047DPT046"
"70249026526","2023-10-25T20:45:00","7","62.0911","-152.7349","566.3","PUNTILLA, AK US","FM-15","PAPT ","V020","999,9,C,0000,5","22000,5,9,N","040234,5,N,5","+0020,C","-0020,C","99999,9",,,,,,,,,,"04,5,+03048,5,99,9",,,"2,99,1,+03048,5,9",,,,"9,AGL   ,+99999,+99999","04,99,5,99,9,99,9,03048,1,99,9,99,9",,,"10264,5,09602,5",,,,,,"MET08310/25/23 11:45:02 METAR PAPT 252045Z 00000KT 25SM SCT100 02/M02 A3031 RMK NO SPECI.","R01    027TMP046R02   M027DPT046D01      0ADE726"
"70249026526","2023-10-25T22:45:00","7","62.0911","-152.7349","566.3","PUNTILLA, AK US","FM-15","PAPT ","V020","999,9,C,0000,5","22000,5,9,N","040234,5,N,5","+0070,C","+0050,C","99999,9",,,,,,,,,,"02,5,+03048,5,99,9",,,"1,99,1,+03048,5,9",,,,"9,AGL   ,+99999,+99999","02,99,5,99,9,99,9,03048,1,99,9,99,9","240,M,+0067,1","240,N,-0056,1","10264,5,09602,5",,,,,,"MET09810/25/23 13:45:02 METAR PAPT 252245Z 00000KT 25SM FEW100 07/05 A3031 RMK NO SPECI. 400671056 70000","R01    077TMP046R02    057DPT046D01      0ADE726"
"70249026526","2023-10-26T00:45:00","7","62.0911","-152.7349","566.3","PUNTILLA, AK US","FM-15","PAPT ","V020","999,9,C,0000,5","22000,5,9,N","040234,5,N,5","+0020,C","-0010,C","99999,9",,,,,,,,,,"02,5,+03048,5,99,9",,,"1,99,1,+03048,5,9",,,,"9,AGL   ,+99999,+99999","02,99,5,99,9,99,9,03048,1,99,9,99,9",,,"10261,5,09599,5",,,,,,"MET08810/25/23 15:45:01 METAR PAPT 260045Z 00000KT 25SM FEW100 02/M01 A3030 RMK NO SPECI. LAST","R01    027TMP046R02   M017DPT046D01      0ADE726"
"70249026526","2023-10-26T16:45:00","7","62.0911","-152.7349","566.3","PUNTILLA, AK US","FM-15","PAPT ","V020","999,9,C,0000,5","03048,5,M,N","040234,5,N,5","-0030,C","-0030,C","99999,9",,,,,,,,,,"07,5,+03048,5,99,9",,,"3,99,1,+03048,5,9",,,,"9,AGL   ,+99999,+99999","99,99,9,99,9,99,9,03048,1,99,9,99,9",,,"10278,5,09615,5",,,,,,"MET09010/26/23 07:45:02 METAR PAPT 261645Z 00000KT 25SM BKN100 M03/M03 A3035 RMK NO SPECI. FIRST","R01   M037TMP046R02   M037DPT046"
"70249026526","2023-10-26T18:49:00","7","62.0911","-152.7349","566.3","PUNTILLA, AK US","FM-15","PAPT ","V020","999,9,C,0000,5","03048,5,M,N","040234,5,N,5","-0030,C","-0030,C","99999,9",,,,,,,,,,"07,5,+03048,5,99,9",,,"3,99,1,+03048,5,9",,,,"9,AGL   ,+99999,+99999","99,99,9,99,9,99,9,03048,1,99,9,99,9",,,"10284,5,09621,5",,,,,,"MET08410/26/23 09:49:02 METAR PAPT 261849Z 00000KT 25SM BKN100 M03/M03 A3037 RMK NO SPECI.","R01   M037TMP046R02   M037DPT046"
"70249026526","2023-10-26T20:47:00","7","62.0911","-152.7349","566.3","PUNTILLA, AK US","FM-15","PAPT ","V020","999,9,C,0000,5","22000,7,9,N","040234,5,N,5","+0030,C","-0040,C","99999,9",,,,,,,,,,"00,7,+99999,9,99,9",,,"0,99,1,+99999,9,9",,,,,"00,99,1,99,9,99,9,99999,9,99,9,99,9",,,"10288,5,09624,5",,,,,,"MET08010/26/23 11:47:02 METAR PAPT 262047Z 00000KT 25SM SKC 03/M04 A3038 RMK NO SPECI.","R01   SKC7SKY009R02    037TMP046R03   M047DPT046R04   SKC7GAS009"
"70249026526","2023-10-26T22:47:00","7","62.0911","-152.7349","566.3","PUNTILLA, AK US","FM-15","PAPT ","V020","350,5,N,0021,5","22000,7,9,N","040234,5,N,5","+0050,C","-0010,C","99999,9",,,,,,,,,,"00,7,+99999,9,99,9",,,"0,99,1,+99999,9,9",,,,,"00,99,1,99,9,99,9,99999,9,99,9,99,9","240,M,+0051,1","240,N,-0028,1","10288,5,09624,5",,,,,,"MET09610/26/23 13:47:02 METAR PAPT 262247Z 35004KT 25SM SKC 05/M01 A3038 RMK NO SPECI. 400511028 70000","R01   SKC7SKY009R02    057TMP046R03   M017DPT046R04   SKC7GAS009"
"70249026526","2023-10-27T00:50:00","7","62.0911","-152.7349","566.3","PUNTILLA, AK US","FM-15","PAPT ","V020","999,9,C,0000,5","22000,5,9,N","040234,5,N,5","-0020,C","-0020,C","99999,9",,,,,,,,,,"02,5,+03048,5,99,9",,,"1,99,1,+03048,5,9",,,,"9,AGL   ,+99999,+99999","02,99,5,99,9,99,9,03048,1,99,9,99,9",,,"10284,5,09621,5",,,,,,"MET08910/26/23 15:50:01 METAR PAPT 270050Z 00000KT 25SM FEW100 M02/M02 A3037 RMK NO SPECI. LAST","R01   M027TMP046R02   M027DPT046D01      0ADE726"
"70249026526","2023-10-27T16:55:00","7","62.0911","-152.7349","566.3","PUNTILLA, AK US","FM-15","PAPT ","V020","999,9,C,0000,5","22000,7,9,N","040234,5,N,5","-0120,C","-0120,C","99999,9",,,,,,,,,,"00,7,+99999,9,99,9",,,"0,99,1,+99999,9,9",,,,,"00,99,1,99,9,99,9,99999,9,99,9,99,9",,,"10298,5,09634,5",,,,,,"MET08710/27/23 07:55:01 METAR PAPT 271655Z 00000KT 25SM SKC M12/M12 A3041 RMK NO SPECI. FIRST","R01   SKC7SKY009R02   M127TMP046R03   M127DPT046R04   SKC7GAS009"
"70249026526","2023-10-27T18:47:00","7","62.0911","-152.7349","566.3","PUNTILLA, AK US","FM-15","PAPT ","V020","999,9,C,0000,5","22000,7,9,N","040234,5,N,5","-0090,C","-0090,C","99999,9",,,,,,,,,,"00,7,+99999,9,99,9",,,"0,99,1,+99999,9,9",,,,,"00,99,1,99,9,99,9,99999,9,99,9,99,9",,,"10301,5,09637,5",,,,,,"MET08110/27/23 09:47:02 METAR PAPT 271847Z 00000KT 25SM SKC M09/M09 A3042 RMK NO SPECI.","R01   SKC7SKY009R02   M097TMP046R03   M097DPT046R04   SKC7GAS009"
"70249026526","2023-10-27T20:49:00","7","62.0911","-152.7349","566.3","PUNTILLA, AK US","FM-15","PAPT ","V020","999,9,C,0000,5","22000,5,9,N","040234,5,N,5","-0020,C","-0020,C","99999,9",,,,,,,,,,"02,5,+03048,5,99,9",,,"1,99,1,+03048,5,9",,,,"9,AGL   ,+99999,+99999","02,99,5,99,9,99,9,03048,1,99,9,99,9",,,"10305,5,09640,5",,,,,,"MET08410/27/23 11:49:02 METAR PAPT 272049Z 00000KT 25SM FEW100 M02/M02 A3043 RMK NO SPECI.","R01   M027TMP046R02   M027DPT046D01      0ADE726"
"70249026526","2023-10-27T22:49:00","7","62.0911","-152.7349","566.3","PUNTILLA, AK US","FM-15","PAPT ","V020","350,5,N,0031,5","22000,5,9,N","040234,5,N,5","+0020,C","+0010,C","99999,9",,,,,,,,,,"02,5,+03048,5,99,9",,,"1,99,1,+03048,5,9",,,,"9,AGL   ,+99999,+99999","02,99,5,99,9,99,9,03048,1,99,9,99,9","240,M,+0023,1","240,N,-0122,1","10295,5,09631,5",,,,,,"MET09810/27/23 13:49:02 METAR PAPT 272249Z 35006KT 25SM FEW100 02/01 A3040 RMK NO SPECI. 400231122 70000","R01    027TMP046R02    017DPT046D01      0ADE726"
"70249026526","2023-10-28T00:53:00","7","62.0911","-152.7349","566.3","PUNTILLA, AK US","FM-15","PAPT ","V020","999,9,C,0000,5","22000,7,9,N","040234,5,N,5","-0040,C","-0040,C","99999,9",,,,,,,,,,"00,7,+99999,9,99,9",,,"0,99,1,+99999,9,9",,,,,"00,99,1,99,9,99,9,99999,9,99,9,99,9",,,"10295,5,09631,5",,,,,,"MET08610/27/23 15:53:01 METAR PAPT 280053Z 00000KT 25SM SKC M04/M04 A3040 RMK NO SPECI. LAST","R01   SKC7SKY009R02   M047TMP046R03   M047DPT046R04   SKC7GAS009"
"70249026526","2023-10-28T16:55:00","7","62.0911","-152.7349","566.3","PUNTILLA, AK US","FM-15","PAPT ","V020","350,5,N,0015,5","01372,5,M,N","040234,5,N,5","-0050,C","-0050,C","99999,9",,,,,,,,,,"08,5,+01372,5,99,9",,,"4,99,1,+01372,5,9",,,,"9,AGL   ,+99999,+99999","99,99,9,99,9,99,9,01372,1,99,9,99,9",,,"10295,5,09631,5",,,,,,"MET09010/28/23 07:55:02 METAR PAPT 281655Z 35003KT 25SM OVC045 M05/M05 A3040 RMK NO SPECI. FIRST","R01   M057TMP046R02   M057DPT046"
"70249026526","2023-10-28T18:45:00","7","62.0911","-152.7349","566.3","PUNTILLA, AK US","FM-15","PAPT ","V020","999,9,C,0000,5","01372,5,M,N","040234,5,N,5","-0040,C","-0040,C","99999,9",,,,,,,,,,"08,5,+01372,5,99,9",,,"4,99,1,+01372,5,9",,,,"9,AGL   ,+99999,+99999","99,99,9,99,9,99,9,01372,1,99,9,99,9",,,"10291,5,09628,5",,,,,,"MET08410/28/23 09:45:02 METAR PAPT 281845Z 00000KT 25SM OVC045 M04/M04 A3039 RMK NO SPECI.","R01   M047TMP046R02   M047DPT046"
"70249026526","2023-10-28T20:56:00","7","62.0911","-152.7349","566.3","PUNTILLA, AK US","FM-15","PAPT ","V020","999,9,C,0000,5","01372,5,M,N","040234,5,N,5","-0020,C","-0020,C","99999,9",,,,,,,,,,"08,5,+01372,5,99,9",,,"4,99,1,+01372,5,9",,,,"9,AGL   ,+99999,+99999","99,99,9,99,9,99,9,01372,1,99,9,99,9",,,"10288,5,09624,5",,,,,,"MET08410/28/23 11:56:02 METAR PAPT 282056Z 00000KT 25SM OVC045 M02/M02 A3038 RMK NO SPECI.","R01   M027TMP046R02   M027DPT046"
"70249026526","2023-10-28T22:48:00","7","62.0911","-152.7349","566.3","PUNTILLA, AK US","FM-15","PAPT ","V020","350,5,N,0031,5","00823,5,M,N","004828,5,N,5","-0010,C","-0010,C","99999,9",,,,,,,,,,"08,5,+00823,5,99,9",,,"4,99,1,+00823,5,9",,,,"9,AGL   ,+99999,+99999","99,99,9,99,9,99,9,00823,1,99,9,99,9","240,M,-0011,1","240,N,-0050,1","10284,5,09621,5",,,,,,"MET09910/28/23 13:48:02 METAR PAPT 282248Z 35006KT 3SM OVC027 M01/M01 A3037 RMK NO SPECI. 410111050 70000","R01   M017TMP046R02   M017DPT046"
"70249026526","2023-10-29T00:45:00","7","62.0911","-152.7349","566.3","PUNTILLA, AK US","FM-15","PAPT ","V020","160,5,N,0031,5","99999,9,9,N","004828,5,N,5","-0020,C","-0020,C","99999,9",,,,,,"0,0,00,0,0,1,7",,,,,,,,,,,,,,,"10271,5,09608,5",,,,,,"MET08910/28/23 15:45:01 METAR PAPT 290045Z 16006KT 3SM OIVC015 M02/M02 A3033 RMK NO SPECI. LAST","R01      7SKY009R02   M027TMP046R03   M027DPT046R04OIVC017AWW013R05OIVC017AWW013R06      7GAS009R07SEERMK7MVW013R08OIVC017MWW013D01      0ADE693D02      0ADE539"
"70249026526","2023-10-29T16:54:00","7","62.0911","-152.7349","566.3","PUNTILLA, AK US","FM-15","PAPT ","V020","999,9,C,0000,5","00610,5,M,N","001609,5,N,5","-0020,C","-0020,C","99999,9",,,,,,"1,0,03,0,0,1,5",,"71,5",,"08,5,+00610,5,99,9",,,"4,99,1,+00610,5,9",,,,"9,AGL   ,+99999,+99999","99,99,9,99,9,99,9,00610,1,99,9,99,9",,,"10207,5,09547,5",,"71,5",,,,"MET09310/29/23 07:54:02 METAR PAPT 291654Z 00000KT 1SM -SN OVC020 M02/M02 A3014 RMK NO SPECI. FIRST","R01   M027TMP046R02   M027DPT046"
"70249026526","2023-10-29T18:49:00","7","62.0911","-152.7349","566.3","PUNTILLA, AK US","FM-15","PAPT ","V020","160,5,N,0015,5","00091,5,M,N","001609,5,N,5","-0010,C","-0010,C","99999,9",,,,,,"1,0,03,0,0,1,5",,"71,5",,"08,5,+00091,5,99,9",,,"4,99,1,+00091,5,9",,,,"9,AGL   ,+99999,+99999","99,99,9,99,9,99,9,00091,1,99,9,99,9",,,"10200,5,09541,5",,"71,5",,,,"MET08710/29/23 09:49:02 METAR PAPT 291849Z 16003KT 1SM -SN OVC003 M01/M01 A3012 RMK NO SPECI.","R01   M017TMP046R02   M017DPT046"
"70249026526","2023-10-29T22:45:00","7","62.0911","-152.7349","566.3","PUNTILLA, AK US","FM-15","PAPT ","V020","160,5,N,0026,5","00091,5,M,N","001609,5,N,5","+0000,C","+0000,C","99999,9",,,,,,"1,0,03,0,0,1,5",,"71,5",,"08,5,+00091,5,99,9",,,"4,99,1,+00091,5,9",,,,"9,AGL   ,+99999,+99999","99,99,9,99,9,99,9,00091,1,99,9,99,9","240,M,+0001,1","240,N,-0017,1","10193,5,09535,5",,"71,5",,,,"MET10110/29/23 13:45:02 METAR PAPT 292245Z 16005KT 1SM -SN OVC003 00/00 A3010 RMK NO SPECI. 400011017 70001","R01    007TMP046R02    007DPT046"
"70249026526","2023-10-30T00:45:00","7","62.0911","-152.7349","566.3","PUNTILLA, AK US","FM-15","PAPT ","V020","999,9,C,0000,5","00091,5,M,N","001609,5,N,5","+0010,C","-0010,C","99999,9",,,,,,"1,0,03,0,0,1,5",,"71,5",,"08,5,+00091,5,99,9",,,"4,99,1,+00091,5,9",,,,"9,AGL   ,+99999,+99999","99,99,9,99,9,99,9,00091,1,99,9,99,9",,,"10183,5,09525,5",,"71,5",,,,"MET09110/29/23 15:45:01 METAR PAPT 300045Z 00000KT 1SM -SN OVC003 01/M01 A3007 RMK NO SPECI. LAST","R01    017TMP046R02   M017DPT046"
"70249026526","2023-10-30T08:59:00","O","62.0911","-152.7349","566.3","PUNTILLA, AK US","SOD  ","PAPT ","V020","999,9,9,9999,9","99999,9,9,9","999999,9,9,9","+9999,9","+9999,9","99999,9",,,"AU,18,SN  ,5",,,,,,,,,,,,,,,,,,,,,,,,,
"70249026526","2023-10-30T16:56:00","7","62.0911","-152.7349","566.3","PUNTILLA, AK US","FM-15","PAPT ","V020","999,9,C,0000,5","01372,5,M,N","040234,5,N,5","-0010,C","-0010,C","99999,9",,,,,,,,,,"08,5,+01372,5,99,9",,,"4,99,1,+01372,5,9",,,,"9,AGL   ,+99999,+99999","99,99,9,99,9,99,9,01372,1,99,9,99,9",,,"10193,5,09535,5",,,,,,"MET09010/30/23 07:56:02 METAR PAPT 301656Z 00000KT 25SM OVC045 M01/M01 A3010 RMK NO SPECI. FIRST","R01   M017TMP046R02   M017DPT046"
"70249026526","2023-10-30T18:45:00","7","62.0911","-152.7349","566.3","PUNTILLA, AK US","FM-15","PAPT ","V020","999,9,C,0000,5","01676,5,M,N","040234,5,N,5","-0010,C","-0010,C","99999,9",,,,,,,,,,"08,5,+01676,5,99,9",,,"4,99,1,+01676,5,9",,,,"9,AGL   ,+99999,+99999","99,99,9,99,9,99,9,01676,1,99,9,99,9",,,"10196,5,09538,5",,,,,,"MET08410/30/23 09:45:02 METAR PAPT 301845Z 00000KT 25SM OVC055 M01/M01 A3011 RMK NO SPECI.","R01   M017TMP046R02   M017DPT046"
"70249026526","2023-10-30T20:50:00","7","62.0911","-152.7349","566.3","PUNTILLA, AK US","FM-15","PAPT ","V020","999,9,C,0000,5","01676,5,M,N","040234,5,N,5","+0030,C","+0020,C","99999,9",,,,,,,,,,"07,5,+01676,5,99,9",,,"3,99,1,+01676,5,9",,,,"9,AGL   ,+99999,+99999","99,99,9,99,9,99,9,01676,1,99,9,99,9",,,"10196,5,09538,5",,,,,,"MET08210/30/23 11:50:02 METAR PAPT 302050Z 00000KT 25SM BKN055 03/02 A3011 RMK NO SPECI.","R01    037TMP046R02    027DPT046"
"70249026526","2023-10-30T22:45:00","7","62.0911","-152.7349","566.3","PUNTILLA, AK US","FM-15","PAPT ","V020","999,9,C,0000,5","00914,5,M,N","040234,5,N,5","+0030,C","+0020,C","99999,9",,,,,,,,,,"07,5,+00914,5,99,9",,,"3,99,1,+00914,5,9",,,,"9,AGL   ,+99999,+99999","99,99,9,99,9,99,9,00914,1,99,9,99,9","240,M,+0028,1","240,N,-0006,1","10193,5,09535,5",,,,,,"MET09810/30/23 13:45:02 METAR PAPT 302245Z 00000KT 25SM BKN030 03/02 A3010 RMK NO SPECI. 400281006 70002","R01    037TMP046R02    027DPT046"
"70249026526","2023-10-31T00:45:00","7","62.0911","-152.7349","566.3","PUNTILLA, AK US","FM-15","PAPT ","V020","999,9,C,0000,5","22000,5,9,N","040234,5,N,5","+0000,C","+0000,C","99999,9",,,,,,,,,,"04,5,+00914,5,99,9",,,"2,99,1,+00914,5,9",,,,"9,AGL   ,+99999,+99999","04,99,5,99,9,99,9,00914,1,99,9,99,9",,,"10186,5,09528,5",,,,,,"MET08710/30/23 15:45:01 METAR PAPT 310045Z 00000KT 25SM SCT030 00/00 A3008 RMK NO SPECI. LAST","R01    007TMP046R02    007DPT046D01      0ADE726"
"70249026526","2023-10-31T16:53:00","7","62.0911","-152.7349","566.3","PUNTILLA, AK US","FM-15","PAPT ","V020","999,9,C,0000,5","03048,5,M,N","040234,5,N,5","-0080,C","-0080,C","99999,9",,,,,,,,,,"07,5,+03048,5,99,9",,,"3,99,1,+03048,5,9",,,,"9,AGL   ,+99999,+99999","99,99,9,99,9,99,9,03048,1,99,9,99,9",,,"10169,5,09512,5",,,,,,"MET09010/31/23 07:53:02 METAR PAPT 311653Z 00000KT 25SM BKN100 M08/M08 A3003 RMK NO SPECI. FIRST","R01   M087TMP046R02   M087DPT046"
"70249026526","2023-10-31T18:57:00","7","62.0911","-152.7349","566.3","PUNTILLA, AK US","FM-15","PAPT ","V020","999,9,C,0000,5","01981,5,M,N","040234,5,N,5","-0040,C","-0040,C","99999,9",,,,,,,,,,"07,5,+01981,5,99,9",,,"3,99,1,+01981,5,9",,,,"9,AGL   ,+99999,+99999","99,99,9,99,9,99,9,01981,1,99,9,99,9",,,"10173,5,09515,5",,,,,,"MET08410/31/23 09:57:02 METAR PAPT 311857Z 00000KT 25SM BKN065 M04/M04 A3004 RMK NO SPECI.","R01   M047TMP046R02   M047DPT046"
"70249026526","2023-10-31T20:45:00","7","62.0911","-152.7349","566.3","PUNTILLA, AK US","FM-15","PAPT ","V020","999,9,C,0000,5","03048,5,M,N","040234,5,N,5","-0020,C","-0020,C","99999,9",,,,,,,,,,"07,5,+03048,5,99,9",,,"3,99,1,+03048,5,9",,,,"9,AGL   ,+99999,+99999","99,99,9,99,9,99,9,03048,1,99,9,99,9",,,"10169,5,09512,5",,,,,,"MET08410/31/23 11:45:02 METAR PAPT 312045Z 00000KT 25SM BKN100 M02/M02 A3003 RMK NO SPECI.","R01   M027TMP046R02   M027DPT046"
"70249026526","2023-10-31T22:45:00","7","62.0911","-152.7349","566.3","PUNTILLA, AK US","FM-15","PAPT ","V020","999,9,C,0000,5","03048,5,M,N","040234,5,N,5","+0020,C","+0010,C","99999,9",,,,,,,,,,"07,5,+03048,5,99,9",,,"3,99,1,+03048,5,9",,,,"9,AGL   ,+99999,+99999","99,99,9,99,9,99,9,03048,1,99,9,99,9","240,M,+0017,1","240,N,-0083,1","10163,5,09506,5",,,,,,"MET09810/31/23 13:45:02 METAR PAPT 312245Z 00000KT 25SM BKN100 02/01 A3001 RMK NO SPECI. 400171083 70000","R01    027TMP046R02    017DPT046"
"70249026526","2023-11-01T00:51:00","4","62.0911","-152.7349","566.3","PUNTILLA, AK US","FM-15","99999","V020","350,1,N,0021,1","22000,5,9,N","040234,1,9,9","-0010,1","-0010,1","99999,9",,,,,,,,,,,,,"2,99,1,+03048,1,9",,,,"9,AGL   ,+99999,+99999","04,99,5,99,9,99,9,03048,1,99,9,99,9",,,"10156,1,99999,9",,,,,,"MET072METAR PAPT 010051Z 35004KT 25SM SCT100 M01/M01 A2999 RMK NO SPECI. LAST=","D01      0ADE726"
"70249026526","2023-11-01T17:00:00","7","62.0911","-152.7349","566.3","PUNTILLA, AK US","FM-15","PAPT ","V020","999,9,C,0000,5","01372,5,M,N","040234,5,N,5","-0010,C","-0010,C","99999,9",,,,,,,,,,"07,5,+01372,5,99,9",,,"3,99,1,+01372,5,9",,,,"9,AGL   ,+99999,+99999","99,99,9,99,9,99,9,01372,1,99,9,99,9",,,"10119,5,09464,5",,,,,,"MET09011/01/23 08:00:02 METAR PAPT 011700Z 00000KT 25SM BKN045 M01/M01 A2988 RMK NO SPECI. FIRST","R01   M017TMP046R02   M017DPT046"
"70249026526","2023-11-01T18:55:00","7","62.0911","-152.7349","566.3","PUNTILLA, AK US","FM-15","PAPT ","V020","999,9,C,0000,5","01829,5,M,N","040234,5,N,5","+0000,C","+0000,C","99999,9",,,,,,,,,,"07,5,+01829,5,99,9",,,"3,99,1,+01829,5,9",,,,"9,AGL   ,+99999,+99999","99,99,9,99,9,99,9,01829,1,99,9,99,9",,,"10115,5,09461,5",,,,,,"MET08211/01/23 09:55:02 METAR PAPT 011855Z 00000KT 25SM BKN060 00/00 A2987 RMK NO SPECI.","R01    007TMP046R02    007DPT046"
"70249026526","2023-11-01T20:53:00","7","62.0911","-152.7349","566.3","PUNTILLA, AK US","FM-15","PAPT ","V020","999,9,C,0000,5","01372,5,M,N","040234,5,N,5","+0010,C","-0020,C","99999,9",,,,,,,,,,"07,5,+01372,5,99,9",,,"3,99,1,+01372,5,9",,,,"9,AGL   ,+99999,+99999","99,99,9,99,9,99,9,01372,1,99,9,99,9",,,"10112,5,09458,5",,,,,,"MET08311/01/23 11:53:02 METAR PAPT 012053Z 00000KT 25SM BKN045 01/M02 A2986 RMK NO SPECI.","R01    017TMP046R02   M027DPT046"
"70249026526","2023-11-01T22:55:00","7","62.0911","-152.7349","566.3","PUNTILLA, AK US","FM-15","PAPT ","V020","999,9,C,0000,5","01372,5,M,N","040234,5,N,5","+0030,C","+0020,C","99999,9",,,,,,,,,,"07,5,+01372,5,99,9",,,"3,99,1,+01372,5,9",,,,"9,AGL   ,+99999,+99999","99,99,9,99,9,99,9,01372,1,99,9,99,9","240,M,+0028,1","240,N,-0011,1","10102,5,09448,5",,,,,,"MET09811/01/23 13:55:02 METAR PAPT 012255Z 00000KT 25SM BKN045 03/02 A2983 RMK NO SPECI. 400281011 70000","R01    037TMP046R02    027DPT046"
"70249026526","2023-11-02T00:45:00","7","62.0911","-152.7349","566.3","PUNTILLA, AK US","FM-15","PAPT ","V020","999,9,C,0000,5","01372,5,M,N","040234,5,N,5","+0030,C","+0020,C","99999,9",,,,,,,,,,"07,5,+01372,5,99,9",,,"3,99,1,+01372,5,9",,,,"9,AGL   ,+99999,+99999","99,99,9,99,9,99,9,01372,1,99,9,99,9",,,"10091,5,09438,5",,,,,,"MET08711/01/23 15:45:01 METAR PAPT 020045Z 00000KT 25SM BKN045 03/02 A2980 RMK NO SPECI. LAST","R01    037TMP046R02    027DPT046"
"70249026526","2023-11-02T17:09:00","7","62.0911","-152.7349","566.3","PUNTILLA, AK US","FM-15","PAPT ","V020","999,9,C,0000,5","03048,5,M,N","024140,5,N,5","-0070,5","-0070,5","99999,9",,,,,,,,,,"07,5,+03048,5,99,9",,,"3,99,1,+03048,5,9",,,,"9,AGL   ,+99999,+99999","99,99,9,99,9,99,9,03048,1,99,9,99,9",,,"10041,5,09390,5",,,,,,"MET09011/02/23 08:09:02 METAR PAPT 021709Z 00000KT 15SM BKN100 M07/M07 A2965 RMK NO SPECI. FIRST",
"70249026526","2023-11-02T18:47:00","7","62.0911","-152.7349","566.3","PUNTILLA, AK US","FM-15","PAPT ","V020","999,9,C,0000,5","03048,5,M,N","040234,5,N,5","-0060,C","-0060,C","99999,9",,,,,,,,,,"08,5,+03048,5,99,9",,,"4,99,1,+03048,5,9",,,,"9,AGL   ,+99999,+99999","99,99,9,99,9,99,9,03048,1,99,9,99,9",,,"10041,5,09390,5",,,,,,"MET08411/02/23 09:47:02 METAR PAPT 021847Z 00000KT 25SM OVC100 M06/M06 A2965 RMK NO SPECI.","R01   M067TMP046R02   M067DPT046"
"70249026526","2023-11-02T20:45:00","7","62.0911","-152.7349","566.3","PUNTILLA, AK US","FM-15","PAPT ","V020","350,5,N,0021,5","03048,5,M,N","040234,5,N,5","-0010,C","-0010,C","99999,9",,,,,,,,,,"08,5,+03048,5,99,9",,,"4,99,1,+03048,5,9",,,,"9,AGL   ,+99999,+99999","99,99,9,99,9,99,9,03048,1,99,9,99,9",,,"10037,5,09387,5",,,,,,"MET08411/02/23 11:45:02 METAR PAPT 022045Z 35004KT 25SM OVC100 M01/M01 A2964 RMK NO SPECI.","R01   M017TMP046R02   M017DPT046"
"70249026526","2023-11-02T22:52:00","7","62.0911","-152.7349","566.3","PUNTILLA, AK US","FM-15","PAPT ","V020","999,9,C,0000,5","03048,5,M,N","040234,5,N,5","+0020,C","-0020,C","99999,9",,,,,,,,,,"07,5,+03048,5,99,9",,,"3,99,1,+03048,5,9",,,,"9,AGL   ,+99999,+99999","99,99,9,99,9,99,9,03048,1,99,9,99,9","240,M,+0028,1","240,N,-0067,1","10027,5,09377,5",,,,,,"MET09911/02/23 13:52:02 METAR PAPT 022252Z 00000KT 25SM BKN100 02/M02 A2961 RMK NO SPECI. 400281067 70000","R01    027TMP046R02   M027DPT046"
"70249026526","2023-11-03T00:51:00","7","62.0911","-152.7349","566.3","PUNTILLA, AK US","FM-15","PAPT ","V020","999,9,C,0000,5","03048,5,M,N","040234,5,N,5","+0020,C","+0010,C","99999,9",,,,,,,,,,"07,5,+03048,5,99,9",,,"3,99,1,+03048,5,9",,,,"9,AGL   ,+99999,+99999","99,99,9,99,9,99,9,03048,1,99,9,99,9",,,"10017,5,09368,5",,,,,,"MET08711/02/23 15:51:01 METAR PAPT 030051Z 00000KT 25SM BKN100 02/01 A2958 RMK NO SPECI. LAST","R01    027TMP046R02    017DPT046"
"70249026526","2023-11-03T16:57:00","7","62.0911","-152.7349","566.3","PUNTILLA, AK US","FM-15","PAPT ","V020","999,9,C,0000,5","01981,5,M,N","040234,5,N,5","-0040,C","-0040,C","99999,9",,,,,,,,,,"08,5,+01981,5,99,9",,,"4,99,1,+01981,5,9",,,,"9,AGL   ,+99999,+99999","99,99,9,99,9,99,9,01981,1,99,9,99,9",,,"10003,5,09355,5",,,,,,"MET09011/03/23 07:57:02 METAR PAPT 031657Z 00000KT 25SM OVC065 M04/M04 A2954 RMK NO SPECI. FIRST","R01   M047TMP046R02   M047DPT046"
"70249026526","2023-11-03T18:51:00","7","62.0911","-152.7349","566.3","PUNTILLA, AK US","FM-15","PAPT ","V020","360,5,N,0021,5","01981,5,M,N","040234,5,N,5","-0050,C","-0050,C","99999,9",,,,,,,,,,"08,5,+01981,5,99,9",,,"4,99,1,+01981,5,9",,,,"9,AGL   ,+99999,+99999","99,99,9,99,9,99,9,01981,1,99,9,99,9",,,"10003,5,09355,5",,,,,,"MET08411/03/23 09:51:02 METAR PAPT 031851Z 36004KT 25SM OVC065 M05/M05 A2954 RMK NO SPECI.","R01   M057TMP046R02   M057DPT046"
"70249026526","2023-11-03T20:51:00","7","62.0911","-152.7349","566.3","PUNTILLA, AK US","FM-15","PAPT ","V020","999,9,C,0000,5","01676,5,M,N","040234,5,N,5","-0020,C","-0020,C","99999,9",,,,,,,,,,"07,5,+01676,5,99,9",,,"3,99,1,+01676,5,9",,,,"9,AGL   ,+99999,+99999","99,99,9,99,9,99,9,01676,1,99,9,99,9",,,"10003,5,09355,5",,,,,,"MET08411/03/23 11:51:02 METAR PAPT 032051Z 00000KT 25SM BKN055 M02/M02 A2954 RMK NO SPECI.","R01   M027TMP046R02   M027DPT046"
"70249026526","2023-11-03T22:51:00","7","62.0911","-152.7349","566.3","PUNTILLA, AK US","FM-15","PAPT ","V020","999,9,C,0000,5","01981,5,M,N","040234,5,N,5","-0010,C","-0010,C","99999,9",,,,,,,,,,"08,5,+01981,5,99,9",,,"4,99,1,+01981,5,9",,,,"9,AGL   ,+99999,+99999","99,99,9,99,9,99,9,01981,1,99,9,99,9","240,M,+0017,1","240,N,-0050,1","09997,5,09348,5",,,,,,"MET10011/03/23 13:51:02 METAR PAPT 032251Z 00000KT 25SM OVC065 M01/M01 A2952 RMK NO SPECI. 400171050 70000","R01   M017TMP046R02   M017DPT046"
"70249026526","2023-11-04T00:50:00","7","62.0911","-152.7349","566.3","PUNTILLA, AK US","FM-15","PAPT ","V020","999,9,C,0000,5","01981,5,M,N","040234,5,N,5","+0000,C","+0000,C","99999,9",,,,,,,,,,"07,5,+01981,5,99,9",,,"3,99,1,+01981,5,9",,,,"9,AGL   ,+99999,+99999","99,99,9,99,9,99,9,01981,1,99,9,99,9",,,"09993,5,09345,5",,,,,,"MET08711/03/23 15:50:01 METAR PAPT 040050Z 00000KT 25SM BKN065 00/00 A2951 RMK NO SPECI. LAST","R01    007TMP046R02    007DPT046"
"70249026526","2023-11-04T16:54:00","7","62.0911","-152.7349","566.3","PUNTILLA, AK US","FM-15","PAPT ","V020","999,9,C,0000,5","00091,5,M,N","001609,5,N,5","-0010,C","-0010,C","99999,9",,,,,,"1,0,03,0,0,1,5",,"71,5",,"08,5,+00091,5,99,9",,,"4,99,1,+00091,5,9",,,,"9,AGL   ,+99999,+99999","99,99,9,99,9,99,9,00091,1,99,9,99,9",,,"09953,5,09307,5",,"71,5",,,,"MET09311/04/23 07:54:02 METAR PAPT 041654Z 00000KT 1SM -SN OVC003 M01/M01 A2939 RMK NO SPECI. FIRST","R01   M017TMP046R02   M017DPT046"
"70249026526","2023-11-04T18:48:00","7","62.0911","-152.7349","566.3","PUNTILLA, AK US","FM-15","PAPT ","V020","999,9,C,0000,5","00091,5,M,N","001609,5,N,5","+0000,C","+0000,C","99999,9",,,,,,"1,0,03,0,0,1,5",,"71,5",,"08,5,+00091,5,99,9",,,"4,99,1,+00091,5,9",,,,"9,AGL   ,+99999,+99999","99,99,9,99,9,99,9,00091,1,99,9,99,9",,,"09946,5,09300,5",,"71,5",,,,"MET08511/04/23 09:48:02 METAR PAPT 041848Z 00000KT 1SM -SN OVC003 00/00 A2937 RMK NO SPECI.","R01    007TMP046R02    007DPT046"
"70249026526","2023-11-04T20:51:00","7","62.0911","-152.7349","566.3","PUNTILLA, AK US","FM-15","PAPT ","V020","170,5,N,0021,5","00091,5,M,N","001609,5,N,5","+0010,C","+0000,C","99999,9",,,,,,"1,0,03,0,0,1,5",,"71,5",,"08,5,+00091,5,99,9",,,"4,99,1,+00091,5,9",,,,"9,AGL   ,+99999,+99999","99,99,9,99,9,99,9,00091,1,99,9,99,9",,,"09936,5,09291,5",,"71,5",,,,"MET08511/04/23 11:51:02 METAR PAPT 042051Z 17004KT 1SM -SN OVC003 01/00 A2934 RMK NO SPECI.","R01    017TMP046R02    007DPT046"
"70249026526","2023-11-04T22:55:00","7","62.0911","-152.7349","566.3","PUNTILLA, AK US","FM-15","PAPT ","V020","999,9,C,0000,5","00091,5,M,N","001609,5,N,5","+0010,C","+0000,C","99999,9",,,,,,"1,0,03,0,0,1,5",,"71,5",,"08,5,+00091,5,99,9",,,"4,99,1,+00091,5,9",,,,"9,AGL   ,+99999,+99999","99,99,9,99,9,99,9,00091,1,99,9,99,9","240,M,+0006,1","240,N,-0006,1","09922,5,09278,5",,"71,5",,,,"MET10111/04/23 13:55:02 METAR PAPT 042255Z 00000KT 1SM -SN OVC003 01/00 A2930 RMK NO SPECI. 400061006 70002","R01    017TMP046R02    007DPT046"
"70249026526","2023-11-05T00:48:00","7","62.0911","-152.7349","566.3","PUNTILLA, AK US","FM-15","PAPT ","V020","999,9,C,0000,5","00091,5,M,N","001609,5,N,5","+0010,C","+0000,C","99999,9",,,,,,"1,0,03,0,0,1,5",,"71,5",,"08,5,+00091,5,99,9",,,"4,99,1,+00091,5,9",,,,"9,AGL   ,+99999,+99999","99,99,9,99,9,99,9,00091,1,99,9,99,9",,,"09905,5,09262,5",,"71,5",,,,"MET09011/04/23 15:48:01 METAR PAPT 050048Z 00000KT 1SM -SN OVC003 01/00 A2925 RMK NO SPECI. LAST","R01    017TMP046R02    007DPT046"
"70249026526","2023-11-05T08:59:00","O","62.0911","-152.7349","566.3","PUNTILLA, AK US","SOD  ","PAPT ","V020","999,9,9,9999,9","99999,9,9,9","999999,9,9,9","+9999,9","+9999,9","99999,9",,,"AU,18,SN  ,5",,,,,,,,,,,,,,,,,,,,,,,,,
"70249026526","2023-11-05T17:53:00","7","62.0911","-152.7349","566.3","PUNTILLA, AK US","FM-15","PAPT ","V020","020,5,N,0046,5","00183,5,M,N","001609,5,N,5","-0080,C","-0080,C","99999,9",,,,,,"1,0,03,0,0,1,5",,"71,5",,"08,5,+00183,5,99,9",,,"4,99,1,+00183,5,9",,,,"9,AGL   ,+99999,+99999","99,99,9,99,9,99,9,00183,1,99,9,99,9",,,"09888,5,09246,5",,"71,5",,,,"MET09311/05/23 08:53:02 METAR PAPT 051753Z 02009KT 1SM -SN OVC006 M08/M08 A2920 RMK NO SPECI. FIRST","R01   M087TMP046R02   M087DPT046"
"70249026526","2023-11-05T19:48:00","7","62.0911","-152.7349","566.3","PUNTILLA, AK US","FM-15","PAPT ","V020","020,5,N,0051,5","00762,5,M,N","001609,5,N,5","-0080,C","-0080,C","99999,9",,,,,,"1,0,03,0,0,1,5",,"71,5",,"08,5,+00762,5,99,9",,,"4,99,1,+00762,5,9",,,,"9,AGL   ,+99999,+99999","99,99,9,99,9,99,9,00762,1,99,9,99,9",,,"09898,5,09255,5",,"71,5",,,,"MET08711/05/23 10:48:02 METAR PAPT 051948Z 02010KT 1SM -SN OVC025 M08/M08 A2923 RMK NO SPECI.","R01   M087TMP046R02   M087DPT046"
"70249026526","2023-11-05T21:45:00","7","62.0911","-152.7349","566.3","PUNTILLA, AK US","FM-15","PAPT ","V020","020,5,N,0072,5","01829,5,M,N","004828,5,N,5","-0070,C","-0070,C","99999,9",,,,,,,,,,"08,5,+01829,5,99,9",,,"4,99,1,+01829,5,9",,,,"9,AGL   ,+99999,+99999","99,99,9,99,9,99,9,01829,1,99,9,99,9",,,"09902,5,09259,5",,,,,,"MET08311/05/23 12:45:02 METAR PAPT 052145Z 02014KT 3SM OVC060 M07/M07 A2924 RMK NO SPECI.","R01   M077TMP046R02   M077DPT046"
"70249026526","2023-11-05T23:56:00","7","62.0911","-152.7349","566.3","PUNTILLA, AK US","FM-15","PAPT ","V020","360,5,N,0036,5","00610,5,M,N","001609,5,N,5","-0080,C","-0080,C","99999,9",,,,,,"1,0,03,0,0,1,5",,"71,5",,"08,5,+00610,5,99,9",,,"4,99,1,+00610,5,9",,,,"9,AGL   ,+99999,+99999","99,99,9,99,9,99,9,00610,1,99,9,99,9","240,M,+0006,1","240,N,-0083,1","09909,5,09265,5",,"71,5",,,,"MET10311/05/23 14:56:02 METAR PAPT 052356Z 36007KT 1SM -SN OVC020 M08/M08 A2926 RMK NO SPECI. 400061083 70003","R01   M087TMP046R02   M087DPT046"
"70249026526","2023-11-06T01:53:00","7","62.0911","-152.7349","566.3","PUNTILLA, AK US","FM-15","PAPT ","V020","360,5,N,0036,5","00823,5,M,N","004828,5,N,5","-0080,C","-0080,C","99999,9",,,,,,,,,,"08,5,+00823,5,99,9",,,"4,99,1,+00823,5,9",,,,"9,AGL   ,+99999,+99999","99,99,9,99,9,99,9,00823,1,99,9,99,9",,,"09922,5,09278,5",,,,,,"MET08811/05/23 16:53:01 METAR PAPT 060153Z 36007KT 3SM OVC027 M08/M08 A2930 RMK NO SPECI. LAST","R01   M087TMP046R02   M087DPT046"
"70249026526","2023-11-06T08:59:00","O","62.0911","-152.7349","566.3","PUNTILLA, AK US","SOD  ","PAPT ","V020","999,9,9,9999,9","99999,9,9,9","999999,9,9,9","+9999,9","+9999,9","99999,9",,,"AU,18,SN  ,5",,,,,,,,,,,,,,,,,,,,,,,,,
"70249026526","2023-11-06T17:51:00","6","62.0911","-152.7349","566.3","PUNTILLA, AK US","FM-15","PAPT ","V020","360,5,N,0031,5","00457,5,M,N","040234,5,N,5","-0120,C","-0120,C","99999,9",,,,,,,,,,"08,5,+00457,5,99,9",,,"4,99,1,+00457,5,9",,,,,,,,"09926,5,09281,5",,,,,,"MET09011/06/23 08:51:02 METAR PAPT 061751Z 36006KT 25SM OVC015 M12/M12 A2931 RMK NO SPECI. FIRST","R01   M127TMP046R02   M127DPT046"
"70249026526","2023-11-06T19:55:00","6","62.0911","-152.7349","566.3","PUNTILLA, AK US","FM-15","PAPT ","V020","360,5,N,0026,5","00823,5,M,N","040234,5,N,5","-0110,C","-0110,C","99999,9",,,,,,,,,,"07,5,+00823,5,99,9",,,"3,99,1,+00823,5,9",,,,,,,,"09919,5,09275,5",,,,,,"MET08411/06/23 10:55:02 METAR PAPT 061955Z 36005KT 25SM BKN027 M11/M11 A2929 RMK NO SPECI.","R01   M117TMP046R02   M117DPT046"
"70249026526","2023-11-06T21:45:00","7","62.0911","-152.7349","566.3","PUNTILLA, AK US","FM-15","PAPT ","V020","010,5,N,0021,5","01676,5,M,N","040234,5,N,5","-0110,C","-0110,C","99999,9",,,,,,,,,,"07,5,+01676,5,99,9",,,"3,99,1,+01676,5,9",,,,"9,AGL   ,+99999,+99999","99,99,9,99,9,99,9,01676,1,99,9,99,9",,,"09915,5,09272,5",,,,,,"MET08411/06/23 12:45:02 METAR PAPT 062145Z 01004KT 25SM BKN055 M11/M11 A2928 RMK NO SPECI.","R01   M117TMP046R02   M117DPT046"
"70249026526","2023-11-06T23:54:00","7","62.0911","-152.7349","566.3","PUNTILLA, AK US","FM-15","PAPT ","V020","360,5,N,0041,5","01676,5,M,N","040234,5,N,5","-0100,C","-0100,C","99999,9",,,,,,,,,,"07,5,+01676,5,99,9",,,"3,99,1,+01676,5,9",,,,"9,AGL   ,+99999,+99999","99,99,9,99,9,99,9,01676,1,99,9,99,9","240,M,-0083,1","240,N,-0122,1","09905,5,09262,5",,,,,,"MET10011/06/23 14:54:02 METAR PAPT 062354Z 36008KT 25SM BKN055 M10/M10 A2925 RMK NO SPECI. 410831122 70000","R01   M107TMP046R02   M107DPT046"
"70249026526","2023-11-07T01:57:00","7","62.0911","-152.7349","566.3","PUNTILLA, AK US","FM-15","PAPT ","V020","020,5,N,0021,5","22000,5,9,N","040234,5,N,5","-0120,C","-0120,C","99999,9",,,,,,,,,,"04,5,+03048,5,99,9",,,"2,99,1,+03048,5,9",,,,"9,AGL   ,+99999,+99999","04,99,5,99,9,99,9,03048,1,99,9,99,9",,,"09909,5,09265,5",,,,,,"MET08911/06/23 16:57:01 METAR PAPT 070157Z 02004KT 25SM SCT100 M12/M12 A2926 RMK NO SPECI. LAST","R01   M127TMP046R02   M127DPT046D01      0ADE726"
"70249026526","2023-11-07T17:49:00","7","62.0911","-152.7349","566.3","PUNTILLA, AK US","FM-15","PAPT ","V020","010,5,N,0015,5","02134,5,M,N","004828,5,N,5","-0110,C","-0110,C","99999,9",,,,,,"1,0,03,0,0,1,5",,"71,5",,"08,5,+02134,5,99,9",,,"4,99,1,+02134,5,9",,,,"9,AGL   ,+99999,+99999","99,99,9,99,9,99,9,02134,1,99,9,99,9",,,"09919,5,09275,5",,"71,5",,,,"MET09311/07/23 08:49:02 METAR PAPT 071749Z 01003KT 3SM -SN OVC070 M11/M11 A2929 RMK NO SPECI. FIRST","R01   M117TMP046R02   M117DPT046"
"70249026526","2023-11-07T19:54:00","7","62.0911","-152.7349","566.3","PUNTILLA, AK US","FM-15","PAPT ","V020","999,9,C,0000,5","22000,5,9,N","004828,5,N,5","-0100,C","-0100,C","99999,9",,,,,,,,,,"04,5,+01676,5,99,9",,,"2,99,1,+01676,5,9",,,,"9,AGL   ,+99999,+99999","04,99,5,99,9,99,9,01676,1,99,9,99,9",,,"09926,5,09281,5",,,,,,"MET08311/07/23 10:54:02 METAR PAPT 071954Z 00000KT 3SM SCT055 M10/M10 A2931 RMK NO SPECI.","R01   M107TMP046R02   M107DPT046D01      0ADE726"
"70249026526","2023-11-07T21:45:00","7","62.0911","-152.7349","566.3","PUNTILLA, AK US","FM-15","PAPT ","V020","999,9,C,0000,5","00610,5,M,N","004828,5,N,5","-0100,C","-0100,C","99999,9",,,,,,,,,,"08,5,+00610,5,99,9",,,"4,99,1,+00610,5,9",,,,"9,AGL   ,+99999,+99999","99,99,9,99,9,99,9,00610,1,99,9,99,9",,,"09936,5,09291,5",,,,,,"MET08311/07/23 12:45:02 METAR PAPT 072145Z 00000KT 3SM OVC020 M10/M10 A2934 RMK NO SPECI.","R01   M107TMP046R02   M107DPT046"
"70249026526","2023-11-07T23:59:00","7","62.0911","-152.7349","566.3","PUNTILLA, AK US","FM-15","PAPT ","V020","999,9,C,0000,5","00610,5,M,N","001609,5,N,5","-0080,C","-0080,C","99999,9",,,,,,"1,0,03,0,0,1,5",,"71,5",,"08,5,+00610,5,99,9",,,"4,99,1,+00610,5,9",,,,"9,AGL   ,+99999,+99999","99,99,9,99,9,99,9,00610,1,99,9,99,9","240,M,-0078,1","240,N,-0122,1","09939,5,09294,5",,"71,5",,,,"MET10311/07/23 14:59:02 METAR PAPT 072359Z 00000KT 1SM -SN OVC020 M08/M08 A2935 RMK NO SPECI. 410781122 70000","R01   M087TMP046R02   M087DPT046"
"70249026526","2023-11-08T01:54:00","7","62.0911","-152.7349","566.3","PUNTILLA, AK US","FM-15","PAPT ","V020","999,9,C,0000,5","00823,5,M,N","001609,5,N,5","-0080,C","-0080,C","99999,9",,,,,,"1,0,03,0,0,1,5",,"71,5",,"08,5,+00823,5,99,9",,,"4,99,1,+00823,5,9",,,,"9,AGL   ,+99999,+99999","99,99,9,99,9,99,9,00823,1,99,9,99,9",,,"09939,5,09294,5",,"71,5",,,,"MET09211/07/23 16:54:01 METAR PAPT 080154Z 00000KT 1SM -SN OVC027 M08/M08 A2935 RMK NO SPECI. LAST","R01   M087TMP046R02   M087DPT046"
"70249026526","2023-11-08T08:59:00","O","62.0911","-152.7349","566.3","PUNTILLA, AK US","SOD  ","PAPT ","V020","999,9,9,9999,9","99999,9,9,9","999999,9,9,9","+9999,9","+9999,9","99999,9",,,"AU,18,SN  ,5",,,,,,,,,,,,,,,,,,,,,,,,,
"70249026526","2023-11-08T17:59:00","7","62.0911","-152.7349","566.3","PUNTILLA, AK US","FM-15","PAPT ","V020","999,9,C,0000,5","00823,5,M,N","001609,5,N,5","-0070,C","-0070,C","99999,9",,,,,,,,,,"08,5,+00823,5,99,9",,,"4,99,1,+00823,5,9",,,,"9,AGL   ,+99999,+99999","99,99,9,99,9,99,9,00823,1,99,9,99,9",,,"09851,5,09211,5",,,,,,"MET08911/08/23 08:59:02 METAR PAPT 081759Z 00000KT 1SM OVC027 M07/M07 A2909 RMK NO SPECI. FIRST","R01   M077TMP046R02   M077DPT046"
"70249026526","2023-11-08T21:47:00","7","62.0911","-152.7349","566.3","PUNTILLA, AK US","FM-15","PAPT ","V020","360,5,N,0021,5","00457,5,M,N","001609,5,N,5","-0040,C","-0040,C","99999,9",,,,,,"1,0,03,0,0,1,5",,"71,5",,"08,5,+00457,5,99,9",,,"4,99,1,+00457,5,9",,,,"9,AGL   ,+99999,+99999","99,99,9,99,9,99,9,00457,1,99,9,99,9",,,"09837,5,09198,5",,"71,5",,,,"MET08711/08/23 12:47:02 METAR PAPT 082147Z 36004KT 1SM -SN OVC015 M04/M04 A2905 RMK NO SPECI.","R01   M047TMP046R02   M047DPT046"
"70249026526","2023-11-08T23:48:00","7","62.0911","-152.7349","566.3","PUNTILLA, AK US","FM-15","PAPT ","V020","999,9,C,0000,5","00183,5,M,N","001609,7,N,5","-0040,C","-0040,C","99999,9",,,,,,"2,0,03,0,0,1,7",,"72,7",,"08,5,+00183,5,99,9",,,"4,99,1,+00183,5,9",,,,"9,AGL   ,+99999,+99999","99,99,9,99,9,99,9,00183,1,99,9,99,9","240,M,-0044,1","240,N,-0178,1","09821,5,09182,5",,"73,7",,,,"MET10211/08/23 14:48:02 METAR PAPT 082348Z 00000KT 1SM SN OVC006 M04/M04 A2900 RMK NO SPECI. 410441178 70005","R01   1SM7VIS012R02   M047TMP046R03   M047DPT046R04    SN7AWW012R05SEERMK7MVW012R06    SN7MWW012"
"70249026526","2023-11-09T01:47:00","7","62.0911","-152.7349","566.3","PUNTILLA, AK US","FM-15","PAPT ","V020","180,5,N,0015,5","00823,5,M,N","001609,5,N,5","-0050,C","-0050,C","99999,9",,,,,,"1,0,03,0,0,1,5",,"71,5",,"08,5,+00823,5,99,9",,,"4,99,1,+00823,5,9",,,,"9,AGL   ,+99999,+99999","99,99,9,99,9,99,9,00823,1,99,9,99,9",,,"09800,5,09162,5",,"71,5",,,,"MET09211/08/23 16:47:01 METAR PAPT 090147Z 18003KT 1SM -SN OVC027 M05/M05 A2894 RMK NO SPECI. LAST","R01   M057TMP046R02   M057DPT046"
"70249026526","2023-11-09T08:59:00","O","62.0911","-152.7349","566.3","PUNTILLA, AK US","SOD  ","PAPT ","V020","999,9,9,9999,9","99999,9,9,9","999999,9,9,9","+9999,9","+9999,9","99999,9",,,"AU,18,SN  ,5",,,,,,,,,,,,,,,,,,,,,,,,,
"70249026526","2023-11-09T17:45:00","7","62.0911","-152.7349","566.3","PUNTILLA, AK US","FM-15","PAPT ","V020","360,5,N,0062,5","00091,5,M,N","001609,5,N,5","-0080,C","-0080,C","99999,9",,,,,,"1,0,03,0,0,1,5",,"71,5",,"08,5,+00091,5,99,9",,,"4,99,1,+00091,5,9",,,,"9,AGL   ,+99999,+99999","99,99,9,99,9,99,9,00091,1,99,9,99,9",,,"09705,5,09073,5",,"71,5",,,,"MET09311/09/23 08:45:02 METAR PAPT 091745Z 36012KT 1SM -SN OVC003 M08/M08 A2866 RMK NO SPECI. FIRST","R01   M087TMP046R02   M087DPT046"
"70249026526","2023-11-09T19:45:00","7","62.0911","-152.7349","566.3","PUNTILLA, AK US","FM-15","PAPT ","V020","360,5,N,0046,5","00091,5,M,N","001609,7,N,5","-0080,C","-0080,C","99999,9",,,,,,"2,0,03,0,0,1,7",,"72,7",,"08,5,+00091,5,99,9",,,"4,99,1,+00091,5,9",,,,"9,AGL   ,+99999,+99999","99,99,9,99,9,99,9,00091,1,99,9,99,9",,,"09716,5,09082,5",,"73,7",,,,"MET08611/09/23 10:45:02 METAR PAPT 091945Z 36009KT 1SM SN OVC003 M08/M08 A2869 RMK NO SPECI.","R01   1SM7VIS012R02   M087TMP046R03   M087DPT046R04    SN7AWW012R05SEERMK7MVW012R06    SN7MWW012"
"70249026526","2023-11-09T21:48:00","7","62.0911","-152.7349","566.3","PUNTILLA, AK US","FM-15","PAPT ","V020","350,5,N,0026,5","00183,5,M,N","001609,5,N,5","-0070,C","-0070,C","99999,9",,,,,,"1,0,03,0,0,1,5",,"71,5",,"08,5,+00183,5,99,9",,,"4,99,1,+00183,5,9",,,,"9,AGL   ,+99999,+99999","99,99,9,99,9,99,9,00183,1,99,9,99,9",,,"09736,5,09102,5",,"71,5",,,,"MET08711/09/23 12:48:02 METAR PAPT 092148Z 35005KT 1SM -SN OVC006 M07/M07 A2875 RMK NO SPECI.","R01   M077TMP046R02   M077DPT046"
"70249026526","2023-11-09T23:57:00","7","62.0911","-152.7349","566.3","PUNTILLA, AK US","FM-15","PAPT ","V020","350,5,N,0021,5","00183,5,M,N","001609,5,N,5","-0080,C","-0080,C","99999,9",,,,,,"1,0,03,0,0,1,5",,"71,5",,"08,5,+00183,5,99,9",,,"4,99,1,+00183,5,9",,,,"9,AGL   ,+99999,+99999","99,99,9,99,9,99,9,00183,1,99,9,99,9","240,M,-0050,1","240,N,-0083,1","09760,5,09124,5",,"71,5",,,,"MET10311/09/23 14:57:02 METAR PAPT 092357Z 35004KT 1SM -SN OVC006 M08/M08 A2882 RMK NO SPECI. 410501083 70011","R01   M087TMP046R02   M087DPT046"
"70249026526","2023-11-10T01:53:00","7","62.0911","-152.7349","566.3","PUNTILLA, AK US","FM-15","PAPT ","V020","250,5,N,0021,5","00610,5,M,N","001609,5,N,5","-0090,C","-0090,C","99999,9",,,,,,"1,0,03,0,0,1,5",,"71,5",,"08,5,+00610,5,99,9",,,"4,99,1,+00610,5,9",,,,"9,AGL   ,+99999,+99999","99,99,9,99,9,99,9,00610,1,99,9,99,9",,,"09777,5,09140,5",,"71,5",,,,"MET09211/09/23 16:53:01 METAR PAPT 100153Z 25004KT 1SM -SN OVC020 M09/M09 A2887 RMK NO SPECI. LAST","R01   M097TMP046R02   M097DPT046"
"70249026526","2023-11-10T08:59:00","O","62.0911","-152.7349","566.3","PUNTILLA, AK US","SOD  ","PAPT ","V020","999,9,9,9999,9","99999,9,9,9","999999,9,9,9","+9999,9","+9999,9","99999,9",,,"AU,18,SN  ,5",,,,,,,,,,,,,,,,,,,,,,,,,
"70249026526","2023-11-10T17:53:00","7","62.0911","-152.7349","566.3","PUNTILLA, AK US","FM-15","PAPT ","V020","999,9,C,0000,5","00457,5,M,N","001609,5,N,5","-0080,C","-0080,C","99999,9",,,,,,"1,0,03,0,0,1,5",,"71,5",,"08,5,+00457,5,99,9",,,"4,99,1,+00457,5,9",,,,"9,AGL   ,+99999,+99999","99,99,9,99,9,99,9,00457,1,99,9,99,9",,,"10132,5,09477,5",,"71,5",,,,"MET09311/10/23 08:53:02 METAR PAPT 101753Z 00000KT 1SM -SN OVC015 M08/M08 A2992 RMK NO SPECI. FIRST","R01   M087TMP046R02   M087DPT046"
"70249026526","2023-11-10T19:59:00","7","62.0911","-152.7349","566.3","PUNTILLA, AK US","FM-15","PAPT ","V020","999,9,C,0000,5","00610,5,M,N","004828,5,N,5","-0090,C","-0090,C","99999,9",,,,,,,,,,"08,5,+00610,5,99,9",,,"4,99,1,+00610,5,9",,,,"9,AGL   ,+99999,+99999","99,99,9,99,9,99,9,00610,1,99,9,99,9",,,"09827,5,09188,5",,,,,,"MET08311/10/23 10:59:02 METAR PAPT 101959Z 00000KT 3SM OVC020 M09/M09 A2902 RMK NO SPECI.","R01   M097TMP046R02   M097DPT046"
"70249026526","2023-11-10T21:45:00","7","62.0911","-152.7349","566.3","PUNTILLA, AK US","FM-15","PAPT ","V020","999,9,C,0000,5","00183,5,M,N","001609,5,N,5","-0080,C","-0080,C","99999,9",,,,,,,,,,"08,5,+00183,5,99,9",,,"4,99,1,+00183,5,9",,,,"9,AGL   ,+99999,+99999","99,99,9,99,9,99,9,00183,1,99,9,99,9",,,"09827,5,09188,5",,,,,,"MET08311/10/23 12:45:02 METAR PAPT 102145Z 00000KT 1SM OVC006 M08/M08 A2902 RMK NO SPECI.","R01   M087TMP046R02   M087DPT046"
"70249026526","2023-11-10T23:57:00","7","62.0911","-152.7349","566.3","PUNTILLA, AK US","FM-15","PAPT ","V020","230,5,N,0026,5","00457,5,M,N","001609,5,N,5","-0080,C","-0080,C","99999,9",,,,,,"1,0,03,0,0,1,5",,"71,5",,"08,5,+00457,5,99,9",,,"4,99,1,+00457,5,9",,,,"9,AGL   ,+99999,+99999","99,99,9,99,9,99,9,00457,1,99,9,99,9","240,M,-0078,1","240,N,-0189,1","09824,6,09185,6",,"71,5",,,,"MET10311/10/23 14:57:02 METAR PAPT 102357Z 23005KT 1SM -SN OVC015 M08/M08 A2901 RMK NO SPECI. 410781189 70003","R01   M087TMP046R02   M087DPT046"
"70249026526","2023-11-11T01:51:00","7","62.0911","-152.7349","566.3","PUNTILLA, AK US","FM-15","PAPT ","V020","360,5,N,0026,5","00457,5,M,N","001609,5,N,5","-0080,C","-0080,C","99999,9",,,,,,"1,0,03,0,0,1,5",,"71,5",,"08,5,+00457,5,99,9",,,"4,99,1,+00457,5,9",,,,"9,AGL   ,+99999,+99999","99,99,9,99,9,99,9,00457,1,99,9,99,9",,,"09824,6,09185,6",,"71,5",,,,"MET09211/10/23 16:51:01 METAR PAPT 110151Z 36005KT 1SM -SN OVC015 M08/M08 A2901 RMK NO SPECI. LAST","R01   M087TMP046R02   M087DPT046"
"70249026526","2023-11-11T08:59:00","O","62.0911","-152.7349","566.3","PUNTILLA, AK US","SOD  ","PAPT ","V020","999,9,9,9999,9","99999,9,9,9","999999,9,9,9","+9999,9","+9999,9","99999,9",,,"AU,18,SN  ,5",,,,,,,,,,,,,,,,,,,,,,,,,
"70249026526","2023-11-11T17:53:00","7","62.0911","-152.7349","566.3","PUNTILLA, AK US","FM-15","PAPT ","V020","010,5,N,0051,5","01981,5,M,N","040234,5,N,5","-0080,C","-0080,C","99999,9",,,,,,,,,,"08,5,+01981,5,99,9",,,"4,99,1,+01981,5,9",,,,"9,AGL   ,+99999,+99999","99,99,9,99,9,99,9,01981,1,99,9,99,9",,,"09881,5,09239,5",,,,,,"MET09011/11/23 08:53:02 METAR PAPT 111753Z 01010KT 25SM OVC065 M08/M08 A2918 RMK NO SPECI. FIRST","R01   M087TMP046R02   M087DPT046"
"70249026526","2023-11-11T19:54:00","7","62.0911","-152.7349","566.3","PUNTILLA, AK US","FM-15","PAPT ","V020","350,5,N,0046,5","03048,5,M,N","040234,5,N,5","-0080,C","-0080,C","99999,9",,,,,,,,,,"07,5,+03048,5,99,9",,,"3,99,1,+03048,5,9",,,,"9,AGL   ,+99999,+99999","99,99,9,99,9,99,9,03048,1,99,9,99,9",,,"09905,5,09262,5",,,,,,"MET08411/11/23 10:54:02 METAR PAPT 111954Z 35009KT 25SM BKN100 M08/M08 A2925 RMK NO SPECI.","R01   M087TMP046R02   M087DPT046"
"70249026526","2023-11-11T21:46:00","7","62.0911","-152.7349","566.3","PUNTILLA, AK US","FM-15","PAPT ","V020","360,5,N,0067,5","22000,5,9,N","040234,5,N,5","-0080,C","-0080,C","99999,9",,,,,,,,,,"04,5,+03048,5,99,9",,,"2,99,1,+03048,5,9",,,,"9,AGL   ,+99999,+99999","04,99,5,99,9,99,9,03048,1,99,9,99,9",,,"09919,5,09275,5",,,,,,"MET08411/11/23 12:46:02 METAR PAPT 112146Z 36013KT 25SM SCT100 M08/M08 A2929 RMK NO SPECI.","R01   M087TMP046R02   M087DPT046D01      0ADE726"
"70249026526","2023-11-11T23:47:00","7","62.0911","-152.7349","566.3","PUNTILLA, AK US","FM-15","PAPT ","V020","230,5,N,0026,5","22000,5,9,N","040234,5,N,5","-0090,C","-0090,C","99999,9",,,,,,,,,,"02,5,+03048,5,99,9",,,"1,99,1,+03048,5,9",,,,"9,AGL   ,+99999,+99999","02,99,5,99,9,99,9,03048,1,99,9,99,9","240,M,-0078,1","240,N,-0189,1","09939,5,09294,5",,,,,,"MET10011/11/23 14:47:02 METAR PAPT 112347Z 23005KT 25SM FEW100 M09/M09 A2935 RMK NO SPECI. 410781189 70000","R01   M097TMP046R02   M097DPT046D01      0ADE726"
"70249026526","2023-11-12T01:54:00","7","62.0911","-152.7349","566.3","PUNTILLA, AK US","FM-15","PAPT ","V020","350,5,N,0026,5","22000,7,9,N","040234,5,N,5","-0090,C","-0090,C","99999,9",,,,,,,,,,"00,7,+99999,9,99,9",,,"0,99,1,+99999,9,9",,,,,"00,99,1,99,9,99,9,99999,9,99,9,99,9",,,"09963,5,09316,5",,,,,,"MET08611/11/23 16:54:01 METAR PAPT 120154Z 35005KT 25SM SKC M09/M09 A2942 RMK NO SPECI. LAST","R01   SKC7SKY009R02   M097TMP046R03   M097DPT046R04   SKC7GAS009"
"70249026526","2023-11-12T18:00:00","7","62.0911","-152.7349","566.3","PUNTILLA, AK US","FM-15","PAPT ","V020","999,9,C,0000,5","22000,7,9,N","040234,5,N,5","-0180,C","-0180,C","99999,9",,,,,,,,,,"00,7,+99999,9,99,9",,,"0,99,1,+99999,9,9",,,,,"00,99,1,99,9,99,9,99999,9,99,9,99,9",,,"10146,5,09490,5",,,,,,"MET08711/12/23 09:00:02 METAR PAPT 121800Z 00000KT 25SM SKC M18/M18 A2996 RMK NO SPECI. FIRST","R01   SKC7SKY009R02   M187TMP046R03   M187DPT046R04   SKC7GAS009"
"70249026526","2023-11-12T19:51:00","7","62.0911","-152.7349","566.3","PUNTILLA, AK US","FM-15","PAPT ","V020","350,5,N,0021,5","22000,5,9,N","040234,5,N,5","-0150,C","-0150,C","99999,9",,,,,,,,,,"02,5,+03048,5,99,9",,,"1,99,1,+03048,5,9",,,,"9,AGL   ,+99999,+99999","02,99,5,99,9,99,9,03048,1,99,9,99,9",,,"10149,5,09493,5",,,,,,"MET08411/12/23 10:51:02 METAR PAPT 121951Z 35004KT 25SM FEW100 M15/M15 A2997 RMK NO SPECI.","R01   M157TMP046R02   M157DPT046D01      0ADE726"
"70249026526","2023-11-12T21:45:00","7","62.0911","-152.7349","566.3","PUNTILLA, AK US","FM-15","PAPT ","V020","350,5,N,0021,5","22000,5,9,N","040234,5,N,5","-0110,C","-0110,C","99999,9",,,,,,,,,,"02,5,+03048,5,99,9",,,"1,99,1,+03048,5,9",,,,"9,AGL   ,+99999,+99999","02,99,5,99,9,99,9,03048,1,99,9,99,9",,,"10146,5,09490,5",,,,,,"MET08411/12/23 12:45:02 METAR PAPT 122145Z 35004KT 25SM FEW100 M11/M11 A2996 RMK NO SPECI.","R01   M117TMP046R02   M117DPT046D01      0ADE726"
"70249026526","2023-11-12T23:46:00","7","62.0911","-152.7349","566.3","PUNTILLA, AK US","FM-15","PAPT ","V020","999,9,C,0000,5","03048,5,M,N","040234,5,N,5","-0120,C","-0120,C","99999,9",,,,,,,,,,"07,5,+03048,5,99,9",,,"3,99,1,+03048,5,9",,,,"9,AGL   ,+99999,+99999","99,99,9,99,9,99,9,03048,1,99,9,99,9","240,M,-0094,1","240,N,-0178,1","10142,5,09486,5",,,,,,"MET10011/12/23 14:46:02 METAR PAPT 122346Z 00000KT 25SM BKN100 M12/M12 A2995 RMK NO SPECI. 410941178 70000","R01   M127TMP046R02   M127DPT046"
"70249026526","2023-11-13T01:51:00","7","62.0911","-152.7349","566.3","PUNTILLA, AK US","FM-15","PAPT ","V020","999,9,C,0000,5","03048,5,M,N","040234,5,N,5","-0140,C","-0140,C","99999,9",,,,,,,,,,"07,5,+03048,5,99,9",,,"3,99,1,+03048,5,9",,,,"9,AGL   ,+99999,+99999","99,99,9,99,9,99,9,03048,1,99,9,99,9",,,"10129,5,09474,5",,,,,,"MET08911/12/23 16:51:01 METAR PAPT 130151Z 00000KT 25SM BKN100 M14/M14 A2991 RMK NO SPECI. LAST","R01   M147TMP046R02   M147DPT046"
"70249026526","2023-11-13T17:57:00","7","62.0911","-152.7349","566.3","PUNTILLA, AK US","FM-15","PAPT ","V020","999,9,C,0000,5","22000,5,9,N","040234,5,N,5","-0120,C","-0120,C","99999,9",,,,,,,,,,"02,5,+02134,5,99,9",,,"1,99,1,+02134,5,9",,,,"9,AGL   ,+99999,+99999","02,99,5,99,9,99,9,02134,1,99,9,99,9",,,"10020,5,09371,5",,,,,,"MET09011/13/23 08:57:02 METAR PAPT 131757Z 00000KT 25SM FEW070 M12/M12 A2959 RMK NO SPECI. FIRST","R01   M127TMP046R02   M127DPT046D01      0ADE726"
"70249026526","2023-11-13T19:53:00","7","62.0911","-152.7349","566.3","PUNTILLA, AK US","FM-15","PAPT ","V020","360,5,N,0031,5","22000,5,9,N","040234,5,N,5","-0110,C","-0110,C","99999,9",,,,,,,,,,"02,5,+02134,5,99,9",,,"1,99,1,+02134,5,9",,,,"9,AGL   ,+99999,+99999","02,99,5,99,9,99,9,02134,1,99,9,99,9",,,"10014,5,09365,5",,,,,,"MET08411/13/23 10:53:02 METAR PAPT 131953Z 36006KT 25SM FEW070 M11/M11 A2957 RMK NO SPECI.","R01   M117TMP046R02   M117DPT046D01      0ADE726"
"70249026526","2023-11-13T21:50:00","7","62.0911","-152.7349","566.3","PUNTILLA, AK US","FM-15","PAPT ","V020","350,5,N,0026,5","22000,5,9,N","040234,5,N,5","-0070,C","-0070,C","99999,9",,,,,,,,,,"02,5,+03048,5,99,9",,,"1,99,1,+03048,5,9",,,,"9,AGL   ,+99999,+99999","02,99,5,99,9,99,9,03048,1,99,9,99,9",,,"10020,5,09371,5",,,,,,"MET08411/13/23 12:50:02 METAR PAPT 132150Z 35005KT 25SM FEW100 M07/M07 A2959 RMK NO SPECI.","R01   M077TMP046R02   M077DPT046D01      0ADE726"
"70249026526","2023-11-13T23:45:00","7","62.0911","-152.7349","566.3","PUNTILLA, AK US","FM-15","PAPT ","V020","350,5,N,0015,5","22000,5,9,N","040234,5,N,5","-0110,C","-0110,C","99999,9",,,,,,,,,,"02,5,+03048,5,99,9",,,"1,99,1,+03048,5,9",,,,"9,AGL   ,+99999,+99999","02,99,5,99,9,99,9,03048,1,99,9,99,9","240,M,-0072,1","240,N,-0139,1","10024,5,09374,5",,,,,,"MET10011/13/23 14:45:02 METAR PAPT 132345Z 35003KT 25SM FEW100 M11/M11 A2960 RMK NO SPECI. 410721139 70004","R01   M117TMP046R02   M117DPT046D01      0ADE726"
"70249026526","2023-11-14T01:45:00","7","62.0911","-152.7349","566.3","PUNTILLA, AK US","FM-15","PAPT ","V020","999,9,C,0000,5","03048,5,M,N","040234,5,N,5","-0120,C","-0120,C","99999,9",,,,,,,,,,"07,5,+03048,5,99,9",,,"3,99,1,+03048,5,9",,,,"9,AGL   ,+99999,+99999","99,99,9,99,9,99,9,03048,1,99,9,99,9",,,"10024,5,09374,5",,,,,,"MET08911/13/23 16:45:01 METAR PAPT 140145Z 00000KT 25SM BKN100 M12/M12 A2960 RMK NO SPECI. LAST","R01   M127TMP046R02   M127DPT046"
"70249026526","2023-11-14T17:58:00","7","62.0911","-152.7349","566.3","PUNTILLA, AK US","FM-15","PAPT ","V020","999,9,C,0000,5","01981,5,M,N","040234,5,N,5","-0090,C","-0090,C","99999,9",,,,,,,,,,"08,5,+01981,5,99,9",,,"4,99,1,+01981,5,9",,,,"9,AGL   ,+99999,+99999","99,99,9,99,9,99,9,01981,1,99,9,99,9",,,"10047,5,09397,5",,,,,,"MET09011/14/23 08:58:02 METAR PAPT 141758Z 00000KT 25SM OVC065 M09/M09 A2967 RMK NO SPECI. FIRST","R01   M097TMP046R02   M097DPT046"
"70249026526","2023-11-14T19:51:00","7","62.0911","-152.7349","566.3","PUNTILLA, AK US","FM-15","PAPT ","V020","999,9,C,0000,5","01981,5,M,N","040234,7,N,5","-0090,C","-0090,C","99999,9",,,,,,"1,0,03,0,0,1,5",,"71,5",,"07,5,+01981,5,99,9",,,"3,99,1,+01981,5,9",,,,"9,AGL   ,+99999,+99999","99,99,9,99,9,99,9,01981,1,99,9,99,9",,,"10054,5,09403,5",,"71,5",,,,"MET08811/14/23 10:51:02 METAR PAPT 141951Z 00000KT 25SM -SN BKN065 M09/M09 A2969 RMK NO SPECI.","R01  25SM7VIS011R02   M097TMP046R03   M097DPT046"
"70249026526","2023-11-14T21:45:00","7","62.0911","-152.7349","566.3","PUNTILLA, AK US","FM-15","PAPT ","V020","170,5,N,0021,5","22000,5,9,N","040234,5,N,5","-0060,C","-0060,C","99999,9",,,,,,,,,,"04,5,+03048,5,99,9",,,"2,99,1,+03048,5,9",,,,"9,AGL   ,+99999,+99999","04,99,5,99,9,99,9,03048,1,99,9,99,9",,,"10058,5,09406,5",,,,,,"MET08411/14/23 12:45:02 METAR PAPT 142145Z 17004KT 25SM SCT100 M06/M06 A2970 RMK NO SPECI.","R01   M067TMP046R02   M067DPT046D01      0ADE726"
"70249026526","2023-11-14T23:46:00","7","62.0911","-152.7349","566.3","PUNTILLA, AK US","FM-15","PAPT ","V020","999,9,C,0000,5","00610,5,M,N","004828,5,N,5","-0100,C","-0100,C","99999,9",,,,,,,,,,"07,5,+00610,5,99,9",,,"3,99,1,+00610,5,9",,,,"9,AGL   ,+99999,+99999","99,99,9,99,9,99,9,00610,1,99,9,99,9","240,M,-0061,1","240,N,-0117,1","10051,5,09400,5",,,,,,"MET09911/14/23 14:46:02 METAR PAPT 142346Z 00000KT 3SM BKN020 M10/M10 A2968 RMK NO SPECI. 410611117 70000","R01   M107TMP046R02   M107DPT046"
"70249026526","2023-11-15T01:53:00","7","62.0911","-152.7349","566.3","PUNTILLA, AK US","FM-15","PAPT ","V020","190,5,N,0026,5","00091,5,M,N","001609,5,N,5","-0080,C","-0080,C","99999,9",,,,,,,,,,"08,5,+00091,5,99,9",,,"4,99,1,+00091,5,9",,,,"9,AGL   ,+99999,+99999","99,99,9,99,9,99,9,00091,1,99,9,99,9",,,"10047,5,09397,5",,,,,,"MET08811/14/23 16:53:01 METAR PAPT 150153Z 19005KT 1SM OVC003 M08/M08 A2967 RMK NO SPECI. LAST","R01   M087TMP046R02   M087DPT046"
"70249026526","2023-11-15T08:59:00","O","62.0911","-152.7349","566.3","PUNTILLA, AK US","SOD  ","PAPT ","V020","999,9,9,9999,9","99999,9,9,9","999999,9,9,9","+9999,9","+9999,9","99999,9",,,"AU,18,SN  ,5",,,,,,,,,,,,,,,,,,,,,,,,,
"70249026526","2023-11-15T17:45:00","7","62.0911","-152.7349","566.3","PUNTILLA, AK US","FM-15","PAPT ","V020","180,5,N,0046,5","00610,5,M,N","001609,5,N,5","-0070,C","-0070,C","99999,9",,,,,,,,,,"08,5,+00610,5,99,9",,,"4,99,1,+00610,5,9",,,,"9,AGL   ,+99999,+99999","99,99,9,99,9,99,9,00610,1,99,9,99,9",,,"09902,5,09259,5",,,,,,"MET08911/15/23 08:45:02 METAR PAPT 151745Z 18009KT 1SM OVC020 M07/M07 A2924 RMK NO SPECI. FIRST","R01   M077TMP046R02   M077DPT046"
"70249026526","2023-11-15T19:48:00","7","62.0911","-152.7349","566.3","PUNTILLA, AK US","FM-15","PAPT ","V020","160,5,N,0041,5","00457,5,M,N","001609,5,N,5","-0070,C","-0070,C","99999,9",,,,,,"1,0,03,0,0,1,5",,"71,5",,"08,5,+00457,5,99,9",,,"4,99,1,+00457,5,9",,,,"9,AGL   ,+99999,+99999","99,99,9,99,9,99,9,00457,1,99,9,99,9",,,"09885,5,09243,5",,"71,5",,,,"MET08711/15/23 10:48:02 METAR PAPT 151948Z 16008KT 1SM -SN OVC015 M07/M07 A2919 RMK NO SPECI.","R01   M077TMP046R02   M077DPT046"
"70249026526","2023-11-15T21:46:00","7","62.0911","-152.7349","566.3","PUNTILLA, AK US","FM-15","PAPT ","V020","160,5,N,0031,5","00457,5,M,N","001609,5,N,5","-0060,C","-0060,C","99999,9",,,,,,"1,0,03,0,0,1,5",,"71,5",,"08,5,+00457,5,99,9",,,"4,99,1,+00457,5,9",,,,"9,AGL   ,+99999,+99999","99,99,9,99,9,99,9,00457,1,99,9,99,9",,,"09871,5,09230,5",,"71,5",,,,"MET08711/15/23 12:46:02 METAR PAPT 152146Z 16006KT 1SM -SN OVC015 M06/M06 A2915 RMK NO SPECI.","R01   M067TMP046R02   M067DPT046"
"70249026526","2023-11-15T23:48:00","7","62.0911","-152.7349","566.3","PUNTILLA, AK US","FM-15","PAPT ","V020","180,5,N,0031,5","00457,5,M,N","001609,5,N,5","-0060,C","-0060,C","99999,9",,,,,,"1,0,03,0,0,1,5",,"71,5",,"07,5,+00457,5,99,9",,,"3,99,1,+00457,5,9",,,,"9,AGL   ,+99999,+99999","99,99,9,99,9,99,9,00457,1,99,9,99,9","240,M,-0061,1","240,N,-0083,1","09858,5,09217,5",,"71,5",,,,"MET10311/15/23 14:48:02 METAR PAPT 152348Z 18006KT 1SM -SN BKN015 M06/M06 A2911 RMK NO SPECI. 410611083 70004","R01   M067TMP046R02   M067DPT046"
"70249026526","2023-11-16T01:45:00","7","62.0911","-152.7349","566.3","PUNTILLA, AK US","FM-15","PAPT ","V020","999,9,C,0000,5","00457,5,M,N","001609,5,N,5","-0070,C","-0070,C","99999,9",,,,,,,,,,"08,5,+00457,5,99,9",,,"4,99,1,+00457,5,9",,,,"9,AGL   ,+99999,+99999","99,99,9,99,9,99,9,00457,1,99,9,99,9",,,"09844,5,09204,5",,,,,,"MET08811/15/23 16:45:01 METAR PAPT 160145Z 00000KT 1SM OVC015 M07/M07 A2907 RMK NO SPECI. LAST","R01   M077TMP046R02   M077DPT046"
"70249026526","2023-11-16T08:59:00","O","62.0911","-152.7349","566.3","PUNTILLA, AK US","SOD  ","PAPT ","V020","999,9,9,9999,9","99999,9,9,9","999999,9,9,9","+9999,9","+9999,9","99999,9",,,"AU,18,SN  ,5",,,,,,,,,,,,,,,,,,,,,,,,,
"70249026526","2023-11-16T17:55:00","7","62.0911","-152.7349","566.3","PUNTILLA, AK US","FM-15","PAPT ","V020","999,9,C,0000,5","00457,5,M,N","004828,5,N,5","-0060,C","-0060,C","99999,9",,,,,,"1,0,03,0,0,1,5",,"71,5",,"08,5,+00457,5,99,9",,,"4,99,1,+00457,5,9",,,,"9,AGL   ,+99999,+99999","99,99,9,99,9,99,9,00457,1,99,9,99,9",,,"09790,5,09153,5",,"71,5",,,,"MET09311/16/23 08:55:02 METAR PAPT 161755Z 00000KT 3SM -SN OVC015 M06/M06 A2891 RMK NO SPECI. FIRST","R01   M067TMP046R02   M067DPT046"
"70249026526","2023-11-16T19:50:00","7","62.0911","-152.7349","566.3","PUNTILLA, AK US","FM-15","PAPT ","V020","999,9,C,0000,5","00183,5,M,N","004828,5,N,5","-0070,C","-0070,C","99999,9",,,,,,,,,,"08,5,+00183,5,99,9",,,"4,99,1,+00183,5,9",,,,"9,AGL   ,+99999,+99999","99,99,9,99,9,99,9,00183,1,99,9,99,9",,,"09790,5,09153,5",,,,,,"MET08311/16/23 10:50:02 METAR PAPT 161950Z 00000KT 3SM OVC006 M07/M07 A2891 RMK NO SPECI.","R01   M077TMP046R02   M077DPT046"
"70249026526","2023-11-16T21:52:00","7","62.0911","-152.7349","566.3","PUNTILLA, AK US","FM-15","PAPT ","V020","999,9,C,0000,5","01676,5,M,N","024140,5,N,5","-0050,C","-0050,C","99999,9",,,,,,,,,,"08,5,+01676,5,99,9",,,"4,99,1,+01676,5,9",,,,"9,AGL   ,+99999,+99999","99,99,9,99,9,99,9,01676,1,99,9,99,9",,,"09793,5,09156,5",,,,,,"MET08411/16/23 12:52:02 METAR PAPT 162152Z 00000KT 15SM OVC055 M05/M05 A2892 RMK NO SPECI.","R01   M057TMP046R02   M057DPT046"
"70249026526","2023-11-16T23:45:00","7","62.0911","-152.7349","566.3","PUNTILLA, AK US","FM-15","PAPT ","V020","999,9,C,0000,5","22000,5,9,N","024140,5,N,5","-0080,C","-0080,C","99999,9",,,,,,,,,,"04,5,+02134,5,99,9",,,"2,99,1,+02134,5,9",,,,"9,AGL   ,+99999,+99999","04,99,5,99,9,99,9,02134,1,99,9,99,9","240,M,-0061,1","240,N,-0078,1","09804,5,09166,5",,,,,,"MET10011/16/23 14:45:02 METAR PAPT 162345Z 00000KT 15SM SCT070 M08/M08 A2895 RMK NO SPECI. 410611078 70001","R01   M087TMP046R02   M087DPT046D01      0ADE726"
"70249026526","2023-11-17T01:46:00","7","62.0911","-152.7349","566.3","PUNTILLA, AK US","FM-15","PAPT ","V020","999,9,C,0000,5","00457,5,M,N","001609,5,N,5","-0070,C","-0070,C","99999,9",,,,,,"1,0,03,0,0,1,5",,"71,5",,"08,5,+00457,5,99,9",,,"4,99,1,+00457,5,9",,,,"9,AGL   ,+99999,+99999","99,99,9,99,9,99,9,00457,1,99,9,99,9",,,"09807,5,09169,5",,"71,5",,,,"MET09211/16/23 16:46:01 METAR PAPT 170146Z 00000KT 1SM -SN OVC015 M07/M07 A2896 RMK NO SPECI. LAST","R01   M077TMP046R02   M077DPT046"
"70249026526","2023-11-17T08:59:00","O","62.0911","-152.7349","566.3","PUNTILLA, AK US","SOD  ","PAPT ","V020","999,9,9,9999,9","99999,9,9,9","999999,9,9,9","+9999,9","+9999,9","99999,9",,,"AU,18,SN  ,5",,,,,,,,,,,,,,,,,,,,,,,,,
"70249026526","2023-11-17T17:58:00","7","62.0911","-152.7349","566.3","PUNTILLA, AK US","FM-15","PAPT ","V020","350,5,N,0026,5","01676,5,M,N","040234,5,N,5","-0120,C","-0120,C","99999,9",,,,,,,,,,"07,5,+01676,5,99,9",,,"3,99,1,+01676,5,9",,,,"9,AGL   ,+99999,+99999","99,99,9,99,9,99,9,01676,1,99,9,99,9",,,"09956,5,09310,5",,,,,,"MET09011/17/23 08:58:02 METAR PAPT 171758Z 35005KT 25SM BKN055 M12/M12 A2940 RMK NO SPECI. FIRST","R01   M127TMP046R02   M127DPT046"
"70249026526","2023-11-17T19:45:00","7","62.0911","-152.7349","566.3","PUNTILLA, AK US","FM-15","PAPT ","V020","350,5,N,0036,5","01829,5,M,N","040234,5,N,5","-0130,C","-0130,C","99999,9",,,,,,,,,,"07,5,+01829,5,99,9",,,"3,99,1,+01829,5,9",,,,"9,AGL   ,+99999,+99999","99,99,9,99,9,99,9,01829,1,99,9,99,9",,,"09966,5,09320,5",,,,,,"MET08411/17/23 10:45:02 METAR PAPT 171945Z 35007KT 25SM BKN060 M13/M13 A2943 RMK NO SPECI.","R01   M137TMP046R02   M137DPT046"
"70249026526","2023-11-17T21:52:00","7","62.0911","-152.7349","566.3","PUNTILLA, AK US","FM-15","PAPT ","V020","350,5,N,0041,5","22000,5,9,N","040234,5,N,5","-0120,C","-0120,C","99999,9",,,,,,,,,,"04,5,+01829,5,99,9",,,"2,99,1,+01829,5,9",,,,"9,AGL   ,+99999,+99999","04,99,5,99,9,99,9,01829,1,99,9,99,9",,,"09990,5,09342,5",,,,,,"MET08411/17/23 12:52:01 METAR PAPT 172152Z 35008KT 25SM SCT060 M12/M12 A2950 RMK NO SPECI.","R01   M127TMP046R02   M127DPT046D01      0ADE726"
"70249026526","2023-11-17T23:45:00","7","62.0911","-152.7349","566.3","PUNTILLA, AK US","FM-15","PAPT ","V020","350,5,N,0057,5","22000,5,9,N","040234,5,N,5","-0130,C","-0130,C","99999,9",,,,,,,,,,"04,5,+01981,5,99,9",,,"2,99,1,+01981,5,9",,,,"9,AGL   ,+99999,+99999","04,99,5,99,9,99,9,01981,1,99,9,99,9","240,M,-0072,1","240,N,-0133,1","09997,5,09348,5",,,,,,"MET10011/17/23 14:45:02 METAR PAPT 172345Z 35011KT 25SM SCT065 M13/M13 A2952 RMK NO SPECI. 410721133 70001","R01   M137TMP046R02   M137DPT046D01      0ADE726"
"70249026526","2023-11-18T01:45:00","7","62.0911","-152.7349","566.3","PUNTILLA, AK US","FM-15","PAPT ","V020","350,5,N,0093,5","22000,5,9,N","040234,5,N,5","-0130,C","-0130,C","99999,9",,,,,,,,,,"02,5,+03048,5,99,9",,,"1,99,1,+03048,5,9",,,,"9,AGL   ,+99999,+99999","02,99,5,99,9,99,9,03048,1,99,9,99,9",,,"10007,5,09358,5",,,,,,"MET08911/17/23 16:45:01 METAR PAPT 180145Z 35018KT 25SM FEW100 M13/M13 A2955 RMK NO SPECI. LAST","R01   M137TMP046R02   M137DPT046D01      0ADE726"
"70249026526","2023-11-18T17:45:00","7","62.0911","-152.7349","566.3","PUNTILLA, AK US","FM-15","PAPT ","V020","220,5,N,0021,5","22000,5,9,N","040234,5,N,5","-0190,C","-0190,C","99999,9",,,,,,,,,,"02,5,+03048,5,99,9",,,"1,99,1,+03048,5,9",,,,"9,AGL   ,+99999,+99999","02,99,5,99,9,99,9,03048,1,99,9,99,9",,,"10068,5,09416,5",,,,,,"MET09011/18/23 08:45:02 METAR PAPT 181745Z 22004KT 25SM FEW100 M19/M19 A2973 RMK NO SPECI. FIRST","R01   M197TMP046R02   M197DPT046D01      0ADE726"
"70249026526","2023-11-18T19:59:00","7","62.0911","-152.7349","566.3","PUNTILLA, AK US","FM-15","PAPT ","V020","360,5,N,0026,5","22000,5,9,N","040234,5,N,5","-0160,C","-0160,C","99999,9",,,,,,,,,,"02,5,+03048,5,99,9",,,"1,99,1,+03048,5,9",,,,"9,AGL   ,+99999,+99999","02,99,5,99,9,99,9,03048,1,99,9,99,9",,,"10081,5,09429,5",,,,,,"MET08411/18/23 10:59:02 METAR PAPT 181959Z 36005KT 25SM FEW100 M16/M16 A2977 RMK NO SPECI.","R01   M167TMP046R02   M167DPT046D01      0ADE726"
"70249026526","2023-11-18T21:49:00","7","62.0911","-152.7349","566.3","PUNTILLA, AK US","FM-15","PAPT ","V020","350,5,N,0021,5","22000,5,9,N","040234,5,N,5","-0130,C","-0130,C","99999,9",,,,,,,,,,"02,5,+03048,5,99,9",,,"1,99,1,+03048,5,9",,,,"9,AGL   ,+99999,+99999","02,99,5,99,9,99,9,03048,1,99,9,99,9",,,"10088,5,09435,5",,,,,,"MET08411/18/23 12:49:02 METAR PAPT 182149Z 35004KT 25SM FEW100 M13/M13 A2979 RMK NO SPECI.","R01   M137TMP046R02   M137DPT046D01      0ADE726"
"70249026526","2023-11-18T23:45:00","7","62.0911","-152.7349","566.3","PUNTILLA, AK US","FM-15","PAPT ","V020","350,5,N,0031,5","22000,5,9,N","040234,5,N,5","-0180,C","-0180,C","99999,9",,,,,,,,,,"02,5,+03048,5,99,9",,,"1,99,1,+03048,5,9",,,,"9,AGL   ,+99999,+99999","02,99,5,99,9,99,9,03048,1,99,9,99,9","240,M,-0128,1","240,N,-0189,1","10091,5,09438,5",,,,,,"MET10011/18/23 14:45:02 METAR PAPT 182345Z 35006KT 25SM FEW100 M18/M18 A2980 RMK NO SPECI. 411281189 70000","R01   M187TMP046R02   M187DPT046D01      0ADE726"
"70249026526","2023-11-19T01:53:00","7","62.0911","-152.7349","566.3","PUNTILLA, AK US","FM-15","PAPT ","V020","350,5,N,0031,5","22000,5,9,N","040234,5,N,5","-0180,C","-0180,C","99999,9",,,,,,,,,,"02,5,+03048,5,99,9",,,"1,99,1,+03048,5,9",,,,"9,AGL   ,+99999,+99999","02,99,5,99,9,99,9,03048,1,99,9,99,9",,,"10095,5,09442,5",,,,,,"MET08911/18/23 16:53:01 METAR PAPT 190153Z 35006KT 25SM FEW100 M18/M18 A2981 RMK NO SPECI. LAST","R01   M187TMP046R02   M187DPT046D01      0ADE726"
"70249026526","2023-11-19T17:59:00","7","62.0911","-152.7349","566.3","PUNTILLA, AK US","FM-15","PAPT ","V020","999,9,C,0000,5","01829,5,M,N","040234,5,N,5","-0140,C","-0140,C","99999,9",,,,,,,,,,"07,5,+01829,5,99,9",,,"3,99,1,+01829,5,9",,,,"9,AGL   ,+99999,+99999","99,99,9,99,9,99,9,01829,1,99,9,99,9",,,"09929,5,09284,5",,,,,,"MET09011/19/23 08:59:02 METAR PAPT 191759Z 00000KT 25SM BKN060 M14/M14 A2932 RMK NO SPECI. FIRST","R01   M147TMP046R02   M147DPT046"
"70249026526","2023-11-19T19:47:00","7","62.0911","-152.7349","566.3","PUNTILLA, AK US","FM-15","PAPT ","V020","999,9,C,0000,5","03048,5,M,N","040234,5,N,5","-0140,C","-0140,C","99999,9",,,,,,,,,,"07,5,+03048,5,99,9",,,"3,99,1,+03048,5,9",,,,"9,AGL   ,+99999,+99999","99,99,9,99,9,99,9,03048,1,99,9,99,9",,,"09939,5,09294,5",,,,,,"MET08411/19/23 10:47:02 METAR PAPT 191947Z 00000KT 25SM BKN100 M14/M14 A2935 RMK NO SPECI.","R01   M147TMP046R02   M147DPT046"
"70249026526","2023-11-19T21:55:00","7","62.0911","-152.7349","566.3","PUNTILLA, AK US","FM-15","PAPT ","V020","999,9,C,0000,5","03048,5,M,N","040234,5,N,5","-0120,C","-0120,C","99999,9",,,,,,,,,,"07,5,+03048,5,99,9",,,"3,99,1,+03048,5,9",,,,"9,AGL   ,+99999,+99999","99,99,9,99,9,99,9,03048,1,99,9,99,9",,,"10190,6,09531,6",,,,,,"MET08411/19/23 12:55:02 METAR PAPT 192155Z 00000KT 25SM BKN100 M12/M12 A3009 RMK NO SPECI.","R01   M127TMP046R02   M127DPT046"
"70249026526","2023-11-19T23:46:00","7","62.0911","-152.7349","566.3","PUNTILLA, AK US","FM-15","PAPT ","V020","999,9,C,0000,5","03048,5,M,N","040234,5,N,5","-0120,C","-0120,C","99999,9",,,,,,,,,,"07,5,+03048,5,99,9",,,"3,99,1,+03048,5,9",,,,"9,AGL   ,+99999,+99999","99,99,9,99,9,99,9,03048,1,99,9,99,9","240,M,-0117,1","240,N,-0187,1","10190,6,09531,6",,,,,,"MET10011/19/23 14:46:02 METAR PAPT 192346Z 00000KT 25SM BKN100 M12/M12 A3009 RMK NO SPECI. 411171187 70000","R01   M127TMP046R02   M127DPT046"
"70249026526","2023-11-20T01:53:00","7","62.0911","-152.7349","566.3","PUNTILLA, AK US","FM-15","PAPT ","V020","350,5,N,0015,5","03048,5,M,N","040234,5,N,5","-0130,C","-0130,C","99999,9",,,,,,,,,,"07,5,+03048,5,99,9",,,"3,99,1,+03048,5,9",,,,"9,AGL   ,+99999,+99999","99,99,9,99,9,99,9,03048,1,99,9,99,9",,,"10190,6,09531,6",,,,,,"MET08911/19/23 16:53:01 METAR PAPT 200153Z 35003KT 25SM BKN100 M13/M13 A3009 RMK NO SPECI. LAST","R01   M137TMP046R02   M137DPT046"
"70249026526","2023-11-20T17:45:00","7","62.0911","-152.7349","566.3","PUNTILLA, AK US","FM-15","PAPT ","V020","999,9,C,0000,5","22000,7,9,N","040234,5,N,5","-0240,C","-0240,C","99999,9",,,,,,,,,,"00,7,+99999,9,99,9",,,"0,99,1,+99999,9,9",,,,,"00,99,1,99,9,99,9,99999,9,99,9,99,9",,,"10132,5,09477,5",,,,,,"MET08711/20/23 08:45:02 METAR PAPT 201745Z 00000KT 25SM SKC M24/M24 A2992 RMK NO SPECI. FIRST","R01   SKC7SKY009R02   M247TMP046R03   M247DPT046R04   SKC7GAS009"
"70249026526","2023-11-20T19:45:00","7","62.0911","-152.7349","566.3","PUNTILLA, AK US","FM-15","PAPT ","V020","999,9,C,0000,5","22000,7,9,N","040234,5,N,5","-0230,C","-0230,C","99999,9",,,,,,,,,,"00,7,+99999,9,99,9",,,"0,99,1,+99999,9,9",,,,,"00,99,1,99,9,99,9,99999,9,99,9,99,9",,,"10105,5,09451,5",,,,,,"MET08111/20/23 10:45:02 METAR PAPT 201945Z 00000KT 25SM SKC M23/M23 A2984 RMK NO SPECI.","R01   SKC7SKY009R02   M237TMP046R03   M237DPT046R04   SKC7GAS009"
"70249026526","2023-11-20T21:48:00","7","62.0911","-152.7349","566.3","PUNTILLA, AK US","FM-15","PAPT ","V020","999,9,C,0000,5","22000,7,9,N","040234,5,N,5","-0150,C","-0150,C","99999,9",,,,,,,,,,"00,7,+99999,9,99,9",,,"0,99,1,+99999,9,9",,,,,"00,99,1,99,9,99,9,99999,9,99,9,99,9",,,"10068,5,09416,5",,,,,,"MET08111/20/23 12:48:02 METAR PAPT 202148Z 00000KT 25SM SKC M15/M15 A2973 RMK NO SPECI.","R01   SKC7SKY009R02   M157TMP046R03   M157DPT046R04   SKC7GAS009"
"70249026526","2023-11-20T23:46:00","7","62.0911","-152.7349","566.3","PUNTILLA, AK US","FM-15","PAPT ","V020","350,5,N,0036,5","22000,7,9,N","040234,5,N,5","-0170,C","-0170,C","99999,9",,,,,,,,,,"00,7,+99999,9,99,9",,,"0,99,1,+99999,9,9",,,,,"00,99,1,99,9,99,9,99999,9,99,9,99,9","240,M,-0133,1","240,N,-0244,1","10037,5,09387,5",,,,,,"MET09711/20/23 14:46:02 METAR PAPT 202346Z 35007KT 25SM SKC M17/M17 A2964 RMK NO SPECI. 411331244 70000","R01   SKC7SKY009R02   M177TMP046R03   M177DPT046R04   SKC7GAS009"
"70249026526","2023-11-21T01:45:00","7","62.0911","-152.7349","566.3","PUNTILLA, AK US","FM-15","PAPT ","V020","350,5,N,0021,5","22000,7,9,N","040234,5,N,5","-0190,C","-0190,C","99999,9",,,,,,,,,,"00,7,+99999,9,99,9",,,"0,99,1,+99999,9,9",,,,,"00,99,1,99,9,99,9,99999,9,99,9,99,9",,,"09993,5,09345,5",,,,,,"MET08611/20/23 16:45:01 METAR PAPT 210145Z 35004KT 25SM SKC M19/M19 A2951 RMK NO SPECI. LAST","R01   SKC7SKY009R02   M197TMP046R03   M197DPT046R04   SKC7GAS009"
"70249026526","2023-11-21T17:51:00","7","62.0911","-152.7349","566.3","PUNTILLA, AK US","FM-15","PAPT ","V020","999,9,C,0000,5","03048,5,M,N","040234,5,N,5","-0190,C","-0190,C","99999,9",,,,,,,,,,"07,5,+03048,5,99,9",,,"3,99,1,+03048,5,9",,,,"9,AGL   ,+99999,+99999","99,99,9,99,9,99,9,03048,1,99,9,99,9",,,"09942,5,09297,5",,,,,,"MET09011/21/23 08:51:02 METAR PAPT 211751Z 00000KT 25SM BKN100 M19/M19 A2936 RMK NO SPECI. FIRST","R01   M197TMP046R02   M197DPT046"
"70249026526","2023-11-21T19:50:00","7","62.0911","-152.7349","566.3","PUNTILLA, AK US","FM-15","PAPT ","V020","999,9,C,0000,5","03048,5,M,N","040234,5,N,5","-0160,C","-0160,C","99999,9",,,,,,,,,,"07,5,+03048,5,99,9",,,"3,99,1,+03048,5,9",,,,"9,AGL   ,+99999,+99999","99,99,9,99,9,99,9,03048,1,99,9,99,9",,,"09956,5,09310,5",,,,,,"MET08411/21/23 10:50:02 METAR PAPT 211950Z 00000KT 25SM BKN100 M16/M16 A2940 RMK NO SPECI.","R01   M167TMP046R02   M167DPT046"
"70249026526","2023-11-21T21:54:00","7","62.0911","-152.7349","566.3","PUNTILLA, AK US","FM-15","PAPT ","V020","350,5,N,0021,5","03048,5,M,N","040234,5,N,5","-0080,C","-0080,C","99999,9",,,,,,,,,,"07,5,+03048,5,99,9",,,"3,99,1,+03048,5,9",,,,"9,AGL   ,+99999,+99999","99,99,9,99,9,99,9,03048,1,99,9,99,9",,,"09963,5,09316,5",,,,,,"MET08411/21/23 12:54:02 METAR PAPT 212154Z 35004KT 25SM BKN100 M08/M08 A2942 RMK NO SPECI.","R01   M087TMP046R02   M087DPT046"
"70249026526","2023-11-21T23:56:00","7","62.0911","-152.7349","566.3","PUNTILLA, AK US","FM-15","PAPT ","V020","999,9,C,0000,5","22000,5,9,N","040234,5,N,5","-0090,C","-0090,C","99999,9",,,,,,,,,,"04,5,+01676,5,99,9",,,"2,99,1,+01676,5,9",,,,"9,AGL   ,+99999,+99999","04,99,5,99,9,99,9,01676,1,99,9,99,9","240,M,-0078,1","240,N,-0189,1","09966,5,09320,5",,,,,,"MET10011/21/23 14:56:02 METAR PAPT 212356Z 00000KT 25SM SCT055 M09/M09 A2943 RMK NO SPECI. 410781189 70000","R01   M097TMP046R02   M097DPT046D01      0ADE726"
"70249026526","2023-11-22T01:55:00","7","62.0911","-152.7349","566.3","PUNTILLA, AK US","FM-15","PAPT ","V020","999,9,C,0000,5","01676,5,M,N","040234,5,N,5","-0120,C","-0120,C","99999,9",,,,,,,,,,"07,5,+01676,5,99,9",,,"3,99,1,+01676,5,9",,,,"9,AGL   ,+99999,+99999","99,99,9,99,9,99,9,01676,1,99,9,99,9",,,"09973,5,09326,5",,,,,,"MET08911/21/23 16:55:01 METAR PAPT 220155Z 00000KT 25SM BKN055 M12/M12 A2945 RMK NO SPECI. LAST","R01   M127TMP046R02   M127DPT046"
"70249026526","2023-11-22T17:54:00","7","62.0911","-152.7349","566.3","PUNTILLA, AK US","FM-15","PAPT ","V020","999,9,C,0000,5","00610,5,M,N","001609,5,N,5","-0070,C","-0070,C","99999,9",,,,,,"1,0,03,0,0,1,5",,"71,5",,"08,5,+00610,5,99,9",,,"4,99,1,+00610,5,9",,,,"9,AGL   ,+99999,+99999","99,99,9,99,9,99,9,00610,1,99,9,99,9",,,"10075,5,09422,5",,"71,5",,,,"MET09311/22/23 08:54:02 METAR PAPT 221754Z 00000KT 1SM -SN OVC020 M07/M07 A2975 RMK NO SPECI. FIRST","R01   M077TMP046R02   M077DPT046"
"70249026526","2023-11-22T19:46:00","7","62.0911","-152.7349","566.3","PUNTILLA, AK US","FM-15","PAPT ","V020","200,5,N,0026,5","00457,5,M,N","001609,5,N,5","-0060,C","-0060,C","99999,9",,,,,,"1,0,03,0,0,1,5",,"71,5",,"08,5,+00457,5,99,9",,,"4,99,1,+00457,5,9",,,,"9,AGL   ,+99999,+99999","99,99,9,99,9,99,9,00457,1,99,9,99,9",,,"10078,5,09425,5",,"71,5",,,,"MET08711/22/23 10:46:02 METAR PAPT 221946Z 20005KT 1SM -SN OVC015 M06/M06 A2976 RMK NO SPECI.","R01   M067TMP046R02   M067DPT046"
"70249026526","2023-11-22T21:50:00","7","62.0911","-152.7349","566.3","PUNTILLA, AK US","FM-15","PAPT ","V020","350,5,N,0021,5","00457,5,M,N","001609,5,N,5","-0060,C","-0060,C","99999,9",,,,,,"1,0,03,0,0,1,5",,"71,5",,"07,5,+00457,5,99,9","04,5,+03048,5,99,9",,"3,99,1,+00457,5,9","2,99,1,+03048,5,9",,,"9,AGL   ,+99999,+99999","99,99,9,99,9,99,9,00457,1,99,9,99,9",,,"10071,5,09419,5",,"71,5",,,,"MET09411/22/23 12:50:02 METAR PAPT 222150Z 35004KT 1SM -SN BKN015 SCT100 M06/M06 A2974 RMK NO SPECI.","R01   M067TMP046R02   M067DPT046"
"70249026526","2023-11-22T23:55:00","7","62.0911","-152.7349","566.3","PUNTILLA, AK US","FM-15","PAPT ","V020","020,5,N,0026,5","00457,5,M,N","001609,7,N,5","-0060,C","-0060,C","99999,9",,,,,,"2,0,03,0,0,1,7",,"72,7",,"08,5,+00457,5,99,9",,,"4,99,1,+00457,5,9",,,,"9,AGL   ,+99999,+99999","99,99,9,99,9,99,9,00457,1,99,9,99,9","240,M,-0056,1","240,N,-0117,1","10058,5,09406,5",,"73,7",,,,"MET10211/22/23 14:55:02 METAR PAPT 222355Z 02005KT 1SM SN OVC015 M06/M06 A2970 RMK NO SPECI. 410561117 70002","R01   1SM7VIS012R02   M067TMP046R03   M067DPT046R04    SN7AWW012R05SEERMK7MVW012R06    SN7MWW012"
"70249026526","2023-11-23T01:50:00","7","62.0911","-152.7349","566.3","PUNTILLA, AK US","FM-15","PAPT ","V020","180,5,N,0036,5","00457,5,M,N","001609,5,N,5","-0030,C","-0030,C","99999,9",,,,,,"1,0,03,0,0,1,5",,"71,5",,"08,5,+00457,5,99,9",,,"4,99,1,+00457,5,9",,,,"9,AGL   ,+99999,+99999","99,99,9,99,9,99,9,00457,1,99,9,99,9",,,"10047,5,09397,5",,"71,5",,,,"MET09211/22/23 16:50:01 METAR PAPT 230150Z 18007KT 1SM -SN OVC015 M03/M03 A2967 RMK NO SPECI. LAST","R01   M037TMP046R02   M037DPT046"
"70249026526","2023-11-23T08:59:00","O","62.0911","-152.7349","566.3","PUNTILLA, AK US","SOD  ","PAPT ","V020","999,9,9,9999,9","99999,9,9,9","999999,9,9,9","+9999,9","+9999,9","99999,9",,,"AU,18,SN  ,5",,,,,,,,,,,,,,,,,,,,,,,,,
"70249026526","2023-11-23T17:59:00","7","62.0911","-152.7349","566.3","PUNTILLA, AK US","FM-15","PAPT ","V020","999,9,C,0000,5","00183,5,M,N","001609,5,N,5","-0030,C","-0030,C","99999,9",,,,,,,,,,"08,5,+00183,5,99,9",,,"4,99,1,+00183,5,9",,,,"9,AGL   ,+99999,+99999","99,99,9,99,9,99,9,00183,1,99,9,99,9",,,"10058,5,09406,5",,,,,,"MET08911/23/23 08:59:02 METAR PAPT 231759Z 00000KT 1SM OVC006 M03/M03 A2970 RMK NO SPECI. FIRST","R01   M037TMP046R02   M037DPT046"
"70249026526","2023-11-23T19:59:00","7","62.0911","-152.7349","566.3","PUNTILLA, AK US","FM-15","PAPT ","V020","999,9,C,0000,5","00183,5,M,N","001609,5,N,5","-0030,C","-0030,C","99999,9",,,,,,"1,0,03,0,0,1,5",,"71,5",,"08,5,+00183,5,99,9",,,"4,99,1,+00183,5,9",,,,"9,AGL   ,+99999,+99999","99,99,9,99,9,99,9,00183,1,99,9,99,9",,,"10068,5,09416,5",,"71,5",,,,"MET08711/23/23 10:59:02 METAR PAPT 231959Z 00000KT 1SM -SN OVC006 M03/M03 A2973 RMK NO SPECI.","R01   M037TMP046R02   M037DPT046"
"70249026526","2023-11-23T21:54:00","7","62.0911","-152.7349","566.3","PUNTILLA, AK US","FM-15","PAPT ","V020","350,5,N,0021,5","00183,5,M,N","001609,5,N,5","-0010,C","-0010,C","99999,9",,,,,,,,,,"08,5,+00183,5,99,9",,,"4,99,1,+00183,5,9",,,,"9,AGL   ,+99999,+99999","99,99,9,99,9,99,9,00183,1,99,9,99,9",,,"10075,5,09422,5",,,,,,"MET08311/23/23 12:54:02 METAR PAPT 232154Z 35004KT 1SM OVC006 M01/M01 A2975 RMK NO SPECI.","R01   M017TMP046R02   M017DPT046"
"70249026526","2023-11-23T23:59:00","7","62.0911","-152.7349","566.3","PUNTILLA, AK US","FM-15","PAPT ","V020","350,5,N,0021,5","00091,5,M,N","001609,5,N,5","-0010,C","-0010,C","99999,9",,,,,,"1,0,03,0,0,1,5",,"71,5",,"08,5,+00091,5,99,9",,,"4,99,1,+00091,5,9",,,,"9,AGL   ,+99999,+99999","99,99,9,99,9,99,9,00091,1,99,9,99,9","240,M,-0006,1","240,N,-0028,1","10081,5,09429,5",,"71,5",,,,"MET10311/23/23 14:59:02 METAR PAPT 232359Z 35004KT 1SM -SN OVC003 M01/M01 A2977 RMK NO SPECI. 410061028 70001","R01   M017TMP046R02   M017DPT046"
"70249026526","2023-11-24T01:49:00","7","62.0911","-152.7349","566.3","PUNTILLA, AK US","FM-15","PAPT ","V020","999,9,C,0000,5","00091,5,M,N","001609,5,N,5","-0010,C","-0010,C","99999,9",,,,,,,,,,"08,5,+00091,5,99,9",,,"4,99,1,+00091,5,9",,,,"9,AGL   ,+99999,+99999","99,99,9,99,9,99,9,00091,1,99,9,99,9",,,"10091,5,09438,5",,,,,,"MET08811/23/23 16:49:01 METAR PAPT 240149Z 00000KT 1SM OVC003 M01/M01 A2980 RMK NO SPECI. LAST","R01   M017TMP046R02   M017DPT046"
"70249026526","2023-11-24T08:59:00","O","62.0911","-152.7349","566.3","PUNTILLA, AK US","SOD  ","PAPT ","V020","999,9,9,9999,9","99999,9,9,9","999999,9,9,9","+9999,9","+9999,9","99999,9",,,"AU,18,SN  ,5",,,,,,,,,,,,,,,,,,,,,,,,,
"70249026526","2023-11-24T17:58:00","7","62.0911","-152.7349","566.3","PUNTILLA, AK US","FM-15","PAPT ","V020","999,9,C,0000,5","00457,5,M,N","001609,5,N,5","+0010,C","-0010,C","99999,9",,,,,,,,,,"08,5,+00457,5,99,9",,,"4,99,1,+00457,5,9",,,,"9,AGL   ,+99999,+99999","99,99,9,99,9,99,9,00457,1,99,9,99,9",,,"10095,5,09442,5",,,,,,"MET08811/24/23 08:58:02 METAR PAPT 241758Z 00000KT 1SM OVC015 01/M01 A2981 RMK NO SPECI. FIRST","R01    017TMP046R02   M017DPT046"
"70249026526","2023-11-24T20:00:00","7","62.0911","-152.7349","566.3","PUNTILLA, AK US","FM-15","PAPT ","V020","999,9,C,0000,5","00183,5,M,N","001609,7,N,5","+0010,C","-0010,C","99999,9",,,,,,"2,0,03,0,0,1,7",,"72,7",,"08,5,+00183,5,99,9",,,"4,99,1,+00183,5,9",,,,"9,AGL   ,+99999,+99999","99,99,9,99,9,99,9,00183,1,99,9,99,9",,,"10095,5,09442,5",,"73,7",,,,"MET08511/24/23 11:00:02 METAR PAPT 242000Z 00000KT 1SM SN OVC006 01/M01 A2981 RMK NO SPECI.","R01   1SM7VIS012R02    017TMP046R03   M017DPT046R04    SN7AWW012R05SEERMK7MVW012R06    SN7MWW012"
"70249026526","2023-11-24T21:50:00","7","62.0911","-152.7349","566.3","PUNTILLA, AK US","FM-15","PAPT ","V020","350,5,N,0021,5","00457,5,M,N","001609,5,N,5","+0010,C","+0010,C","99999,9",,,,,,"1,0,03,0,0,1,5",,"71,5",,"08,5,+00457,5,99,9",,,"4,99,1,+00457,5,9",,,,"9,AGL   ,+99999,+99999","99,99,9,99,9,99,9,00457,1,99,9,99,9",,,"10102,5,09448,5",,"71,5",,,,"MET08511/24/23 12:50:02 METAR PAPT 242150Z 35004KT 1SM -SN OVC015 01/01 A2983 RMK NO SPECI.","R01    017TMP046R02    017DPT046"
"70249026526","2023-11-24T23:52:00","7","62.0911","-152.7349","566.3","PUNTILLA, AK US","FM-15","PAPT ","V020","999,9,C,0000,5","00457,5,M,N","001609,5,N,5","+0010,C","+0010,C","99999,9",,,,,,,,,,"08,5,+00457,5,99,9",,,"4,99,1,+00457,5,9",,,,"9,AGL   ,+99999,+99999","99,99,9,99,9,99,9,00457,1,99,9,99,9",,,"10108,5,09454,5",,,,,,"MET09811/24/23 14:52:02 METAR PAPT 242352Z 00000KT 1SM OVC015 01/01 A2985 RMK NO SPECI. 4001241011 70005","R01    017TMP046R02    017DPT046"
"70249026526","2023-11-25T01:45:00","7","62.0911","-152.7349","566.3","PUNTILLA, AK US","FM-15","PAPT ","V020","160,5,N,0031,5","00457,5,M,N","001609,5,N,5","+0010,C","+0010,C","99999,9",,,,,,,,,,"08,5,+00457,5,99,9",,,"4,99,1,+00457,5,9",,,,"9,AGL   ,+99999,+99999","99,99,9,99,9,99,9,00457,1,99,9,99,9",,,"10122,5,09467,5",,,,,,"MET08611/24/23 16:45:01 METAR PAPT 250145Z 16006KT 1SM OVC015 01/01 A2989 RMK NO SPECI. LAST","R01    017TMP046R02    017DPT046"
"70249026526","2023-11-25T08:59:00","O","62.0911","-152.7349","566.3","PUNTILLA, AK US","SOD  ","PAPT ","V020","999,9,9,9999,9","99999,9,9,9","999999,9,9,9","+9999,9","+9999,9","99999,9",,,"AU,18,SN  ,5",,,,,,,,,,,,,,,,,,,,,,,,,
"70249026526","2023-11-25T17:55:00","7","62.0911","-152.7349","566.3","PUNTILLA, AK US","FM-15","PAPT ","V020","999,9,C,0000,5","00091,5,M,N","001609,5,N,5","+0000,C","+0000,C","99999,9",,,,,,"1,0,03,0,0,1,5",,"71,5",,"08,5,+00091,5,99,9",,,"4,99,1,+00091,5,9",,,,"9,AGL   ,+99999,+99999","99,99,9,99,9,99,9,00091,1,99,9,99,9",,,"09932,5,09288,5",,"71,5",,,,"MET09111/25/23 08:55:02 METAR PAPT 251755Z 00000KT 1SM -SN OVC003 00/00 A2933 RMK NO SPECI. FIRST","R01    007TMP046R02    007DPT046"
"70249026526","2023-11-25T19:59:00","7","62.0911","-152.7349","566.3","PUNTILLA, AK US","FM-15","PAPT ","V020","350,5,N,0026,5","00457,5,M,N","001609,5,N,5","+0000,C","+0000,C","99999,9",,,,,,,,,,"08,5,+00457,5,99,9",,,"4,99,1,+00457,5,9",,,,"9,AGL   ,+99999,+99999","99,99,9,99,9,99,9,00457,1,99,9,99,9",,,"09936,5,09291,5",,,,,,"MET08111/25/23 10:59:02 METAR PAPT 251959Z 35005KT 1SM OVC015 00/00 A2934 RMK NO SPECI.","R01    007TMP046R02    007DPT046"
"70249026526","2023-11-25T21:51:00","7","62.0911","-152.7349","566.3","PUNTILLA, AK US","FM-15","PAPT ","V020","210,5,N,0021,5","00457,5,M,N","001609,5,N,5","+0010,C","+0000,C","99999,9",,,,,,,,,,"08,5,+00457,5,99,9",,,"4,99,1,+00457,5,9",,,,"9,AGL   ,+99999,+99999","99,99,9,99,9,99,9,00457,1,99,9,99,9",,,"09926,5,09281,5",,,,,,"MET08111/25/23 12:51:02 METAR PAPT 252151Z 21004KT 1SM OVC015 01/00 A2931 RMK NO SPECI.","R01    017TMP046R02    007DPT046"
"70249026526","2023-11-25T23:56:00","7","62.0911","-152.7349","566.3","PUNTILLA, AK US","FM-15","PAPT ","V020","999,9,C,0000,5","00091,5,M,N","001609,5,N,5","+0010,C","+0000,C","99999,9",,,,,,,,,,"08,5,+00091,5,99,9",,,"4,99,1,+00091,5,9",,,,"9,AGL   ,+99999,+99999","99,99,9,99,9,99,9,00091,1,99,9,99,9","240,M,+0012,1","240,N,+0001,1","10149,6,09493,6",,,,,,"MET09711/25/23 14:56:02 METAR PAPT 252356Z 00000KT 1SM OVC003 01/00 A2997 RMK NO SPECI. 400120001 70001","R01    017TMP046R02    007DPT046"
"70249026526","2023-11-26T01:45:00","7","62.0911","-152.7349","566.3","PUNTILLA, AK US","FM-15","PAPT ","V020","160,5,N,0015,5","00091,5,M,N","000402,5,N,5","+0000,C","+0000,C","99999,9",,,,,,"0,0,00,2,0,1,5",,"30,5",,"08,5,+00091,5,99,9",,,"4,99,1,+00091,5,9",,,,"9,AGL   ,+99999,+99999","99,99,9,99,9,99,9,00091,1,99,9,99,9",,,"10139,6,09483,6",,"44,1",,,,"MET09111/25/23 16:45:01 METAR PAPT 260145Z 16003KT 1/4SM FG OVC003 00/00 A2994 RMK NO SPECI. LAST","R01    007TMP046R02    007DPT046"
"70249026526","2023-11-26T08:59:00","O","62.0911","-152.7349","566.3","PUNTILLA, AK US","SOD  ","PAPT ","V020","999,9,9,9999,9","99999,9,9,9","999999,9,9,9","+9999,9","+9999,9","99999,9",,,"AU,18,SN  ,5","AU,01,FG  ,5",,,,,,,,,,,,,,,,,,,,,,,,
"70249026526","2023-11-26T21:45:00","7","62.0911","-152.7349","566.3","PUNTILLA, AK US","FM-15","PAPT ","V020","999,9,C,0000,5","00183,5,M,N","001609,5,N,5","-0010,C","-0010,C","99999,9",,,,,,"1,0,03,0,0,1,5",,"71,5",,"08,5,+00183,5,99,9",,,"4,99,1,+00183,5,9",,,,"9,AGL   ,+99999,+99999","99,99,9,99,9,99,9,00183,1,99,9,99,9",,,"09963,5,09316,5",,"71,5",,,,"MET08711/26/23 12:45:02 METAR PAPT 262145Z 00000KT 1SM -SN OVC006 M01/M01 A2942 RMK NO SPECI.","R01   M017TMP046R02   M017DPT046"
"70249026526","2023-11-26T23:55:00","7","62.0911","-152.7349","566.3","PUNTILLA, AK US","FM-15","PAPT ","V020","999,9,C,0000,5","00457,5,M,N","001609,5,N,5","-0010,C","-0010,C","99999,9",,,,,,"1,0,03,0,0,1,5",,"71,5",,"08,5,+00457,5,99,9",,,"4,99,1,+00457,5,9",,,,"9,AGL   ,+99999,+99999","99,99,9,99,9,99,9,00457,1,99,9,99,9","240,M,+0001,1","240,N,-0028,1","09956,5,09310,5",,"71,5",,,,"MET10311/26/23 14:55:02 METAR PAPT 262355Z 00000KT 1SM -SN OVC015 M01/M01 A2940 RMK NO SPECI. 400011028 70003","R01   M017TMP046R02   M017DPT046"
"70249026526","2023-11-27T01:49:00","7","62.0911","-152.7349","566.3","PUNTILLA, AK US","FM-15","PAPT ","V020","999,9,C,0000,5","00610,5,M,N","001609,5,N,5","-0020,C","-0020,C","99999,9",,,,,,"1,0,03,0,0,1,5",,"71,5",,"08,5,+00610,5,99,9",,,"4,99,1,+00610,5,9",,,,"9,AGL   ,+99999,+99999","99,99,9,99,9,99,9,00610,1,99,9,99,9",,,"09939,5,09294,5",,"71,5",,,,"MET09211/26/23 16:49:01 METAR PAPT 270149Z 00000KT 1SM -SN OVC020 M02/M02 A2935 RMK NO SPECI. LAST","R01   M027TMP046R02   M027DPT046"
"70249026526","2023-11-27T08:59:00","O","62.0911","-152.7349","566.3","PUNTILLA, AK US","SOD  ","PAPT ","V020","999,9,9,9999,9","99999,9,9,9","999999,9,9,9","+9999,9","+9999,9","99999,9",,,"AU,18,SN  ,5",,,,,,,,,,,,,,,,,,,,,,,,,
"70249026526","2023-11-27T17:59:00","7","62.0911","-152.7349","566.3","PUNTILLA, AK US","FM-15","PAPT ","V020","999,9,C,0000,5","00823,5,M,N","001609,5,N,5","-0030,C","-0030,C","99999,9",,,,,,"1,0,03,0,0,1,5",,"71,5",,"08,5,+00823,5,99,9",,,"4,99,1,+00823,5,9",,,,"9,AGL   ,+99999,+99999","99,99,9,99,9,99,9,00823,1,99,9,99,9",,,"09909,5,09265,5",,"71,5",,,,"MET09311/27/23 08:59:02 METAR PAPT 271759Z 00000KT 1SM -SN OVC027 M03/M03 A2926 RMK NO SPECI. FIRST","R01   M037TMP046R02   M037DPT046"
"70249026526","2023-11-27T19:45:00","7","62.0911","-152.7349","566.3","PUNTILLA, AK US","FM-15","PAPT ","V020","999,9,C,0000,5","00457,5,M,N","001609,5,N,5","-0030,C","-0030,C","99999,9",,,,,,"1,0,03,0,0,1,5",,"71,5",,"08,5,+00457,5,99,9",,,"4,99,1,+00457,5,9",,,,"9,AGL   ,+99999,+99999","99,99,9,99,9,99,9,00457,1,99,9,99,9",,,"09919,5,09275,5",,"71,5",,,,"MET08711/27/23 10:45:02 METAR PAPT 271945Z 00000KT 1SM -SN OVC015 M03/M03 A2929 RMK NO SPECI.","R01   M037TMP046R02   M037DPT046"
"70249026526","2023-11-27T21:55:00","7","62.0911","-152.7349","566.3","PUNTILLA, AK US","FM-15","PAPT ","V020","999,9,C,0000,5","00457,5,M,N","001609,5,N,5","-0020,C","-0020,C","99999,9",,,,,,"1,0,03,0,0,1,5",,"71,5",,"08,5,+00457,5,99,9",,,"4,99,1,+00457,5,9",,,,"9,AGL   ,+99999,+99999","99,99,9,99,9,99,9,00457,1,99,9,99,9",,,"09939,5,09294,5",,"71,5",,,,"MET08711/27/23 12:55:02 METAR PAPT 272155Z 00000KT 1SM -SN OVC015 M02/M02 A2935 RMK NO SPECI.","R01   M027TMP046R02   M027DPT046"
"70249026526","2023-11-27T23:52:00","7","62.0911","-152.7349","566.3","PUNTILLA, AK US","FM-15","PAPT ","V020","360,5,N,0026,5","01676,5,M,N","024140,5,N,5","-0020,C","-0020,C","99999,9",,,,,,,,,,"08,5,+01676,5,99,9",,,"4,99,1,+01676,5,9",,,,"9,AGL   ,+99999,+99999","99,99,9,99,9,99,9,01676,1,99,9,99,9","240,M,-0017,1","240,N,-0033,1","09953,5,09307,5",,,,,,"MET10011/27/23 14:52:02 METAR PAPT 272352Z 36005KT 15SM OVC055 M02/M02 A2939 RMK NO SPECI. 410171033 70004","R01   M027TMP046R02   M027DPT046"
"70249026526","2023-11-28T01:45:00","7","62.0911","-152.7349","566.3","PUNTILLA, AK US","FM-15","PAPT ","V020","999,9,C,0000,5","01676,5,M,N","024140,5,N,5","-0020,C","-0020,C","99999,9",,,,,,,,,,"08,5,+01676,5,99,9",,,"4,99,1,+01676,5,9",,,,"9,AGL   ,+99999,+99999","99,99,9,99,9,99,9,01676,1,99,9,99,9",,,"09970,5,09323,5",,,,,,"MET08911/27/23 16:45:01 METAR PAPT 280145Z 00000KT 15SM OVC055 M02/M02 A2944 RMK NO SPECI. LAST","R01   M027TMP046R02   M027DPT046"
"70249026526","2023-11-28T08:59:00","O","62.0911","-152.7349","566.3","PUNTILLA, AK US","SOD  ","PAPT ","V020","999,9,9,9999,9","99999,9,9,9","999999,9,9,9","+9999,9","+9999,9","99999,9",,,"AU,18,SN  ,5",,,,,,,,,,,,,,,,,,,,,,,,,
"70249026526","2023-11-28T17:46:00","7","62.0911","-152.7349","566.3","PUNTILLA, AK US","FM-15","PAPT ","V020","999,9,C,0000,5","00457,5,M,N","001609,5,N,5","-0090,C","-0090,C","99999,9",,,,,,,,,,"08,5,+00457,5,99,9",,,"4,99,1,+00457,5,9",,,,"9,AGL   ,+99999,+99999","99,99,9,99,9,99,9,00457,1,99,9,99,9",,,"10027,5,09377,5",,,,,,"MET08911/28/23 08:46:02 METAR PAPT 281746Z 00000KT 1SM OVC015 M09/M09 A2961 RMK NO SPECI. FIRST","R01   M097TMP046R02   M097DPT046"
"70249026526","2023-11-28T19:50:00","7","62.0911","-152.7349","566.3","PUNTILLA, AK US","FM-15","PAPT ","V020","999,9,C,0000,5","00457,5,M,N","001609,5,N,5","-0070,C","-0070,C","99999,9",,,,,,"1,0,03,0,0,1,5",,"71,5",,"08,5,+00457,5,99,9",,,"4,99,1,+00457,5,9",,,,"9,AGL   ,+99999,+99999","99,99,9,99,9,99,9,00457,1,99,9,99,9",,,"10041,5,09390,5",,"71,5",,,,"MET08711/28/23 10:50:02 METAR PAPT 281950Z 00000KT 1SM -SN OVC015 M07/M07 A2965 RMK NO SPECI.","R01   M077TMP046R02   M077DPT046"
"70249026526","2023-11-28T21:45:00","7","62.0911","-152.7349","566.3","PUNTILLA, AK US","FM-15","PAPT ","V020","160,5,N,0036,5","00457,5,M,N","001609,5,N,5","-0040,C","-0040,C","99999,9",,,,,,"1,0,03,0,0,1,5",,"71,5",,"08,5,+00457,5,99,9",,,"4,99,1,+00457,5,9",,,,"9,AGL   ,+99999,+99999","99,99,9,99,9,99,9,00457,1,99,9,99,9",,,"10024,5,09374,5",,"71,5",,,,"MET08711/28/23 12:45:02 METAR PAPT 282145Z 16007KT 1SM -SN OVC015 M04/M04 A2960 RMK NO SPECI.","R01   M047TMP046R02   M047DPT046"
"70249026526","2023-11-28T23:45:00","7","62.0911","-152.7349","566.3","PUNTILLA, AK US","FM-15","PAPT ","V020","190,5,N,0036,5","00183,5,M,N","001609,7,N,5","-0030,C","-0030,C","99999,9",,,,,,"2,0,03,0,0,1,7",,"72,7",,"08,5,+00183,5,99,9",,,"4,99,1,+00183,5,9",,,,"9,AGL   ,+99999,+99999","99,99,9,99,9,99,9,00183,1,99,9,99,9","240,M,-0022,1","240,N,-0094,1","10014,5,09365,5",,"73,7",,,,"MET10211/28/23 14:45:02 METAR PAPT 282345Z 19007KT 1SM SN OVC006 M03/M03 A2957 RMK NO SPECI. 410221094 70002","R01   1SM7VIS012R02   M037TMP046R03   M037DPT046R04    SN7AWW012R05SEERMK7MVW012R06    SN7MWW012"
"70249026526","2023-11-29T01:48:00","7","62.0911","-152.7349","566.3","PUNTILLA, AK US","FM-15","PAPT ","V020","180,5,N,0031,5","00305,5,M,N","001609,5,N,5","-0030,C","-0030,C","99999,9",,,,,,"1,0,03,0,0,1,5",,"71,5",,"08,5,+00305,5,99,9",,,"4,99,1,+00305,5,9",,,,"9,AGL   ,+99999,+99999","99,99,9,99,9,99,9,00305,1,99,9,99,9",,,"09997,5,09348,5",,"71,5",,,,"MET09211/28/23 16:48:01 METAR PAPT 290148Z 18006KT 1SM -SN OVC010 M03/M03 A2952 RMK NO SPECI. LAST","R01   M037TMP046R02   M037DPT046"
"70249026526","2023-11-29T08:59:00","O","62.0911","-152.7349","566.3","PUNTILLA, AK US","SOD  ","PAPT ","V020","999,9,9,9999,9","99999,9,9,9","999999,9,9,9","+9999,9","+9999,9","99999,9",,,"AU,18,SN  ,5",,,,,,,,,,,,,,,,,,,,,,,,,
"70249026526","2023-11-29T19:45:00","7","62.0911","-152.7349","566.3","PUNTILLA, AK US","FM-15","PAPT ","V020","160,5,N,0021,5","00457,5,M,N","001609,5,N,5","-0020,C","-0020,C","99999,9",,,,,,"1,0,03,0,0,1,5",,"71,5",,"08,5,+00457,5,99,9",,,"4,99,1,+00457,5,9",,,,"9,AGL   ,+99999,+99999","99,99,9,99,9,99,9,00457,1,99,9,99,9",,,"10003,5,09355,5",,"71,5",,,,"MET08711/29/23 10:45:02 METAR PAPT 291945Z 16004KT 1SM -SN OVC015 M02/M02 A2954 RMK NO SPECI.","R01   M027TMP046R02   M027DPT046"
"70249026526","2023-11-29T21:50:00","7","62.0911","-152.7349","566.3","PUNTILLA, AK US","FM-15","PAPT ","V020","999,9,C,0000,5","00457,5,M,N","001609,5,N,5","-0020,C","-0020,C","99999,9",,,,,,"1,0,03,0,0,1,5",,"71,5",,"08,5,+00457,5,99,9",,,"4,99,1,+00457,5,9",,,,"9,AGL   ,+99999,+99999","99,99,9,99,9,99,9,00457,1,99,9,99,9",,,"09993,5,09345,5",,"71,5",,,,"MET08711/29/23 12:50:02 METAR PAPT 292150Z 00000KT 1SM -SN OVC015 M02/M02 A2951 RMK NO SPECI.","R01   M027TMP046R02   M027DPT046"
"70249026526","2023-11-29T23:45:00","4","62.0911","-152.7349","566.3","PUNTILLA, AK US","FM-15","99999","V020","160,1,N,0015,1","01676,1,9,N","024140,1,9,9","-0030,1","-0030,1","99999,9",,,,,,,,,,,,,"3,99,1,+01676,1,9",,,,"9,AGL   ,+99999,+99999","99,99,9,99,9,99,9,01676,1,99,9,99,9","240,M,-0022,1","240,N,-0033,1","09973,1,99999,9",,,,,,"MET083METAR PAPT 292345Z 16003KT 15SM BKN055 M03/M03 A2945 RMK NO SPECI. 410221033 70005=",
"70249026526","2023-11-30T08:59:00","O","62.0911","-152.7349","566.3","PUNTILLA, AK US","SOD  ","PAPT ","V020","999,9,9,9999,9","99999,9,9,9","999999,9,9,9","+9999,9","+9999,9","99999,9",,,"AU,18,SN  ,5",,,,,,,,,,,,,,,,,,,,,,,,,
"70249026526","2023-11-30T17:45:00","7","62.0911","-152.7349","566.3","PUNTILLA, AK US","FM-15","PAPT ","V020","999,9,C,0000,5","00457,5,M,N","001609,5,N,5","-0040,C","-0040,C","99999,9",,,,,,,,,,"08,5,+00457,5,99,9",,,"4,99,1,+00457,5,9",,,,"9,AGL   ,+99999,+99999","99,99,9,99,9,99,9,00457,1,99,9,99,9",,,"09834,5,09195,5",,,,,,"MET08911/30/23 08:45:02 METAR PAPT 301745Z 00000KT 1SM OVC015 M04/M04 A2904 RMK NO SPECI. FIRST","R01   M047TMP046R02   M047DPT046"
"70249026526","2023-11-30T19:58:00","7","62.0911","-152.7349","566.3","PUNTILLA, AK US","FM-15","PAPT ","V020","999,9,C,0000,5","00457,5,M,N","001609,5,N,5","-0040,C","-0040,C","99999,9",,,,,,,,,,"08,5,+00457,5,99,9",,,"4,99,1,+00457,5,9",,,,"9,AGL   ,+99999,+99999","99,99,9,99,9,99,9,00457,1,99,9,99,9",,,"09834,5,09195,5",,,,,,"MET08311/30/23 10:58:02 METAR PAPT 301958Z 00000KT 1SM OVC015 M04/M04 A2904 RMK NO SPECI.","R01   M047TMP046R02   M047DPT046"
"70249026526","2023-11-30T21:50:00","4","62.0911","-152.7349","566.3","PUNTILLA, AK US","FM-15","99999","V020","999,9,C,0000,1","00610,1,9,N","004828,1,9,9","-0050,1","-0050,1","99999,9",,,,,,,,,,,,,"3,99,1,+00610,1,9",,,,"9,AGL   ,+99999,+99999","99,99,9,99,9,99,9,00610,1,99,9,99,9",,,"09831,1,99999,9",,,,,,"MET066METAR PAPT 302150Z 00000KT 3SM BKN020 M05/M05 A2903 RMK NO SPECI.=",
"70249026526","2023-11-30T23:45:00","4","62.0911","-152.7349","566.3","PUNTILLA, AK US","FM-15","99999","V020","180,1,N,0015,1","00610,1,9,N","001609,1,9,9","-0040,1","-0040,1","99999,9",,,,,,,,,,,,,"4,99,1,+00610,1,9",,,,"9,AGL   ,+99999,+99999","99,99,9,99,9,99,9,00610,1,99,9,99,9","240,M,-0044,1","240,N,-0050,1","09831,1,99999,9",,"71,1",,,,"MET086METAR PAPT 302345Z 18003KT 1SM -SN OVC020 M04/M04 A2903 RMK NO SPECI. 410441050 70003=",
"70249026526","2023-12-01T01:48:00","4","62.0911","-152.7349","566.3","PUNTILLA, AK US","FM-15","99999","V020","999,9,C,0000,1","00457,1,9,N","001609,1,9,9","-0050,1","-0050,1","99999,9",,,,,,,,,,,,,"4,99,1,+00457,1,9",,,,"9,AGL   ,+99999,+99999","99,99,9,99,9,99,9,00457,1,99,9,99,9",,,"09837,1,99999,9",,"71,1",,,,"MET075METAR PAPT 010148Z 00000KT 1SM -SN OVC015 M05/M05 A2905 RMK NO SPECI. LAST=",
"70249026526","2023-12-01T21:48:00","7","62.0911","-152.7349","566.3","PUNTILLA, AK US","FM-15","PAPT ","V020","180,5,N,0021,5","03048,5,M,N","040234,5,N,5","-0110,C","-0110,C","99999,9",,,,,,,,,,"07,5,+03048,5,99,9",,,"3,99,1,+03048,5,9",,,,"9,AGL   ,+99999,+99999","99,99,9,99,9,99,9,03048,1,99,9,99,9",,,"09878,5,09236,5",,,,,,"MET08412/01/23 12:48:02 METAR PAPT 012148Z 18004KT 25SM BKN100 M11/M11 A2917 RMK NO SPECI.","R01   M117TMP046R02   M117DPT046"
"70249026526","2023-12-01T23:55:00","7","62.0911","-152.7349","566.3","PUNTILLA, AK US","FM-15","PAPT ","V020","350,5,N,0015,5","22000,5,9,N","040234,5,N,5","-0130,C","-0130,C","99999,9",,,,,,,,,,"04,5,+03048,5,99,9",,,"2,99,1,+03048,5,9",,,,"9,AGL   ,+99999,+99999","04,99,5,99,9,99,9,03048,1,99,9,99,9","240,M,-0050,1","240,N,-0133,1","09878,5,09236,5",,,,,,"MET10012/01/23 14:55:02 METAR PAPT 012355Z 35003KT 25SM SCT100 M13/M13 A2917 RMK NO SPECI. 410501133 70002","R01   M137TMP046R02   M137DPT046D01      0ADE726"
"70249026526","2023-12-02T01:45:00","7","62.0911","-152.7349","566.3","PUNTILLA, AK US","FM-15","PAPT ","V020","999,9,C,0000,5","22000,5,9,N","040234,5,N,5","-0160,C","-0160,C","99999,9",,,,,,,,,,"02,5,+03048,5,99,9",,,"1,99,1,+03048,5,9",,,,"9,AGL   ,+99999,+99999","02,99,5,99,9,99,9,03048,1,99,9,99,9",,,"09878,5,09236,5",,,,,,"MET08912/01/23 16:45:01 METAR PAPT 020145Z 00000KT 25SM FEW100 M16/M16 A2917 RMK NO SPECI. LAST","R01   M167TMP046R02   M167DPT046D01      0ADE726"
"70249026526","2023-12-02T17:45:00","7","62.0911","-152.7349","566.3","PUNTILLA, AK US","FM-15","PAPT ","V020","999,9,C,0000,5","22000,5,9,N","040234,5,N,5","-0210,C","-0210,C","99999,9",,,,,,,,,,"02,5,+03048,5,99,9",,,"1,99,1,+03048,5,9",,,,"9,AGL   ,+99999,+99999","02,99,5,99,9,99,9,03048,1,99,9,99,9",,,"09858,5,09217,5",,,,,,"MET09012/02/23 08:45:02 METAR PAPT 021745Z 00000KT 25SM FEW100 M21/M21 A2911 RMK NO SPECI. FIRST","R01   M217TMP046R02   M217DPT046D01      0ADE726"
"70249026526","2023-12-02T19:50:00","7","62.0911","-152.7349","566.3","PUNTILLA, AK US","FM-15","PAPT ","V020","999,9,C,0000,5","22000,5,9,N","040234,5,N,5","-0200,C","-0200,C","99999,9",,,,,,,,,,"02,5,+03048,5,99,9",,,"1,99,1,+03048,5,9",,,,"9,AGL   ,+99999,+99999","02,99,5,99,9,99,9,03048,1,99,9,99,9",,,"09861,5,09220,5",,,,,,"MET08412/02/23 10:50:02 METAR PAPT 021950Z 00000KT 25SM FEW100 M20/M20 A2912 RMK NO SPECI.","R01   M207TMP046R02   M207DPT046D01      0ADE726"
"70249026526","2023-12-02T21:45:00","7","62.0911","-152.7349","566.3","PUNTILLA, AK US","FM-15","PAPT ","V020","999,9,C,0000,5","03048,5,M,N","040234,5,N,5","-0170,C","-0170,C","99999,9",,,,,,,,,,"07,5,+03048,5,99,9",,,"3,99,1,+03048,5,9",,,,"9,AGL   ,+99999,+99999","99,99,9,99,9,99,9,03048,1,99,9,99,9",,,"09861,5,09220,5",,,,,,"MET08412/02/23 12:45:02 METAR PAPT 022145Z 00000KT 25SM BKN100 M17/M17 A2912 RMK NO SPECI.","R01   M177TMP046R02   M177DPT046"
"70249026526","2023-12-02T23:45:00","7","62.0911","-152.7349","566.3","PUNTILLA, AK US","FM-15","PAPT ","V020","999,9,C,0000,5","22000,5,9,N","040234,5,N,5","-0170,C","-0170,C","99999,9",,,,,,,,,,"02,5,+03048,5,99,9",,,"1,99,1,+03048,5,9",,,,"9,AGL   ,+99999,+99999","02,99,5,99,9,99,9,03048,1,99,9,99,9","240,M,-0156,1","240,N,-0206,1","09858,5,09217,5",,,,,,"MET10012/02/23 14:45:02 METAR PAPT 022345Z 00000KT 25SM FEW100 M17/M17 A2911 RMK NO SPECI. 411561206 70000","R01   M177TMP046R02   M177DPT046D01      0ADE726"
"70249026526","2023-12-03T01:47:00","7","62.0911","-152.7349","566.3","PUNTILLA, AK US","FM-15","PAPT ","V020","999,9,C,0000,5","22000,5,9,N","040234,5,N,5","-0190,C","-0190,C","99999,9",,,,,,,,,,"02,5,+03048,5,99,9",,,"1,99,1,+03048,5,9",,,,"9,AGL   ,+99999,+99999","02,99,5,99,9,99,9,03048,1,99,9,99,9",,,"09858,5,09217,5",,,,,,"MET08912/02/23 16:47:01 METAR PAPT 030147Z 00000KT 25SM FEW100 M19/M19 A2911 RMK NO SPECI. LAST","R01   M197TMP046R02   M197DPT046D01      0ADE726"
"70249026526","2023-12-03T17:51:00","7","62.0911","-152.7349","566.3","PUNTILLA, AK US","FM-15","PAPT ","V020","999,9,C,0000,5","03048,5,M,N","040234,5,N,5","-0160,C","-0160,C","99999,9",,,,,,,,,,"07,5,+03048,5,99,9",,,"3,99,1,+03048,5,9",,,,"9,AGL   ,+99999,+99999","99,99,9,99,9,99,9,03048,1,99,9,99,9",,,"09831,5,09191,5",,,,,,"MET09012/03/23 08:51:02 METAR PAPT 031751Z 00000KT 25SM BKN100 M16/M16 A2903 RMK NO SPECI. FIRST","R01   M167TMP046R02   M167DPT046"
"70249026526","2023-12-03T19:55:00","7","62.0911","-152.7349","566.3","PUNTILLA, AK US","FM-15","PAPT ","V020","999,9,C,0000,5","03048,5,M,N","040234,5,N,5","-0130,C","-0130,C","99999,9",,,,,,,,,,"07,5,+03048,5,99,9",,,"3,99,1,+03048,5,9",,,,"9,AGL   ,+99999,+99999","99,99,9,99,9,99,9,03048,1,99,9,99,9",,,"09824,5,09185,5",,,,,,"MET08412/03/23 10:55:02 METAR PAPT 031955Z 00000KT 25SM BKN100 M13/M13 A2901 RMK NO SPECI.","R01   M137TMP046R02   M137DPT046"
"70249026526","2023-12-03T21:49:00","7","62.0911","-152.7349","566.3","PUNTILLA, AK US","FM-15","PAPT ","V020","999,9,C,0000,5","03048,5,M,N","040234,5,N,5","-0120,C","-0120,C","99999,9",,,,,,,,,,"07,5,+03048,5,99,9",,,"3,99,1,+03048,5,9",,,,"9,AGL   ,+99999,+99999","99,99,9,99,9,99,9,03048,1,99,9,99,9",,,"09821,5,09182,5",,,,,,"MET08412/03/23 12:49:02 METAR PAPT 032149Z 00000KT 25SM BKN100 M12/M12 A2900 RMK NO SPECI.","R01   M127TMP046R02   M127DPT046"
"70249026526","2023-12-03T23:45:00","7","62.0911","-152.7349","566.3","PUNTILLA, AK US","FM-15","PAPT ","V020","220,5,N,0015,5","03048,5,M,N","040234,5,N,5","-0110,C","-0110,C","99999,9",,,,,,,,,,"07,5,+03048,5,99,9",,,"3,99,1,+03048,5,9",,,,"9,AGL   ,+99999,+99999","99,99,9,99,9,99,9,03048,1,99,9,99,9","240,M,-0111,1","240,N,-0189,1","09821,5,09182,5",,,,,,"MET10012/03/23 14:45:02 METAR PAPT 032345Z 22003KT 25SM BKN100 M11/M11 A2900 RMK NO SPECI. 411111189 70000","R01   M117TMP046R02   M117DPT046"
"70249026526","2023-12-04T01:52:00","7","62.0911","-152.7349","566.3","PUNTILLA, AK US","FM-15","PAPT ","V020","999,9,C,0000,5","03048,5,M,N","040234,5,N,5","-0110,C","-0110,C","99999,9",,,,,,,,,,"08,5,+03048,5,99,9",,,"4,99,1,+03048,5,9",,,,"9,AGL   ,+99999,+99999","99,99,9,99,9,99,9,03048,1,99,9,99,9",,,"09817,5,09179,5",,,,,,"MET08912/03/23 16:52:01 METAR PAPT 040152Z 00000KT 25SM OVC100 M11/M11 A2899 RMK NO SPECI. LAST","R01   M117TMP046R02   M117DPT046"
"70249026526","2023-12-04T17:45:00","7","62.0911","-152.7349","566.3","PUNTILLA, AK US","FM-15","PAPT ","V020","999,9,C,0000,5","03048,5,M,N","040234,5,N,5","-0110,C","-0110,C","99999,9",,,,,,,,,,"08,5,+03048,5,99,9",,,"4,99,1,+03048,5,9",,,,"9,AGL   ,+99999,+99999","99,99,9,99,9,99,9,03048,1,99,9,99,9",,,"09827,5,09188,5",,,,,,"MET09012/04/23 08:45:02 METAR PAPT 041745Z 00000KT 25SM OVC100 M11/M11 A2902 RMK NO SPECI. FIRST","R01   M117TMP046R02   M117DPT046"
"70249026526","2023-12-04T19:48:00","7","62.0911","-152.7349","566.3","PUNTILLA, AK US","FM-15","PAPT ","V020","999,9,C,0000,5","03048,5,M,N","040234,5,N,5","-0100,C","-0100,C","99999,9",,,,,,,,,,"08,5,+03048,5,99,9",,,"4,99,1,+03048,5,9",,,,"9,AGL   ,+99999,+99999","99,99,9,99,9,99,9,03048,1,99,9,99,9",,,"09821,5,09182,5",,,,,,"MET08412/04/23 10:48:02 METAR PAPT 041948Z 00000KT 25SM OVC100 M10/M10 A2900 RMK NO SPECI.","R01   M107TMP046R02   M107DPT046"
"70249026526","2023-12-04T21:48:00","7","62.0911","-152.7349","566.3","PUNTILLA, AK US","FM-15","PAPT ","V020","999,9,C,0000,5","03048,5,M,N","040234,5,N,5","-0090,C","-0090,C","99999,9",,,,,,,,,,"08,5,+03048,5,99,9",,,"4,99,1,+03048,5,9",,,,"9,AGL   ,+99999,+99999","99,99,9,99,9,99,9,03048,1,99,9,99,9",,,"09800,5,09162,5",,,,,,"MET08412/04/23 12:48:02 METAR PAPT 042148Z 00000KT 25SM OVC100 M09/M09 A2894 RMK NO SPECI.","R01   M097TMP046R02   M097DPT046"
"70249026526","2023-12-04T23:57:00","7","62.0911","-152.7349","566.3","PUNTILLA, AK US","FM-15","PAPT ","V020","999,9,C,0000,5","03048,5,M,N","040234,5,N,5","-0090,C","-0090,C","99999,9",,,,,,,,,,"07,5,+03048,5,99,9",,,"3,99,1,+03048,5,9",,,,"9,AGL   ,+99999,+99999","99,99,9,99,9,99,9,03048,1,99,9,99,9","240,M,-0089,1","240,N,-0111,1","09777,5,09140,5",,,,,,"MET10012/04/23 14:57:02 METAR PAPT 042357Z 00000KT 25SM BKN100 M09/M09 A2887 RMK NO SPECI. 410891111 70000","R01   M097TMP046R02   M097DPT046"
"70249026526","2023-12-05T01:45:00","7","62.0911","-152.7349","566.3","PUNTILLA, AK US","FM-15","PAPT ","V020","999,9,C,0000,5","22000,5,9,N","040234,5,N,5","-0120,C","-0120,C","99999,9",,,,,,,,,,"04,5,+03048,5,99,9",,,"2,99,1,+03048,5,9",,,,"9,AGL   ,+99999,+99999","04,99,5,99,9,99,9,03048,1,99,9,99,9",,,"09760,5,09124,5",,,,,,"MET08912/04/23 16:45:01 METAR PAPT 050145Z 00000KT 25SM SCT100 M12/M12 A2882 RMK NO SPECI. LAST","R01   M127TMP046R02   M127DPT046D01      0ADE726"
"70249026526","2023-12-05T17:57:00","7","62.0911","-152.7349","566.3","PUNTILLA, AK US","FM-15","PAPT ","V020","020,5,N,0041,5","03048,5,M,N","040234,5,N,5","-0080,C","-0080,C","99999,9",,,,,,,,,,"07,5,+03048,5,99,9",,,"3,99,1,+03048,5,9",,,,"9,AGL   ,+99999,+99999","99,99,9,99,9,99,9,03048,1,99,9,99,9",,,"09797,5,09159,5",,,,,,"MET09012/05/23 08:57:02 METAR PAPT 051757Z 02008KT 25SM BKN100 M08/M08 A2893 RMK NO SPECI. FIRST","R01   M087TMP046R02   M087DPT046"
"70249026526","2023-12-05T19:48:00","7","62.0911","-152.7349","566.3","PUNTILLA, AK US","FM-15","PAPT ","V020","020,5,N,0057,5","03048,5,M,N","040234,5,N,5","-0070,C","-0070,C","99999,9",,,,,,,,,,"07,5,+03048,5,99,9",,,"3,99,1,+03048,5,9",,,,"9,AGL   ,+99999,+99999","99,99,9,99,9,99,9,03048,1,99,9,99,9",,,"09807,5,09169,5",,,,,,"MET08412/05/23 10:48:02 METAR PAPT 051948Z 02011KT 25SM BKN100 M07/M07 A2896 RMK NO SPECI.","R01   M077TMP046R02   M077DPT046"
"70249026526","2023-12-05T21:46:00","4","62.0911","-152.7349","566.3","PUNTILLA, AK US","FM-15","99999","V020","030,1,N,0026,1","03048,1,9,N","040234,1,9,9","-0070,1","-0070,1","99999,9",,,,,,,,,,,,,"3,99,1,+03048,9,9",,,,"9,AGL   ,+99999,+99999","99,99,9,99,9,99,9,03048,1,99,9,99,9",,,"09817,1,99999,9",,,,,,"MET067METAR PAPT 052146Z 03005KT 25SM BKN100 M07/M07 A2899 RMK NO SPECI.=",
"70249026526","2023-12-05T23:46:00","7","62.0911","-152.7349","566.3","PUNTILLA, AK US","FM-15","PAPT ","V020","350,5,N,0082,5","22000,5,9,N","040234,7,N,5","-0060,C","-0060,C","99999,9",,,,,,"2,5,03,0,0,1,5",,"27,5",,"02,5,+03048,5,99,9",,,"1,99,1,+03048,5,9",,,,"9,AGL   ,+99999,+99999","02,99,5,99,9,99,9,03048,1,99,9,99,9","240,M,-0061,1","240,N,-0117,1","09831,5,09191,5",,"38,1",,,,"MET10512/05/23 14:46:02 METAR PAPT 052346Z 35016KT 25SM BLSN FEW100 M06/M06 A2903 RMK NO SPECI. 410611117 70000","R01  25SM7VIS011R02   M067TMP046R03   M067DPT046D01      0ADE726"
"70249026526","2023-12-06T01:46:00","4","62.0911","-152.7349","566.3","PUNTILLA, AK US","FM-15","99999","V020","360,1,N,0103,1","22000,5,9,N","040234,1,9,9","-0070,1","-0070,1","99999,9",,,,,,,,,,,,,"2,99,1,+03048,1,9",,,,"9,AGL   ,+99999,+99999","04,99,5,99,9,99,9,03048,1,99,9,99,9",,,"09851,1,99999,9",,"38,1",,,,"MET077METAR PAPT 060146Z 36020KT 25SM BLSN SCT100 M07/M07 A2909 RMK NO SPECI. LAST=","D01      0ADE726"
"70249026526","2023-12-06T08:59:00","O","62.0911","-152.7349","566.3","PUNTILLA, AK US","SOD  ","PAPT ","V020","999,9,9,9999,9","99999,9,9,9","999999,9,9,9","+9999,9","+9999,9","99999,9",,,"AU,09,BLSN,5",,,,,,,,,,,,,,,,,,,,,,,,,
"70249026526","2023-12-06T17:50:00","7","62.0911","-152.7349","566.3","PUNTILLA, AK US","FM-15","PAPT ","V020","010,5,N,0015,5","22000,5,9,N","040234,5,N,5","-0080,C","-0080,C","99999,9",,,,,,,,,,"02,5,+03048,5,99,9",,,"1,99,1,+03048,5,9",,,,"9,AGL   ,+99999,+99999","02,99,5,99,9,99,9,03048,1,99,9,99,9",,,"09959,5,09313,5",,,,,,"MET09012/06/23 08:50:02 METAR PAPT 061750Z 01003KT 25SM FEW100 M08/M08 A2941 RMK NO SPECI. FIRST","R01   M087TMP046R02   M087DPT046D01      0ADE726"
"70249026526","2023-12-06T19:55:00","7","62.0911","-152.7349","566.3","PUNTILLA, AK US","FM-15","PAPT ","V020","350,5,N,0036,5","22000,5,9,N","040234,5,N,5","-0140,C","-0140,C","99999,9",,,,,,,,,,"02,5,+03048,5,99,9",,,"1,99,1,+03048,5,9",,,,"9,AGL   ,+99999,+99999","02,99,5,99,9,99,9,03048,1,99,9,99,9",,,"09976,5,09329,5",,,,,,"MET08412/06/23 10:55:02 METAR PAPT 061955Z 35007KT 25SM FEW100 M14/M14 A2946 RMK NO SPECI.","R01   M147TMP046R02   M147DPT046D01      0ADE726"
"70249026526","2023-12-06T21:45:00","7","62.0911","-152.7349","566.3","PUNTILLA, AK US","FM-15","PAPT ","V020","360,5,N,0046,5","22000,5,9,N","040234,5,N,5","-0140,C","-0140,C","99999,9",,,,,,,,,,"02,5,+03048,5,99,9",,,"1,99,1,+03048,5,9",,,,"9,AGL   ,+99999,+99999","02,99,5,99,9,99,9,03048,1,99,9,99,9",,,"09980,5,09332,5",,,,,,"MET08412/06/23 12:45:02 METAR PAPT 062145Z 36009KT 25SM FEW100 M14/M14 A2947 RMK NO SPECI.","R01   M147TMP046R02   M147DPT046D01      0ADE726"
"70249026526","2023-12-06T23:45:00","7","62.0911","-152.7349","566.3","PUNTILLA, AK US","FM-15","PAPT ","V020","350,5,N,0026,5","22000,5,9,N","040234,5,N,5","-0140,C","-0140,C","99999,9",,,,,,,,,,"04,5,+03048,5,99,9",,,"2,99,1,+03048,5,9",,,,"9,AGL   ,+99999,+99999","04,99,5,99,9,99,9,03048,1,99,9,99,9","240,M,-0067,1","240,N,-0144,1","09976,5,09329,5",,,,,,"MET10012/06/23 14:45:02 METAR PAPT 062345Z 35005KT 25SM SCT100 M14/M14 A2946 RMK NO SPECI. 410671144 70000","R01   M147TMP046R02   M147DPT046D01      0ADE726"
"70249026526","2023-12-07T01:47:00","7","62.0911","-152.7349","566.3","PUNTILLA, AK US","FM-15","PAPT ","V020","360,5,N,0026,5","22000,5,9,N","040234,5,N,5","-0160,C","-0160,C","99999,9",,,,,,,,,,"04,5,+03048,5,99,9",,,"2,99,1,+03048,5,9",,,,"9,AGL   ,+99999,+99999","04,99,5,99,9,99,9,03048,1,99,9,99,9",,,"09983,5,09336,5",,,,,,"MET08912/06/23 16:47:01 METAR PAPT 070147Z 36005KT 25SM SCT100 M16/M16 A2948 RMK NO SPECI. LAST","R01   M167TMP046R02   M167DPT046D01      0ADE726"
"70249026526","2023-12-07T17:50:00","7","62.0911","-152.7349","566.3","PUNTILLA, AK US","FM-15","PAPT ","V020","999,9,C,0000,5","03048,5,M,N","040234,5,N,5","-0180,C","-0180,C","99999,9",,,,,,,,,,"07,5,+03048,5,99,9",,,"3,99,1,+03048,5,9",,,,"9,AGL   ,+99999,+99999","99,99,9,99,9,99,9,03048,1,99,9,99,9",,,"09959,5,09313,5",,,,,,"MET09012/07/23 08:50:02 METAR PAPT 071750Z 00000KT 25SM BKN100 M18/M18 A2941 RMK NO SPECI. FIRST","R01   M187TMP046R02   M187DPT046"
"70249026526","2023-12-07T19:55:00","7","62.0911","-152.7349","566.3","PUNTILLA, AK US","FM-15","PAPT ","V020","999,9,C,0000,5","01981,5,M,N","040234,5,N,5","-0160,C","-0160,C","99999,9",,,,,,,,,,"07,5,+01981,5,99,9",,,"3,99,1,+01981,5,9",,,,"9,AGL   ,+99999,+99999","99,99,9,99,9,99,9,01981,1,99,9,99,9",,,"09959,5,09313,5",,,,,,"MET08412/07/23 10:55:02 METAR PAPT 071955Z 00000KT 25SM BKN065 M16/M16 A2941 RMK NO SPECI.","R01   M167TMP046R02   M167DPT046"
"70249026526","2023-12-07T21:45:00","7","62.0911","-152.7349","566.3","PUNTILLA, AK US","FM-15","PAPT ","V020","999,9,C,0000,5","01676,5,M,N","024140,7,N,5","-0130,C","-0130,C","99999,9",,,,,,"1,0,03,0,0,1,5",,"71,5",,"07,5,+01676,5,99,9",,,"3,99,1,+01676,5,9",,,,"9,AGL   ,+99999,+99999","99,99,9,99,9,99,9,01676,1,99,9,99,9",,,"09953,5,09307,5",,"71,5",,,,"MET08812/07/23 12:45:02 METAR PAPT 072145Z 00000KT 15SM -SN BKN055 M13/M13 A2939 RMK NO SPECI.","R01  15SM7VIS011R02   M137TMP046R03   M137DPT046"
"70249026526","2023-12-07T23:45:00","7","62.0911","-152.7349","566.3","PUNTILLA, AK US","FM-15","PAPT ","V020","999,9,C,0000,5","00823,5,M,N","004828,5,N,5","-0130,C","-0130,C","99999,9",,,,,,"1,0,03,0,0,1,5",,"71,5",,"08,5,+00823,5,99,9",,,"4,99,1,+00823,5,9",,,,"9,AGL   ,+99999,+99999","99,99,9,99,9,99,9,00823,1,99,9,99,9","240,M,-0128,1","240,N,-0178,1","09939,5,09294,5",,"71,5",,,,"MET10312/07/23 14:45:02 METAR PAPT 072345Z 00000KT 3SM -SN OVC027 M13/M13 A2935 RMK NO SPECI. 411281178 70000","R01   M137TMP046R02   M137DPT046"
"70249026526","2023-12-08T01:50:00","7","62.0911","-152.7349","566.3","PUNTILLA, AK US","FM-15","PAPT ","V020","350,5,N,0021,5","00183,5,M,N","001609,5,N,5","-0120,C","-0120,C","99999,9",,,,,,"1,0,03,0,0,1,5",,"71,5",,"08,5,+00183,5,99,9",,,"4,99,1,+00183,5,9",,,,"9,AGL   ,+99999,+99999","99,99,9,99,9,99,9,00183,1,99,9,99,9",,,"09932,5,09288,5",,"71,5",,,,"MET09212/07/23 16:50:01 METAR PAPT 080150Z 35004KT 1SM -SN OVC006 M12/M12 A2933 RMK NO SPECI. LAST","R01   M127TMP046R02   M127DPT046"
"70249026526","2023-12-08T08:59:00","O","62.0911","-152.7349","566.3","PUNTILLA, AK US","SOD  ","PAPT ","V020","999,9,9,9999,9","99999,9,9,9","999999,9,9,9","+9999,9","+9999,9","99999,9",,,"AU,18,SN  ,5",,,,,,,,,,,,,,,,,,,,,,,,,
"70249026526","2023-12-08T17:45:00","7","62.0911","-152.7349","566.3","PUNTILLA, AK US","FM-15","PAPT ","V020","999,9,C,0000,5","22000,5,9,N","040234,5,N,5","-0170,C","-0170,C","99999,9",,,,,,,,,,"02,5,+03048,5,99,9",,,"1,99,1,+03048,5,9",,,,"9,AGL   ,+99999,+99999","02,99,5,99,9,99,9,03048,1,99,9,99,9",,,"09973,5,09326,5",,,,,,"MET09012/08/23 08:45:02 METAR PAPT 081745Z 00000KT 25SM FEW100 M17/M17 A2945 RMK NO SPECI. FIRST","R01   M177TMP046R02   M177DPT046D01      0ADE726"
"70249026526","2023-12-08T19:50:00","7","62.0911","-152.7349","566.3","PUNTILLA, AK US","FM-15","PAPT ","V020","999,9,C,0000,5","22000,5,9,N","040234,5,N,5","-0210,C","-0210,C","99999,9",,,,,,,,,,"02,5,+03048,5,99,9",,,"1,99,1,+03048,5,9",,,,"9,AGL   ,+99999,+99999","02,99,5,99,9,99,9,03048,1,99,9,99,9",,,"09993,5,09345,5",,,,,,"MET08412/08/23 10:50:02 METAR PAPT 081950Z 00000KT 25SM FEW100 M21/M21 A2951 RMK NO SPECI.","R01   M217TMP046R02   M217DPT046D01      0ADE726"
"70249026526","2023-12-08T21:45:00","7","62.0911","-152.7349","566.3","PUNTILLA, AK US","FM-15","PAPT ","V020","999,9,C,0000,5","22000,5,9,N","040234,5,N,5","-0210,C","-0210,C","99999,9",,,,,,,,,,"02,5,+03048,5,99,9",,,"1,99,1,+03048,5,9",,,,"9,AGL   ,+99999,+99999","02,99,5,99,9,99,9,03048,1,99,9,99,9",,,"10007,5,09358,5",,,,,,"MET08412/08/23 12:45:02 METAR PAPT 082145Z 00000KT 25SM FEW100 M21/M21 A2955 RMK NO SPECI.","R01   M217TMP046R02   M217DPT046D01      0ADE726"
"70249026526","2023-12-08T23:56:00","7","62.0911","-152.7349","566.3","PUNTILLA, AK US","FM-15","PAPT ","V020","350,5,N,0021,5","22000,5,9,N","040234,5,N,5","-0240,C","-0240,C","99999,9",,,,,,,,,,"04,5,+03048,5,99,9",,,"2,99,1,+03048,5,9",,,,"9,AGL   ,+99999,+99999","04,99,5,99,9,99,9,03048,1,99,9,99,9","240,M,-0122,1","240,N,-0239,1","10017,5,09368,5",,,,,,"MET10012/08/23 14:56:02 METAR PAPT 082356Z 35004KT 25SM SCT100 M24/M24 A2958 RMK NO SPECI. 411221239 70001","R01   M247TMP046R02   M247DPT046D01      0ADE726"
"70249026526","2023-12-09T01:45:00","7","62.0911","-152.7349","566.3","PUNTILLA, AK US","FM-15","PAPT ","V020","999,9,C,0000,5","22000,5,9,N","040234,5,N,5","-0270,C","-0270,C","99999,9",,,,,,,,,,"02,5,+03048,5,99,9",,,"1,99,1,+03048,5,9",,,,"9,AGL   ,+99999,+99999","02,99,5,99,9,99,9,03048,1,99,9,99,9",,,"10027,5,09377,5",,,,,,"MET08912/08/23 16:45:01 METAR PAPT 090145Z 00000KT 25SM FEW100 M27/M27 A2961 RMK NO SPECI. LAST","R01   M277TMP046R02   M277DPT046D01      0ADE726"
"70249026526","2023-12-09T17:45:00","7","62.0911","-152.7349","566.3","PUNTILLA, AK US","FM-15","PAPT ","V020","999,9,C,0000,5","00457,5,M,N","001609,5,N,5","-0170,C","-0170,C","99999,9",,,,,,"1,0,03,0,0,1,5",,"71,5",,"08,5,+00457,5,99,9",,,"4,99,1,+00457,5,9",,,,"9,AGL   ,+99999,+99999","99,99,9,99,9,99,9,00457,1,99,9,99,9",,,"10007,5,09358,5",,"71,5",,,,"MET09312/09/23 08:45:02 METAR PAPT 091745Z 00000KT 1SM -SN OVC015 M17/M17 A2955 RMK NO SPECI. FIRST","R01   M177TMP046R02   M177DPT046"
"70249026526","2023-12-09T19:45:00","7","62.0911","-152.7349","566.3","PUNTILLA, AK US","FM-15","PAPT ","V020","999,9,C,0000,5","00610,5,M,N","001609,5,N,5","-0160,C","-0160,C","99999,9",,,,,,,,,,"08,5,+00610,5,99,9",,,"4,99,1,+00610,5,9",,,,"9,AGL   ,+99999,+99999","99,99,9,99,9,99,9,00610,1,99,9,99,9",,,"10000,5,09352,5",,,,,,"MET08312/09/23 10:45:02 METAR PAPT 091945Z 00000KT 1SM OVC020 M16/M16 A2953 RMK NO SPECI.","R01   M167TMP046R02   M167DPT046"
"70249026526","2023-12-09T21:45:00","7","62.0911","-152.7349","566.3","PUNTILLA, AK US","FM-15","PAPT ","V020","999,9,C,0000,5","00457,5,M,N","001609,5,N,5","-0150,C","-0150,C","99999,9",,,,,,"1,0,03,0,0,1,5",,"71,5",,"08,5,+00457,5,99,9",,,"4,99,1,+00457,5,9",,,,"9,AGL   ,+99999,+99999","99,99,9,99,9,99,9,00457,1,99,9,99,9",,,"09990,5,09342,5",,"71,5",,,,"MET08712/09/23 12:45:02 METAR PAPT 092145Z 00000KT 1SM -SN OVC015 M15/M15 A2950 RMK NO SPECI.","R01   M157TMP046R02   M157DPT046"
"70249026526","2023-12-09T23:45:00","7","62.0911","-152.7349","566.3","PUNTILLA, AK US","FM-15","PAPT ","V020","999,9,C,0000,5","00610,5,M,N","001609,5,N,5","-0140,C","-0140,C","99999,9",,,,,,"1,0,03,0,0,1,5",,"71,5",,"08,5,+00610,5,99,9",,,"4,99,1,+00610,5,9",,,,"9,AGL   ,+99999,+99999","99,99,9,99,9,99,9,00610,1,99,9,99,9","240,M,-0144,1","240,N,-0267,1","09983,5,09336,5",,"71,5",,,,"MET10312/09/23 14:45:02 METAR PAPT 092345Z 00000KT 1SM -SN OVC020 M14/M14 A2948 RMK NO SPECI. 411441267 70001","R01   M147TMP046R02   M147DPT046"
"70249026526","2023-12-10T01:45:00","7","62.0911","-152.7349","566.3","PUNTILLA, AK US","FM-15","PAPT ","V020","999,9,C,0000,5","00610,5,M,N","001609,5,N,5","-0140,C","-0140,C","99999,9",,,,,,"1,0,03,0,0,1,5",,"71,5",,"08,5,+00610,5,99,9",,,"4,99,1,+00610,5,9",,,,"9,AGL   ,+99999,+99999","99,99,9,99,9,99,9,00610,1,99,9,99,9",,,"09983,5,09336,5",,"71,5",,,,"MET09212/09/23 16:45:01 METAR PAPT 100145Z 00000KT 1SM -SN OVC020 M14/M14 A2948 RMK NO SPECI. LAST","R01   M147TMP046R02   M147DPT046"
"70249026526","2023-12-10T08:59:00","O","62.0911","-152.7349","566.3","PUNTILLA, AK US","SOD  ","PAPT ","V020","999,9,9,9999,9","99999,9,9,9","999999,9,9,9","+9999,9","+9999,9","99999,9",,,"AU,18,SN  ,5",,,,,,,,,,,,,,,,,,,,,,,,,
"70249026526","2023-12-10T17:45:00","7","62.0911","-152.7349","566.3","PUNTILLA, AK US","FM-15","PAPT ","V020","210,5,N,0015,5","00610,5,M,N","001609,5,N,5","-0220,C","-0220,C","99999,9",,,,,,,,,,"08,5,+00610,5,99,9",,,"4,99,1,+00610,5,9",,,,"9,AGL   ,+99999,+99999","99,99,9,99,9,99,9,00610,1,99,9,99,9",,,"10061,5,09409,5",,,,,,"MET08912/10/23 08:45:02 METAR PAPT 101745Z 21003KT 1SM OVC020 M22/M22 A2971 RMK NO SPECI. FIRST","R01   M227TMP046R02   M227DPT046"
"70249026526","2023-12-10T19:45:00","7","62.0911","-152.7349","566.3","PUNTILLA, AK US","FM-15","PAPT ","V020","350,5,N,0026,5","00823,5,M,N","001609,5,N,5","-0190,C","-0190,C","99999,9",,,,,,,,,,"08,5,+00823,5,99,9",,,"4,99,1,+00823,5,9",,,,"9,AGL   ,+99999,+99999","99,99,9,99,9,99,9,00823,1,99,9,99,9",,,"10058,5,09406,5",,,,,,"MET08312/10/23 10:45:02 METAR PAPT 101945Z 35005KT 1SM OVC027 M19/M19 A2970 RMK NO SPECI.","R01   M197TMP046R02   M197DPT046"
"70249026526","2023-12-10T21:45:00","7","62.0911","-152.7349","566.3","PUNTILLA, AK US","FM-15","PAPT ","V020","999,9,C,0000,5","00823,5,M,N","001609,5,N,5","-0160,C","-0160,C","99999,9",,,,,,"1,0,03,0,0,1,5",,"71,5",,"08,5,+00823,5,99,9",,,"4,99,1,+00823,5,9",,,,"9,AGL   ,+99999,+99999","99,99,9,99,9,99,9,00823,1,99,9,99,9",,,"10041,5,09390,5",,"71,5",,,,"MET08712/10/23 12:45:02 METAR PAPT 102145Z 00000KT 1SM -SN OVC027 M16/M16 A2965 RMK NO SPECI.","R01   M167TMP046R02   M167DPT046"
"70249026526","2023-12-10T23:45:00","7","62.0911","-152.7349","566.3","PUNTILLA, AK US","FM-15","PAPT ","V020","999,9,C,0000,5","00610,5,M,N","001609,5,N,5","-0140,C","-0140,C","99999,9",,,,,,"1,0,03,0,0,1,5",,"71,5",,"08,5,+00610,5,99,9",,,"4,99,1,+00610,5,9",,,,"9,AGL   ,+99999,+99999","99,99,9,99,9,99,9,00610,1,99,9,99,9","240,M,-0139,1","240,N,-0222,1","10017,5,09368,5",,"71,5",,,,"MET10312/10/23 14:45:02 METAR PAPT 102345Z 00000KT 1SM -SN OVC020 M14/M14 A2958 RMK NO SPECI. 411391222 70001","R01   M147TMP046R02   M147DPT046"
"70249026526","2023-12-11T01:45:00","7","62.0911","-152.7349","566.3","PUNTILLA, AK US","FM-15","PAPT ","V020","030,5,N,0015,5","00457,5,M,N","001609,5,N,5","-0130,C","-0130,C","99999,9",,,,,,"1,0,03,0,0,1,5",,"71,5",,"08,5,+00457,5,99,9",,,"4,99,1,+00457,5,9",,,,"9,AGL   ,+99999,+99999","99,99,9,99,9,99,9,00457,1,99,9,99,9",,,"09990,5,09342,5",,"71,5",,,,"MET09212/10/23 16:45:01 METAR PAPT 110145Z 03003KT 1SM -SN OVC015 M13/M13 A2950 RMK NO SPECI. LAST","R01   M137TMP046R02   M137DPT046"
"70249026526","2023-12-11T08:59:00","O","62.0911","-152.7349","566.3","PUNTILLA, AK US","SOD  ","PAPT ","V020","999,9,9,9999,9","99999,9,9,9","999999,9,9,9","+9999,9","+9999,9","99999,9",,,"AU,18,SN  ,5",,,,,,,,,,,,,,,,,,,,,,,,,
"70249026526","2023-12-11T17:45:00","7","62.0911","-152.7349","566.3","PUNTILLA, AK US","FM-15","PAPT ","V020","030,5,N,0015,5","00183,5,M,N","001609,5,N,5","-0080,C","-0080,C","99999,9",,,,,,"1,0,03,0,0,1,5",,"71,5",,"08,5,+00183,5,99,9",,,"4,99,1,+00183,5,9",,,,"9,AGL   ,+99999,+99999","99,99,9,99,9,99,9,00183,1,99,9,99,9",,,"09780,5,09143,5",,"71,5",,,,"MET09312/11/23 08:45:02 METAR PAPT 111745Z 03003KT 1SM -SN OVC006 M08/M08 A2888 RMK NO SPECI. FIRST","R01   M087TMP046R02   M087DPT046"
"70249026526","2023-12-11T19:55:00","7","62.0911","-152.7349","566.3","PUNTILLA, AK US","FM-15","PAPT ","V020","030,5,N,0015,5","00610,5,M,N","001609,5,N,5","-0080,C","-0080,C","99999,9",,,,,,"1,0,03,0,0,1,5",,"71,5",,"08,5,+00610,5,99,9",,,"4,99,1,+00610,5,9",,,,"9,AGL   ,+99999,+99999","99,99,9,99,9,99,9,00610,1,99,9,99,9",,,"09773,5,09137,5",,"71,5",,,,"MET08712/11/23 10:55:02 METAR PAPT 111955Z 03003KT 1SM -SN OVC020 M08/M08 A2886 RMK NO SPECI.","R01   M087TMP046R02   M087DPT046"
"70249026526","2023-12-11T21:45:00","7","62.0911","-152.7349","566.3","PUNTILLA, AK US","FM-15","PAPT ","V020","160,5,N,0015,5","00457,5,M,N","004828,5,N,5","-0080,C","-0080,C","99999,9",,,,,,"1,0,03,0,0,1,5",,"71,5",,"08,5,+00457,5,99,9",,,"4,99,1,+00457,5,9",,,,"9,AGL   ,+99999,+99999","99,99,9,99,9,99,9,00457,1,99,9,99,9",,,"09766,5,09130,5",,"71,5",,,,"MET08712/11/23 12:45:02 METAR PAPT 112145Z 16003KT 3SM -SN OVC015 M08/M08 A2884 RMK NO SPECI.","R01   M087TMP046R02   M087DPT046"
"70249026526","2023-12-11T23:50:00","7","62.0911","-152.7349","566.3","PUNTILLA, AK US","FM-15","PAPT ","V020","999,9,C,0000,5","00610,5,M,N","004828,5,N,5","-0080,C","-0080,C","99999,9",,,,,,,,,,"08,5,+00610,5,99,9",,,"4,99,1,+00610,5,9",,,,"9,AGL   ,+99999,+99999","99,99,9,99,9,99,9,00610,1,99,9,99,9","240,M,-0078,1","240,N,-0133,1","09763,5,09127,5",,,,,,"MET09912/11/23 14:50:02 METAR PAPT 112350Z 00000KT 3SM OVC020 M08/M08 A2883 RMK NO SPECI. 410781133 70005","R01   M087TMP046R02   M087DPT046"
"70249026526","2023-12-12T01:45:00","7","62.0911","-152.7349","566.3","PUNTILLA, AK US","FM-15","PAPT ","V020","350,5,N,0015,5","00457,5,M,N","001609,5,N,5","-0070,C","-0070,C","99999,9",,,,,,"1,0,03,0,0,1,5",,"71,5",,"08,5,+00457,5,99,9",,,"4,99,1,+00457,5,9",,,,"9,AGL   ,+99999,+99999","99,99,9,99,9,99,9,00457,1,99,9,99,9",,,"09756,5,09121,5",,"71,5",,,,"MET09212/11/23 16:45:01 METAR PAPT 120145Z 35003KT 1SM -SN OVC015 M07/M07 A2881 RMK NO SPECI. LAST","R01   M077TMP046R02   M077DPT046"
"70249026526","2023-12-12T08:59:00","O","62.0911","-152.7349","566.3","PUNTILLA, AK US","SOD  ","PAPT ","V020","999,9,9,9999,9","99999,9,9,9","999999,9,9,9","+9999,9","+9999,9","99999,9",,,"AU,18,SN  ,5",,,,,,,,,,,,,,,,,,,,,,,,,
"70249026526","2023-12-12T17:45:00","7","62.0911","-152.7349","566.3","PUNTILLA, AK US","FM-15","PAPT ","V020","350,5,N,0041,5","22000,5,9,N","040234,5,N,5","-0190,C","-0190,C","99999,9",,,,,,,,,,"02,5,+03048,5,99,9",,,"1,99,1,+03048,5,9",,,,"9,AGL   ,+99999,+99999","02,99,5,99,9,99,9,03048,1,99,9,99,9",,,"09739,5,09105,5",,,,,,"MET09012/12/23 08:45:02 METAR PAPT 121745Z 35008KT 25SM FEW100 M19/M19 A2876 RMK NO SPECI. FIRST","R01   M197TMP046R02   M197DPT046D01      0ADE726"
"70249026526","2023-12-12T19:50:00","7","62.0911","-152.7349","566.3","PUNTILLA, AK US","FM-15","PAPT ","V020","360,5,N,0015,5","22000,5,9,N","040234,5,N,5","-0190,C","-0190,C","99999,9",,,,,,,,,,"02,5,+03048,5,99,9",,,"1,99,1,+03048,5,9",,,,"9,AGL   ,+99999,+99999","02,99,5,99,9,99,9,03048,1,99,9,99,9",,,"09722,5,09089,5",,,,,,"MET08412/12/23 10:50:02 METAR PAPT 121950Z 36003KT 25SM FEW100 M19/M19 A2871 RMK NO SPECI.","R01   M197TMP046R02   M197DPT046D01      0ADE726"
"70249026526","2023-12-12T21:45:00","7","62.0911","-152.7349","566.3","PUNTILLA, AK US","FM-15","PAPT ","V020","360,5,N,0031,5","22000,5,9,N","040234,5,N,5","-0160,C","-0160,C","99999,9",,,,,,,,,,"02,5,+03048,5,99,9",,,"1,99,1,+03048,5,9",,,,"9,AGL   ,+99999,+99999","02,99,5,99,9,99,9,03048,1,99,9,99,9",,,"09709,5,09076,5",,,,,,"MET08412/12/23 12:45:02 METAR PAPT 122145Z 36006KT 25SM FEW100 M16/M16 A2867 RMK NO SPECI.","R01   M167TMP046R02   M167DPT046D01      0ADE726"
"70249026526","2023-12-12T23:45:00","7","62.0911","-152.7349","566.3","PUNTILLA, AK US","FM-15","PAPT ","V020","360,5,N,0046,5","03048,5,M,N","040234,5,N,5","-0160,C","-0160,C","99999,9",,,,,,,,,,"07,5,+03048,5,99,9",,,"3,99,1,+03048,5,9",,,,"9,AGL   ,+99999,+99999","99,99,9,99,9,99,9,03048,1,99,9,99,9","240,M,-0072,1","240,N,-0189,1","09699,5,09066,5",,,,,,"MET10012/12/23 14:45:02 METAR PAPT 122345Z 36009KT 25SM BKN100 M16/M16 A2864 RMK NO SPECI. 410721189 70002","R01   M167TMP046R02   M167DPT046"
"70249026526","2023-12-13T01:45:00","7","62.0911","-152.7349","566.3","PUNTILLA, AK US","FM-15","PAPT ","V020","360,5,N,0067,5","03048,5,M,N","040234,5,N,5","-0140,C","-0140,C","99999,9",,,,,,,,,,"07,5,+03048,5,99,9",,,"3,99,1,+03048,5,9",,,,"9,AGL   ,+99999,+99999","99,99,9,99,9,99,9,03048,1,99,9,99,9",,,"09688,5,09057,5",,,,,,"MET08912/12/23 16:45:01 METAR PAPT 130145Z 36013KT 25SM BKN100 M14/M14 A2861 RMK NO SPECI. LAST","R01   M147TMP046R02   M147DPT046"
"70249026526","2023-12-13T17:45:00","7","62.0911","-152.7349","566.3","PUNTILLA, AK US","FM-15","PAPT ","V020","999,9,C,0000,5","00457,5,M,N","001609,5,N,5","-0190,C","-0190,C","99999,9",,,,,,,,,,"08,5,+00457,5,99,9",,,"4,99,1,+00457,5,9",,,,"9,AGL   ,+99999,+99999","99,99,9,99,9,99,9,00457,1,99,9,99,9",,,"09810,5,09172,5",,,,,,"MET08912/13/23 08:45:02 METAR PAPT 131745Z 00000KT 1SM OVC015 M19/M19 A2897 RMK NO SPECI. FIRST","R01   M197TMP046R02   M197DPT046"
"70249026526","2023-12-13T19:50:00","7","62.0911","-152.7349","566.3","PUNTILLA, AK US","FM-15","PAPT ","V020","999,9,C,0000,5","22000,5,9,N","040234,5,N,5","-0210,C","-0210,C","99999,9",,,,,,,,,,"04,5,+03048,5,99,9",,,"2,99,1,+03048,5,9",,,,"9,AGL   ,+99999,+99999","04,99,5,99,9,99,9,03048,1,99,9,99,9",,,"09834,5,09195,5",,,,,,"MET08412/13/23 10:50:02 METAR PAPT 131950Z 00000KT 25SM SCT100 M21/M21 A2904 RMK NO SPECI.","R01   M217TMP046R02   M217DPT046D01      0ADE726"
"70249026526","2023-12-13T21:55:00","7","62.0911","-152.7349","566.3","PUNTILLA, AK US","FM-15","PAPT ","V020","999,9,C,0000,5","01372,5,M,N","040234,5,N,5","-0190,C","-0190,C","99999,9",,,,,,,,,,"07,5,+01372,5,99,9",,,"3,99,1,+01372,5,9",,,,"9,AGL   ,+99999,+99999","99,99,9,99,9,99,9,01372,1,99,9,99,9",,,"09851,5,09211,5",,,,,,"MET08412/13/23 12:55:02 METAR PAPT 132155Z 00000KT 25SM BKN045 M19/M19 A2909 RMK NO SPECI.","R01   M197TMP046R02   M197DPT046"
"70249026526","2023-12-13T23:45:00","7","62.0911","-152.7349","566.3","PUNTILLA, AK US","FM-15","PAPT ","V020","010,5,N,0031,5","03048,5,M,N","040234,5,N,5","-0190,C","-0190,C","99999,9",,,,,,,,,,"07,5,+03048,5,99,9",,,"3,99,1,+03048,5,9",,,,"9,AGL   ,+99999,+99999","99,99,9,99,9,99,9,03048,1,99,9,99,9","240,M,-0144,1","240,N,-0206,1","09865,5,09223,5",,,,,,"MET10012/13/23 14:45:02 METAR PAPT 132345Z 01006KT 25SM BKN100 M19/M19 A2913 RMK NO SPECI. 411441206 70000","R01   M197TMP046R02   M197DPT046"
"70249026526","2023-12-14T01:45:00","7","62.0911","-152.7349","566.3","PUNTILLA, AK US","FM-15","PAPT ","V020","999,9,C,0000,5","22000,5,9,N","040234,5,N,5","-0220,C","-0220,C","99999,9",,,,,,,,,,"02,5,+03048,5,99,9",,,"1,99,1,+03048,5,9",,,,"9,AGL   ,+99999,+99999","02,99,5,99,9,99,9,03048,1,99,9,99,9",,,"09881,5,09239,5",,,,,,"MET08912/13/23 16:45:01 METAR PAPT 140145Z 00000KT 25SM FEW100 M22/M22 A2918 RMK NO SPECI. LAST","R01   M227TMP046R02   M227DPT046D01      0ADE726"
"70249026526","2023-12-14T17:45:00","7","62.0911","-152.7349","566.3","PUNTILLA, AK US","FM-15","PAPT ","V020","999,9,C,0000,5","03048,5,M,N","040234,5,N,5","-0210,C","-0210,C","99999,9",,,,,,,,,,"07,5,+03048,5,99,9",,,"3,99,1,+03048,5,9",,,,"9,AGL   ,+99999,+99999","99,99,9,99,9,99,9,03048,1,99,9,99,9",,,"09997,5,09348,5",,,,,,"MET09012/14/23 08:45:02 METAR PAPT 141745Z 00000KT 25SM BKN100 M21/M21 A2952 RMK NO SPECI. FIRST","R01   M217TMP046R02   M217DPT046"
"70249026526","2023-12-14T19:50:00","7","62.0911","-152.7349","566.3","PUNTILLA, AK US","FM-15","PAPT ","V020","350,5,N,0015,5","22000,5,9,N","040234,5,N,5","-0210,C","-0210,C","99999,9",,,,,,,,,,"04,5,+03048,5,99,9",,,"2,99,1,+03048,5,9",,,,"9,AGL   ,+99999,+99999","04,99,5,99,9,99,9,03048,1,99,9,99,9",,,"09997,5,09348,5",,,,,,"MET08412/14/23 10:50:02 METAR PAPT 141950Z 35003KT 25SM SCT100 M21/M21 A2952 RMK NO SPECI.","R01   M217TMP046R02   M217DPT046D01      0ADE726"
"70249026526","2023-12-14T21:45:00","7","62.0911","-152.7349","566.3","PUNTILLA, AK US","FM-15","PAPT ","V020","350,5,N,0021,5","22000,7,9,N","040234,5,N,5","-0240,C","-0240,C","99999,9",,,,,,,,,,"00,7,+99999,9,99,9",,,"0,99,1,+99999,9,9",,,,,"00,99,1,99,9,99,9,99999,9,99,9,99,9",,,"10000,5,09352,5",,,,,,"MET08112/14/23 12:45:02 METAR PAPT 142145Z 35004KT 25SM SKC M24/M24 A2953 RMK NO SPECI.","R01   SKC7SKY009R02   M247TMP046R03   M247DPT046R04   SKC7GAS009"
"70249026526","2023-12-14T23:45:00","7","62.0911","-152.7349","566.3","PUNTILLA, AK US","FM-15","PAPT ","V020","360,5,N,0015,5","22000,7,9,N","040234,5,N,5","-0240,C","-0240,C","99999,9",,,,,,,,,,"00,7,+99999,9,99,9",,,"0,99,1,+99999,9,9",,,,,"00,99,1,99,9,99,9,99999,9,99,9,99,9","240,M,-0217,1","240,N,-0244,1","09993,5,09345,5",,,,,,"MET09712/14/23 14:45:02 METAR PAPT 142345Z 36003KT 25SM SKC M24/M24 A2951 RMK NO SPECI. 412171244 70000","R01   SKC7SKY009R02   M247TMP046R03   M247DPT046R04   SKC7GAS009"
"70249026526","2023-12-15T01:45:00","7","62.0911","-152.7349","566.3","PUNTILLA, AK US","FM-15","PAPT ","V020","350,5,N,0021,5","22000,7,9,N","040234,5,N,5","-0250,C","-0250,C","99999,9",,,,,,,,,,"00,7,+99999,9,99,9",,,"0,99,1,+99999,9,9",,,,,"00,99,1,99,9,99,9,99999,9,99,9,99,9",,,"09993,5,09345,5",,,,,,"MET08612/14/23 16:45:01 METAR PAPT 150145Z 35004KT 25SM SKC M25/M25 A2951 RMK NO SPECI. LAST","R01   SKC7SKY009R02   M257TMP046R03   M257DPT046R04   SKC7GAS009"
"70249026526","2023-12-15T17:45:00","7","62.0911","-152.7349","566.3","PUNTILLA, AK US","FM-15","PAPT ","V020","160,5,N,0021,5","00457,5,M,N","001609,5,N,5","-0140,C","-0140,C","99999,9",,,,,,"1,0,03,0,0,1,5",,"71,5",,"08,5,+00457,5,99,9",,,"4,99,1,+00457,5,9",,,,"9,AGL   ,+99999,+99999","99,99,9,99,9,99,9,00457,1,99,9,99,9",,,"09997,5,09348,5",,"71,5",,,,"MET09312/15/23 08:45:02 METAR PAPT 151745Z 16004KT 1SM -SN OVC015 M14/M14 A2952 RMK NO SPECI. FIRST","R01   M147TMP046R02   M147DPT046"
"70249026526","2023-12-15T19:50:00","7","62.0911","-152.7349","566.3","PUNTILLA, AK US","FM-15","PAPT ","V020","999,9,C,0000,5","00457,5,M,N","001609,5,N,5","-0140,C","-0140,C","99999,9",,,,,,"1,0,03,0,0,1,5",,"71,5",,"08,5,+00457,5,99,9",,,"4,99,1,+00457,5,9",,,,"9,AGL   ,+99999,+99999","99,99,9,99,9,99,9,00457,1,99,9,99,9",,,"10000,5,09352,5",,"71,5",,,,"MET08712/15/23 10:50:02 METAR PAPT 151950Z 00000KT 1SM -SN OVC015 M14/M14 A2953 RMK NO SPECI.","R01   M147TMP046R02   M147DPT046"
"70249026526","2023-12-15T21:45:00","7","62.0911","-152.7349","566.3","PUNTILLA, AK US","FM-15","PAPT ","V020","999,9,C,0000,5","00610,5,M,N","001609,5,N,5","-0130,C","-0130,C","99999,9",,,,,,"1,0,03,0,0,1,5",,"71,5",,"08,5,+00610,5,99,9",,,"4,99,1,+00610,5,9",,,,"9,AGL   ,+99999,+99999","99,99,9,99,9,99,9,00610,1,99,9,99,9",,,"10003,5,09355,5",,"71,5",,,,"MET08712/15/23 12:45:02 METAR PAPT 152145Z 00000KT 1SM -SN OVC020 M13/M13 A2954 RMK NO SPECI.","R01   M137TMP046R02   M137DPT046"
"70249026526","2023-12-15T23:45:00","7","62.0911","-152.7349","566.3","PUNTILLA, AK US","FM-15","PAPT ","V020","999,9,C,0000,5","22000,5,9,N","040234,5,N,5","-0170,C","-0170,C","99999,9",,,,,,,,,,"02,5,+03048,5,99,9",,,"1,99,1,+03048,5,9",,,,"9,AGL   ,+99999,+99999","02,99,5,99,9,99,9,03048,1,99,9,99,9","240,M,-0133,1","240,N,-0250,1","10010,5,09361,5",,,,,,"MET10012/15/23 14:45:02 METAR PAPT 152345Z 00000KT 25SM FEW100 M17/M17 A2956 RMK NO SPECI. 411331250 70001","R01   M177TMP046R02   M177DPT046D01      0ADE726"
"70249026526","2023-12-16T01:45:00","7","62.0911","-152.7349","566.3","PUNTILLA, AK US","FM-15","PAPT ","V020","999,9,C,0000,5","22000,5,9,N","040234,5,N,5","-0230,C","-0230,C","99999,9",,,,,,,,,,"02,5,+03048,5,99,9",,,"1,99,1,+03048,5,9",,,,"9,AGL   ,+99999,+99999","02,99,5,99,9,99,9,03048,1,99,9,99,9",,,"10017,5,09368,5",,,,,,"MET08912/15/23 16:45:01 METAR PAPT 160145Z 00000KT 25SM FEW100 M23/M23 A2958 RMK NO SPECI. LAST","R01   M237TMP046R02   M237DPT046D01      0ADE726"
"70249026526","2023-12-16T08:59:00","O","62.0911","-152.7349","566.3","PUNTILLA, AK US","SOD  ","PAPT ","V020","999,9,9,9999,9","99999,9,9,9","999999,9,9,9","+9999,9","+9999,9","99999,9",,,"AU,18,SN  ,5",,,,,,,,,,,,,,,,,,,,,,,,,
"70249026526","2023-12-16T17:45:00","7","62.0911","-152.7349","566.3","PUNTILLA, AK US","FM-15","PAPT ","V020","999,9,C,0000,5","00610,5,M,N","001609,5,N,5","-0130,C","-0130,C","99999,9",,,,,,,,,,"08,5,+00610,5,99,9",,,"4,99,1,+00610,5,9",,,,"9,AGL   ,+99999,+99999","99,99,9,99,9,99,9,00610,1,99,9,99,9",,,"10058,5,09406,5",,,,,,"MET08912/16/23 08:45:02 METAR PAPT 161745Z 00000KT 1SM OVC020 M13/M13 A2970 RMK NO SPECI. FIRST","R01   M137TMP046R02   M137DPT046"
"70249026526","2023-12-16T19:45:00","7","62.0911","-152.7349","566.3","PUNTILLA, AK US","FM-15","PAPT ","V020","350,5,N,0015,5","00610,5,M,N","001609,5,N,5","-0130,C","-0130,C","99999,9",,,,,,"1,0,03,0,0,1,5",,"71,5",,"08,5,+00610,5,99,9",,,"4,99,1,+00610,5,9",,,,"9,AGL   ,+99999,+99999","99,99,9,99,9,99,9,00610,1,99,9,99,9",,,"10047,5,09397,5",,"71,5",,,,"MET08712/16/23 10:45:02 METAR PAPT 161945Z 35003KT 1SM -SN OVC020 M13/M13 A2967 RMK NO SPECI.","R01   M137TMP046R02   M137DPT046"
"70249026526","2023-12-16T21:45:00","7","62.0911","-152.7349","566.3","PUNTILLA, AK US","FM-15","PAPT ","V020","999,9,C,0000,5","00457,5,M,N","001609,5,N,5","-0120,C","-0120,C","99999,9",,,,,,"1,0,03,0,0,1,5",,"71,5",,"08,5,+00457,5,99,9",,,"4,99,1,+00457,5,9",,,,"9,AGL   ,+99999,+99999","99,99,9,99,9,99,9,00457,1,99,9,99,9",,,"10030,5,09381,5",,"71,5",,,,"MET08712/16/23 12:45:02 METAR PAPT 162145Z 00000KT 1SM -SN OVC015 M12/M12 A2962 RMK NO SPECI.","R01   M127TMP046R02   M127DPT046"
"70249026526","2023-12-16T23:45:00","7","62.0911","-152.7349","566.3","PUNTILLA, AK US","FM-15","PAPT ","V020","999,9,C,0000,5","00823,5,M,N","001609,5,N,5","-0120,C","-0120,C","99999,9",,,,,,"1,0,03,0,0,1,5",,"71,5",,"08,5,+00823,5,99,9",,,"4,99,1,+00823,5,9",,,,"9,AGL   ,+99999,+99999","99,99,9,99,9,99,9,00823,1,99,9,99,9","240,M,-0117,1","240,N,-0228,1","10000,5,09352,5",,"71,5",,,,"MET10312/16/23 14:45:02 METAR PAPT 162345Z 00000KT 1SM -SN OVC027 M12/M12 A2953 RMK NO SPECI. 411171228 70001","R01   M127TMP046R02   M127DPT046"
"70249026526","2023-12-17T01:45:00","7","62.0911","-152.7349","566.3","PUNTILLA, AK US","FM-15","PAPT ","V020","999,9,C,0000,5","00183,5,M,N","000805,7,N,5","-0110,C","-0110,C","99999,9",,,,,,"1,0,03,0,0,1,7",,"71,7",,"08,5,+00183,5,99,9",,,"4,99,1,+00183,5,9",,,,"9,AGL   ,+99999,+99999","99,99,9,99,9,99,9,00183,1,99,9,99,9",,,"09973,5,09326,5",,"71,7",,,,"MET09412/16/23 16:45:01 METAR PAPT 170145Z 00000KT 1/2SM -SN OVC006 M11/M11 A2945 RMK NO SPECI. LAST","R01 1/2SM7VIS012R02   M117TMP046R03   M117DPT046R04   -SN7AWW012R05SEERMK7MVW012R06   -SN7MWW012"
"70249026526","2023-12-17T08:59:00","O","62.0911","-152.7349","566.3","PUNTILLA, AK US","SOD  ","PAPT ","V020","999,9,9,9999,9","99999,9,9,9","999999,9,9,9","+9999,9","+9999,9","99999,9",,,"AU,18,SN  ,5",,,,,,,,,,,,,,,,,,,,,,,,,
"70249026526","2023-12-17T17:45:00","7","62.0911","-152.7349","566.3","PUNTILLA, AK US","FM-15","PAPT ","V020","999,9,C,0000,5","00823,5,M,N","004828,5,N,5","-0170,C","-0170,C","99999,9",,,,,,,,,,"07,5,+00823,5,99,9",,,"3,99,1,+00823,5,9",,,,"9,AGL   ,+99999,+99999","99,99,9,99,9,99,9,00823,1,99,9,99,9",,,"09885,5,09243,5",,,,,,"MET08912/17/23 08:45:02 METAR PAPT 171745Z 00000KT 3SM BKN027 M17/M17 A2919 RMK NO SPECI. FIRST","R01   M177TMP046R02   M177DPT046"
"70249026526","2023-12-17T19:50:00","7","62.0911","-152.7349","566.3","PUNTILLA, AK US","FM-15","PAPT ","V020","999,9,C,0000,5","01372,5,M,N","024140,5,N,5","-0150,C","-0150,C","99999,9",,,,,,,,,,"07,5,+01372,5,99,9",,,"3,99,1,+01372,5,9",,,,"9,AGL   ,+99999,+99999","99,99,9,99,9,99,9,01372,1,99,9,99,9",,,"09902,5,09259,5",,,,,,"MET08412/17/23 10:50:02 METAR PAPT 171950Z 00000KT 15SM BKN045 M15/M15 A2924 RMK NO SPECI.","R01   M157TMP046R02   M157DPT046"
"70249026526","2023-12-17T21:50:00","7","62.0911","-152.7349","566.3","PUNTILLA, AK US","FM-15","PAPT ","V020","999,9,C,0000,5","01372,5,M,N","040234,5,N,5","-0140,C","-0140,C","99999,9",,,,,,,,,,"07,5,+01372,5,99,9",,,"3,99,1,+01372,5,9",,,,"9,AGL   ,+99999,+99999","99,99,9,99,9,99,9,01372,1,99,9,99,9",,,"09919,5,09275,5",,,,,,"MET08412/17/23 12:50:02 METAR PAPT 172150Z 00000KT 25SM BKN045 M14/M14 A2929 RMK NO SPECI.","R01   M147TMP046R02   M147DPT046"
"70249026526","2023-12-17T23:45:00","7","62.0911","-152.7349","566.3","PUNTILLA, AK US","FM-15","PAPT ","V020","350,5,N,0015,5","00457,5,M,N","024140,5,N,5","-0140,C","-0140,C","99999,9",,,,,,,,,,"07,5,+00457,5,99,9",,,"3,99,1,+00457,5,9",,,,"9,AGL   ,+99999,+99999","99,99,9,99,9,99,9,00457,1,99,9,99,9","240,M,-0106,1","240,N,-0167,1","09929,5,09284,5",,,,,,"MET10012/17/23 14:45:02 METAR PAPT 172345Z 35003KT 15SM BKN015 M14/M14 A2932 RMK NO SPECI. 411061167 70004","R01   M147TMP046R02   M147DPT046"
"70249026526","2023-12-18T01:45:00","7","62.0911","-152.7349","566.3","PUNTILLA, AK US","FM-15","PAPT ","V020","999,9,C,0000,5","00457,5,M,N","001609,5,N,5","-0110,C","-0110,C","99999,9",,,,,,,,,,"07,5,+00457,5,99,9",,,"3,99,1,+00457,5,9",,,,"9,AGL   ,+99999,+99999","99,99,9,99,9,99,9,00457,1,99,9,99,9",,,"09942,5,09297,5",,,,,,"MET08812/17/23 16:45:01 METAR PAPT 180145Z 00000KT 1SM BKN015 M11/M11 A2936 RMK NO SPECI. LAST","R01   M117TMP046R02   M117DPT046"
"70249026526","2023-12-18T19:50:00","7","62.0911","-152.7349","566.3","PUNTILLA, AK US","FM-15","PAPT ","V020","999,9,C,0000,5","22000,5,9,N","040234,5,N,5","-0220,C","-0220,C","99999,9",,,,,,,,,,"02,5,+03048,5,99,9",,,"1,99,1,+03048,5,9",,,,"9,AGL   ,+99999,+99999","02,99,5,99,9,99,9,03048,1,99,9,99,9",,,"10034,5,09384,5",,,,,,"MET08412/18/23 10:50:02 METAR PAPT 181950Z 00000KT 25SM FEW100 M22/M22 A2963 RMK NO SPECI.","R01   M227TMP046R02   M227DPT046D01      0ADE726"
"70249026526","2023-12-18T21:45:00","7","62.0911","-152.7349","566.3","PUNTILLA, AK US","FM-15","PAPT ","V020","250,5,N,0021,5","22000,5,9,N","040234,5,N,5","-0230,C","-0230,C","99999,9",,,,,,,,,,"02,5,+03048,5,99,9",,,"1,99,1,+03048,5,9",,,,"9,AGL   ,+99999,+99999","02,99,5,99,9,99,9,03048,1,99,9,99,9",,,"10030,5,09381,5",,,,,,"MET08412/18/23 12:45:02 METAR PAPT 182145Z 25004KT 25SM FEW100 M23/M23 A2962 RMK NO SPECI.","R01   M237TMP046R02   M237DPT046D01      0ADE726"
"70249026526","2023-12-18T23:45:00","7","62.0911","-152.7349","566.3","PUNTILLA, AK US","FM-15","PAPT ","V020","999,9,C,0000,5","22000,5,9,N","040234,5,N,5","-0230,C","-0230,C","99999,9",,,,,,,,,,"04,5,+03048,5,99,9",,,"2,99,1,+03048,5,9",,,,"9,AGL   ,+99999,+99999","04,99,5,99,9,99,9,03048,1,99,9,99,9","240,M,-0106,1","240,N,-0228,1","10027,5,09377,5",,,,,,"MET10012/18/23 14:45:02 METAR PAPT 182345Z 00000KT 25SM SCT100 M23/M23 A2961 RMK NO SPECI. 411061228 70000","R01   M237TMP046R02   M237DPT046D01      0ADE726"
"70249026526","2023-12-19T01:45:00","7","62.0911","-152.7349","566.3","PUNTILLA, AK US","FM-15","PAPT ","V020","250,5,N,0015,5","22000,5,9,N","040234,5,N,5","-0240,C","-0240,C","99999,9",,,,,,,,,,"02,5,+03048,5,99,9",,,"1,99,1,+03048,5,9",,,,"9,AGL   ,+99999,+99999","02,99,5,99,9,99,9,03048,1,99,9,99,9",,,"10017,5,09368,5",,,,,,"MET08912/18/23 16:45:01 METAR PAPT 190145Z 25003KT 25SM FEW100 M24/M24 A2958 RMK NO SPECI. LAST","R01   M247TMP046R02   M247DPT046D01      0ADE726"
"70249026526","2023-12-19T17:50:00","7","62.0911","-152.7349","566.3","PUNTILLA, AK US","FM-15","PAPT ","V020","999,9,C,0000,5","00610,5,M,N","040234,7,N,5","-0150,C","-0150,C","99999,9",,,,,,"1,0,03,0,0,1,5",,"71,5",,"07,5,+00610,5,99,9",,,"3,99,1,+00610,5,9",,,,"9,AGL   ,+99999,+99999","99,99,9,99,9,99,9,00610,1,99,9,99,9",,,"09888,5,09246,5",,"71,5",,,,"MET09412/19/23 08:50:02 METAR PAPT 191750Z 00000KT 25SM -SN BKN020 M15/M15 A2920 RMK NO SPECI. FIRST","R01  25SM7VIS011R02   M157TMP046R03   M157DPT046"
"70249026526","2023-12-19T19:50:00","7","62.0911","-152.7349","566.3","PUNTILLA, AK US","FM-15","PAPT ","V020","999,9,C,0000,5","00610,5,M,N","001609,5,N,5","-0150,C","-0150,C","99999,9",,,,,,"1,0,03,0,0,1,5",,"71,5",,"08,5,+00610,5,99,9",,,"4,99,1,+00610,5,9",,,,"9,AGL   ,+99999,+99999","99,99,9,99,9,99,9,00610,1,99,9,99,9",,,"09875,5,09233,5",,"71,5",,,,"MET08712/19/23 10:50:02 METAR PAPT 191950Z 00000KT 1SM -SN OVC020 M15/M15 A2916 RMK NO SPECI.","R01   M157TMP046R02   M157DPT046"
"70249026526","2023-12-19T21:45:00","7","62.0911","-152.7349","566.3","PUNTILLA, AK US","FM-15","PAPT ","V020","999,9,C,0000,5","00610,5,M,N","011265,5,N,5","-0130,C","-0130,C","99999,9",,,,,,,,,,"07,5,+00610,5,99,9",,,"3,99,1,+00610,5,9",,,,"9,AGL   ,+99999,+99999","99,99,9,99,9,99,9,00610,1,99,9,99,9",,,"09865,5,09223,5",,,,,,"MET08312/19/23 12:45:02 METAR PAPT 192145Z 00000KT 7SM BKN020 M13/M13 A2913 RMK NO SPECI.","R01   M137TMP046R02   M137DPT046"
"70249026526","2023-12-19T23:45:00","7","62.0911","-152.7349","566.3","PUNTILLA, AK US","FM-15","PAPT ","V020","999,9,C,0000,5","01372,5,M,N","011265,5,N,5","-0120,C","-0120,C","99999,9",,,,,,"1,0,03,0,0,1,5",,"71,5",,"07,5,+01372,5,99,9",,,"3,99,1,+01372,5,9",,,,"9,AGL   ,+99999,+99999","99,99,9,99,9,99,9,01372,1,99,9,99,9","240,M,-0122,1","240,N,-0239,1","09854,5,09214,5",,"71,5",,,,"MET10312/19/23 14:45:02 METAR PAPT 192345Z 00000KT 7SM -SN BKN045 M12/M12 A2910 RMK NO SPECI. 411221239 70001","R01   M127TMP046R02   M127DPT046"
"70249026526","2023-12-20T01:45:00","7","62.0911","-152.7349","566.3","PUNTILLA, AK US","FM-15","PAPT ","V020","999,9,C,0000,5","03048,5,M,N","011265,5,N,5","-0140,C","-0140,C","99999,9",,,,,,,,,,"07,5,+03048,5,99,9",,,"3,99,1,+03048,5,9",,,,"9,AGL   ,+99999,+99999","99,99,9,99,9,99,9,03048,1,99,9,99,9",,,"09844,5,09204,5",,,,,,"MET08812/19/23 16:45:01 METAR PAPT 200145Z 00000KT 7SM BKN100 M14/M14 A2907 RMK NO SPECI. LAST","R01   M147TMP046R02   M147DPT046"
"70249026526","2023-12-20T08:59:00","O","62.0911","-152.7349","566.3","PUNTILLA, AK US","SOD  ","PAPT ","V020","999,9,9,9999,9","99999,9,9,9","999999,9,9,9","+9999,9","+9999,9","99999,9",,,"AU,18,SN  ,5",,,,,,,,,,,,,,,,,,,,,,,,,
"70249026526","2023-12-20T17:50:00","7","62.0911","-152.7349","566.3","PUNTILLA, AK US","FM-15","PAPT ","V020","999,9,C,0000,5","22000,5,9,N","024140,5,N,5","-0160,C","-0160,C","99999,9",,,,,,,,,,"04,5,+01372,5,99,9",,,"2,99,1,+01372,5,9",,,,"9,AGL   ,+99999,+99999","04,99,5,99,9,99,9,01372,1,99,9,99,9",,,"09854,5,09214,5",,,,,,"MET09012/20/23 08:50:02 METAR PAPT 201750Z 00000KT 15SM SCT045 M16/M16 A2910 RMK NO SPECI. FIRST","R01   M167TMP046R02   M167DPT046D01      0ADE726"
"70249026526","2023-12-20T19:50:00","7","62.0911","-152.7349","566.3","PUNTILLA, AK US","FM-15","PAPT ","V020","999,9,C,0000,5","22000,5,9,N","040234,5,N,5","-0190,C","-0190,C","99999,9",,,,,,,,,,"04,5,+01372,5,99,9","02,5,+03048,5,99,9",,"2,99,1,+01372,5,9","1,99,1,+03048,5,9",,,"9,AGL   ,+99999,+99999","02,99,5,99,9,99,9,01372,1,99,9,99,9",,,"09861,5,09220,5",,,,,,"MET09112/20/23 10:50:02 METAR PAPT 201950Z 00000KT 25SM SCT045 FEW100 M19/M19 A2912 RMK NO SPECI.","R01   M197TMP046R02   M197DPT046D01      0ADE726"
"70249026526","2023-12-20T23:45:00","7","62.0911","-152.7349","566.3","PUNTILLA, AK US","FM-15","PAPT ","V020","999,9,C,0000,5","22000,5,9,N","040234,5,N,5","-0210,C","-0210,C","99999,9",,,,,,,,,,"04,5,+03048,5,99,9",,,"2,99,1,+03048,5,9",,,,"9,AGL   ,+99999,+99999","04,99,5,99,9,99,9,03048,1,99,9,99,9","240,M,-0139,1","240,N,-0206,1","09871,5,09230,5",,,,,,"MET10012/20/23 14:45:02 METAR PAPT 202345Z 00000KT 25SM SCT100 M21/M21 A2915 RMK NO SPECI. 411391206 70000","R01   M217TMP046R02   M217DPT046D01      0ADE726"
"70249026526","2023-12-21T01:45:00","7","62.0911","-152.7349","566.3","PUNTILLA, AK US","FM-15","PAPT ","V020","999,9,C,0000,5","03048,5,M,N","040234,5,N,5","-0190,C","-0190,C","99999,9",,,,,,,,,,"07,5,+03048,5,99,9",,,"3,99,1,+03048,5,9",,,,"9,AGL   ,+99999,+99999","99,99,9,99,9,99,9,03048,1,99,9,99,9",,,"09875,5,09233,5",,,,,,"MET08912/20/23 16:45:01 METAR PAPT 210145Z 00000KT 25SM BKN100 M19/M19 A2916 RMK NO SPECI. LAST","R01   M197TMP046R02   M197DPT046"
"70249026526","2023-12-21T17:50:00","7","62.0911","-152.7349","566.3","PUNTILLA, AK US","FM-15","PAPT ","V020","999,9,C,0000,5","22000,5,9,N","040234,5,N,5","-0180,C","-0180,C","99999,9",,,,,,,,,,"04,5,+03048,5,99,9",,,"2,99,1,+03048,5,9",,,,"9,AGL   ,+99999,+99999","04,99,5,99,9,99,9,03048,1,99,9,99,9",,,"09885,5,09243,5",,,,,,"MET09012/21/23 08:50:02 METAR PAPT 211750Z 00000KT 25SM SCT100 M18/M18 A2919 RMK NO SPECI. FIRST","R01   M187TMP046R02   M187DPT046D01      0ADE726"
"70249026526","2023-12-21T19:50:00","7","62.0911","-152.7349","566.3","PUNTILLA, AK US","FM-15","PAPT ","V020","230,5,N,0021,5","03048,5,M,N","040234,5,N,5","-0180,C","-0180,C","99999,9",,,,,,,,,,"07,5,+03048,5,99,9",,,"3,99,1,+03048,5,9",,,,"9,AGL   ,+99999,+99999","99,99,9,99,9,99,9,03048,1,99,9,99,9",,,"09888,5,09246,5",,,,,,"MET08412/21/23 10:50:02 METAR PAPT 211950Z 23004KT 25SM BKN100 M18/M18 A2920 RMK NO SPECI.","R01   M187TMP046R02   M187DPT046"
"70249026526","2023-12-21T21:45:00","7","62.0911","-152.7349","566.3","PUNTILLA, AK US","FM-15","PAPT ","V020","350,5,N,0015,5","03048,5,M,N","040234,5,N,5","-0160,C","-0160,C","99999,9",,,,,,,,,,"07,5,+03048,5,99,9",,,"3,99,1,+03048,5,9",,,,"9,AGL   ,+99999,+99999","99,99,9,99,9,99,9,03048,1,99,9,99,9",,,"09892,5,09249,5",,,,,,"MET08412/21/23 12:45:02 METAR PAPT 212145Z 35003KT 25SM BKN100 M16/M16 A2921 RMK NO SPECI.","R01   M167TMP046R02   M167DPT046"
"70249026526","2023-12-21T23:45:00","7","62.0911","-152.7349","566.3","PUNTILLA, AK US","FM-15","PAPT ","V020","230,5,N,0015,5","22000,5,9,N","040234,5,N,5","-0180,C","-0180,C","99999,9",,,,,,,,,,"04,5,+03048,5,99,9",,,"2,99,1,+03048,5,9",,,,"9,AGL   ,+99999,+99999","04,99,5,99,9,99,9,03048,1,99,9,99,9","240,M,-0156,1","240,N,-0194,1","09895,5,09252,5",,,,,,"MET10012/21/23 14:45:02 METAR PAPT 212345Z 23003KT 25SM SCT100 M18/M18 A2922 RMK NO SPECI. 411561194 70000","R01   M187TMP046R02   M187DPT046D01      0ADE726"
"70249026526","2023-12-22T01:45:00","7","62.0911","-152.7349","566.3","PUNTILLA, AK US","FM-15","PAPT ","V020","350,5,N,0031,5","22000,5,9,N","040234,5,N,5","-0140,C","-0140,C","99999,9",,,,,,,,,,"02,5,+03048,5,99,9",,,"1,99,1,+03048,5,9",,,,"9,AGL   ,+99999,+99999","02,99,5,99,9,99,9,03048,1,99,9,99,9",,,"09902,5,09259,5",,,,,,"MET08912/21/23 16:45:01 METAR PAPT 220145Z 35006KT 25SM FEW100 M14/M14 A2924 RMK NO SPECI. LAST","R01   M147TMP046R02   M147DPT046D01      0ADE726"
"70249026526","2023-12-22T17:50:00","7","62.0911","-152.7349","566.3","PUNTILLA, AK US","FM-15","PAPT ","V020","999,9,C,0000,5","03048,5,M,N","040234,5,N,5","-0260,C","-0260,C","99999,9",,,,,,,,,,"07,5,+03048,5,99,9",,,"3,99,1,+03048,5,9",,,,"9,AGL   ,+99999,+99999","99,99,9,99,9,99,9,03048,1,99,9,99,9",,,"09919,5,09275,5",,,,,,"MET09012/22/23 08:50:02 METAR PAPT 221750Z 00000KT 25SM BKN100 M26/M26 A2929 RMK NO SPECI. FIRST","R01   M267TMP046R02   M267DPT046"
"70249026526","2023-12-22T19:45:00","7","62.0911","-152.7349","566.3","PUNTILLA, AK US","FM-15","PAPT ","V020","999,9,C,0000,5","00610,5,M,N","001609,5,N,5","-0190,C","-0190,C","99999,9",,,,,,"1,0,03,0,0,1,5",,"71,5",,"08,5,+00610,5,99,9",,,"4,99,1,+00610,5,9",,,,"9,AGL   ,+99999,+99999","99,99,9,99,9,99,9,00610,1,99,9,99,9",,,"09915,5,09272,5",,"71,5",,,,"MET08712/22/23 10:45:02 METAR PAPT 221945Z 00000KT 1SM -SN OVC020 M19/M19 A2928 RMK NO SPECI.","R01   M197TMP046R02   M197DPT046"
"70249026526","2023-12-22T21:45:00","7","62.0911","-152.7349","566.3","PUNTILLA, AK US","FM-15","PAPT ","V020","999,9,C,0000,5","00610,5,M,N","001609,5,N,5","-0170,C","-0170,C","99999,9",,,,,,"1,0,03,0,0,1,5",,"71,5",,"08,5,+00610,5,99,9",,,"4,99,1,+00610,5,9",,,,"9,AGL   ,+99999,+99999","99,99,9,99,9,99,9,00610,1,99,9,99,9",,,"09912,5,09268,5",,"71,5",,,,"MET08712/22/23 12:45:02 METAR PAPT 222145Z 00000KT 1SM -SN OVC020 M17/M17 A2927 RMK NO SPECI.","R01   M177TMP046R02   M177DPT046"
"70249026526","2023-12-22T23:50:00","7","62.0911","-152.7349","566.3","PUNTILLA, AK US","FM-15","PAPT ","V020","230,5,N,0021,5","00610,5,M,N","001609,5,N,5","-0140,C","-0140,C","99999,9",,,,,,"1,0,03,0,0,1,5",,"71,5",,"08,5,+00610,5,99,9",,,"4,99,1,+00610,5,9",,,,"9,AGL   ,+99999,+99999","99,99,9,99,9,99,9,00610,1,99,9,99,9","240,M,-0139,1","240,N,-0256,1","09909,5,09265,5",,"71,5",,,,"MET10312/22/23 14:50:02 METAR PAPT 222350Z 23004KT 1SM -SN OVC020 M14/M14 A2926 RMK NO SPECI. 411391256 70000","R01   M147TMP046R02   M147DPT046"
"70249026526","2023-12-23T01:45:00","7","62.0911","-152.7349","566.3","PUNTILLA, AK US","FM-15","PAPT ","V020","230,5,N,0015,5","00610,5,M,N","001609,5,N,5","-0130,C","-0130,C","99999,9",,,,,,"1,0,03,0,0,1,5",,"71,5",,"08,5,+00610,5,99,9",,,"4,99,1,+00610,5,9",,,,"9,AGL   ,+99999,+99999","99,99,9,99,9,99,9,00610,1,99,9,99,9",,,"09905,5,09262,5",,"71,5",,,,"MET09212/22/23 16:45:01 METAR PAPT 230145Z 23003KT 1SM -SN OVC020 M13/M13 A2925 RMK NO SPECI. LAST","R01   M137TMP046R02   M137DPT046"
"70249026526","2023-12-23T08:59:00","O","62.0911","-152.7349","566.3","PUNTILLA, AK US","SOD  ","PAPT ","V020","999,9,9,9999,9","99999,9,9,9","999999,9,9,9","+9999,9","+9999,9","99999,9",,,"AU,18,SN  ,5",,,,,,,,,,,,,,,,,,,,,,,,,
"70249026526","2023-12-23T17:50:00","7","62.0911","-152.7349","566.3","PUNTILLA, AK US","FM-15","PAPT ","V020","170,5,N,0036,5","00183,5,M,N","001609,5,N,5","-0040,C","-0040,C","99999,9",,,,,,"1,0,03,0,0,1,5",,"71,5",,"08,5,+00183,5,99,9",,,"4,99,1,+00183,5,9",,,,"9,AGL   ,+99999,+99999","99,99,9,99,9,99,9,00183,1,99,9,99,9",,,"09800,5,09162,5",,"71,5",,,,"MET09312/23/23 08:50:02 METAR PAPT 231750Z 17007KT 1SM -SN OVC006 M04/M04 A2894 RMK NO SPECI. FIRST","R01   M047TMP046R02   M047DPT046"
"70249026526","2023-12-23T19:50:00","7","62.0911","-152.7349","566.3","PUNTILLA, AK US","FM-15","PAPT ","V020","170,5,N,0031,5","00457,5,M,N","001609,5,N,5","-0050,C","-0050,C","99999,9",,,,,,"1,0,03,0,0,1,5",,"71,5",,"08,5,+00457,5,99,9",,,"4,99,1,+00457,5,9",,,,"9,AGL   ,+99999,+99999","99,99,9,99,9,99,9,00457,1,99,9,99,9",,,"09797,5,09159,5",,"71,5",,,,"MET08712/23/23 10:50:02 METAR PAPT 231950Z 17006KT 1SM -SN OVC015 M05/M05 A2893 RMK NO SPECI.","R01   M057TMP046R02   M057DPT046"
"70249026526","2023-12-23T21:45:00","7","62.0911","-152.7349","566.3","PUNTILLA, AK US","FM-15","PAPT ","V020","220,5,N,0026,5","00457,5,M,N","001609,5,N,5","-0050,C","-0050,C","99999,9",,,,,,"1,0,03,0,0,1,5",,"71,5",,"08,5,+00457,5,99,9",,,"4,99,1,+00457,5,9",,,,"9,AGL   ,+99999,+99999","99,99,9,99,9,99,9,00457,1,99,9,99,9",,,"09783,5,09146,5",,"71,5",,,,"MET08712/23/23 12:45:02 METAR PAPT 232145Z 22005KT 1SM -SN OVC015 M05/M05 A2889 RMK NO SPECI.","R01   M057TMP046R02   M057DPT046"
"70249026526","2023-12-23T23:50:00","7","62.0911","-152.7349","566.3","PUNTILLA, AK US","FM-15","PAPT ","V020","220,5,N,0015,5","00457,5,M,N","001609,5,N,5","-0050,C","-0050,C","99999,9",,,,,,"1,0,03,0,0,1,5",,"71,5",,"08,5,+00457,5,99,9",,,"4,99,1,+00457,5,9",,,,"9,AGL   ,+99999,+99999","99,99,9,99,9,99,9,00457,1,99,9,99,9","240,M,-0050,1","240,N,-0133,1","09766,5,09130,5",,"71,5",,,,"MET10312/23/23 14:50:02 METAR PAPT 232350Z 22003KT 1SM -SN OVC015 M05/M05 A2884 RMK NO SPECI. 410501133 70005","R01   M057TMP046R02   M057DPT046"
"70249026526","2023-12-24T01:45:00","7","62.0911","-152.7349","566.3","PUNTILLA, AK US","FM-15","PAPT ","V020","999,9,C,0000,5","00610,5,M,N","001609,5,N,5","-0060,C","-0060,C","99999,9",,,,,,"1,0,03,0,0,1,5",,"71,5",,"08,5,+00610,5,99,9",,,"4,99,1,+00610,5,9",,,,"9,AGL   ,+99999,+99999","99,99,9,99,9,99,9,00610,1,99,9,99,9",,,"09746,5,09111,5",,"71,5",,,,"MET09212/23/23 16:45:01 METAR PAPT 240145Z 00000KT 1SM -SN OVC020 M06/M06 A2878 RMK NO SPECI. LAST","R01   M067TMP046R02   M067DPT046"
"70249026526","2023-12-24T08:59:00","O","62.0911","-152.7349","566.3","PUNTILLA, AK US","SOD  ","PAPT ","V020","999,9,9,9999,9","99999,9,9,9","999999,9,9,9","+9999,9","+9999,9","99999,9",,,"AU,18,SN  ,5",,,,,,,,,,,,,,,,,,,,,,,,,
"70249026526","2023-12-24T19:45:00","7","62.0911","-152.7349","566.3","PUNTILLA, AK US","FM-15","PAPT ","V020","010,5,N,0057,5","00610,5,M,N","001609,5,N,5","-0140,C","-0140,C","99999,9",,,,,,"1,0,03,0,0,1,5",,"71,5",,"08,5,+00610,5,99,9",,,"4,99,1,+00610,5,9",,,,"9,AGL   ,+99999,+99999","99,99,9,99,9,99,9,00610,1,99,9,99,9",,,"09699,5,09066,5",,"71,5",,,,"MET08712/24/23 10:45:02 METAR PAPT 241945Z 01011KT 1SM -SN OVC020 M14/M14 A2864 RMK NO SPECI.","R01   M147TMP046R02   M147DPT046"
"70249026526","2023-12-24T21:45:00","7","62.0911","-152.7349","566.3","PUNTILLA, AK US","FM-15","PAPT ","V020","010,5,N,0021,5","00457,5,M,N","001609,5,N,5","-0150,C","-0150,C","99999,9",,,,,,"1,0,03,0,0,1,5",,"71,5",,"07,5,+00457,5,99,9",,,"3,99,1,+00457,5,9",,,,"9,AGL   ,+99999,+99999","99,99,9,99,9,99,9,00457,1,99,9,99,9",,,"09729,5,09095,5",,"71,5",,,,"MET08712/24/23 12:45:02 METAR PAPT 242145Z 01004KT 1SM -SN BKN015 M15/M15 A2873 RMK NO SPECI.","R01   M157TMP046R02   M157DPT046"
"70249026526","2023-12-24T23:45:00","7","62.0911","-152.7349","566.3","PUNTILLA, AK US","FM-15","PAPT ","V020","020,5,N,0026,5","22000,5,9,N","004828,5,N,5","-0160,C","-0160,C","99999,9",,,,,,,,,,"04,5,+00610,5,99,9",,,"2,99,1,+00610,5,9",,,,"9,AGL   ,+99999,+99999","04,99,5,99,9,99,9,00610,1,99,9,99,9","240,M,-0056,1","240,N,-0161,1","09746,5,09111,5",,,,,,"MET09912/24/23 14:45:02 METAR PAPT 242345Z 02005KT 3SM SCT020 M16/M16 A2878 RMK NO SPECI. 410561161 70008","R01   M167TMP046R02   M167DPT046D01      0ADE726"
"70249026526","2023-12-25T01:45:00","7","62.0911","-152.7349","566.3","PUNTILLA, AK US","FM-15","PAPT ","V020","360,5,N,0036,5","22000,5,9,N","040234,5,N,5","-0210,C","-0210,C","99999,9",,,,,,,,,,"02,5,+03048,5,99,9",,,"1,99,1,+03048,5,9",,,,"9,AGL   ,+99999,+99999","02,99,5,99,9,99,9,03048,1,99,9,99,9",,,"09763,5,09127,5",,,,,,"MET08912/24/23 16:45:01 METAR PAPT 250145Z 36007KT 25SM FEW100 M21/M21 A2883 RMK NO SPECI. LAST","R01   M217TMP046R02   M217DPT046D01      0ADE726"
"70249026526","2023-12-25T08:59:00","O","62.0911","-152.7349","566.3","PUNTILLA, AK US","SOD  ","PAPT ","V020","999,9,9,9999,9","99999,9,9,9","999999,9,9,9","+9999,9","+9999,9","99999,9",,,"AU,18,SN  ,5",,,,,,,,,,,,,,,,,,,,,,,,,
"70249026526","2023-12-25T17:50:00","7","62.0911","-152.7349","566.3","PUNTILLA, AK US","FM-15","PAPT ","V020","030,5,N,0026,5","00610,5,M,N","040234,5,N,5","-0240,C","-0240,C","99999,9",,,,,,,,,,"08,5,+00610,5,99,9",,,"4,99,1,+00610,5,9",,,,"9,AGL   ,+99999,+99999","99,99,9,99,9,99,9,00610,1,99,9,99,9",,,"09854,5,09214,5",,,,,,"MET09012/25/23 08:50:02 METAR PAPT 251750Z 03005KT 25SM OVC020 M24/M24 A2910 RMK NO SPECI. FIRST","R01   M247TMP046R02   M247DPT046"
"70249026526","2023-12-25T19:50:00","7","62.0911","-152.7349","566.3","PUNTILLA, AK US","FM-15","PAPT ","V020","010,5,N,0021,5","01372,5,M,N","040234,5,N,5","-0240,C","-0240,C","99999,9",,,,,,,,,,"07,5,+01372,5,99,9",,,"3,99,1,+01372,5,9",,,,"9,AGL   ,+99999,+99999","99,99,9,99,9,99,9,01372,1,99,9,99,9",,,"09854,5,09214,5",,,,,,"MET08412/25/23 10:50:02 METAR PAPT 251950Z 01004KT 25SM BKN045 M24/M24 A2910 RMK NO SPECI.","R01   M247TMP046R02   M247DPT046"
"70249026526","2023-12-25T21:50:00","7","62.0911","-152.7349","566.3","PUNTILLA, AK US","FM-15","PAPT ","V020","999,9,C,0000,5","22000,7,9,N","040234,5,N,5","-0270,C","-0270,C","99999,9",,,,,,,,,,"00,7,+99999,9,99,9",,,"0,99,1,+99999,9,9",,,,,"00,99,1,99,9,99,9,99999,9,99,9,99,9",,,"09851,5,09211,5",,,,,,"MET08112/25/23 12:50:02 METAR PAPT 252150Z 00000KT 25SM SKC M27/M27 A2909 RMK NO SPECI.","R01   SKC7SKY009R02   M277TMP046R03   M277DPT046R04   SKC7GAS009"
"70249026526","2023-12-25T23:45:00","7","62.0911","-152.7349","566.3","PUNTILLA, AK US","FM-15","PAPT ","V020","360,5,N,0031,5","22000,7,9,N","040234,5,N,5","-0280,C","-0280,C","99999,9",,,,,,,,,,"00,7,+99999,9,99,9",,,"0,99,1,+99999,9,9",,,,,"00,99,1,99,9,99,9,99999,9,99,9,99,9",,,"09854,5,09214,5",,,,,,"MET09712/25/23 14:45:02 METAR PAPT 252345Z 36006KT 25SM SKC M28/M28 A2910 RMK NO SPECI. 412781206 70000","R01   SKC7SKY009R02   M287TMP046R03   M287DPT046R04   SKC7GAS009"
"70249026526","2023-12-26T01:45:00","7","62.0911","-152.7349","566.3","PUNTILLA, AK US","FM-15","PAPT ","V020","360,5,N,0031,5","22000,7,9,N","040234,5,N,5","-0290,C","-0290,C","99999,9",,,,,,,,,,"00,7,+99999,9,99,9",,,"0,99,1,+99999,9,9",,,,,"00,99,1,99,9,99,9,99999,9,99,9,99,9",,,"09858,5,09217,5",,,,,,"MET08612/25/23 16:45:01 METAR PAPT 260145Z 36006KT 25SM SKC M29/M29 A2911 RMK NO SPECI. LAST","R01   SKC7SKY009R02   M297TMP046R03   M297DPT046R04   SKC7GAS009"
"70249026526","2023-12-26T17:45:00","7","62.0911","-152.7349","566.3","PUNTILLA, AK US","FM-15","PAPT ","V020","999,9,C,0000,5","22000,7,9,N","040234,5,N,5","-0330,C","-0330,C","99999,9",,,,,,,,,,"00,7,+99999,9,99,9",,,"0,99,1,+99999,9,9",,,,,"00,99,1,99,9,99,9,99999,9,99,9,99,9",,,"09932,5,09288,5",,,,,,"MET08712/26/23 08:45:02 METAR PAPT 261745Z 00000KT 25SM SKC M33/M33 A2933 RMK NO SPECI. FIRST","R01   SKC7SKY009R02   M337TMP046R03   M337DPT046R04   SKC7GAS009"
"70249026526","2023-12-26T19:45:00","7","62.0911","-152.7349","566.3","PUNTILLA, AK US","FM-15","PAPT ","V020","999,9,C,0000,5","22000,5,9,N","040234,5,N,5","-0330,C","-0330,C","99999,9",,,,,,,,,,"02,5,+03048,5,99,9",,,"1,99,1,+03048,5,9",,,,"9,AGL   ,+99999,+99999","02,99,5,99,9,99,9,03048,1,99,9,99,9",,,"09953,5,09307,5",,,,,,"MET08412/26/23 10:45:02 METAR PAPT 261945Z 00000KT 25SM FEW100 M33/M33 A2939 RMK NO SPECI.","R01   M337TMP046R02   M337DPT046D01      0ADE726"
"70249026526","2023-12-26T21:45:00","7","62.0911","-152.7349","566.3","PUNTILLA, AK US","FM-15","PAPT ","V020","999,9,C,0000,5","22000,5,9,N","040234,5,N,5","-0310,C","-0310,C","99999,9",,,,,,,,,,"02,5,+03048,5,99,9",,,"1,99,1,+03048,5,9",,,,"9,AGL   ,+99999,+99999","02,99,5,99,9,99,9,03048,1,99,9,99,9",,,"09963,5,09316,5",,,,,,"MET08412/26/23 12:45:02 METAR PAPT 262145Z 00000KT 25SM FEW100 M31/M31 A2942 RMK NO SPECI.","R01   M317TMP046R02   M317DPT046D01      0ADE726"
"70249026526","2023-12-26T23:50:00","7","62.0911","-152.7349","566.3","PUNTILLA, AK US","FM-15","PAPT ","V020","210,5,N,0021,5","22000,5,9,N","040234,5,N,5","-0300,C","-0300,C","99999,9",,,,,,,,,,"04,5,+03048,5,99,9",,,"2,99,1,+03048,5,9",,,,"9,AGL   ,+99999,+99999","04,99,5,99,9,99,9,03048,1,99,9,99,9","240,M,-0294,1","240,N,-0339,1","09976,5,09329,5",,,,,,"MET10012/26/23 14:50:02 METAR PAPT 262350Z 21004KT 25SM SCT100 M30/M30 A2946 RMK NO SPECI. 412941339 70000","R01   M307TMP046R02   M307DPT046D01      0ADE726"
"70249026526","2023-12-27T01:45:00","7","62.0911","-152.7349","566.3","PUNTILLA, AK US","FM-15","PAPT ","V020","220,5,N,0021,5","22000,5,9,N","040234,5,N,5","-0270,C","-0270,C","99999,9",,,,,,,,,,"04,5,+03048,5,99,9",,,"2,99,1,+03048,5,9",,,,"9,AGL   ,+99999,+99999","04,99,5,99,9,99,9,03048,1,99,9,99,9",,,"09973,5,09326,5",,,,,,"MET08912/26/23 16:45:01 METAR PAPT 270145Z 22004KT 25SM SCT100 M27/M27 A2945 RMK NO SPECI. LAST","R01   M277TMP046R02   M277DPT046D01      0ADE726"
"70249026526","2023-12-27T17:50:00","7","62.0911","-152.7349","566.3","PUNTILLA, AK US","FM-15","PAPT ","V020","210,5,N,0015,5","22000,5,9,N","040234,5,N,5","-0280,C","-0280,C","99999,9",,,,,,,,,,"04,5,+03048,5,99,9",,,"2,99,1,+03048,5,9",,,,"9,AGL   ,+99999,+99999","04,99,5,99,9,99,9,03048,1,99,9,99,9",,,"10064,5,09413,5",,,,,,"MET09012/27/23 08:50:02 METAR PAPT 271750Z 21003KT 25SM SCT100 M28/M28 A2972 RMK NO SPECI. FIRST","R01   M287TMP046R02   M287DPT046D01      0ADE726"
"70249026526","2023-12-27T19:50:00","7","62.0911","-152.7349","566.3","PUNTILLA, AK US","FM-15","PAPT ","V020","350,5,N,0015,5","22000,5,9,N","040234,5,N,5","-0280,C","-0280,C","99999,9",,,,,,,,,,"04,5,+03048,5,99,9",,,"2,99,1,+03048,5,9",,,,"9,AGL   ,+99999,+99999","04,99,5,99,9,99,9,03048,1,99,9,99,9",,,"10075,5,09422,5",,,,,,"MET08412/27/23 10:50:02 METAR PAPT 271950Z 35003KT 25SM SCT100 M28/M28 A2975 RMK NO SPECI.","R01   M287TMP046R02   M287DPT046D01      0ADE726"
"70249026526","2023-12-27T21:50:00","7","62.0911","-152.7349","566.3","PUNTILLA, AK US","FM-15","PAPT ","V020","350,5,N,0015,5","22000,5,9,N","040234,5,N,5","-0260,C","-0260,C","99999,9",,,,,,,,,,"04,5,+03048,5,99,9",,,"2,99,1,+03048,5,9",,,,"9,AGL   ,+99999,+99999","04,99,5,99,9,99,9,03048,1,99,9,99,9",,,"10078,5,09425,5",,,,,,"MET08412/27/23 12:50:02 METAR PAPT 272150Z 35003KT 25SM SCT100 M26/M26 A2976 RMK NO SPECI.","R01   M267TMP046R02   M267DPT046D01      0ADE726"
"70249026526","2023-12-27T23:50:00","7","62.0911","-152.7349","566.3","PUNTILLA, AK US","FM-15","PAPT ","V020","350,5,N,0015,5","22000,5,9,N","040234,5,N,5","-0270,C","-0270,C","99999,9",,,,,,,,,,"04,5,+03048,5,99,9",,,"2,99,1,+03048,5,9",,,,"9,AGL   ,+99999,+99999","04,99,5,99,9,99,9,03048,1,99,9,99,9",,,"10078,5,09425,5",,,,,,"MET10012/27/23 14:50:02 METAR PAPT 272350Z 35003KT 25SM SCT100 M27/M27 A2976 RMK NO SPECI. 412831261 70000","R01   M277TMP046R02   M277DPT046D01      0ADE726"
"70249026526","2023-12-28T01:45:00","7","62.0911","-152.7349","566.3","PUNTILLA, AK US","FM-15","PAPT ","V020","999,9,C,0000,5","22000,5,9,N","040234,5,N,5","-0290,C","-0290,C","99999,9",,,,,,,,,,"02,5,+03048,5,99,9",,,"1,99,1,+03048,5,9",,,,"9,AGL   ,+99999,+99999","02,99,5,99,9,99,9,03048,1,99,9,99,9",,,"10075,5,09422,5",,,,,,"MET08912/27/23 16:45:01 METAR PAPT 280145Z 00000KT 25SM FEW100 M29/M29 A2975 RMK NO SPECI. LAST","R01   M297TMP046R02   M297DPT046D01      0ADE726"
"70249026526","2023-12-28T17:45:00","7","62.0911","-152.7349","566.3","PUNTILLA, AK US","FM-15","PAPT ","V020","350,5,N,0026,5","22000,7,9,N","040234,5,N,5","-0230,C","-0230,C","99999,9",,,,,,,,,,"00,7,+99999,9,99,9",,,"0,99,1,+99999,9,9",,,,,"00,99,1,99,9,99,9,99999,9,99,9,99,9",,,"10047,5,09397,5",,,,,,"MET08712/28/23 08:45:02 METAR PAPT 281745Z 35005KT 25SM SKC M23/M23 A2967 RMK NO SPECI. FIRST","R01   SKC7SKY009R02   M237TMP046R03   M237DPT046R04   SKC7GAS009"
"70249026526","2023-12-28T19:50:00","7","62.0911","-152.7349","566.3","PUNTILLA, AK US","FM-15","PAPT ","V020","350,5,N,0026,5","22000,7,9,N","040234,5,N,5","-0230,C","-0230,C","99999,9",,,,,,,,,,"00,7,+99999,9,99,9",,,"0,99,1,+99999,9,9",,,,,"00,99,1,99,9,99,9,99999,9,99,9,99,9",,,"10054,5,09403,5",,,,,,"MET08112/28/23 10:50:02 METAR PAPT 281950Z 35005KT 25SM SKC M23/M23 A2969 RMK NO SPECI.","R01   SKC7SKY009R02   M237TMP046R03   M237DPT046R04   SKC7GAS009"
"70249026526","2023-12-28T21:45:00","7","62.0911","-152.7349","566.3","PUNTILLA, AK US","FM-15","PAPT ","V020","350,5,N,0031,5","22000,7,9,N","040234,5,N,5","-0190,C","-0190,C","99999,9",,,,,,,,,,"00,7,+99999,9,99,9",,,"0,99,1,+99999,9,9",,,,,"00,99,1,99,9,99,9,99999,9,99,9,99,9",,,"10058,5,09406,5",,,,,,"MET08112/28/23 12:45:02 METAR PAPT 282145Z 35006KT 25SM SKC M19/M19 A2970 RMK NO SPECI.","R01   SKC7SKY009R02   M197TMP046R03   M197DPT046R04   SKC7GAS009"
"70249026526","2023-12-28T23:45:00","7","62.0911","-152.7349","566.3","PUNTILLA, AK US","FM-15","PAPT ","V020","230,5,N,0021,5","22000,7,9,N","040234,5,N,5","-0220,C","-0220,C","99999,9",,,,,,,,,,"00,7,+99999,9,99,9",,,"0,99,1,+99999,9,9",,,,,"00,99,1,99,9,99,9,99999,9,99,9,99,9","240,M,-0194,1","240,N,-0294,1","10054,5,09403,5",,,,,,"MET09712/28/23 14:45:02 METAR PAPT 282345Z 23004KT 25SM SKC M22/M22 A2969 RMK NO SPECI. 411941294 70000","R01   SKC7SKY009R02   M227TMP046R03   M227DPT046R04   SKC7GAS009"
"70249026526","2023-12-29T01:45:00","7","62.0911","-152.7349","566.3","PUNTILLA, AK US","FM-15","PAPT ","V020","350,5,N,0026,5","22000,7,9,N","040234,5,N,5","-0230,C","-0230,C","99999,9",,,,,,,,,,"00,7,+99999,9,99,9",,,"0,99,1,+99999,9,9",,,,,"00,99,1,99,9,99,9,99999,9,99,9,99,9",,,"10054,5,09403,5",,,,,,"MET08612/28/23 16:45:01 METAR PAPT 290145Z 35005KT 25SM SKC M23/M23 A2969 RMK NO SPECI. LAST","R01   SKC7SKY009R02   M237TMP046R03   M237DPT046R04   SKC7GAS009"
"70249026526","2023-12-29T17:50:00","7","62.0911","-152.7349","566.3","PUNTILLA, AK US","FM-15","PAPT ","V020","360,5,N,0031,5","22000,7,9,N","040234,5,N,5","-0280,C","-0280,C","99999,9",,,,,,,,,,"00,7,+99999,9,99,9",,,"0,99,1,+99999,9,9",,,,,"00,99,1,99,9,99,9,99999,9,99,9,99,9",,,"10054,5,09403,5",,,,,,"MET08712/29/23 08:50:02 METAR PAPT 291750Z 36006KT 25SM SKC M28/M28 A2969 RMK NO SPECI. FIRST","R01   SKC7SKY009R02   M287TMP046R03   M287DPT046R04   SKC7GAS009"
"70249026526","2023-12-29T19:55:00","7","62.0911","-152.7349","566.3","PUNTILLA, AK US","FM-15","PAPT ","V020","350,5,N,0026,5","22000,7,9,N","040234,5,N,5","-0280,C","-0280,C","99999,9",,,,,,,,,,"00,7,+99999,9,99,9",,,"0,99,1,+99999,9,9",,,,,"00,99,1,99,9,99,9,99999,9,99,9,99,9",,,"10051,5,09400,5",,,,,,"MET08112/29/23 10:55:02 METAR PAPT 291955Z 35005KT 25SM SKC M28/M28 A2968 RMK NO SPECI.","R01   SKC7SKY009R02   M287TMP046R03   M287DPT046R04   SKC7GAS009"
"70249026526","2023-12-29T21:50:00","7","62.0911","-152.7349","566.3","PUNTILLA, AK US","FM-15","PAPT ","V020","350,5,N,0015,5","22000,7,9,N","040234,5,N,5","-0270,C","-0270,C","99999,9",,,,,,,,,,"00,7,+99999,9,99,9",,,"0,99,1,+99999,9,9",,,,,"00,99,1,99,9,99,9,99999,9,99,9,99,9",,,"10037,5,09387,5",,,,,,"MET08112/29/23 12:50:02 METAR PAPT 292150Z 35003KT 25SM SKC M27/M27 A2964 RMK NO SPECI.","R01   SKC7SKY009R02   M277TMP046R03   M277DPT046R04   SKC7GAS009"
"70249026526","2023-12-29T23:45:00","7","62.0911","-152.7349","566.3","PUNTILLA, AK US","FM-15","PAPT ","V020","350,5,N,0021,5","22000,7,9,N","040234,5,N,5","-0270,C","-0270,C","99999,9",,,,,,,,,,"00,7,+99999,9,99,9",,,"0,99,1,+99999,9,9",,,,,"00,99,1,99,9,99,9,99999,9,99,9,99,9","240,M,-0228,1","240,N,-0278,1","10024,5,09374,5",,,,,,"MET09712/29/23 14:45:02 METAR PAPT 292345Z 35004KT 25SM SKC M27/M27 A2960 RMK NO SPECI. 412281278 70000","R01   SKC7SKY009R02   M277TMP046R03   M277DPT046R04   SKC7GAS009"
"70249026526","2023-12-30T01:45:00","7","62.0911","-152.7349","566.3","PUNTILLA, AK US","FM-15","PAPT ","V020","350,5,N,0026,5","22000,7,9,N","040234,5,N,5","-0260,C","-0260,C","99999,9",,,,,,,,,,"00,7,+99999,9,99,9",,,"0,99,1,+99999,9,9",,,,,"00,99,1,99,9,99,9,99999,9,99,9,99,9",,,"10000,5,09352,5",,,,,,"MET08612/29/23 16:45:01 METAR PAPT 300145Z 35005KT 25SM SKC M26/M26 A2953 RMK NO SPECI. LAST","R01   SKC7SKY009R02   M267TMP046R03   M267DPT046R04   SKC7GAS009"
"70249026526","2023-12-30T17:50:00","7","62.0911","-152.7349","566.3","PUNTILLA, AK US","FM-15","PAPT ","V020","360,5,N,0021,5","22000,7,9,N","040234,5,N,5","-0250,C","-0250,C","99999,9",,,,,,,,,,"00,7,+99999,9,99,9",,,"0,99,1,+99999,9,9",,,,,"00,99,1,99,9,99,9,99999,9,99,9,99,9",,,"09929,5,09284,5",,,,,,"MET08712/30/23 08:50:02 METAR PAPT 301750Z 36004KT 25SM SKC M25/M25 A2932 RMK NO SPECI. FIRST","R01   SKC7SKY009R02   M257TMP046R03   M257DPT046R04   SKC7GAS009"
"70249026526","2023-12-30T19:45:00","7","62.0911","-152.7349","566.3","PUNTILLA, AK US","FM-15","PAPT ","V020","999,9,C,0000,5","22000,7,9,N","040234,5,N,5","-0270,C","-0270,C","99999,9",,,,,,,,,,"00,7,+99999,9,99,9",,,"0,99,1,+99999,9,9",,,,,"00,99,1,99,9,99,9,99999,9,99,9,99,9",,,"09939,5,09294,5",,,,,,"MET08112/30/23 10:45:02 METAR PAPT 301945Z 00000KT 25SM SKC M27/M27 A2935 RMK NO SPECI.","R01   SKC7SKY009R02   M277TMP046R03   M277DPT046R04   SKC7GAS009"
"70249026526","2023-12-30T21:59:00","7","62.0911","-152.7349","566.3","PUNTILLA, AK US","FM-15","PAPT ","V020","350,5,N,0021,5","03048,5,M,N","040234,5,N,5","-0230,C","-0230,C","99999,9",,,,,,,,,,"07,5,+03048,5,99,9",,,"3,99,1,+03048,5,9",,,,"9,AGL   ,+99999,+99999","99,99,9,99,9,99,9,03048,1,99,9,99,9",,,"09959,5,09313,5",,,,,,"MET08412/30/23 12:59:02 METAR PAPT 302159Z 35004KT 25SM BKN100 M23/M23 A2941 RMK NO SPECI.","R01   M237TMP046R02   M237DPT046"
"70249026526","2023-12-30T23:45:00","4","62.0911","-152.7349","566.3","PUNTILLA, AK US","FM-15","99999","V020","999,9,C,0000,1","03048,1,9,N","040234,1,9,9","-0190,1","-0190,1","99999,9",,,,,,,,,,,,,"3,99,1,+03048,9,9",,,,"9,AGL   ,+99999,+99999","99,99,9,99,9,99,9,03048,1,99,9,99,9","240,M,-0189,1","240,N,-0267,1","09969,1,99999,9",,,,,,"MET083METAR PAPT 302345Z 00000KT 25SM BKN100 M19/M19 A2944 RMK NO SPECI. 411891267 70000=",
"70249026526","2023-12-31T01:45:00","7","62.0911","-152.7349","566.3","PUNTILLA, AK US","FM-15","PAPT ","V020","350,5,N,0021,5","22000,7,9,N","040234,5,N,5","-0240,C","-0240,C","99999,9",,,,,,,,,,"00,7,+99999,9,99,9",,,"0,99,1,+99999,9,9",,,,,"00,99,1,99,9,99,9,99999,9,99,9,99,9",,,"09986,5,09339,5",,,,,,"MET08612/30/23 16:45:01 METAR PAPT 310145Z 35004KT 25SM SKC M24/M24 A2949 RMK NO SPECI. LAST","R01   SKC7SKY009R02   M247TMP046R03   M247DPT046R04   SKC7GAS009"
"70249026526","2023-12-31T17:45:00","7","62.0911","-152.7349","566.3","PUNTILLA, AK US","FM-15","PAPT ","V020","350,5,N,0015,5","00823,5,M,N","001609,5,N,5","-0170,C","-0170,C","99999,9",,,,,,,,,,"08,5,+00823,5,99,9",,,"4,99,1,+00823,5,9",,,,"9,AGL   ,+99999,+99999","99,99,9,99,9,99,9,00823,1,99,9,99,9",,,"10075,5,09422,5",,,,,,"MET08912/31/23 08:45:02 METAR PAPT 311745Z 35003KT 1SM OVC027 M17/M17 A2975 RMK NO SPECI. FIRST","R01   M177TMP046R02   M177DPT046"
"70249026526","2023-12-31T19:59:00","7","62.0911","-152.7349","566.3","PUNTILLA, AK US","FM-15","PAPT ","V020","350,5,N,0015,5","01829,5,M,N","004828,5,N,5","-0190,C","-0190,C","99999,9",,,,,,,,,,"07,5,+01829,5,99,9",,,"3,99,1,+01829,5,9",,,,"9,AGL   ,+99999,+99999","99,99,9,99,9,99,9,01829,1,99,9,99,9",,,"10081,5,09429,5",,,,,,"MET08312/31/23 10:59:02 METAR PAPT 311959Z 35003KT 3SM BKN060 M19/M19 A2977 RMK NO SPECI.","R01   M197TMP046R02   M197DPT046"
"70249026526","2023-12-31T21:45:00","7","62.0911","-152.7349","566.3","PUNTILLA, AK US","FM-15","PAPT ","V020","210,5,N,0015,5","01372,5,M,N","004828,5,N,5","-0170,C","-0170,C","99999,9",,,,,,"1,0,03,0,0,1,5",,"71,5",,"07,5,+01372,5,99,9",,,"3,99,1,+01372,5,9",,,,"9,AGL   ,+99999,+99999","99,99,9,99,9,99,9,01372,1,99,9,99,9",,,"10088,5,09435,5",,"71,5",,,,"MET08712/31/23 12:45:02 METAR PAPT 312145Z 21003KT 3SM -SN BKN045 M17/M17 A2979 RMK NO SPECI.","R01   M177TMP046R02   M177DPT046"
"70249026526","2023-12-31T23:45:00","4","62.0911","-152.7349","566.3","PUNTILLA, AK US","FM-15","99999","V020","210,1,N,0015,1","00823,1,9,N","001609,1,9,9","-0140,1","-0140,1","99999,9",,,,,,,,,,,,,"4,99,1,+00823,1,9",,,,"9,AGL   ,+99999,+99999","99,99,9,99,9,99,9,00823,1,99,9,99,9","240,M,-0144,1","240,N,-0244,1","10081,1,99999,9",,"71,1",,,,"MET086METAR PAPT 312345Z 21003KT 1SM -SN OVC027 M14/M14 A2977 RMK NO SPECI. 411441244 70000=",
