"STATION","DATE","SOURCE","LATITUDE","LONGITUDE","ELEVATION","NAME","REPORT_TYPE","CALL_SIGN","QUALITY_CONTROL","WND","CIG","VIS","TMP","DEW","SLP","AA1","KA1","MA1","MD1","REM","EQD"
"91812099999","2023-05-26T03:00:00","4","-10.9145","-165.8393","4.57","PUKAPUKA AIRPORT, CW","FM-12","99999","V020","050,1,N,0021,1","99999,9,9,N","999999,9,9,9","+0311,1","+0248,1","10093,1",,,,,"SYN04891812 46/// /0504 10311 20248 30/// 40093 5////=",
"91812099999","2023-05-26T03:00:00","4","-10.9145","-165.8393","4.57","PUKAPUKA AIRPORT, CW","FM-15","99999","V020","050,1,N,0021,1","99999,9,9,N","999999,9,9,9","+0310,1","+0250,1","99999,9",,,"10090,1,99999,9",,"MET056METAR NCPK 260300Z AUTO 05004KT //// ////// 31/25 Q1009=",
"91812099999","2023-05-26T04:00:00","4","-10.9145","-165.8393","4.57","PUKAPUKA AIRPORT, CW","FM-15","99999","V020","070,1,N,0010,1","99999,9,9,N","999999,9,9,9","+0300,1","+0250,1","99999,9",,,"10090,1,99999,9",,"MET056METAR NCPK 260400Z AUTO 07002KT //// ////// 30/25 Q1009=",
"91812099999","2023-05-26T08:00:00","4","-10.9145","-165.8393","4.57","PUKAPUKA AIRPORT, CW","FM-15","99999","V020","070,1,N,0015,1","99999,9,9,N","999999,9,9,9","+0280,1","+0240,1","99999,9",,,"10110,1,99999,9",,"MET056METAR NCPK 260800Z AUTO 07003KT //// ////// 28/24 Q1011=",
"91812099999","2023-05-26T09:00:00","4","-10.9145","-165.8393","4.57","PUKAPUKA AIRPORT, CW","FM-12","99999","V020","060,1,N,0010,1","99999,9,9,N","999999,9,9,9","+0279,1","+0236,1","10114,1",,,,,"SYN04891812 46/// /0602 10279 20236 3//// 40114 5////=",
"91812099999","2023-05-26T09:00:00","4","-10.9145","-165.8393","4.57","PUKAPUKA AIRPORT, CW","FM-15","99999","V020","060,1,N,0010,1","99999,9,9,N","999999,9,9,9","+0280,1","+0240,1","99999,9",,,"10110,1,99999,9",,"MET056METAR NCPK 260900Z AUTO 06002KT //// ////// 28/24 Q1011=",
"91812099999","2023-05-26T10:00:00","4","-10.9145","-165.8393","4.57","PUKAPUKA AIRPORT, CW","FM-15","99999","V020","060,1,N,0021,1","99999,9,9,N","999999,9,9,9","+0280,1","+0240,1","99999,9",,,"10110,1,99999,9",,"MET056METAR NCPK 261000Z AUTO 06004KT //// ////// 28/24 Q1011=",
"91812099999","2023-05-26T11:00:00","4","-10.9145","-165.8393","4.57","PUKAPUKA AIRPORT, CW","FM-15","99999","V020","060,1,N,0015,1","99999,9,9,N","999999,9,9,9","+0280,1","+0240,1","99999,9",,,"10110,1,99999,9",,"MET056METAR NCPK 261100Z AUTO 06003KT //// ////// 28/24 Q1011=",
"91812099999","2023-05-26T12:00:00","4","-10.9145","-165.8393","4.57","PUKAPUKA AIRPORT, CW","FM-12","99999","V020","070,1,N,0010,1","99999,9,9,N","999999,9,9,9","+0277,1","+0236,1","10106,1","06,0000,9,1","240,M,+0339,1","99999,9,10110,1","7,1,004,1,+999,9","SYN06491812 16/// /0702 10277 20236 30110 40106 57004 60001 333 10339=",
"91812099999","2023-05-26T12:00:00","4","-10.9145","-165.8393","4.57","PUKAPUKA AIRPORT, CW","FM-15","99999","V020","070,1,N,0010,1","99999,9,9,N","999999,9,9,9","+0280,1","+0240,1","99999,9",,,"10110,1,99999,9",,"MET056METAR NCPK 261200Z AUTO 07002KT //// ////// 28/24 Q1011=",
"91812099999","2023-05-26T13:00:00","4","-10.9145","-165.8393","4.57","PUKAPUKA AIRPORT, CW","FM-15","99999","V020","060,1,N,0015,1","99999,9,9,N","999999,9,9,9","+0280,1","+0240,1","99999,9",,,"10110,1,99999,9",,"MET056METAR NCPK 261300Z AUTO 06003KT //// ////// 28/24 Q1011=",
"91812099999","2023-05-26T14:00:00","4","-10.9145","-165.8393","4.57","PUKAPUKA AIRPORT, CW","FM-15","99999","V020","100,1,N,0021,1","99999,9,9,N","999999,9,9,9","+0280,1","+0240,1","99999,9",,,"10100,1,99999,9",,"MET056METAR NCPK 261400Z AUTO 10004KT //// ////// 28/24 Q1010=",
"91812099999","2023-05-26T15:00:00","4","-10.9145","-165.8393","4.57","PUKAPUKA AIRPORT, CW","FM-12","99999","V020","060,1,N,0015,1","99999,9,9,N","999999,9,9,9","+0276,1","+0235,1","10101,1",,,"99999,9,10106,1","7,1,005,1,+999,9","SYN04891812 46/// /0603 10276 20235 30106 40101 57005=",
"91812099999","2023-05-26T15:00:00","4","-10.9145","-165.8393","4.57","PUKAPUKA AIRPORT, CW","FM-15","99999","V020","060,1,N,0015,1","99999,9,9,N","999999,9,9,9","+0280,1","+0240,1","99999,9",,,"10100,1,99999,9",,"MET056METAR NCPK 261500Z AUTO 06003KT //// ////// 28/24 Q1010=",
"91812099999","2023-05-26T16:00:00","4","-10.9145","-165.8393","4.57","PUKAPUKA AIRPORT, CW","FM-15","99999","V020","060,1,N,0015,1","99999,9,9,N","999999,9,9,9","+0280,1","+0240,1","99999,9",,,"10100,1,99999,9",,"MET056METAR NCPK 261600Z AUTO 06003KT //// ////// 28/24 Q1010=",
"91812099999","2023-05-26T17:00:00","4","-10.9145","-165.8393","4.57","PUKAPUKA AIRPORT, CW","FM-15","99999","V020","070,1,N,0015,1","99999,9,9,N","999999,9,9,9","+0280,1","+0240,1","99999,9",,,"10100,1,99999,9",,"MET056METAR NCPK 261700Z AUTO 07003KT //// ////// 28/24 Q1010=",
"91812099999","2023-05-26T19:00:00","4","-10.9145","-165.8393","4.57","PUKAPUKA AIRPORT, CW","FM-15","99999","V020","080,1,N,0015,1","99999,9,9,N","999999,9,9,9","+0280,1","+0240,1","99999,9",,,"10120,1,99999,9",,"MET056METAR NCPK 261900Z AUTO 08003KT //// ////// 28/24 Q1012=",
"91812099999","2023-05-26T20:00:00","4","-10.9145","-165.8393","4.57","PUKAPUKA AIRPORT, CW","FM-15","99999","V020","080,1,N,0015,1","99999,9,9,N","999999,9,9,9","+0300,1","+0240,1","99999,9",,,"10120,1,99999,9",,"MET056METAR NCPK 262000Z AUTO 08003KT //// ////// 30/24 Q1012=",
"91812099999","2023-05-26T21:00:00","4","-10.9145","-165.8393","4.57","PUKAPUKA AIRPORT, CW","FM-12","99999","V020","090,1,N,0021,1","99999,9,9,N","999999,9,9,9","+0306,1","+0238,1","10131,1",,,"99999,9,10111,1","1,1,020,1,+999,9","SYN04891812 46/// /0904 10306 20238 30111 40131 51020=",
"91812099999","2023-05-26T21:00:00","4","-10.9145","-165.8393","4.57","PUKAPUKA AIRPORT, CW","FM-15","99999","V020","090,1,N,0021,1","99999,9,9,N","999999,9,9,9","+0300,1","+0240,1","99999,9",,,"10130,1,99999,9",,"MET056METAR NCPK 262100Z AUTO 09004KT //// ////// 30/24 Q1013=",
"91812099999","2023-05-26T22:00:00","4","-10.9145","-165.8393","4.57","PUKAPUKA AIRPORT, CW","FM-15","99999","V020","090,1,N,0021,1","99999,9,9,N","999999,9,9,9","+0310,1","+0240,1","99999,9",,,"10120,1,99999,9",,"MET056METAR NCPK 262200Z AUTO 09004KT //// ////// 31/24 Q1012=",
"91812099999","2023-05-26T23:00:00","4","-10.9145","-165.8393","4.57","PUKAPUKA AIRPORT, CW","FM-15","99999","V020","100,1,N,0021,1","99999,9,9,N","999999,9,9,9","+0310,1","+0240,1","99999,9",,,"10120,1,99999,9",,"MET056METAR NCPK 262300Z AUTO 10004KT //// ////// 31/24 Q1012=",
"91812099999","2023-05-27T01:00:00","4","-10.9145","-165.8393","4.57","PUKAPUKA AIRPORT, CW","FM-15","99999","V020","090,1,N,0021,1","99999,9,9,N","999999,9,9,9","+0310,1","+0240,1","99999,9",,,"10100,1,99999,9",,"MET056METAR NCPK 270100Z AUTO 09004KT //// ////// 31/24 Q1010=",
"91812099999","2023-05-27T02:00:00","4","-10.9145","-165.8393","4.57","PUKAPUKA AIRPORT, CW","FM-15","99999","V020","090,1,N,0021,1","99999,9,9,N","999999,9,9,9","+0310,1","+0240,1","99999,9",,,"10100,1,99999,9",,"MET056METAR NCPK 270200Z AUTO 09004KT //// ////// 31/24 Q1010=",
"91812099999","2023-05-27T03:00:00","4","-10.9145","-165.8393","4.57","PUKAPUKA AIRPORT, CW","FM-12","99999","V020","110,1,N,0021,1","99999,9,9,N","999999,9,9,9","+0305,1","+0232,1","10107,1",,,,,"SYN04891812 46/// /1104 10305 20232 30/// 40107 5////=",
"91812099999","2023-05-27T03:00:00","4","-10.9145","-165.8393","4.57","PUKAPUKA AIRPORT, CW","FM-15","99999","V020","110,1,N,0021,1","99999,9,9,N","999999,9,9,9","+0310,1","+0230,1","99999,9",,,"10100,1,99999,9",,"MET056METAR NCPK 270300Z AUTO 11004KT //// ////// 31/23 Q1010=",
"91812099999","2023-05-27T04:00:00","4","-10.9145","-165.8393","4.57","PUKAPUKA AIRPORT, CW","FM-15","99999","V020","120,1,N,0021,1","99999,9,9,N","999999,9,9,9","+0290,1","+0230,1","99999,9",,,"10110,1,99999,9",,"MET056METAR NCPK 270400Z AUTO 12004KT //// ////// 29/23 Q1011=",
"91812099999","2023-05-27T05:00:00","4","-10.9145","-165.8393","4.57","PUKAPUKA AIRPORT, CW","FM-15","99999","V020","130,1,N,0010,1","99999,9,9,N","999999,9,9,9","+0280,1","+0240,1","99999,9",,,"10110,1,99999,9",,"MET056METAR NCPK 270500Z AUTO 13002KT //// ////// 28/24 Q1011=",
"91812099999","2023-05-27T06:00:00","4","-10.9145","-165.8393","4.57","PUKAPUKA AIRPORT, CW","FM-12","99999","V020","130,1,N,0010,1","99999,9,9,N","999999,9,9,9","+0280,1","+0233,1","10121,1","06,0000,9,1",,"99999,9,10107,1","2,1,014,1,+999,9","SYN05491812 16/// /1302 10280 20233 30107 40121 52014 60001=",
"91812099999","2023-05-27T06:00:00","4","-10.9145","-165.8393","4.57","PUKAPUKA AIRPORT, CW","FM-15","99999","V020","130,1,N,0010,1","99999,9,9,N","999999,9,9,9","+0280,1","+0230,1","99999,9",,,"10120,1,99999,9",,"MET056METAR NCPK 270600Z AUTO 13002KT //// ////// 28/23 Q1012=",
"91812099999","2023-05-27T07:00:00","4","-10.9145","-165.8393","4.57","PUKAPUKA AIRPORT, CW","FM-15","99999","V020","120,1,N,0015,1","99999,9,9,N","999999,9,9,9","+0280,1","+0230,1","99999,9",,,"10120,1,99999,9",,"MET056METAR NCPK 270700Z AUTO 12003KT //// ////// 28/23 Q1012=",
"91812099999","2023-05-27T08:00:00","4","-10.9145","-165.8393","4.57","PUKAPUKA AIRPORT, CW","FM-15","99999","V020","120,1,N,0015,1","99999,9,9,N","999999,9,9,9","+0280,1","+0240,1","99999,9",,,"10130,1,99999,9",,"MET056METAR NCPK 270800Z AUTO 12003KT //// ////// 28/24 Q1013=",
"91812099999","2023-05-27T09:00:00","4","-10.9145","-165.8393","4.57","PUKAPUKA AIRPORT, CW","FM-12","99999","V020","120,1,N,0015,1","99999,9,9,N","999999,9,9,9","+0282,1","+0243,1","10132,1",,,"99999,9,10121,1","2,1,011,1,+999,9","SYN04891812 46/// /1203 10282 20243 30121 40132 52011=",
"91812099999","2023-05-27T09:00:00","4","-10.9145","-165.8393","4.57","PUKAPUKA AIRPORT, CW","FM-15","99999","V020","120,1,N,0015,1","99999,9,9,N","999999,9,9,9","+0280,1","+0240,1","99999,9",,,"10130,1,99999,9",,"MET056METAR NCPK 270900Z AUTO 12003KT //// ////// 28/24 Q1013=",
"91812099999","2023-05-27T10:00:00","4","-10.9145","-165.8393","4.57","PUKAPUKA AIRPORT, CW","FM-15","99999","V020","110,1,N,0021,1","99999,9,9,N","999999,9,9,9","+0280,1","+0240,1","99999,9",,,"10130,1,99999,9",,"MET056METAR NCPK 271000Z AUTO 11004KT //// ////// 28/24 Q1013=",
"91812099999","2023-05-27T11:00:00","4","-10.9145","-165.8393","4.57","PUKAPUKA AIRPORT, CW","FM-15","99999","V020","100,1,N,0010,1","99999,9,9,N","999999,9,9,9","+0280,1","+0240,1","99999,9",,,"10120,1,99999,9",,"MET056METAR NCPK 271100Z AUTO 10002KT //// ////// 28/24 Q1012=",
"91812099999","2023-05-27T12:00:00","4","-10.9145","-165.8393","4.57","PUKAPUKA AIRPORT, CW","FM-12","99999","V020","130,1,N,0010,1","99999,9,9,N","999999,9,9,9","+0284,1","+0237,1","10124,1","06,0000,9,1","240,M,+0322,1","99999,9,10132,1","7,1,008,1,+999,9","SYN06491812 16/// /1302 10284 20237 30132 40124 57008 60001 333 10322=",
"91812099999","2023-05-27T12:00:00","4","-10.9145","-165.8393","4.57","PUKAPUKA AIRPORT, CW","FM-15","99999","V020","100,1,N,0031,1","99999,9,9,N","999999,9,9,9","+0280,1","+0240,1","99999,9",,,"10120,1,99999,9",,"MET056METAR NCPK 271200Z AUTO 10006KT //// ////// 28/24 Q1012=",
"91812099999","2023-05-27T13:00:00","4","-10.9145","-165.8393","4.57","PUKAPUKA AIRPORT, CW","FM-15","99999","V020","100,1,N,0021,1","99999,9,9,N","999999,9,9,9","+0280,1","+0240,1","99999,9",,,"10110,1,99999,9",,"MET056METAR NCPK 271300Z AUTO 10004KT //// ////// 28/24 Q1011=",
"91812099999","2023-05-27T14:00:00","4","-10.9145","-165.8393","4.57","PUKAPUKA AIRPORT, CW","FM-15","99999","V020","110,1,N,0026,1","99999,9,9,N","999999,9,9,9","+0280,1","+0240,1","99999,9",,,"10110,1,99999,9",,"MET056METAR NCPK 271400Z AUTO 11005KT //// ////// 28/24 Q1011=",
"91812099999","2023-05-27T15:00:00","4","-10.9145","-165.8393","4.57","PUKAPUKA AIRPORT, CW","FM-12","99999","V020","100,1,N,0026,1","99999,9,9,N","999999,9,9,9","+0285,1","+0245,1","10117,1",,,"99999,9,10124,1","9,9,007,1,+999,9","SYN04891812 46/// /1005 10285 20245 30124 40117 50007=",
"91812099999","2023-05-27T15:00:00","4","-10.9145","-165.8393","4.57","PUKAPUKA AIRPORT, CW","FM-15","99999","V020","100,1,N,0026,1","99999,9,9,N","999999,9,9,9","+0290,1","+0250,1","99999,9",,,"10110,1,99999,9",,"MET056METAR NCPK 271500Z AUTO 10005KT //// ////// 29/25 Q1011=",
"91812099999","2023-05-27T16:00:00","4","-10.9145","-165.8393","4.57","PUKAPUKA AIRPORT, CW","FM-15","99999","V020","100,1,N,0021,1","99999,9,9,N","999999,9,9,9","+0280,1","+0240,1","99999,9",,,"10120,1,99999,9",,"MET056METAR NCPK 271600Z AUTO 10004KT //// ////// 28/24 Q1012=",
"91812099999","2023-05-27T17:00:00","4","-10.9145","-165.8393","4.57","PUKAPUKA AIRPORT, CW","FM-15","99999","V020","100,1,N,0026,1","99999,9,9,N","999999,9,9,9","+0290,1","+0240,1","99999,9",,,"10120,1,99999,9",,"MET056METAR NCPK 271700Z AUTO 10005KT //// ////// 29/24 Q1012=",
"91812099999","2023-05-27T18:00:00","4","-10.9145","-165.8393","4.57","PUKAPUKA AIRPORT, CW","FM-12","99999","V020","100,1,N,0026,1","99999,9,9,N","999999,9,9,9","+0285,1","+0244,1","10127,1","06,0000,9,1",,"99999,9,10113,1","1,1,014,1,+999,9","SYN05491812 16/// /1005 10285 20244 30113 40127 51014 60001=",
"91812099999","2023-05-27T18:00:00","4","-10.9145","-165.8393","4.57","PUKAPUKA AIRPORT, CW","FM-15","99999","V020","100,1,N,0026,1","99999,9,9,N","999999,9,9,9","+0290,1","+0240,1","99999,9",,,"10130,1,99999,9",,"MET056METAR NCPK 271800Z AUTO 10005KT //// ////// 29/24 Q1013=",
"91812099999","2023-05-27T19:00:00","4","-10.9145","-165.8393","4.57","PUKAPUKA AIRPORT, CW","FM-15","99999","V020","100,1,N,0021,1","99999,9,9,N","999999,9,9,9","+0300,1","+0240,1","99999,9",,,"10130,1,99999,9",,"MET056METAR NCPK 271900Z AUTO 10004KT //// ////// 30/24 Q1013=",
"91812099999","2023-05-27T20:00:00","4","-10.9145","-165.8393","4.57","PUKAPUKA AIRPORT, CW","FM-15","99999","V020","080,1,N,0026,1","99999,9,9,N","999999,9,9,9","+0300,1","+0240,1","99999,9",,,"10130,1,99999,9",,"MET056METAR NCPK 272000Z AUTO 08005KT //// ////// 30/24 Q1013=",
"91812099999","2023-05-27T21:00:00","4","-10.9145","-165.8393","4.57","PUKAPUKA AIRPORT, CW","FM-15","99999","V020","110,1,N,0026,1","99999,9,9,N","999999,9,9,9","+0310,1","+0250,1","99999,9",,,"10140,1,99999,9",,"MET056METAR NCPK 272100Z AUTO 11005KT //// ////// 31/25 Q1014=",
"91812099999","2023-05-27T22:00:00","4","-10.9145","-165.8393","4.57","PUKAPUKA AIRPORT, CW","FM-15","99999","V020","110,1,N,0026,1","99999,9,9,N","999999,9,9,9","+0310,1","+0250,1","99999,9",,,"10140,1,99999,9",,"MET056METAR NCPK 272200Z AUTO 11005KT //// ////// 31/25 Q1014=",
"91812099999","2023-05-27T23:00:00","4","-10.9145","-165.8393","4.57","PUKAPUKA AIRPORT, CW","FM-15","99999","V020","110,1,N,0031,1","99999,9,9,N","999999,9,9,9","+0310,1","+0250,1","99999,9",,,"10120,1,99999,9",,"MET056METAR NCPK 272300Z AUTO 11006KT //// ////// 31/25 Q1012=",
"91812099999","2023-05-28T00:00:00","4","-10.9145","-165.8393","4.57","PUKAPUKA AIRPORT, CW","FM-15","99999","V020","120,1,N,0031,1","99999,9,9,N","999999,9,9,9","+0300,1","+0250,1","99999,9",,,"10110,1,99999,9",,"MET056METAR NCPK 280000Z AUTO 12006KT //// ////// 30/25 Q1011=",
"91812099999","2023-05-28T01:00:00","4","-10.9145","-165.8393","4.57","PUKAPUKA AIRPORT, CW","FM-15","99999","V020","120,1,N,0031,1","99999,9,9,N","999999,9,9,9","+0300,1","+0250,1","99999,9",,,"10110,1,99999,9",,"MET056METAR NCPK 280100Z AUTO 12006KT //// ////// 30/25 Q1011=",
"91812099999","2023-05-28T02:00:00","4","-10.9145","-165.8393","4.57","PUKAPUKA AIRPORT, CW","FM-15","99999","V020","110,1,N,0031,1","99999,9,9,N","999999,9,9,9","+0310,1","+0250,1","99999,9",,,"10100,1,99999,9",,"MET056METAR NCPK 280200Z AUTO 11006KT //// ////// 31/25 Q1010=",
"91812099999","2023-05-28T03:00:00","4","-10.9145","-165.8393","4.57","PUKAPUKA AIRPORT, CW","FM-12","99999","V020","100,1,N,0031,1","99999,9,9,N","999999,9,9,9","+0304,1","+0243,1","10107,1",,,"99999,9,10116,1","3,1,009,1,+999,9","SYN04891812 46/// /1006 10304 20243 30116 40107 53009=",
"91812099999","2023-05-28T06:00:00","4","-10.9145","-165.8393","4.57","PUKAPUKA AIRPORT, CW","FM-12","99999","V020","120,1,N,0021,1","99999,9,9,N","999999,9,9,9","+0290,1","+0250,1","10120,1","06,0000,9,1",,"99999,9,10107,1","2,1,013,1,+999,9","SYN05491812 16/// /1204 10290 20250 30107 40120 52013 60001=",
"91812099999","2023-05-28T06:00:00","4","-10.9145","-165.8393","4.57","PUKAPUKA AIRPORT, CW","FM-15","99999","V020","120,1,N,0021,1","99999,9,9,N","999999,9,9,9","+0290,1","+0250,1","99999,9",,,"10120,1,99999,9",,"MET056METAR NCPK 280600Z AUTO 12004KT //// ////// 29/25 Q1012=",
"91812099999","2023-05-28T07:00:00","4","-10.9145","-165.8393","4.57","PUKAPUKA AIRPORT, CW","FM-15","99999","V020","120,1,N,0021,1","99999,9,9,N","999999,9,9,9","+0290,1","+0250,1","99999,9",,,"10120,1,99999,9",,"MET056METAR NCPK 280700Z AUTO 12004KT //// ////// 29/25 Q1012=",
"91812099999","2023-05-28T08:00:00","4","-10.9145","-165.8393","4.57","PUKAPUKA AIRPORT, CW","FM-15","99999","V020","120,1,N,0041,1","99999,9,9,N","999999,9,9,9","+0290,1","+0250,1","99999,9",,,"10120,1,99999,9",,"MET056METAR NCPK 280800Z AUTO 12008KT //// ////// 29/25 Q1012=",
"91812099999","2023-05-28T09:00:00","4","-10.9145","-165.8393","4.57","PUKAPUKA AIRPORT, CW","FM-12","99999","V020","130,1,N,0041,1","99999,9,9,N","999999,9,9,9","+0291,1","+0251,1","10129,1",,,"99999,9,10120,1","1,1,009,1,+999,9","SYN04891812 46/// /1308 10291 20251 30120 40129 51009=",
"91812099999","2023-05-28T09:00:00","4","-10.9145","-165.8393","4.57","PUKAPUKA AIRPORT, CW","FM-15","99999","V020","120,1,N,0041,1","99999,9,9,N","999999,9,9,9","+0290,1","+0250,1","99999,9",,,"10120,1,99999,9",,"MET056METAR NCPK 280900Z AUTO 12008KT //// ////// 29/25 Q1012=",
"91812099999","2023-05-28T10:00:00","4","-10.9145","-165.8393","4.57","PUKAPUKA AIRPORT, CW","FM-15","99999","V020","120,1,N,0041,1","99999,9,9,N","999999,9,9,9","+0290,1","+0240,1","99999,9",,,"10120,1,99999,9",,"MET056METAR NCPK 281000Z AUTO 12008KT //// ////// 29/24 Q1012=",
"91812099999","2023-05-29T20:00:00","4","-10.9145","-165.8393","4.57","PUKAPUKA AIRPORT, CW","FM-15","99999","V020","030,1,N,0021,1","99999,9,9,N","999999,9,9,9","+0300,1","+0240,1","99999,9",,,"10130,1,99999,9",,"MET056METAR NCPK 292000Z AUTO 03004KT //// ////// 30/24 Q1013=",
"91812099999","2023-05-29T21:00:00","4","-10.9145","-165.8393","4.57","PUKAPUKA AIRPORT, CW","FM-12","99999","V020","130,1,N,0026,1","99999,9,9,N","999999,9,9,9","+0301,1","+0249,1","10137,1",,,"99999,9,10117,1","9,9,020,1,+999,9","SYN04891812 46/// /1305 10301 20249 30117 40137 50020=",
"91812099999","2023-05-29T23:00:00","4","-10.9145","-165.8393","4.57","PUKAPUKA AIRPORT, CW","FM-15","99999","V020","120,1,N,0015,1","99999,9,9,N","999999,9,9,9","+0280,1","+0240,1","99999,9",,,"10120,1,99999,9",,"MET056METAR NCPK 292300Z AUTO 12003KT //// ////// 28/24 Q1012=",
"91812099999","2023-05-30T00:00:00","4","-10.9145","-165.8393","4.57","PUKAPUKA AIRPORT, CW","FM-12","99999","V020","070,1,N,0021,1","99999,9,9,N","999999,9,9,9","+0307,1","+0245,1","10116,1","06,0000,9,1","120,N,+0250,1","99999,9,10137,1","7,1,021,1,+999,9","SYN07691812 16/// /0704 10307 20245 30137 40116 57021 60001 333 20250 333 3 70000=",
"91812099999","2023-05-30T00:00:00","4","-10.9145","-165.8393","4.57","PUKAPUKA AIRPORT, CW","FM-15","99999","V020","070,1,N,0021,1","99999,9,9,N","999999,9,9,9","+0310,1","+0250,1","99999,9",,,"10110,1,99999,9",,"MET056METAR NCPK 300000Z AUTO 07004KT //// ////// 31/25 Q1011=",
"91812099999","2023-05-30T01:00:00","4","-10.9145","-165.8393","4.57","PUKAPUKA AIRPORT, CW","FM-15","99999","V020","100,1,N,0015,1","99999,9,9,N","999999,9,9,9","+0310,1","+0250,1","99999,9",,,"10100,1,99999,9",,"MET056METAR NCPK 300100Z AUTO 10003KT //// ////// 31/25 Q1010=",
"91812099999","2023-05-30T02:00:00","4","-10.9145","-165.8393","4.57","PUKAPUKA AIRPORT, CW","FM-15","99999","V020","100,1,N,0015,1","99999,9,9,N","999999,9,9,9","+0300,1","+0240,1","99999,9",,,"10100,1,99999,9",,"MET056METAR NCPK 300200Z AUTO 10003KT //// ////// 30/24 Q1010=",
"91812099999","2023-05-30T03:00:00","4","-10.9145","-165.8393","4.57","PUKAPUKA AIRPORT, CW","FM-12","99999","V020","350,1,N,0015,1","99999,9,9,N","999999,9,9,9","+0294,1","+0245,1","10106,1",,,"99999,9,10116,1","5,1,010,1,+999,9","SYN04891812 46/// /3503 10294 20245 30116 40106 55010=",
"91812099999","2023-05-30T03:00:00","4","-10.9145","-165.8393","4.57","PUKAPUKA AIRPORT, CW","FM-15","99999","V020","350,1,N,0015,1","99999,9,9,N","999999,9,9,9","+0300,1","+0240,1","99999,9",,,"10100,1,99999,9",,"MET056METAR NCPK 300300Z AUTO 35003KT //// ////// 30/24 Q1010=",
"91812099999","2023-05-30T04:00:00","4","-10.9145","-165.8393","4.57","PUKAPUKA AIRPORT, CW","FM-15","99999","V020","110,1,N,0026,1","99999,9,9,N","999999,9,9,9","+0260,1","+0240,1","99999,9",,,"10110,1,99999,9",,"MET056METAR NCPK 300400Z AUTO 11005KT //// ////// 26/24 Q1011=",
"91812099999","2023-05-30T05:00:00","4","-10.9145","-165.8393","4.57","PUKAPUKA AIRPORT, CW","FM-15","99999","V020","999,9,C,0000,1","99999,9,9,N","999999,9,9,9","+0300,1","+0250,1","99999,9",,,"10110,1,99999,9",,"MET056METAR NCPK 300500Z AUTO 00000KT //// ////// 30/25 Q1011=",
"91812099999","2023-05-30T06:00:00","4","-10.9145","-165.8393","4.57","PUKAPUKA AIRPORT, CW","FM-12","99999","V020","080,1,N,0010,1","99999,9,9,N","999999,9,9,9","+0258,1","+0240,1","10116,1","06,0020,3,1",,"99999,9,10106,1","2,1,010,1,+999,9","SYN05491812 16/// /0802 10258 20240 30106 40116 52010 60021=",
"91812099999","2023-05-30T06:00:00","4","-10.9145","-165.8393","4.57","PUKAPUKA AIRPORT, CW","FM-15","99999","V020","080,1,N,0010,1","99999,9,9,N","999999,9,9,9","+0260,1","+0240,1","99999,9",,,"10110,1,99999,9",,"MET056METAR NCPK 300600Z AUTO 08002KT //// ////// 26/24 Q1011=",
"91812099999","2023-05-30T07:00:00","4","-10.9145","-165.8393","4.57","PUKAPUKA AIRPORT, CW","FM-15","99999","V020","090,1,N,0005,1","99999,9,9,N","999999,9,9,9","+0250,1","+0230,1","99999,9",,,"10110,1,99999,9",,"MET056METAR NCPK 300700Z AUTO 09001KT //// ////// 25/23 Q1011=",
"91812099999","2023-05-30T08:00:00","4","-10.9145","-165.8393","4.57","PUKAPUKA AIRPORT, CW","FM-15","99999","V020","120,1,N,0005,1","99999,9,9,N","999999,9,9,9","+0250,1","+0230,1","99999,9",,,"10120,1,99999,9",,"MET056METAR NCPK 300800Z AUTO 12001KT //// ////// 25/23 Q1012=",
"91812099999","2023-05-30T09:00:00","4","-10.9145","-165.8393","4.57","PUKAPUKA AIRPORT, CW","FM-12","99999","V020","100,1,N,0010,1","99999,9,9,N","999999,9,9,9","+0247,1","+0239,1","10129,1",,,"99999,9,10116,1","2,1,013,1,+999,9","SYN04891812 46/// /1002 10247 20239 30116 40129 52013=",
"91812099999","2023-05-30T09:00:00","4","-10.9145","-165.8393","4.57","PUKAPUKA AIRPORT, CW","FM-15","99999","V020","100,1,N,0010,1","99999,9,9,N","999999,9,9,9","+0250,1","+0240,1","99999,9",,,"10120,1,99999,9",,"MET056METAR NCPK 300900Z AUTO 10002KT //// ////// 25/24 Q1012=",
"91812099999","2023-05-30T10:00:00","4","-10.9145","-165.8393","4.57","PUKAPUKA AIRPORT, CW","FM-15","99999","V020","080,1,N,0005,1","99999,9,9,N","999999,9,9,9","+0270,1","+0240,1","99999,9",,,"10120,1,99999,9",,"MET056METAR NCPK 301000Z AUTO 08001KT //// ////// 27/24 Q1012=",
"91812099999","2023-05-30T11:00:00","4","-10.9145","-165.8393","4.57","PUKAPUKA AIRPORT, CW","FM-15","99999","V020","090,1,N,0010,1","99999,9,9,N","999999,9,9,9","+0250,1","+0240,1","99999,9",,,"10120,1,99999,9",,"MET056METAR NCPK 301100Z AUTO 09002KT //// ////// 25/24 Q1012=",
"91812099999","2023-05-30T12:00:00","4","-10.9145","-165.8393","4.57","PUKAPUKA AIRPORT, CW","FM-12","99999","V020","070,1,N,0005,1","99999,9,9,N","999999,9,9,9","+0257,1","+0244,1","10116,1","06,0002,3,1","240,M,+0316,1","99999,9,10129,1","8,1,013,1,+999,9","SYN06491812 16/// /0701 10257 20244 30129 40116 58013 69921 333 10316=",
"91812099999","2023-05-30T12:00:00","4","-10.9145","-165.8393","4.57","PUKAPUKA AIRPORT, CW","FM-15","99999","V020","070,1,N,0005,1","99999,9,9,N","999999,9,9,9","+0260,1","+0240,1","99999,9",,,"10110,1,99999,9",,"MET056METAR NCPK 301200Z AUTO 07001KT //// ////// 26/24 Q1011=",
"91812099999","2023-05-30T13:00:00","4","-10.9145","-165.8393","4.57","PUKAPUKA AIRPORT, CW","FM-15","99999","V020","080,1,N,0005,1","99999,9,9,N","999999,9,9,9","+0250,1","+0240,1","99999,9",,,"10110,1,99999,9",,"MET056METAR NCPK 301300Z AUTO 08001KT //// ////// 25/24 Q1011=",
"91812099999","2023-05-30T14:00:00","4","-10.9145","-165.8393","4.57","PUKAPUKA AIRPORT, CW","FM-15","99999","V020","070,1,N,0005,1","99999,9,9,N","999999,9,9,9","+0260,1","+0240,1","99999,9",,,"10100,1,99999,9",,"MET056METAR NCPK 301400Z AUTO 07001KT //// ////// 26/24 Q1010=",
"91812099999","2023-05-30T15:00:00","4","-10.9145","-165.8393","4.57","PUKAPUKA AIRPORT, CW","FM-12","99999","V020","070,1,N,0005,1","99999,9,9,N","999999,9,9,9","+0250,1","+0241,1","10104,1",,,"99999,9,10111,1","6,1,007,1,+999,9","SYN04891812 46/// /0701 10250 20241 30111 40104 56007=",
"91812099999","2023-05-30T15:00:00","4","-10.9145","-165.8393","4.57","PUKAPUKA AIRPORT, CW","FM-15","99999","V020","070,1,N,0005,1","99999,9,9,N","999999,9,9,9","+0250,1","+0240,1","99999,9",,,"10100,1,99999,9",,"MET056METAR NCPK 301500Z AUTO 07001KT //// ////// 25/24 Q1010=",
"91812099999","2023-05-30T16:00:00","4","-10.9145","-165.8393","4.57","PUKAPUKA AIRPORT, CW","FM-15","99999","V020","060,1,N,0005,1","99999,9,9,N","999999,9,9,9","+0260,1","+0240,1","99999,9",,,"10110,1,99999,9",,"MET056METAR NCPK 301600Z AUTO 06001KT //// ////// 26/24 Q1011=",
"91812099999","2023-05-30T17:00:00","4","-10.9145","-165.8393","4.57","PUKAPUKA AIRPORT, CW","FM-15","99999","V020","070,1,N,0005,1","99999,9,9,N","999999,9,9,9","+0260,1","+0240,1","99999,9",,,"10110,1,99999,9",,"MET056METAR NCPK 301700Z AUTO 07001KT //// ////// 26/24 Q1011=",
"91812099999","2023-05-30T18:00:00","4","-10.9145","-165.8393","4.57","PUKAPUKA AIRPORT, CW","FM-12","99999","V020","090,1,N,0005,1","99999,9,9,N","999999,9,9,9","+0250,1","+0239,1","10120,1","06,0000,9,1",,"99999,9,10104,1","2,1,016,1,+999,9","SYN05491812 16/// /0901 10250 20239 30104 40120 52016 60001=",
"91812099999","2023-05-30T18:00:00","4","-10.9145","-165.8393","4.57","PUKAPUKA AIRPORT, CW","FM-15","99999","V020","090,1,N,0005,1","99999,9,9,N","999999,9,9,9","+0250,1","+0240,1","99999,9",,,"10120,1,99999,9",,"MET056METAR NCPK 301800Z AUTO 09001KT //// ////// 25/24 Q1012=",
"91812099999","2023-05-30T19:00:00","4","-10.9145","-165.8393","4.57","PUKAPUKA AIRPORT, CW","FM-15","99999","V020","070,1,N,0010,1","99999,9,9,N","999999,9,9,9","+0290,1","+0240,1","99999,9",,,"10120,1,99999,9",,"MET056METAR NCPK 301900Z AUTO 07002KT //// ////// 29/24 Q1012=",
"91812099999","2023-05-30T20:00:00","4","-10.9145","-165.8393","4.57","PUKAPUKA AIRPORT, CW","FM-15","99999","V020","120,1,N,0021,1","99999,9,9,N","999999,9,9,9","+0300,1","+0250,1","99999,9",,,"10130,1,99999,9",,"MET056METAR NCPK 302000Z AUTO 12004KT //// ////// 30/25 Q1013=",
"91812099999","2023-05-30T21:00:00","4","-10.9145","-165.8393","4.57","PUKAPUKA AIRPORT, CW","FM-12","99999","V020","090,1,N,0010,1","99999,9,9,N","999999,9,9,9","+0295,1","+0250,1","10129,1",,,"99999,9,10122,1","9,9,007,1,+999,9","SYN04891812 46/// /0902 10295 20250 30122 40129 50007=",
"91812099999","2023-05-30T21:00:00","4","-10.9145","-165.8393","4.57","PUKAPUKA AIRPORT, CW","FM-15","99999","V020","090,1,N,0010,1","99999,9,9,N","999999,9,9,9","+0300,1","+0250,1","99999,9",,,"10120,1,99999,9",,"MET056METAR NCPK 302100Z AUTO 09002KT //// ////// 30/25 Q1012=",
"91812099999","2023-05-30T22:00:00","4","-10.9145","-165.8393","4.57","PUKAPUKA AIRPORT, CW","FM-15","99999","V020","110,1,N,0021,1","99999,9,9,N","999999,9,9,9","+0300,1","+0240,1","99999,9",,,"10120,1,99999,9",,"MET056METAR NCPK 302200Z AUTO 11004KT //// ////// 30/24 Q1012=",
"91812099999","2023-05-30T23:00:00","4","-10.9145","-165.8393","4.57","PUKAPUKA AIRPORT, CW","FM-15","99999","V020","120,1,N,0021,1","99999,9,9,N","999999,9,9,9","+0310,1","+0240,1","99999,9",,,"10120,1,99999,9",,"MET056METAR NCPK 302300Z AUTO 12004KT //// ////// 31/24 Q1012=",
"91812099999","2023-05-31T00:00:00","4","-10.9145","-165.8393","4.57","PUKAPUKA AIRPORT, CW","FM-12","99999","V020","100,1,N,0015,1","99999,9,9,N","999999,9,9,9","+0305,1","+0241,1","10104,1","06,0000,9,1","120,N,+0235,1","99999,9,10129,1","8,1,025,1,+999,9","SYN07691812 16/// /1003 10305 20241 30129 40104 58025 60001 333 20235 333 3 70000=",
"91812099999","2023-05-31T00:00:00","4","-10.9145","-165.8393","4.57","PUKAPUKA AIRPORT, CW","FM-15","99999","V020","100,1,N,0015,1","99999,9,9,N","999999,9,9,9","+0310,1","+0240,1","99999,9",,,"10110,1,99999,9",,"MET056METAR NCPK 310000Z AUTO 10003KT //// ////// 31/24 Q1011=",
"91812099999","2023-05-31T01:00:00","4","-10.9145","-165.8393","4.57","PUKAPUKA AIRPORT, CW","FM-15","99999","V020","040,1,N,0015,1","99999,9,9,N","999999,9,9,9","+0300,1","+0250,1","99999,9",,,"10100,1,99999,9",,"MET056METAR NCPK 310100Z AUTO 04003KT //// ////// 30/25 Q1010=",
"91812099999","2023-05-31T02:00:00","4","-10.9145","-165.8393","4.57","PUKAPUKA AIRPORT, CW","FM-15","99999","V020","060,1,N,0015,1","99999,9,9,N","999999,9,9,9","+0300,1","+0240,1","99999,9",,,"10090,1,99999,9",,"MET056METAR NCPK 310200Z AUTO 06003KT //// ////// 30/24 Q1009=",
"91812099999","2023-05-31T03:00:00","4","-10.9145","-165.8393","4.57","PUKAPUKA AIRPORT, CW","FM-12","99999","V020","120,1,N,0010,1","99999,9,9,N","999999,9,9,9","+0303,1","+0240,1","10097,1",,,"99999,9,10104,1","8,1,007,1,+999,9","SYN04891812 46/// /1202 10303 20240 30104 40097 58007=",
"91812099999","2023-05-31T03:00:00","4","-10.9145","-165.8393","4.57","PUKAPUKA AIRPORT, CW","FM-15","99999","V020","120,1,N,0010,1","99999,9,9,N","999999,9,9,9","+0300,1","+0240,1","99999,9",,,"10090,1,99999,9",,"MET056METAR NCPK 310300Z AUTO 12002KT //// ////// 30/24 Q1009=",
"91812099999","2023-05-31T04:00:00","4","-10.9145","-165.8393","4.57","PUKAPUKA AIRPORT, CW","FM-15","99999","V020","120,1,N,0010,1","99999,9,9,N","999999,9,9,9","+0290,1","+0240,1","99999,9",,,"10090,1,99999,9",,"MET056METAR NCPK 310400Z AUTO 12002KT //// ////// 29/24 Q1009=",
"91812099999","2023-05-31T05:00:00","4","-10.9145","-165.8393","4.57","PUKAPUKA AIRPORT, CW","FM-15","99999","V020","130,1,N,0005,1","99999,9,9,N","999999,9,9,9","+0280,1","+0240,1","99999,9",,,"10100,1,99999,9",,"MET056METAR NCPK 310500Z AUTO 13001KT //// ////// 28/24 Q1010=",
"91812099999","2023-05-31T06:00:00","4","-10.9145","-165.8393","4.57","PUKAPUKA AIRPORT, CW","FM-12","99999","V020","110,1,N,0010,1","99999,9,9,N","999999,9,9,9","+0276,1","+0239,1","10107,1","06,0002,3,1",,"99999,9,10097,1","1,1,010,1,+999,9","SYN05491812 16/// /1102 10276 20239 30097 40107 51010 69921=",
"91812099999","2023-05-31T06:00:00","4","-10.9145","-165.8393","4.57","PUKAPUKA AIRPORT, CW","FM-15","99999","V020","110,1,N,0010,1","99999,9,9,N","999999,9,9,9","+0280,1","+0240,1","99999,9",,,,,"MET056METAR NCPK 310600Z AUTO 11002KT //// ////// 28/24 Q1017=","Q011017  3APOA  "
"91812099999","2023-05-31T07:00:00","4","-10.9145","-165.8393","4.57","PUKAPUKA AIRPORT, CW","FM-15","99999","V020","120,1,N,0010,1","99999,9,9,N","999999,9,9,9","+0280,1","+0240,1","99999,9",,,"10110,1,99999,9",,"MET056METAR NCPK 310700Z AUTO 12002KT //// ////// 28/24 Q1011=",
"91812099999","2023-05-31T08:00:00","4","-10.9145","-165.8393","4.57","PUKAPUKA AIRPORT, CW","FM-15","99999","V020","090,1,N,0005,1","99999,9,9,N","999999,9,9,9","+0280,1","+0240,1","99999,9",,,"10110,1,99999,9",,"MET056METAR NCPK 310800Z AUTO 09001KT //// ////// 28/24 Q1011=",
"91812099999","2023-05-31T09:00:00","4","-10.9145","-165.8393","4.57","PUKAPUKA AIRPORT, CW","FM-12","99999","V020","120,1,N,0010,1","99999,9,9,N","999999,9,9,9","+0272,1","+0243,1","10116,1",,,"99999,9,10107,1","1,1,009,1,+999,9","SYN04891812 46/// /1202 10272 20243 30107 40116 51009=",
"91812099999","2023-05-31T09:00:00","4","-10.9145","-165.8393","4.57","PUKAPUKA AIRPORT, CW","FM-15","99999","V020","120,1,N,0010,1","99999,9,9,N","999999,9,9,9","+0270,1","+0240,1","99999,9",,,"10110,1,99999,9",,"MET056METAR NCPK 310900Z AUTO 12002KT //// ////// 27/24 Q1011=",
"91812099999","2023-05-31T10:00:00","4","-10.9145","-165.8393","4.57","PUKAPUKA AIRPORT, CW","FM-15","99999","V020","090,1,N,0010,1","99999,9,9,N","999999,9,9,9","+0270,1","+0240,1","99999,9",,,"10110,1,99999,9",,"MET056METAR NCPK 311000Z AUTO 09002KT //// ////// 27/24 Q1011=",
"91812099999","2023-05-31T11:00:00","4","-10.9145","-165.8393","4.57","PUKAPUKA AIRPORT, CW","FM-15","99999","V020","120,1,N,0010,1","99999,9,9,N","999999,9,9,9","+0270,1","+0240,1","99999,9",,,"10110,1,99999,9",,"MET056METAR NCPK 311100Z AUTO 12002KT //// ////// 27/24 Q1011=",
"91812099999","2023-05-31T12:00:00","4","-10.9145","-165.8393","4.57","PUKAPUKA AIRPORT, CW","FM-12","99999","V020","140,1,N,0010,1","99999,9,9,N","999999,9,9,9","+0272,1","+0240,1","10113,1","06,0002,3,1","240,M,+0323,1","99999,9,10116,1","7,1,003,1,+999,9","SYN06491812 16/// /1402 10272 20240 30116 40113 57003 69921 333 10323=",
"91812099999","2023-05-31T12:00:00","4","-10.9145","-165.8393","4.57","PUKAPUKA AIRPORT, CW","FM-15","99999","V020","140,1,N,0010,1","99999,9,9,N","999999,9,9,9","+0270,1","+0240,1","99999,9",,,"10110,1,99999,9",,"MET056METAR NCPK 311200Z AUTO 14002KT //// ////// 27/24 Q1011=",
"91812099999","2023-05-31T13:00:00","4","-10.9145","-165.8393","4.57","PUKAPUKA AIRPORT, CW","FM-15","99999","V020","140,1,N,0010,1","99999,9,9,N","999999,9,9,9","+0270,1","+0240,1","99999,9",,,"10110,1,99999,9",,"MET056METAR NCPK 311300Z AUTO 14002KT //// ////// 27/24 Q1011=",
"91812099999","2023-05-31T14:00:00","4","-10.9145","-165.8393","4.57","PUKAPUKA AIRPORT, CW","FM-15","99999","V020","140,1,N,0010,1","99999,9,9,N","999999,9,9,9","+0270,1","+0240,1","99999,9",,,"10110,1,99999,9",,"MET056METAR NCPK 311400Z AUTO 14002KT //// ////// 27/24 Q1011=",
"91812099999","2023-05-31T15:00:00","4","-10.9145","-165.8393","4.57","PUKAPUKA AIRPORT, CW","FM-12","99999","V020","120,1,N,0010,1","99999,9,9,N","999999,9,9,9","+0272,1","+0240,1","10113,1",,,"99999,9,10113,1","4,9,000,1,+999,9","SYN04891812 46/// /1202 10272 20240 30113 40113 57000=","Q017     3APCTEN"
"91812099999","2023-05-31T15:00:00","4","-10.9145","-165.8393","4.57","PUKAPUKA AIRPORT, CW","FM-15","99999","V020","140,1,N,0010,1","99999,9,9,N","999999,9,9,9","+0270,1","+0240,1","99999,9",,,"10110,1,99999,9",,"MET056METAR NCPK 311500Z AUTO 14002KT //// ////// 27/24 Q1011=",
"91812099999","2023-06-01T21:00:00","4","-10.9145","-165.8393","4.57","PUKAPUKA AIRPORT, CW","FM-12","99999","V020","340,1,N,0010,1","99999,9,9,N","999999,9,9,9","+0271,1","+0252,1","10120,1",,,"99999,9,10111,1","2,1,009,1,+999,9","SYN04891812 46/// /3402 10271 20252 30111 40120 52009=",
"91812099999","2023-06-01T22:00:00","4","-10.9145","-165.8393","4.57","PUKAPUKA AIRPORT, CW","FM-15","99999","V020","070,1,N,0015,1","99999,9,9,N","999999,9,9,9","+0300,1","+0240,1","99999,9",,,"10110,1,99999,9",,"MET056METAR NCPK 012200Z AUTO 07003KT //// ////// 30/24 Q1011=",
"91812099999","2023-06-01T23:00:00","4","-10.9145","-165.8393","4.57","PUKAPUKA AIRPORT, CW","FM-15","99999","V020","100,1,N,0015,1","99999,9,9,N","999999,9,9,9","+0280,1","+0240,1","99999,9",,,"10110,1,99999,9",,"MET056METAR NCPK 012300Z AUTO 10003KT //// ////// 28/24 Q1011=",
"91812099999","2023-06-02T00:00:00","4","-10.9145","-165.8393","4.57","PUKAPUKA AIRPORT, CW","FM-12","99999","V020","110,1,N,0015,1","99999,9,9,N","999999,9,9,9","+0289,1","+0250,1","10101,1","06,0000,9,1","120,N,+0235,1","99999,9,10120,1","7,1,019,1,+999,9","SYN07491812 16/// /1103 10289 20250 30120 40101 57019 60001 333 20235 333 70002=",
"91812099999","2023-06-02T00:00:00","4","-10.9145","-165.8393","4.57","PUKAPUKA AIRPORT, CW","FM-15","99999","V020","110,1,N,0015,1","99999,9,9,N","999999,9,9,9","+0290,1","+0250,1","99999,9",,,"10100,1,99999,9",,"MET056METAR NCPK 020000Z AUTO 11003KT //// ////// 29/25 Q1010=",
"91812099999","2023-06-02T01:00:00","4","-10.9145","-165.8393","4.57","PUKAPUKA AIRPORT, CW","FM-15","99999","V020","110,1,N,0015,1","99999,9,9,N","999999,9,9,9","+0290,1","+0250,1","99999,9",,,"10100,1,99999,9",,"MET056METAR NCPK 020100Z AUTO 11003KT //// ////// 29/25 Q1010=",
"91812099999","2023-06-02T02:00:00","4","-10.9145","-165.8393","4.57","PUKAPUKA AIRPORT, CW","FM-15","99999","V020","120,1,N,0021,1","99999,9,9,N","999999,9,9,9","+0280,1","+0260,1","99999,9",,,"10090,1,99999,9",,"MET056METAR NCPK 020200Z AUTO 12004KT //// ////// 28/26 Q1009=",
"91812099999","2023-06-02T03:00:00","4","-10.9145","-165.8393","4.57","PUKAPUKA AIRPORT, CW","FM-12","99999","V020","120,1,N,0015,1","99999,9,9,N","999999,9,9,9","+0282,1","+0253,1","10094,1",,,"99999,9,10101,1","5,1,007,1,+999,9","SYN04891812 46/// /1203 10282 20253 30101 40094 55007=",
"91812099999","2023-06-02T03:00:00","4","-10.9145","-165.8393","4.57","PUKAPUKA AIRPORT, CW","FM-15","99999","V020","120,1,N,0015,1","99999,9,9,N","999999,9,9,9","+0280,1","+0250,1","99999,9",,,"10090,1,99999,9",,"MET056METAR NCPK 020300Z AUTO 12003KT //// ////// 28/25 Q1009=",
"91812099999","2023-06-02T04:00:00","4","-10.9145","-165.8393","4.57","PUKAPUKA AIRPORT, CW","FM-15","99999","V020","110,1,N,0010,1","99999,9,9,N","999999,9,9,9","+0280,1","+0250,1","99999,9",,,"10090,1,99999,9",,"MET056METAR NCPK 020400Z AUTO 11002KT //// ////// 28/25 Q1009=",
"91812099999","2023-06-02T05:00:00","4","-10.9145","-165.8393","4.57","PUKAPUKA AIRPORT, CW","FM-15","99999","V020","180,1,N,0005,1","99999,9,9,N","999999,9,9,9","+0280,1","+0250,1","99999,9",,,"10100,1,99999,9",,"MET056METAR NCPK 020500Z AUTO 18001KT //// ////// 28/25 Q1010=",
"91812099999","2023-06-02T06:00:00","4","-10.9145","-165.8393","4.57","PUKAPUKA AIRPORT, CW","FM-12","99999","V020","130,1,N,0005,1","99999,9,9,N","999999,9,9,9","+0270,1","+0210,1","10108,1","06,0000,9,1",,"99999,9,10094,1","2,1,014,1,+999,9","SYN05491812 16/// /1301 10270 20210 30094 40108 52014 60001=",
"91812099999","2023-06-02T06:00:00","4","-10.9145","-165.8393","4.57","PUKAPUKA AIRPORT, CW","FM-15","99999","V020","130,1,N,0005,1","99999,9,9,N","999999,9,9,9","+0270,1","+0250,1","99999,9",,,"10100,1,99999,9",,"MET056METAR NCPK 020600Z AUTO 13001KT //// ////// 27/25 Q1010=",
"91812099999","2023-06-02T07:00:00","4","-10.9145","-165.8393","4.57","PUKAPUKA AIRPORT, CW","FM-15","99999","V020","120,1,N,0010,1","99999,9,9,N","999999,9,9,9","+0270,1","+0250,1","99999,9",,,"10110,1,99999,9",,"MET056METAR NCPK 020700Z AUTO 12002KT //// ////// 27/25 Q1011=",
"91812099999","2023-06-02T08:00:00","4","-10.9145","-165.8393","4.57","PUKAPUKA AIRPORT, CW","FM-15","99999","V020","120,1,N,0015,1","99999,9,9,N","999999,9,9,9","+0250,1","+0250,1","99999,9",,,"10120,1,99999,9",,"MET056METAR NCPK 020800Z AUTO 12003KT //// ////// 25/25 Q1012=",
"91812099999","2023-06-02T09:00:00","4","-10.9145","-165.8393","4.57","PUKAPUKA AIRPORT, CW","FM-12","99999","V020","130,1,N,0021,1","99999,9,9,N","999999,9,9,9","+0273,1","+0250,1","10126,1",,,"99999,9,10108,1","3,1,018,1,+999,9","SYN04891812 46/// /1304 10273 20250 30108 40126 53018=",
"91812099999","2023-06-02T09:00:00","4","-10.9145","-165.8393","4.57","PUKAPUKA AIRPORT, CW","FM-15","99999","V020","130,1,N,0021,1","99999,9,9,N","999999,9,9,9","+0270,1","+0250,1","99999,9",,,"10120,1,99999,9",,"MET056METAR NCPK 020900Z AUTO 13004KT //// ////// 27/25 Q1012=",
"91812099999","2023-06-02T10:00:00","4","-10.9145","-165.8393","4.57","PUKAPUKA AIRPORT, CW","FM-15","99999","V020","110,1,N,0010,1","99999,9,9,N","999999,9,9,9","+0270,1","+0250,1","99999,9",,,"10120,1,99999,9",,"MET056METAR NCPK 021000Z AUTO 11002KT //// ////// 27/25 Q1012=",
"91812099999","2023-06-02T11:00:00","4","-10.9145","-165.8393","4.57","PUKAPUKA AIRPORT, CW","FM-15","99999","V020","110,1,N,0021,1","99999,9,9,N","999999,9,9,9","+0270,1","+0250,1","99999,9",,,"10110,1,99999,9",,"MET056METAR NCPK 021100Z AUTO 11004KT //// ////// 27/25 Q1011=",
"91812099999","2023-06-02T12:00:00","4","-10.9145","-165.8393","4.57","PUKAPUKA AIRPORT, CW","FM-12","99999","V020","190,1,N,0005,1","99999,9,9,N","999999,9,9,9","+0267,1","+0242,1","10118,1","06,0000,9,1","240,M,+0285,1","99999,9,10126,1","5,1,008,1,+999,9","SYN06491812 16/// /1901 10267 20242 30126 40118 55008 60001 333 10285=",
"91812099999","2023-06-02T12:00:00","4","-10.9145","-165.8393","4.57","PUKAPUKA AIRPORT, CW","FM-15","99999","V020","190,1,N,0005,1","99999,9,9,N","999999,9,9,9","+0270,1","+0240,1","99999,9",,,"10110,1,99999,9",,"MET056METAR NCPK 021200Z AUTO 19001KT //// ////// 27/24 Q1011=",
"91812099999","2023-06-02T13:00:00","4","-10.9145","-165.8393","4.57","PUKAPUKA AIRPORT, CW","FM-15","99999","V020","070,1,N,0005,1","99999,9,9,N","999999,9,9,9","+0260,1","+0240,1","99999,9",,,"10100,1,99999,9",,"MET056METAR NCPK 021300Z AUTO 07001KT //// ////// 26/24 Q1010=",
"91812099999","2023-06-02T14:00:00","4","-10.9145","-165.8393","4.57","PUKAPUKA AIRPORT, CW","FM-15","99999","V020","230,1,N,0005,1","99999,9,9,N","999999,9,9,9","+0250,1","+0240,1","99999,9",,,"10100,1,99999,9",,"MET056METAR NCPK 021400Z AUTO 23001KT //// ////// 25/24 Q1010=",
"91812099999","2023-06-02T15:00:00","4","-10.9145","-165.8393","4.57","PUKAPUKA AIRPORT, CW","FM-12","99999","V020","060,1,N,0005,1","99999,9,9,N","999999,9,9,9","+0265,1","+0245,1","10105,1",,,"99999,9,10118,1","5,1,013,1,+999,9","SYN04891812 46/// /0601 10265 20245 30118 40105 55013=",
"91812099999","2023-06-02T15:00:00","4","-10.9145","-165.8393","4.57","PUKAPUKA AIRPORT, CW","FM-15","99999","V020","060,1,N,0005,1","99999,9,9,N","999999,9,9,9","+0270,1","+0250,1","99999,9",,,"10100,1,99999,9",,"MET056METAR NCPK 021500Z AUTO 06001KT //// ////// 27/25 Q1010=",
"91812099999","2023-06-02T16:00:00","4","-10.9145","-165.8393","4.57","PUKAPUKA AIRPORT, CW","FM-15","99999","V020","060,1,N,0005,1","99999,9,9,N","999999,9,9,9","+0270,1","+0250,1","99999,9",,,"10100,1,99999,9",,"MET056METAR NCPK 021600Z AUTO 06001KT //// ////// 27/25 Q1010=",
"91812099999","2023-06-02T17:00:00","4","-10.9145","-165.8393","4.57","PUKAPUKA AIRPORT, CW","FM-15","99999","V020","130,1,N,0005,1","99999,9,9,N","999999,9,9,9","+0260,1","+0250,1","99999,9",,,"10110,1,99999,9",,"MET056METAR NCPK 021700Z AUTO 13001KT //// ////// 26/25 Q1011=",
"91812099999","2023-06-02T18:00:00","4","-10.9145","-165.8393","4.57","PUKAPUKA AIRPORT, CW","FM-15","99999","V020","140,1,N,0005,1","99999,9,9,N","999999,9,9,9","+0270,1","+0250,1","99999,9",,,"10110,1,99999,9",,"MET056METAR NCPK 021800Z AUTO 14001KT //// ////// 27/25 Q1011=",
"91812099999","2023-06-02T19:00:00","4","-10.9145","-165.8393","4.57","PUKAPUKA AIRPORT, CW","FM-15","99999","V020","150,1,N,0005,1","99999,9,9,N","999999,9,9,9","+0300,1","+0250,1","99999,9",,,"10120,1,99999,9",,"MET056METAR NCPK 021900Z AUTO 15001KT //// ////// 30/25 Q1012=",
"91812099999","2023-06-02T20:00:00","4","-10.9145","-165.8393","4.57","PUKAPUKA AIRPORT, CW","FM-15","99999","V020","170,1,N,0010,1","99999,9,9,N","999999,9,9,9","+0270,1","+0250,1","99999,9",,,"10130,1,99999,9",,"MET056METAR NCPK 022000Z AUTO 17002KT //// ////// 27/25 Q1013=",
"91812099999","2023-06-02T21:00:00","4","-10.9145","-165.8393","4.57","PUKAPUKA AIRPORT, CW","FM-12","99999","V020","240,1,N,0021,1","99999,9,9,N","999999,9,9,9","+0258,1","+0245,1","10137,1",,,"99999,9,10130,1","9,9,007,1,+999,9","SYN04891812 46/// /2404 10258 20245 30130 40137 50007=",
"91812099999","2023-06-02T21:00:00","4","-10.9145","-165.8393","4.57","PUKAPUKA AIRPORT, CW","FM-15","99999","V020","240,1,N,0021,1","99999,9,9,N","999999,9,9,9","+0260,1","+0250,1","99999,9",,,"10130,1,99999,9",,"MET056METAR NCPK 022100Z AUTO 24004KT //// ////// 26/25 Q1013=",
"91812099999","2023-06-02T22:00:00","4","-10.9145","-165.8393","4.57","PUKAPUKA AIRPORT, CW","FM-15","99999","V020","230,1,N,0015,1","99999,9,9,N","999999,9,9,9","+0300,1","+0250,1","99999,9",,,"10130,1,99999,9",,"MET056METAR NCPK 022200Z AUTO 23003KT //// ////// 30/25 Q1013=",
"91812099999","2023-06-02T23:00:00","4","-10.9145","-165.8393","4.57","PUKAPUKA AIRPORT, CW","FM-15","99999","V020","130,1,N,0010,1","99999,9,9,N","999999,9,9,9","+0260,1","+0250,1","99999,9",,,"10120,1,99999,9",,"MET056METAR NCPK 022300Z AUTO 13002KT //// ////// 26/25 Q1012=",
"91812099999","2023-06-03T00:00:00","4","-10.9145","-165.8393","4.57","PUKAPUKA AIRPORT, CW","FM-12","99999","V020","360,1,N,0005,1","99999,9,9,N","999999,9,9,9","+0295,1","+0250,1","10108,1","06,0160,3,1","120,N,+0244,1","99999,9,10128,1","7,1,020,1,+999,9","SYN07691812 16/// /3601 10295 20250 30128 40108 57020 60161 333 20244 333 3 70036=",
"91812099999","2023-06-03T00:00:00","4","-10.9145","-165.8393","4.57","PUKAPUKA AIRPORT, CW","FM-15","99999","V020","360,1,N,0005,1","99999,9,9,N","999999,9,9,9","+0300,1","+0250,1","99999,9",,,"10110,1,99999,9",,"MET056METAR NCPK 030000Z AUTO 36001KT //// ////// 30/25 Q1011=",
"91812099999","2023-06-03T01:00:00","4","-10.9145","-165.8393","4.57","PUKAPUKA AIRPORT, CW","FM-15","99999","V020","210,1,N,0005,1","99999,9,9,N","999999,9,9,9","+0260,1","+0250,1","99999,9",,,"10100,1,99999,9",,"MET056METAR NCPK 030100Z AUTO 21001KT //// ////// 26/25 Q1010=",
"91812099999","2023-06-03T02:00:00","4","-10.9145","-165.8393","4.57","PUKAPUKA AIRPORT, CW","FM-15","99999","V020","220,1,N,0015,1","99999,9,9,N","999999,9,9,9","+0280,1","+0240,1","99999,9",,,"10100,1,99999,9",,"MET056METAR NCPK 030200Z AUTO 22003KT //// ////// 28/24 Q1010=",
"91812099999","2023-06-03T03:00:00","4","-10.9145","-165.8393","4.57","PUKAPUKA AIRPORT, CW","FM-12","99999","V020","220,1,N,0015,1","99999,9,9,N","999999,9,9,9","+0281,1","+0242,1","10102,1",,,"99999,9,10108,1","5,1,006,1,+999,9","SYN04891812 46/// /2203 10281 20242 30108 40102 55006=",
"91812099999","2023-06-03T03:00:00","4","-10.9145","-165.8393","4.57","PUKAPUKA AIRPORT, CW","FM-15","99999","V020","220,1,N,0015,1","99999,9,9,N","999999,9,9,9","+0280,1","+0240,1","99999,9",,,"10100,1,99999,9",,"MET056METAR NCPK 030300Z AUTO 22003KT //// ////// 28/24 Q1010=",
"91812099999","2023-06-03T04:00:00","4","-10.9145","-165.8393","4.57","PUKAPUKA AIRPORT, CW","FM-15","99999","V020","220,1,N,0010,1","99999,9,9,N","999999,9,9,9","+0280,1","+0250,1","99999,9",,,"10100,1,99999,9",,"MET056METAR NCPK 030400Z AUTO 22002KT //// ////// 28/25 Q1010=",
"91812099999","2023-06-03T05:00:00","4","-10.9145","-165.8393","4.57","PUKAPUKA AIRPORT, CW","FM-15","99999","V020","220,1,N,0015,1","99999,9,9,N","999999,9,9,9","+0270,1","+0240,1","99999,9",,,"10110,1,99999,9",,"MET056METAR NCPK 030500Z AUTO 22003KT //// ////// 27/24 Q1011=",
"91812099999","2023-06-03T06:00:00","4","-10.9145","-165.8393","4.57","PUKAPUKA AIRPORT, CW","FM-12","99999","V020","220,1,N,0015,1","99999,9,9,N","999999,9,9,9","+0270,1","+0242,1","10114,1","06,0030,3,1",,"99999,9,10102,1","2,1,012,1,+999,9","SYN05491812 16/// /2203 10270 20242 30102 40114 52012 60031=",
"91812099999","2023-06-03T06:00:00","4","-10.9145","-165.8393","4.57","PUKAPUKA AIRPORT, CW","FM-15","99999","V020","220,1,N,0015,1","99999,9,9,N","999999,9,9,9","+0270,1","+0240,1","99999,9",,,"10110,1,99999,9",,"MET056METAR NCPK 030600Z AUTO 22003KT //// ////// 27/24 Q1011=",
"91812099999","2023-06-03T07:00:00","4","-10.9145","-165.8393","4.57","PUKAPUKA AIRPORT, CW","FM-15","99999","V020","230,1,N,0015,1","99999,9,9,N","999999,9,9,9","+0270,1","+0240,1","99999,9",,,"10120,1,99999,9",,"MET056METAR NCPK 030700Z AUTO 23003KT //// ////// 27/24 Q1012=",
"91812099999","2023-06-03T08:00:00","4","-10.9145","-165.8393","4.57","PUKAPUKA AIRPORT, CW","FM-15","99999","V020","230,1,N,0021,1","99999,9,9,N","999999,9,9,9","+0280,1","+0240,1","99999,9",,,"10120,1,99999,9",,"MET056METAR NCPK 030800Z AUTO 23004KT //// ////// 28/24 Q1012=",
"91812099999","2023-06-03T09:00:00","4","-10.9145","-165.8393","4.57","PUKAPUKA AIRPORT, CW","FM-12","99999","V020","220,1,N,0021,1","99999,9,9,N","999999,9,9,9","+0275,1","+0243,1","10127,1",,,"99999,9,10114,1","2,1,013,1,+999,9","SYN04891812 46/// /2204 10275 20243 30114 40127 52013=",
"91812099999","2023-06-03T09:00:00","4","-10.9145","-165.8393","4.57","PUKAPUKA AIRPORT, CW","FM-15","99999","V020","220,1,N,0021,1","99999,9,9,N","999999,9,9,9","+0280,1","+0240,1","99999,9",,,"10120,1,99999,9",,"MET056METAR NCPK 030900Z AUTO 22004KT //// ////// 28/24 Q1012=",
"91812099999","2023-06-03T10:00:00","4","-10.9145","-165.8393","4.57","PUKAPUKA AIRPORT, CW","FM-15","99999","V020","230,1,N,0021,1","99999,9,9,N","999999,9,9,9","+0280,1","+0240,1","99999,9",,,"10120,1,99999,9",,"MET056METAR NCPK 031000Z AUTO 23004KT //// ////// 28/24 Q1012=",
"91812099999","2023-06-03T11:00:00","4","-10.9145","-165.8393","4.57","PUKAPUKA AIRPORT, CW","FM-15","99999","V020","220,1,N,0015,1","99999,9,9,N","999999,9,9,9","+0270,1","+0250,1","99999,9",,,"10110,1,99999,9",,"MET056METAR NCPK 031100Z AUTO 22003KT //// ////// 27/25 Q1011=",
"91812099999","2023-06-03T12:00:00","4","-10.9145","-165.8393","4.57","PUKAPUKA AIRPORT, CW","FM-12","99999","V020","180,1,N,0015,1","99999,9,9,N","999999,9,9,9","+0269,1","+0246,1","10108,1","06,0000,9,1","240,M,+0319,1","99999,9,10121,1","6,1,013,1,+999,9","SYN06491812 16/// /1803 10269 20246 30121 40108 56013 60001 333 10319=",
"91812099999","2023-06-03T12:00:00","4","-10.9145","-165.8393","4.57","PUKAPUKA AIRPORT, CW","FM-15","99999","V020","180,1,N,0015,1","99999,9,9,N","999999,9,9,9","+0270,1","+0250,1","99999,9",,,"10110,1,99999,9",,"MET056METAR NCPK 031200Z AUTO 18003KT //// ////// 27/25 Q1011=",
"91812099999","2023-06-03T13:00:00","4","-10.9145","-165.8393","4.57","PUKAPUKA AIRPORT, CW","FM-15","99999","V020","190,1,N,0015,1","99999,9,9,N","999999,9,9,9","+0270,1","+0250,1","99999,9",,,"10110,1,99999,9",,"MET056METAR NCPK 031300Z AUTO 19003KT //// ////// 27/25 Q1011=",
"91812099999","2023-06-03T14:00:00","4","-10.9145","-165.8393","4.57","PUKAPUKA AIRPORT, CW","FM-15","99999","V020","190,1,N,0015,1","99999,9,9,N","999999,9,9,9","+0270,1","+0250,1","99999,9",,,"10110,1,99999,9",,"MET056METAR NCPK 031400Z AUTO 19003KT //// ////// 27/25 Q1011=",
"91812099999","2023-06-03T15:00:00","4","-10.9145","-165.8393","4.57","PUKAPUKA AIRPORT, CW","FM-12","99999","V020","200,1,N,0010,1","99999,9,9,N","999999,9,9,9","+0260,1","+0243,1","10101,1",,,"99999,9,10108,1","7,1,007,1,+999,9","SYN04891812 46/// /2002 10260 20243 30108 40101 57007=",
"91812099999","2023-06-03T15:00:00","4","-10.9145","-165.8393","4.57","PUKAPUKA AIRPORT, CW","FM-15","99999","V020","200,1,N,0010,1","99999,9,9,N","999999,9,9,9","+0260,1","+0240,1","99999,9",,,"10100,1,99999,9",,"MET056METAR NCPK 031500Z AUTO 20002KT //// ////// 26/24 Q1010=",
"91812099999","2023-06-03T16:00:00","4","-10.9145","-165.8393","4.57","PUKAPUKA AIRPORT, CW","FM-15","99999","V020","190,1,N,0010,1","99999,9,9,N","999999,9,9,9","+0260,1","+0240,1","99999,9",,,"10100,1,99999,9",,"MET056METAR NCPK 031600Z AUTO 19002KT //// ////// 26/24 Q1010=",
"91812099999","2023-06-03T17:00:00","4","-10.9145","-165.8393","4.57","PUKAPUKA AIRPORT, CW","FM-15","99999","V020","210,1,N,0010,1","99999,9,9,N","999999,9,9,9","+0260,1","+0240,1","99999,9",,,"10110,1,99999,9",,"MET056METAR NCPK 031700Z AUTO 21002KT //// ////// 26/24 Q1011=",
"91812099999","2023-06-03T18:00:00","4","-10.9145","-165.8393","4.57","PUKAPUKA AIRPORT, CW","FM-12","99999","V020","130,1,N,0005,1","99999,9,9,N","999999,9,9,9","+0261,1","+0244,1","10115,1","06,0000,9,1",,"99999,9,10101,1","3,1,014,1,+999,9","SYN05491812 16/// /1301 10261 20244 30101 40115 53014 60001=",
"91812099999","2023-06-03T18:00:00","4","-10.9145","-165.8393","4.57","PUKAPUKA AIRPORT, CW","FM-15","99999","V020","130,1,N,0005,1","99999,9,9,N","999999,9,9,9","+0260,1","+0250,1","99999,9",,,"10110,1,99999,9",,"MET056METAR NCPK 031800Z AUTO 13001KT //// ////// 26/25 Q1011=",
"91812099999","2023-06-03T19:00:00","4","-10.9145","-165.8393","4.57","PUKAPUKA AIRPORT, CW","FM-15","99999","V020","140,1,N,0005,1","99999,9,9,N","999999,9,9,9","+0260,1","+0250,1","99999,9",,,"10120,1,99999,9",,"MET056METAR NCPK 031900Z AUTO 14001KT //// ////// 26/25 Q1012=",
"91812099999","2023-06-03T20:00:00","4","-10.9145","-165.8393","4.57","PUKAPUKA AIRPORT, CW","FM-15","99999","V020","140,1,N,0010,1","99999,9,9,N","999999,9,9,9","+0260,1","+0250,1","99999,9",,,"10130,1,99999,9",,"MET056METAR NCPK 032000Z AUTO 14002KT //// ////// 26/25 Q1013=",
"91812099999","2023-06-03T21:00:00","4","-10.9145","-165.8393","4.57","PUKAPUKA AIRPORT, CW","FM-12","99999","V020","100,1,N,0010,1","99999,9,9,N","999999,9,9,9","+0265,1","+0250,1","10133,1",,,"99999,9,10115,1","9,9,018,1,+999,9","SYN04891812 46/// /1002 10265 20250 30115 40133 50018=",
"91812099999","2023-06-03T21:00:00","4","-10.9145","-165.8393","4.57","PUKAPUKA AIRPORT, CW","FM-15","99999","V020","100,1,N,0010,1","99999,9,9,N","999999,9,9,9","+0270,1","+0250,1","99999,9",,,"10130,1,99999,9",,"MET056METAR NCPK 032100Z AUTO 10002KT //// ////// 27/25 Q1013=",
"91812099999","2023-06-03T22:00:00","4","-10.9145","-165.8393","4.57","PUKAPUKA AIRPORT, CW","FM-15","99999","V020","090,1,N,0010,1","99999,9,9,N","999999,9,9,9","+0270,1","+0250,1","99999,9",,,"10130,1,99999,9",,"MET056METAR NCPK 032200Z AUTO 09002KT //// ////// 27/25 Q1013=",
"91812099999","2023-06-03T23:00:00","4","-10.9145","-165.8393","4.57","PUKAPUKA AIRPORT, CW","FM-15","99999","V020","090,1,N,0010,1","99999,9,9,N","999999,9,9,9","+0260,1","+0240,1","99999,9",,,"10120,1,99999,9",,"MET056METAR NCPK 032300Z AUTO 09002KT //// ////// 26/24 Q1012=",
"91812099999","2023-06-04T00:00:00","4","-10.9145","-165.8393","4.57","PUKAPUKA AIRPORT, CW","FM-12","99999","V020","130,1,N,0010,1","99999,9,9,N","999999,9,9,9","+0256,1","+0246,1","10115,1","06,0510,3,1","120,N,+0245,1","99999,9,10133,1","7,1,018,1,+999,9","SYN07691812 16/// /1302 10256 20246 30133 40115 57018 60511 333 20245 333 3 70204=",
"91812099999","2023-06-04T02:00:00","4","-10.9145","-165.8393","4.57","PUKAPUKA AIRPORT, CW","FM-15","99999","V020","110,1,N,0021,1","99999,9,9,N","999999,9,9,9","+0290,1","+0240,1","99999,9",,,"10090,1,99999,9",,"MET056METAR NCPK 040200Z AUTO 11004KT //// ////// 29/24 Q1009=",
"91812099999","2023-06-04T03:00:00","4","-10.9145","-165.8393","4.57","PUKAPUKA AIRPORT, CW","FM-12","99999","V020","130,1,N,0021,1","99999,9,9,N","999999,9,9,9","+0281,1","+0242,1","10096,1",,,"99999,9,10115,1","7,1,019,1,+999,9","SYN04891812 46/// /1304 10281 20242 30115 40096 57019=",
"91812099999","2023-06-04T03:00:00","4","-10.9145","-165.8393","4.57","PUKAPUKA AIRPORT, CW","FM-15","99999","V020","130,1,N,0021,1","99999,9,9,N","999999,9,9,9","+0280,1","+0240,1","99999,9",,,"10090,1,99999,9",,"MET056METAR NCPK 040300Z AUTO 13004KT //// ////// 28/24 Q1009=",
"91812099999","2023-06-04T04:00:00","4","-10.9145","-165.8393","4.57","PUKAPUKA AIRPORT, CW","FM-15","99999","V020","120,1,N,0021,1","99999,9,9,N","999999,9,9,9","+0280,1","+0240,1","99999,9",,,"10100,1,99999,9",,"MET056METAR NCPK 040400Z AUTO 12004KT //// ////// 28/24 Q1010=",
"91812099999","2023-06-04T05:00:00","4","-10.9145","-165.8393","4.57","PUKAPUKA AIRPORT, CW","FM-15","99999","V020","150,1,N,0010,1","99999,9,9,N","999999,9,9,9","+0270,1","+0250,1","99999,9",,,"10100,1,99999,9",,"MET056METAR NCPK 040500Z AUTO 15002KT //// ////// 27/25 Q1010=",
"91812099999","2023-06-04T06:00:00","4","-10.9145","-165.8393","4.57","PUKAPUKA AIRPORT, CW","FM-12","99999","V020","140,1,N,0010,1","99999,9,9,N","999999,9,9,9","+0295,1","+0249,1","10106,1","06,0020,3,1",,"99999,9,10096,1","3,1,010,1,+999,9","SYN05491812 16/// /1402 10295 20249 30096 40106 53010 60021=",
"91812099999","2023-06-04T06:00:00","4","-10.9145","-165.8393","4.57","PUKAPUKA AIRPORT, CW","FM-15","99999","V020","140,1,N,0010,1","99999,9,9,N","999999,9,9,9","+0300,1","+0250,1","99999,9",,,"10100,1,99999,9",,"MET056METAR NCPK 040600Z AUTO 14002KT //// ////// 30/25 Q1010=",
"91812099999","2023-06-04T07:00:00","4","-10.9145","-165.8393","4.57","PUKAPUKA AIRPORT, CW","FM-15","99999","V020","140,1,N,0015,1","99999,9,9,N","999999,9,9,9","+0270,1","+0240,1","99999,9",,,"10110,1,99999,9",,"MET056METAR NCPK 040700Z AUTO 14003KT //// ////// 27/24 Q1011=",
"91812099999","2023-06-04T08:00:00","4","-10.9145","-165.8393","4.57","PUKAPUKA AIRPORT, CW","FM-15","99999","V020","120,1,N,0015,1","99999,9,9,N","999999,9,9,9","+0280,1","+0250,1","99999,9",,,"10110,1,99999,9",,"MET056METAR NCPK 040800Z AUTO 12003KT //// ////// 28/25 Q1011=",
"91812099999","2023-06-04T09:00:00","4","-10.9145","-165.8393","4.57","PUKAPUKA AIRPORT, CW","FM-12","99999","V020","100,1,N,0015,1","99999,9,9,N","999999,9,9,9","+0270,1","+0247,1","10117,1",,,"99999,9,10106,1","1,1,011,1,+999,9","SYN04891812 46/// /1003 10270 20247 30106 40117 51011=",
"91812099999","2023-06-04T09:00:00","4","-10.9145","-165.8393","4.57","PUKAPUKA AIRPORT, CW","FM-15","99999","V020","100,1,N,0015,1","99999,9,9,N","999999,9,9,9","+0270,1","+0250,1","99999,9",,,"10110,1,99999,9",,"MET056METAR NCPK 040900Z AUTO 10003KT //// ////// 27/25 Q1011=",
"91812099999","2023-06-04T10:00:00","4","-10.9145","-165.8393","4.57","PUKAPUKA AIRPORT, CW","FM-15","99999","V020","100,1,N,0015,1","99999,9,9,N","999999,9,9,9","+0270,1","+0250,1","99999,9",,,"10110,1,99999,9",,"MET056METAR NCPK 041000Z AUTO 10003KT //// ////// 27/25 Q1011=",
"91812099999","2023-06-04T11:00:00","4","-10.9145","-165.8393","4.57","PUKAPUKA AIRPORT, CW","FM-15","99999","V020","110,1,N,0010,1","99999,9,9,N","999999,9,9,9","+0270,1","+0250,1","99999,9",,,"10110,1,99999,9",,"MET056METAR NCPK 041100Z AUTO 11002KT //// ////// 27/25 Q1011=",
"91812099999","2023-06-04T12:00:00","4","-10.9145","-165.8393","4.57","PUKAPUKA AIRPORT, CW","FM-12","99999","V020","090,1,N,0010,1","99999,9,9,N","999999,9,9,9","+0269,1","+0245,1","10110,1","06,0020,3,1","240,M,+0327,1","99999,9,10117,1","7,1,007,1,+999,9","SYN06491812 16/// /0902 10269 20245 30117 40110 57007 60021 333 10327=",
"91812099999","2023-06-04T12:00:00","4","-10.9145","-165.8393","4.57","PUKAPUKA AIRPORT, CW","FM-15","99999","V020","090,1,N,0010,1","99999,9,9,N","999999,9,9,9","+0270,1","+0250,1","99999,9",,,"10110,1,99999,9",,"MET056METAR NCPK 041200Z AUTO 09002KT //// ////// 27/25 Q1011=",
"91812099999","2023-06-05T06:00:00","4","-10.9145","-165.8393","4.57","PUKAPUKA AIRPORT, CW","FM-12","99999","V020","120,1,N,0015,1","99999,9,9,N","999999,9,9,9","+0271,1","+0245,1","10105,1","06,0006,3,1",,"99999,9,10089,1","3,1,016,1,+999,9","SYN05491812 16/// /1203 10271 20245 30089 40105 53016 69961=",
"91812099999","2023-06-05T09:00:00","4","-10.9145","-165.8393","4.57","PUKAPUKA AIRPORT, CW","FM-12","99999","V020","200,1,N,0010,1","99999,9,9,N","999999,9,9,9","+0252,1","+0241,1","10119,1",,,"99999,9,10105,1","2,1,014,1,+999,9","SYN04891812 46/// /2002 10252 20241 30105 40119 52014=",
"91812099999","2023-06-05T09:00:00","4","-10.9145","-165.8393","4.57","PUKAPUKA AIRPORT, CW","FM-15","99999","V020","200,1,N,0010,1","99999,9,9,N","999999,9,9,9","+0250,1","+0240,1","99999,9",,,"10110,1,99999,9",,"MET056METAR NCPK 050900Z AUTO 20002KT //// ////// 25/24 Q1011=",
"91812099999","2023-06-05T10:00:00","4","-10.9145","-165.8393","4.57","PUKAPUKA AIRPORT, CW","FM-15","99999","V020","130,1,N,0031,1","99999,9,9,N","999999,9,9,9","+0260,1","+0240,1","99999,9",,,"10110,1,99999,9",,"MET056METAR NCPK 051000Z AUTO 13006KT //// ////// 26/24 Q1011=",
"91812099999","2023-06-05T11:00:00","4","-10.9145","-165.8393","4.57","PUKAPUKA AIRPORT, CW","FM-15","99999","V020","160,1,N,0010,1","99999,9,9,N","999999,9,9,9","+0260,1","+0250,1","99999,9",,,"10110,1,99999,9",,"MET056METAR NCPK 051100Z AUTO 16002KT //// ////// 26/25 Q1011=",
"91812099999","2023-06-05T12:00:00","4","-10.9145","-165.8393","4.57","PUKAPUKA AIRPORT, CW","FM-12","99999","V020","130,1,N,0021,1","99999,9,9,N","999999,9,9,9","+0265,1","+0251,1","10113,1","06,0090,3,1","240,M,+0300,1","99999,9,10119,1","8,1,006,1,+999,9","SYN06491812 16/// /1304 10265 20251 30119 40113 58006 60091 333 10300=",
"91812099999","2023-06-05T12:00:00","4","-10.9145","-165.8393","4.57","PUKAPUKA AIRPORT, CW","FM-15","99999","V020","130,1,N,0021,1","99999,9,9,N","999999,9,9,9","+0240,1","+9999,9","99999,9",,,"10110,1,99999,9",,"MET056METAR NCPK 051200Z AUTO 13004KT //// ////// 24/25 Q1011=","Q0125    2ATOD  "
"91812099999","2023-06-05T13:00:00","4","-10.9145","-165.8393","4.57","PUKAPUKA AIRPORT, CW","FM-15","99999","V020","140,1,N,0010,1","99999,9,9,N","999999,9,9,9","+0260,1","+0250,1","99999,9",,,"10110,1,99999,9",,"MET056METAR NCPK 051300Z AUTO 14002KT //// ////// 26/25 Q1011=",
"91812099999","2023-06-05T14:00:00","4","-10.9145","-165.8393","4.57","PUKAPUKA AIRPORT, CW","FM-15","99999","V020","110,1,N,0021,1","99999,9,9,N","999999,9,9,9","+0250,1","+0240,1","99999,9",,,"10100,1,99999,9",,"MET056METAR NCPK 051400Z AUTO 11004KT //// ////// 25/24 Q1010=",
"91812099999","2023-06-05T15:00:00","4","-10.9145","-165.8393","4.57","PUKAPUKA AIRPORT, CW","FM-12","99999","V020","120,1,N,0021,1","99999,9,9,N","999999,9,9,9","+0257,1","+0247,1","10100,1",,,"99999,9,10113,1","7,1,013,1,+999,9","SYN04891812 46/// /1204 10257 20247 30113 40100 57013=",
"91812099999","2023-06-05T15:00:00","4","-10.9145","-165.8393","4.57","PUKAPUKA AIRPORT, CW","FM-15","99999","V020","120,1,N,0021,1","99999,9,9,N","999999,9,9,9","+0260,1","+0250,1","99999,9",,,"10100,1,99999,9",,"MET056METAR NCPK 051500Z AUTO 12004KT //// ////// 26/25 Q1010=",
"91812099999","2023-06-05T16:00:00","4","-10.9145","-165.8393","4.57","PUKAPUKA AIRPORT, CW","FM-15","99999","V020","120,1,N,0021,1","99999,9,9,N","999999,9,9,9","+0270,1","+0240,1","99999,9",,,"10100,1,99999,9",,"MET056METAR NCPK 051600Z AUTO 12004KT //// ////// 27/24 Q1010=",
"91812099999","2023-06-05T17:00:00","4","-10.9145","-165.8393","4.57","PUKAPUKA AIRPORT, CW","FM-15","99999","V020","120,1,N,0031,1","99999,9,9,N","999999,9,9,9","+0270,1","+0250,1","99999,9",,,"10110,1,99999,9",,"MET056METAR NCPK 051700Z AUTO 12006KT //// ////// 27/25 Q1011=",
"91812099999","2023-06-05T18:00:00","4","-10.9145","-165.8393","4.57","PUKAPUKA AIRPORT, CW","FM-12","99999","V020","130,1,N,0031,1","99999,9,9,N","999999,9,9,9","+0269,1","+0247,1","10113,1","06,0120,3,1",,"99999,9,10100,1","3,1,013,1,+999,9","SYN05491812 16/// /1306 10269 20247 30100 40113 53013 60121=",
"91812099999","2023-06-05T18:00:00","4","-10.9145","-165.8393","4.57","PUKAPUKA AIRPORT, CW","FM-15","99999","V020","130,1,N,0031,1","99999,9,9,N","999999,9,9,9","+0270,1","+0250,1","99999,9",,,"10110,1,99999,9",,"MET056METAR NCPK 051800Z AUTO 13006KT //// ////// 27/25 Q1011=",
"91812099999","2023-06-05T19:00:00","4","-10.9145","-165.8393","4.57","PUKAPUKA AIRPORT, CW","FM-15","99999","V020","140,1,N,0021,1","99999,9,9,N","999999,9,9,9","+0280,1","+0250,1","99999,9",,,"10110,1,99999,9",,"MET056METAR NCPK 051900Z AUTO 14004KT //// ////// 28/25 Q1011=",
"91812099999","2023-06-05T20:00:00","4","-10.9145","-165.8393","4.57","PUKAPUKA AIRPORT, CW","FM-15","99999","V020","150,1,N,0010,1","99999,9,9,N","999999,9,9,9","+0270,1","+0250,1","99999,9",,,"10120,1,99999,9",,"MET056METAR NCPK 052000Z AUTO 15002KT //// ////// 27/25 Q1012=",
"91812099999","2023-06-05T21:00:00","4","-10.9145","-165.8393","4.57","PUKAPUKA AIRPORT, CW","FM-12","99999","V020","120,1,N,0041,1","99999,9,9,N","999999,9,9,9","+0281,1","+0246,1","10124,1",,,"99999,9,10113,1","9,9,011,1,+999,9","SYN04891812 46/// /1208 10281 20246 30113 40124 50011=",
"91812099999","2023-06-05T21:00:00","4","-10.9145","-165.8393","4.57","PUKAPUKA AIRPORT, CW","FM-15","99999","V020","120,1,N,0041,1","99999,9,9,N","999999,9,9,9","+0280,1","+0250,1","99999,9",,,"10120,1,99999,9",,"MET056METAR NCPK 052100Z AUTO 12008KT //// ////// 28/25 Q1012=",
"91812099999","2023-06-05T22:00:00","4","-10.9145","-165.8393","4.57","PUKAPUKA AIRPORT, CW","FM-15","99999","V020","130,1,N,0036,1","99999,9,9,N","999999,9,9,9","+0280,1","+0250,1","99999,9",,,"10110,1,99999,9",,"MET056METAR NCPK 052200Z AUTO 13007KT //// ////// 28/25 Q1011=",
"91812099999","2023-06-05T23:00:00","4","-10.9145","-165.8393","4.57","PUKAPUKA AIRPORT, CW","FM-15","99999","V020","130,1,N,0036,1","99999,9,9,N","999999,9,9,9","+0280,1","+0250,1","99999,9",,,"10110,1,99999,9",,"MET056METAR NCPK 052300Z AUTO 13007KT //// ////// 28/25 Q1011=",
"91812099999","2023-06-06T00:00:00","4","-10.9145","-165.8393","4.57","PUKAPUKA AIRPORT, CW","FM-12","99999","V020","130,1,N,0036,1","99999,9,9,N","999999,9,9,9","+0284,1","+0249,1","10104,1","06,0080,3,1","120,N,+0235,1","99999,9,10124,1","8,1,020,1,+999,9","SYN07691812 16/// /1307 10284 20249 30124 40104 58020 60081 333 20235 3 333 70222=",
"91812099999","2023-06-06T00:00:00","4","-10.9145","-165.8393","4.57","PUKAPUKA AIRPORT, CW","FM-15","99999","V020","130,1,N,0036,1","99999,9,9,N","999999,9,9,9","+0280,1","+0250,1","99999,9",,,"10100,1,99999,9",,"MET056METAR NCPK 060000Z AUTO 13007KT //// ////// 28/25 Q1010=",
"91812099999","2023-06-06T01:00:00","4","-10.9145","-165.8393","4.57","PUKAPUKA AIRPORT, CW","FM-15","99999","V020","120,1,N,0036,1","99999,9,9,N","999999,9,9,9","+0270,1","+0250,1","99999,9",,,"10110,1,99999,9",,"MET056METAR NCPK 060100Z AUTO 12007KT //// ////// 27/25 Q1011=",
"91812099999","2023-06-06T02:00:00","4","-10.9145","-165.8393","4.57","PUKAPUKA AIRPORT, CW","FM-15","99999","V020","120,1,N,0026,1","99999,9,9,N","999999,9,9,9","+0280,1","+0250,1","99999,9",,,"10110,1,99999,9",,"MET056METAR NCPK 060200Z AUTO 12005KT //// ////// 28/25 Q1011=",
"91812099999","2023-06-06T03:00:00","4","-10.9145","-165.8393","4.57","PUKAPUKA AIRPORT, CW","FM-12","99999","V020","150,1,N,0021,1","99999,9,9,N","999999,9,9,9","+0278,1","+0251,1","10106,1",,,"99999,9,10104,1","7,1,002,1,+999,9","SYN04891812 46/// /1504 10278 20251 30104 40106 57002=",
"91812099999","2023-06-06T03:00:00","4","-10.9145","-165.8393","4.57","PUKAPUKA AIRPORT, CW","FM-15","99999","V020","150,1,N,0021,1","99999,9,9,N","999999,9,9,9","+0280,1","+0250,1","99999,9",,,"10100,1,99999,9",,"MET056METAR NCPK 060300Z AUTO 15004KT //// ////// 28/25 Q1010=",
"91812099999","2023-06-06T04:00:00","4","-10.9145","-165.8393","4.57","PUKAPUKA AIRPORT, CW","FM-15","99999","V020","150,1,N,0015,1","99999,9,9,N","999999,9,9,9","+0260,1","+0250,1","99999,9",,,"10100,1,99999,9",,"MET056METAR NCPK 060400Z AUTO 15003KT //// ////// 26/25 Q1010=",
"91812099999","2023-06-06T05:00:00","4","-10.9145","-165.8393","4.57","PUKAPUKA AIRPORT, CW","FM-15","99999","V020","130,1,N,0036,1","99999,9,9,N","999999,9,9,9","+0270,1","+0250,1","99999,9",,,"10100,1,99999,9",,"MET056METAR NCPK 060500Z AUTO 13007KT //// ////// 27/25 Q1010=",
"91812099999","2023-06-06T06:00:00","4","-10.9145","-165.8393","4.57","PUKAPUKA AIRPORT, CW","FM-12","99999","V020","010,1,N,0041,1","99999,9,9,N","999999,9,9,9","+0254,1","+0238,1","10110,1","06,0008,3,1",,"99999,9,10106,1","2,1,004,1,+999,9","SYN05491812 16/// /0108 10254 20238 30106 40110 52004 69981=",
"91812099999","2023-06-06T06:00:00","4","-10.9145","-165.8393","4.57","PUKAPUKA AIRPORT, CW","FM-15","99999","V020","010,1,N,0041,1","99999,9,9,N","999999,9,9,9","+0250,1","+0240,1","99999,9",,,"10120,1,99999,9",,"MET056METAR NCPK 060600Z AUTO 01008KT //// ////// 25/24 Q1012=",
"91812099999","2023-06-06T07:00:00","4","-10.9145","-165.8393","4.57","PUKAPUKA AIRPORT, CW","FM-15","99999","V020","120,1,N,0026,1","99999,9,9,N","999999,9,9,9","+0260,1","+0240,1","99999,9",,,"10110,1,99999,9",,"MET056METAR NCPK 060700Z AUTO 12005KT //// ////// 26/24 Q1011=",
"91812099999","2023-06-06T08:00:00","4","-10.9145","-165.8393","4.57","PUKAPUKA AIRPORT, CW","FM-15","99999","V020","130,1,N,0021,1","99999,9,9,N","999999,9,9,9","+0270,1","+0250,1","99999,9",,,"10110,1,99999,9",,"MET056METAR NCPK 060800Z AUTO 13004KT //// ////// 27/25 Q1011=",
"91812099999","2023-06-06T09:00:00","4","-10.9145","-165.8393","4.57","PUKAPUKA AIRPORT, CW","FM-12","99999","V020","150,1,N,0021,1","99999,9,9,N","999999,9,9,9","+0266,1","+0256,1","10125,1",,,"99999,9,10110,1","2,1,015,1,+999,9","SYN04891812 46/// /1504 10266 20256 30110 40125 52015=",
"91812099999","2023-06-06T09:00:00","4","-10.9145","-165.8393","4.57","PUKAPUKA AIRPORT, CW","FM-15","99999","V020","150,1,N,0021,1","99999,9,9,N","999999,9,9,9","+0270,1","+0260,1","99999,9",,,"10120,1,99999,9",,"MET056METAR NCPK 060900Z AUTO 15004KT //// ////// 27/26 Q1012=",
"91812099999","2023-06-06T10:00:00","4","-10.9145","-165.8393","4.57","PUKAPUKA AIRPORT, CW","FM-15","99999","V020","999,9,N,9999,9","99999,9,9,N","999999,9,9,9","+0270,1","+0250,1","99999,9",,,"10110,1,99999,9",,"MET057METAR NCPK 061000Z AUTO 120009KT //// ////// 27/25 Q1011=",
"91812099999","2023-06-06T11:00:00","4","-10.9145","-165.8393","4.57","PUKAPUKA AIRPORT, CW","FM-15","99999","V020","130,1,N,0046,1","99999,9,9,N","999999,9,9,9","+0270,1","+0250,1","99999,9",,,"10110,1,99999,9",,"MET056METAR NCPK 061100Z AUTO 13009KT //// ////// 27/25 Q1011=",
"91812099999","2023-06-06T12:00:00","4","-10.9145","-165.8393","4.57","PUKAPUKA AIRPORT, CW","FM-12","99999","V020","130,1,N,0026,1","99999,9,9,N","999999,9,9,9","+0271,1","+0250,1","10116,1","06,0230,3,1","240,M,+0294,1","99999,9,10125,1","7,1,009,1,+999,9","SYN06491812 16/// /1305 10271 20250 30125 40116 57009 60231 333 10294=",
"91812099999","2023-06-06T12:00:00","4","-10.9145","-165.8393","4.57","PUKAPUKA AIRPORT, CW","FM-15","99999","V020","130,1,N,0026,1","99999,9,9,N","999999,9,9,9","+0270,1","+0250,1","99999,9",,,"10110,1,99999,9",,"MET056METAR NCPK 061200Z AUTO 13005KT //// ////// 27/25 Q1011=",
"91812099999","2023-06-06T13:00:00","4","-10.9145","-165.8393","4.57","PUKAPUKA AIRPORT, CW","FM-15","99999","V020","120,1,N,0041,1","99999,9,9,N","999999,9,9,9","+0280,1","+0250,1","99999,9",,,"10110,1,99999,9",,"MET056METAR NCPK 061300Z AUTO 12008KT //// ////// 28/25 Q1011=",
"91812099999","2023-06-06T14:00:00","4","-10.9145","-165.8393","4.57","PUKAPUKA AIRPORT, CW","FM-15","99999","V020","120,1,N,0021,1","99999,9,9,N","999999,9,9,9","+0260,1","+0250,1","99999,9",,,"10100,1,99999,9",,"MET056METAR NCPK 061400Z AUTO 12004KT //// ////// 26/25 Q1010=",
"91812099999","2023-06-06T15:00:00","4","-10.9145","-165.8393","4.57","PUKAPUKA AIRPORT, CW","FM-12","99999","V020","100,1,N,0026,1","99999,9,9,N","999999,9,9,9","+0257,1","+0244,1","10107,1",,,"99999,9,10116,1","7,1,009,1,+999,9","SYN04891812 46/// /1005 10257 20244 30116 40107 57009=",
"91812099999","2023-06-06T15:00:00","4","-10.9145","-165.8393","4.57","PUKAPUKA AIRPORT, CW","FM-15","99999","V020","100,1,N,0026,1","99999,9,9,N","999999,9,9,9","+0260,1","+0240,1","99999,9",,,"10100,1,99999,9",,"MET056METAR NCPK 061500Z AUTO 10005KT //// ////// 26/24 Q1010=",
"91812099999","2023-06-06T16:00:00","4","-10.9145","-165.8393","4.57","PUKAPUKA AIRPORT, CW","FM-15","99999","V020","090,1,N,0021,1","99999,9,9,N","999999,9,9,9","+0270,1","+0240,1","99999,9",,,"10100,1,99999,9",,"MET056METAR NCPK 061600Z AUTO 09004KT //// ////// 27/24 Q1010=",
"91812099999","2023-06-06T17:00:00","4","-10.9145","-165.8393","4.57","PUKAPUKA AIRPORT, CW","FM-15","99999","V020","050,1,N,0021,1","99999,9,9,N","999999,9,9,9","+0270,1","+0240,1","99999,9",,,"10110,1,99999,9",,"MET056METAR NCPK 061700Z AUTO 05004KT //// ////// 27/24 Q1011=",
"91812099999","2023-06-06T18:00:00","4","-10.9145","-165.8393","4.57","PUKAPUKA AIRPORT, CW","FM-12","99999","V020","060,1,N,0031,1","99999,9,9,N","999999,9,9,9","+0276,1","+0247,1","10115,1","06,0060,3,1",,"99999,9,10107,1","3,1,008,1,+999,9","SYN05491812 16/// /0606 10276 20247 30107 40115 53008 60061=",
"91812099999","2023-06-06T18:00:00","4","-10.9145","-165.8393","4.57","PUKAPUKA AIRPORT, CW","FM-15","99999","V020","060,1,N,0031,1","99999,9,9,N","999999,9,9,9","+0280,1","+0250,1","99999,9",,,"10110,1,99999,9",,"MET056METAR NCPK 061800Z AUTO 06006KT //// ////// 28/25 Q1011=",
"91812099999","2023-06-06T19:00:00","4","-10.9145","-165.8393","4.57","PUKAPUKA AIRPORT, CW","FM-15","99999","V020","060,1,N,0021,1","99999,9,9,N","999999,9,9,9","+0280,1","+0250,1","99999,9",,,"10120,1,99999,9",,"MET056METAR NCPK 061900Z AUTO 06004KT //// ////// 28/25 Q1012=",
"91812099999","2023-06-06T20:00:00","4","-10.9145","-165.8393","4.57","PUKAPUKA AIRPORT, CW","FM-15","99999","V020","070,1,N,0021,1","99999,9,9,N","999999,9,9,9","+0300,1","+0250,1","99999,9",,,"10120,1,99999,9",,"MET056METAR NCPK 062000Z AUTO 07004KT //// ////// 30/25 Q1012=",
"91812099999","2023-06-06T21:00:00","4","-10.9145","-165.8393","4.57","PUKAPUKA AIRPORT, CW","FM-12","99999","V020","100,1,N,0031,1","99999,9,9,N","999999,9,9,9","+0287,1","+0254,1","10128,1",,,"99999,9,10115,1","1,1,013,1,+999,9","SYN04891812 46/// /1006 10287 20254 30115 40128 51013=",
"91812099999","2023-06-06T21:00:00","4","-10.9145","-165.8393","4.57","PUKAPUKA AIRPORT, CW","FM-15","99999","V020","100,1,N,0031,1","99999,9,9,N","999999,9,9,9","+0290,1","+0250,1","99999,9",,,"10120,1,99999,9",,"MET056METAR NCPK 062100Z AUTO 10006KT //// ////// 29/25 Q1012=",
"91812099999","2023-06-06T22:00:00","4","-10.9145","-165.8393","4.57","PUKAPUKA AIRPORT, CW","FM-15","99999","V020","090,1,N,0021,1","99999,9,9,N","999999,9,9,9","+0300,1","+0240,1","99999,9",,,"10120,1,99999,9",,"MET056METAR NCPK 062200Z AUTO 09004KT //// ////// 30/24 Q1012=",
"91812099999","2023-06-06T23:00:00","4","-10.9145","-165.8393","4.57","PUKAPUKA AIRPORT, CW","FM-15","99999","V020","100,1,N,0021,1","99999,9,9,N","999999,9,9,9","+0290,1","+0250,1","99999,9",,,"10110,1,99999,9",,"MET056METAR NCPK 062300Z AUTO 10004KT //// ////// 29/25 Q1011=",
"91812099999","2023-06-07T00:00:00","4","-10.9145","-165.8393","4.57","PUKAPUKA AIRPORT, CW","FM-12","99999","V020","070,1,N,0021,1","99999,9,9,N","999999,9,9,9","+0310,1","+0248,1","10115,1","06,0002,3,1","120,N,+0248,1","99999,9,10128,1","8,1,013,1,+999,9","SYN07691812 16/// /0704 10310 20248 30128 40115 58013 69921 333 20248 3 333 70424=",
"91812099999","2023-06-07T00:00:00","4","-10.9145","-165.8393","4.57","PUKAPUKA AIRPORT, CW","FM-15","99999","V020","070,1,N,0021,1","99999,9,9,N","999999,9,9,9","+0310,1","+0250,1","99999,9",,,"10110,1,99999,9",,"MET056METAR NCPK 070000Z AUTO 07004KT //// ////// 31/25 Q1011=",
"91812099999","2023-06-07T01:00:00","4","-10.9145","-165.8393","4.57","PUKAPUKA AIRPORT, CW","FM-15","99999","V020","100,1,N,0021,1","99999,9,9,N","999999,9,9,9","+0310,1","+0250,1","99999,9",,,"10100,1,99999,9",,"MET056METAR NCPK 070100Z AUTO 10004KT //// ////// 31/25 Q1010=",
"91812099999","2023-06-07T02:00:00","4","-10.9145","-165.8393","4.57","PUKAPUKA AIRPORT, CW","FM-15","99999","V020","110,1,N,0015,1","99999,9,9,N","999999,9,9,9","+0310,1","+0240,1","99999,9",,,"10100,1,99999,9",,"MET056METAR NCPK 070200Z AUTO 11003KT //// ////// 31/24 Q1010=",
"91812099999","2023-06-07T03:00:00","4","-10.9145","-165.8393","4.57","PUKAPUKA AIRPORT, CW","FM-12","99999","V020","110,1,N,0015,1","99999,9,9,N","999999,9,9,9","+0300,1","+0244,1","10103,1",,,"99999,9,10115,1","6,1,012,1,+999,9","SYN04891812 46/// /1103 10300 20244 30115 40103 56012=",
"91812099999","2023-06-07T03:00:00","4","-10.9145","-165.8393","4.57","PUKAPUKA AIRPORT, CW","FM-15","99999","V020","110,1,N,0015,1","99999,9,9,N","999999,9,9,9","+0300,1","+0240,1","99999,9",,,"10100,1,99999,9",,"MET056METAR NCPK 070300Z AUTO 11003KT //// ////// 30/24 Q1010=",
"91812099999","2023-06-07T04:00:00","4","-10.9145","-165.8393","4.57","PUKAPUKA AIRPORT, CW","FM-15","99999","V020","120,1,N,0015,1","99999,9,9,N","999999,9,9,9","+0290,1","+0250,1","99999,9",,,"10100,1,99999,9",,"MET056METAR NCPK 070400Z AUTO 12003KT //// ////// 29/25 Q1010=",
"91812099999","2023-06-07T05:00:00","4","-10.9145","-165.8393","4.57","PUKAPUKA AIRPORT, CW","FM-15","99999","V020","110,1,N,0010,1","99999,9,9,N","999999,9,9,9","+0280,1","+0240,1","99999,9",,,"10100,1,99999,9",,"MET056METAR NCPK 070500Z AUTO 11002KT //// ////// 28/24 Q1010=",
"91812099999","2023-06-07T06:00:00","4","-10.9145","-165.8393","4.57","PUKAPUKA AIRPORT, CW","FM-12","99999","V020","110,1,N,0015,1","99999,9,9,N","999999,9,9,9","+0280,1","+0246,1","10112,1","06,0000,9,1",,"99999,9,10103,1","2,1,009,1,+999,9","SYN05491812 16/// /1103 10280 20246 30103 40112 52009 60001=",
"91812099999","2023-06-07T06:00:00","4","-10.9145","-165.8393","4.57","PUKAPUKA AIRPORT, CW","FM-15","99999","V020","110,1,N,0015,1","99999,9,9,N","999999,9,9,9","+0280,1","+0250,1","99999,9",,,"10110,1,99999,9",,"MET056METAR NCPK 070600Z AUTO 11003KT //// ////// 28/25 Q1011=",
"91812099999","2023-06-07T07:00:00","4","-10.9145","-165.8393","4.57","PUKAPUKA AIRPORT, CW","FM-15","99999","V020","110,1,N,0015,1","99999,9,9,N","999999,9,9,9","+0280,1","+0250,1","99999,9",,,"10110,1,99999,9",,"MET056METAR NCPK 070700Z AUTO 11003KT //// ////// 28/25 Q1011=",
"91812099999","2023-06-07T08:00:00","4","-10.9145","-165.8393","4.57","PUKAPUKA AIRPORT, CW","FM-15","99999","V020","090,1,N,0015,1","99999,9,9,N","999999,9,9,9","+0280,1","+0250,1","99999,9",,,"10110,1,99999,9",,"MET056METAR NCPK 070800Z AUTO 09003KT //// ////// 28/25 Q1011=",
"91812099999","2023-06-07T09:00:00","4","-10.9145","-165.8393","4.57","PUKAPUKA AIRPORT, CW","FM-12","99999","V020","090,1,N,0010,1","99999,9,9,N","999999,9,9,9","+0279,1","+0242,1","10117,1",,,"99999,9,10112,1","2,1,005,1,+999,9","SYN04891812 46/// /0902 10279 20242 30112 40117 52005=",
"91812099999","2023-06-07T09:00:00","4","-10.9145","-165.8393","4.57","PUKAPUKA AIRPORT, CW","FM-15","99999","V020","090,1,N,0010,1","99999,9,9,N","999999,9,9,9","+0280,1","+0240,1","99999,9",,,"10110,1,99999,9",,"MET056METAR NCPK 070900Z AUTO 09002KT //// ////// 28/24 Q1011=",
"91812099999","2023-06-07T10:00:00","4","-10.9145","-165.8393","4.57","PUKAPUKA AIRPORT, CW","FM-15","99999","V020","100,1,N,0010,1","99999,9,9,N","999999,9,9,9","+0280,1","+0240,1","99999,9",,,"10110,1,99999,9",,"MET056METAR NCPK 071000Z AUTO 10002KT //// ////// 28/24 Q1011=",
"91812099999","2023-06-07T11:00:00","4","-10.9145","-165.8393","4.57","PUKAPUKA AIRPORT, CW","FM-15","99999","V020","110,1,N,0015,1","99999,9,9,N","999999,9,9,9","+0280,1","+0240,1","99999,9",,,"10110,1,99999,9",,"MET056METAR NCPK 071100Z AUTO 11003KT //// ////// 28/24 Q1011=",
"91812099999","2023-06-07T12:00:00","4","-10.9145","-165.8393","4.57","PUKAPUKA AIRPORT, CW","FM-12","99999","V020","110,1,N,0021,1","99999,9,9,N","999999,9,9,9","+0277,1","+0246,1","10109,1","06,0000,9,1","240,M,+0312,1","99999,9,10117,1","7,1,008,1,+999,9","SYN06491812 16/// /1104 10277 20246 30117 40109 57008 60001 333 10312=",
"91812099999","2023-06-07T12:00:00","4","-10.9145","-165.8393","4.57","PUKAPUKA AIRPORT, CW","FM-15","99999","V020","110,1,N,0021,1","99999,9,9,N","999999,9,9,9","+0280,1","+0250,1","99999,9",,,"10100,1,99999,9",,"MET056METAR NCPK 071200Z AUTO 11004KT //// ////// 28/25 Q1010=",
"91812099999","2023-06-07T13:00:00","4","-10.9145","-165.8393","4.57","PUKAPUKA AIRPORT, CW","FM-15","99999","V020","120,1,N,0021,1","99999,9,9,N","999999,9,9,9","+0270,1","+0230,1","99999,9",,,"10100,1,99999,9",,"MET056METAR NCPK 071300Z AUTO 12004KT //// ////// 27/23 Q1010=",
"91812099999","2023-06-07T14:00:00","4","-10.9145","-165.8393","4.57","PUKAPUKA AIRPORT, CW","FM-15","99999","V020","120,1,N,0021,1","99999,9,9,N","999999,9,9,9","+0280,1","+0250,1","99999,9",,,"10100,1,99999,9",,"MET056METAR NCPK 071400Z AUTO 12004KT //// ////// 28/25 Q1010=",
"91812099999","2023-06-07T15:00:00","4","-10.9145","-165.8393","4.57","PUKAPUKA AIRPORT, CW","FM-12","99999","V020","120,1,N,0015,1","99999,9,9,N","999999,9,9,9","+0275,1","+0244,1","10100,1",,,"99999,9,10109,1","7,1,009,1,+999,9","SYN04891812 46/// /1203 10275 20244 30109 40100 57009=",
"91812099999","2023-06-07T15:00:00","4","-10.9145","-165.8393","4.57","PUKAPUKA AIRPORT, CW","FM-15","99999","V020","120,1,N,0015,1","99999,9,9,N","999999,9,9,9","+0280,1","+0240,1","99999,9",,,"10100,1,99999,9",,"MET056METAR NCPK 071500Z AUTO 12003KT //// ////// 28/24 Q1010=",
"91812099999","2023-06-07T16:00:00","4","-10.9145","-165.8393","4.57","PUKAPUKA AIRPORT, CW","FM-15","99999","V020","110,1,N,0015,1","99999,9,9,N","999999,9,9,9","+0270,1","+0240,1","99999,9",,,"10100,1,99999,9",,"MET056METAR NCPK 071600Z AUTO 11003KT //// ////// 27/24 Q1010=",
"91812099999","2023-06-07T17:00:00","4","-10.9145","-165.8393","4.57","PUKAPUKA AIRPORT, CW","FM-15","99999","V020","110,1,N,0021,1","99999,9,9,N","999999,9,9,9","+0270,1","+0240,1","99999,9",,,"10100,1,99999,9",,"MET056METAR NCPK 071700Z AUTO 11004KT //// ////// 27/24 Q1010=",
"91812099999","2023-06-07T18:00:00","4","-10.9145","-165.8393","4.57","PUKAPUKA AIRPORT, CW","FM-12","99999","V020","090,1,N,0010,1","99999,9,9,N","999999,9,9,9","+0261,1","+0247,1","10107,1","06,0020,3,1",,"99999,9,10100,1","3,1,007,1,+999,9","SYN05491812 16/// /0902 10261 20247 30100 40107 53007 60021=",
"91812099999","2023-06-07T18:00:00","4","-10.9145","-165.8393","4.57","PUKAPUKA AIRPORT, CW","FM-15","99999","V020","090,1,N,0010,1","99999,9,9,N","999999,9,9,9","+0260,1","+0250,1","99999,9",,,"10100,1,99999,9",,"MET056METAR NCPK 071800Z AUTO 09002KT //// ////// 26/25 Q1010=",
"91812099999","2023-06-07T19:00:00","4","-10.9145","-165.8393","4.57","PUKAPUKA AIRPORT, CW","FM-15","99999","V020","100,1,N,0010,1","99999,9,9,N","999999,9,9,9","+0280,1","+0250,1","99999,9",,,"10110,1,99999,9",,"MET056METAR NCPK 071900Z AUTO 10002KT //// ////// 28/25 Q1011=",
"91812099999","2023-06-07T21:00:00","4","-10.9145","-165.8393","4.57","PUKAPUKA AIRPORT, CW","FM-12","99999","V020","100,1,N,0021,1","99999,9,9,N","999999,9,9,9","+0298,1","+0249,1","10115,1",,,"99999,9,10107,1","1,1,013,1,+999,9","SYN04891812 46/// /1004 10298 20249 30107 40115 51013=",
"91812099999","2023-06-07T21:00:00","4","-10.9145","-165.8393","4.57","PUKAPUKA AIRPORT, CW","FM-15","99999","V020","100,1,N,0021,1","99999,9,9,N","999999,9,9,9","+0300,1","+0250,1","99999,9",,,"10110,1,99999,9",,"MET056METAR NCPK 072100Z AUTO 10004KT //// ////// 30/25 Q1011=",
"91812099999","2023-06-07T22:00:00","4","-10.9145","-165.8393","4.57","PUKAPUKA AIRPORT, CW","FM-15","99999","V020","100,1,N,0026,1","99999,9,9,N","999999,9,9,9","+0300,1","+0250,1","99999,9",,,"10110,1,99999,9",,"MET056METAR NCPK 072200Z AUTO 10005KT //// ////// 30/25 Q1011=",
"91812099999","2023-06-07T23:00:00","4","-10.9145","-165.8393","4.57","PUKAPUKA AIRPORT, CW","FM-15","99999","V020","100,1,N,0031,1","99999,9,9,N","999999,9,9,9","+0300,1","+0250,1","99999,9",,,"10110,1,99999,9",,"MET056METAR NCPK 072300Z AUTO 10006KT //// ////// 30/25 Q1011=",
"91812099999","2023-06-08T00:00:00","4","-10.9145","-165.8393","4.57","PUKAPUKA AIRPORT, CW","FM-12","99999","V020","090,1,N,0031,1","99999,9,9,N","999999,9,9,9","+0304,1","+0248,1","10110,1","06,0002,3,1","120,N,+0252,1","99999,9,10115,1","7,1,005,1,+999,9","SYN07691812 16/// /0906 10304 20248 30115 40110 57005 69921 333 20252 3 333 70442=",
"91812099999","2023-06-08T00:00:00","4","-10.9145","-165.8393","4.57","PUKAPUKA AIRPORT, CW","FM-15","99999","V020","090,1,N,0072,1","99999,9,9,N","999999,9,9,9","+0300,1","+0250,1","99999,9",,,"10100,1,99999,9",,"MET056METAR NCPK 080000Z AUTO 09014KT //// ////// 30/25 Q1010=",
"91812099999","2023-06-08T01:00:00","4","-10.9145","-165.8393","4.57","PUKAPUKA AIRPORT, CW","FM-15","99999","V020","080,1,N,0021,1","99999,9,9,N","999999,9,9,9","+0310,1","+0250,1","99999,9",,,"10080,1,99999,9",,"MET056METAR NCPK 080100Z AUTO 08004KT //// ////// 31/25 Q1008=",
"91812099999","2023-06-08T02:00:00","4","-10.9145","-165.8393","4.57","PUKAPUKA AIRPORT, CW","FM-15","99999","V020","080,1,N,0041,1","99999,9,9,N","999999,9,9,9","+0280,1","+0250,1","99999,9",,,"10080,1,99999,9",,"MET056METAR NCPK 080200Z AUTO 08008KT //// ////// 28/25 Q1008=",
"91812099999","2023-06-08T03:00:00","4","-10.9145","-165.8393","4.57","PUKAPUKA AIRPORT, CW","FM-12","99999","V020","100,1,N,0021,1","99999,9,9,N","999999,9,9,9","+0281,1","+0252,1","10084,1",,,"99999,9,10091,1","5,1,007,1,+999,9","SYN04891812 46/// /1004 10281 20252 30091 40084 55007=",
"91812099999","2023-06-08T03:00:00","4","-10.9145","-165.8393","4.57","PUKAPUKA AIRPORT, CW","FM-15","99999","V020","100,1,N,0021,1","99999,9,9,N","999999,9,9,9","+0280,1","+0250,1","99999,9",,,"10080,1,99999,9",,"MET056METAR NCPK 080300Z AUTO 10004KT //// ////// 28/25 Q1008=",
"91812099999","2023-06-08T04:00:00","4","-10.9145","-165.8393","4.57","PUKAPUKA AIRPORT, CW","FM-15","99999","V020","100,1,N,0021,1","99999,9,9,N","999999,9,9,9","+0290,1","+0250,1","99999,9",,,"10080,1,99999,9",,"MET056METAR NCPK 080400Z AUTO 10004KT //// ////// 29/25 Q1008=",
"91812099999","2023-06-08T05:00:00","4","-10.9145","-165.8393","4.57","PUKAPUKA AIRPORT, CW","FM-15","99999","V020","090,1,N,0026,1","99999,9,9,N","999999,9,9,9","+0280,1","+0250,1","99999,9",,,"10080,1,99999,9",,"MET056METAR NCPK 080500Z AUTO 09005KT //// ////// 28/25 Q1008=",
"91812099999","2023-06-08T06:00:00","4","-10.9145","-165.8393","4.57","PUKAPUKA AIRPORT, CW","FM-12","99999","V020","100,1,N,0026,1","99999,9,9,N","999999,9,9,9","+0296,1","+0251,1","10093,1","06,0004,3,1",,"99999,9,10084,1","2,1,009,1,+999,9","SYN05491812 16/// /1005 10296 20251 30084 40093 52009 69941=",
"91812099999","2023-06-08T06:00:00","4","-10.9145","-165.8393","4.57","PUKAPUKA AIRPORT, CW","FM-15","99999","V020","100,1,N,0026,1","99999,9,9,N","999999,9,9,9","+0300,1","+0250,1","99999,9",,,"10090,1,99999,9",,"MET056METAR NCPK 080600Z AUTO 10005KT //// ////// 30/25 Q1009=",
"91812099999","2023-06-08T07:00:00","4","-10.9145","-165.8393","4.57","PUKAPUKA AIRPORT, CW","FM-15","99999","V020","090,1,N,0021,1","99999,9,9,N","999999,9,9,9","+0280,1","+0250,1","99999,9",,,"10090,1,99999,9",,"MET056METAR NCPK 080700Z AUTO 09004KT //// ////// 28/25 Q1009=",
"91812099999","2023-06-08T08:00:00","4","-10.9145","-165.8393","4.57","PUKAPUKA AIRPORT, CW","FM-15","99999","V020","090,1,N,0026,1","99999,9,9,N","999999,9,9,9","+0280,1","+0250,1","99999,9",,,"10100,1,99999,9",,"MET056METAR NCPK 080800Z AUTO 09005KT //// ////// 28/25 Q1010=",
"91812099999","2023-06-08T09:00:00","4","-10.9145","-165.8393","4.57","PUKAPUKA AIRPORT, CW","FM-12","99999","V020","080,1,N,0021,1","99999,9,9,N","999999,9,9,9","+0282,1","+0249,1","10104,1",,,"99999,9,10093,1","2,1,011,1,+999,9","SYN04891812 46/// /0804 10282 20249 30093 40104 52011=",
"91812099999","2023-06-08T09:00:00","4","-10.9145","-165.8393","4.57","PUKAPUKA AIRPORT, CW","FM-15","99999","V020","080,1,N,0021,1","99999,9,9,N","999999,9,9,9","+0280,1","+0250,1","99999,9",,,"10100,1,99999,9",,"MET056METAR NCPK 080900Z AUTO 08004KT //// ////// 28/25 Q1010=",
"91812099999","2023-06-08T10:00:00","4","-10.9145","-165.8393","4.57","PUKAPUKA AIRPORT, CW","FM-15","99999","V020","080,1,N,0026,1","99999,9,9,N","999999,9,9,9","+0280,1","+0250,1","99999,9",,,"10100,1,99999,9",,"MET056METAR NCPK 081000Z AUTO 08005KT //// ////// 28/25 Q1010=",
"91812099999","2023-06-08T12:00:00","4","-10.9145","-165.8393","4.57","PUKAPUKA AIRPORT, CW","FM-12","99999","V020","080,1,N,0026,1","99999,9,9,N","999999,9,9,9","+0281,1","+0250,1","10104,1","06,0000,9,1","240,M,+0314,1","99999,9,10104,1","9,9,000,1,+999,9","SYN06491812 16/// /0805 10281 20250 30104 40104 50000 60001 333 10314=",
"91812099999","2023-06-08T15:00:00","4","-10.9145","-165.8393","4.57","PUKAPUKA AIRPORT, CW","FM-12","99999","V020","080,1,N,0021,1","99999,9,9,N","999999,9,9,9","+0279,1","+0246,1","10095,1",,,"99999,9,10104,1","6,1,009,1,+999,9","SYN04891812 46/// /0804 10279 20246 30104 40095 56009=",
"91812099999","2023-06-08T15:00:00","4","-10.9145","-165.8393","4.57","PUKAPUKA AIRPORT, CW","FM-15","99999","V020","080,1,N,0021,1","99999,9,9,N","999999,9,9,9","+0280,1","+0250,1","99999,9",,,"10090,1,99999,9",,"MET056METAR NCPK 081500Z AUTO 08004KT //// ////// 28/25 Q1009=",
"91812099999","2023-06-08T16:00:00","4","-10.9145","-165.8393","4.57","PUKAPUKA AIRPORT, CW","FM-15","99999","V020","050,1,N,0010,1","99999,9,9,N","999999,9,9,9","+0280,1","+0250,1","99999,9",,,"10090,1,99999,9",,"MET056METAR NCPK 081600Z AUTO 05002KT //// ////// 28/25 Q1009=",
"91812099999","2023-06-08T17:00:00","4","-10.9145","-165.8393","4.57","PUKAPUKA AIRPORT, CW","FM-15","99999","V020","040,1,N,0021,1","99999,9,9,N","999999,9,9,9","+0270,1","+0240,1","99999,9",,,"10100,1,99999,9",,"MET056METAR NCPK 081700Z AUTO 04004KT //// ////// 27/24 Q1010=",
"91812099999","2023-06-08T18:00:00","4","-10.9145","-165.8393","4.57","PUKAPUKA AIRPORT, CW","FM-12","99999","V020","110,1,N,0010,1","99999,9,9,N","999999,9,9,9","+0270,1","+0245,1","10102,1","06,0002,3,1",,"99999,9,10095,1","2,1,007,1,+999,9","SYN05491812 16/// /1102 10270 20245 30095 40102 52007 69921=",
"91812099999","2023-06-08T18:00:00","4","-10.9145","-165.8393","4.57","PUKAPUKA AIRPORT, CW","FM-15","99999","V020","110,1,N,0010,1","99999,9,9,N","999999,9,9,9","+0270,1","+0250,1","99999,9",,,"10100,1,99999,9",,"MET056METAR NCPK 081800Z AUTO 11002KT //// ////// 27/25 Q1010=",
"91812099999","2023-06-08T19:00:00","4","-10.9145","-165.8393","4.57","PUKAPUKA AIRPORT, CW","FM-15","99999","V020","070,1,N,0010,1","99999,9,9,N","999999,9,9,9","+0270,1","+0250,1","99999,9",,,"10110,1,99999,9",,"MET056METAR NCPK 081900Z AUTO 07002KT //// ////// 27/25 Q1011=",
"91812099999","2023-06-08T21:00:00","4","-10.9145","-165.8393","4.57","PUKAPUKA AIRPORT, CW","FM-12","99999","V020","060,1,N,0010,1","99999,9,9,N","999999,9,9,9","+0306,1","+0247,1","10115,1",,,"99999,9,10102,1","1,1,013,1,+999,9","SYN04891812 46/// /0602 10306 20247 30102 40115 51013=",
"91812099999","2023-06-08T21:00:00","4","-10.9145","-165.8393","4.57","PUKAPUKA AIRPORT, CW","FM-15","99999","V020","060,1,N,0010,1","99999,9,9,N","999999,9,9,9","+0310,1","+0250,1","99999,9",,,"10110,1,99999,9",,"MET056METAR NCPK 082100Z AUTO 06002KT //// ////// 31/25 Q1011=",
"91812099999","2023-06-09T00:00:00","4","-10.9145","-165.8393","4.57","PUKAPUKA AIRPORT, CW","FM-12","99999","V020","080,1,N,0021,1","99999,9,9,N","999999,9,9,9","+0314,1","+0252,1","10096,1","06,0000,9,1","120,N,+0266,1","99999,9,10115,1","7,1,019,1,+999,9","SYN07691812 16/// /0804 10314 20252 30115 40096 57019 60001 333 20266 3 333 70006=",
"91812099999","2023-06-09T02:00:00","4","-10.9145","-165.8393","4.57","PUKAPUKA AIRPORT, CW","FM-15","99999","V020","100,1,N,0021,1","99999,9,9,N","999999,9,9,9","+0310,1","+0250,1","99999,9",,,"10080,1,99999,9",,"MET056METAR NCPK 090200Z AUTO 10004KT //// ////// 31/25 Q1008=",
"91812099999","2023-06-09T03:00:00","4","-10.9145","-165.8393","4.57","PUKAPUKA AIRPORT, CW","FM-12","99999","V020","100,1,N,0021,1","99999,9,9,N","999999,9,9,9","+0309,1","+0255,1","10084,1",,,"99999,9,10096,1","7,9,012,9,+999,9","SYN04891812 46/// /1004 10309 20255 30096 40084 54012=","Q011.2   3APC3  Q024     3APCTEN"
"91812099999","2023-06-09T03:00:00","4","-10.9145","-165.8393","4.57","PUKAPUKA AIRPORT, CW","FM-15","99999","V020","100,1,N,0021,1","99999,9,9,N","999999,9,9,9","+0310,1","+0260,1","99999,9",,,"10080,1,99999,9",,"MET056METAR NCPK 090300Z AUTO 10004KT //// ////// 31/26 Q1008=",
"91812099999","2023-06-09T04:00:00","4","-10.9145","-165.8393","4.57","PUKAPUKA AIRPORT, CW","FM-15","99999","V020","100,1,N,0026,1","99999,9,9,N","999999,9,9,9","+0300,1","+0250,1","99999,9",,,"10080,1,99999,9",,"MET056METAR NCPK 090400Z AUTO 10005KT //// ////// 30/25 Q1008=",
"91812099999","2023-06-09T05:00:00","4","-10.9145","-165.8393","4.57","PUKAPUKA AIRPORT, CW","FM-15","99999","V020","090,1,N,0026,1","99999,9,9,N","999999,9,9,9","+0290,1","+0250,1","99999,9",,,"10090,1,99999,9",,"MET056METAR NCPK 090500Z AUTO 09005KT //// ////// 29/25 Q1009=",
"91812099999","2023-06-09T06:00:00","4","-10.9145","-165.8393","4.57","PUKAPUKA AIRPORT, CW","FM-12","99999","V020","090,1,N,0026,1","99999,9,9,N","999999,9,9,9","+0287,1","+0249,1","10095,1","06,0000,9,1",,"99999,9,10084,1","2,1,011,1,+999,9","SYN05491812 16/// /0905 10287 20249 30084 40095 52011 60001=",
"91812099999","2023-06-09T06:00:00","4","-10.9145","-165.8393","4.57","PUKAPUKA AIRPORT, CW","FM-15","99999","V020","090,1,N,0026,1","99999,9,9,N","999999,9,9,9","+0290,1","+0250,1","99999,9",,,"10090,1,99999,9",,"MET056METAR NCPK 090600Z AUTO 09005KT //// ////// 29/25 Q1009=",
"91812099999","2023-06-21T00:00:00","4","-10.9145","-165.8393","4.57","PUKAPUKA AIRPORT, CW","FM-12","99999","V020","160,1,N,0010,1","99999,9,9,N","999999,9,9,9","+0301,1","+0219,1","10096,1","99,9999,1,9","120,N,+0208,1","99999,9,10113,1","6,1,017,1,+999,9","SYN07691812 16/// /1602 10301 20219 30113 40096 56017 6//// 333 20208 3 333 7////=",
"91812099999","2023-06-21T01:00:00","4","-10.9145","-165.8393","4.57","PUKAPUKA AIRPORT, CW","FM-15","99999","V020","200,1,N,0015,1","99999,9,9,N","999999,9,9,9","+0300,1","+0230,1","99999,9",,,"10090,1,99999,9",,"MET055METAR NCPK 210100Z AUTO 20003KT //// ///// 30/23 Q1009=",
"91812099999","2023-06-21T02:00:00","4","-10.9145","-165.8393","4.57","PUKAPUKA AIRPORT, CW","FM-15","99999","V020","150,1,N,0015,1","99999,9,9,N","999999,9,9,9","+0300,1","+0220,1","99999,9",,,"10080,1,99999,9",,"MET055METAR NCPK 210200Z AUTO 15003KT //// ///// 30/22 Q1008=",
"91812099999","2023-06-21T03:00:00","4","-10.9145","-165.8393","4.57","PUKAPUKA AIRPORT, CW","FM-12","99999","V020","130,1,N,0015,1","99999,9,9,N","999999,9,9,9","+0291,1","+0220,1","10084,1",,,"99999,9,10096,1","7,1,004,1,+999,9","SYN04891812 46/// /1303 10291 20220 30096 40084 57004=",
"91812099999","2023-06-21T03:00:00","4","-10.9145","-165.8393","4.57","PUKAPUKA AIRPORT, CW","FM-15","99999","V020","130,1,N,0015,1","99999,9,9,N","999999,9,9,9","+0290,1","+0220,1","99999,9",,,"10080,1,99999,9",,"MET055METAR NCPK 210300Z AUTO 13003KT //// ///// 29/22 Q1008=",
"91812099999","2023-06-21T04:00:00","4","-10.9145","-165.8393","4.57","PUKAPUKA AIRPORT, CW","FM-15","99999","V020","130,1,N,0010,1","99999,9,9,N","999999,9,9,9","+0280,1","+0220,1","99999,9",,,"10080,1,99999,9",,"MET055METAR NCPK 210400Z AUTO 13002KT //// ///// 28/22 Q1008=",
"91812099999","2023-06-21T05:00:00","4","-10.9145","-165.8393","4.57","PUKAPUKA AIRPORT, CW","FM-15","99999","V020","120,1,N,0005,1","99999,9,9,N","999999,9,9,9","+0270,1","+0220,1","99999,9",,,"10090,1,99999,9",,"MET055METAR NCPK 210500Z AUTO 12001KT //// ///// 27/22 Q1009=",
"91812099999","2023-06-21T06:00:00","4","-10.9145","-165.8393","4.57","PUKAPUKA AIRPORT, CW","FM-12","99999","V020","010,1,N,0005,1","99999,9,9,N","999999,9,9,9","+0255,1","+0223,1","10099,1","06,0000,9,1",,"99999,9,10084,1","2,1,015,1,+999,9","SYN05491812 16/// /0101 10255 20223 30084 40099 52015 60001=",
"91812099999","2023-06-21T06:00:00","4","-10.9145","-165.8393","4.57","PUKAPUKA AIRPORT, CW","FM-15","99999","V020","010,1,N,0005,1","99999,9,9,N","999999,9,9,9","+0260,1","+0220,1","99999,9",,,"10090,1,99999,9",,"MET055METAR NCPK 210600Z AUTO 01001KT //// ///// 26/22 Q1009=",
"91812099999","2023-06-21T07:00:00","4","-10.9145","-165.8393","4.57","PUKAPUKA AIRPORT, CW","FM-15","99999","V020","999,9,C,0000,1","99999,9,9,N","999999,9,9,9","+0240,1","+0220,1","99999,9",,,"10100,1,99999,9",,"MET055METAR NCPK 210700Z AUTO 00000KT //// ///// 24/22 Q1010=",
"91812099999","2023-06-21T08:00:00","4","-10.9145","-165.8393","4.57","PUKAPUKA AIRPORT, CW","FM-15","99999","V020","200,1,N,0010,1","99999,9,9,N","999999,9,9,9","+0250,1","+0230,1","99999,9",,,"10110,1,99999,9",,"MET055METAR NCPK 210800Z AUTO 20002KT //// ///// 25/23 Q1011=",
"91812099999","2023-06-21T09:00:00","4","-10.9145","-165.8393","4.57","PUKAPUKA AIRPORT, CW","FM-12","99999","V020","190,1,N,0015,1","99999,9,9,N","999999,9,9,9","+0261,1","+0228,1","10118,1",,,"99999,9,10099,1","2,1,019,1,+999,9","SYN04891812 46/// /1903 10261 20228 30099 40118 52019=",
"91812099999","2023-06-21T09:00:00","4","-10.9145","-165.8393","4.57","PUKAPUKA AIRPORT, CW","FM-15","99999","V020","190,1,N,0015,1","99999,9,9,N","999999,9,9,9","+0260,1","+0230,1","99999,9",,,"10110,1,99999,9",,"MET055METAR NCPK 210900Z AUTO 19003KT //// ///// 26/23 Q1011=",
"91812099999","2023-06-21T10:00:00","4","-10.9145","-165.8393","4.57","PUKAPUKA AIRPORT, CW","FM-15","99999","V020","200,1,N,0015,1","99999,9,9,N","999999,9,9,9","+0260,1","+0230,1","99999,9",,,"10110,1,99999,9",,"MET055METAR NCPK 211000Z AUTO 20003KT //// ///// 26/23 Q1011=",
"91812099999","2023-06-21T11:00:00","4","-10.9145","-165.8393","4.57","PUKAPUKA AIRPORT, CW","FM-15","99999","V020","170,1,N,0015,1","99999,9,9,N","999999,9,9,9","+0270,1","+0230,1","99999,9",,,"10110,1,99999,9",,"MET055METAR NCPK 211100Z AUTO 17003KT //// ///// 27/23 Q1011=",
"91812099999","2023-06-21T12:00:00","4","-10.9145","-165.8393","4.57","PUKAPUKA AIRPORT, CW","FM-12","99999","V020","190,1,N,0015,1","99999,9,9,N","999999,9,9,9","+0271,1","+0228,1","10109,1","06,0000,9,1","240,M,+0310,1","99999,9,10118,1","8,1,009,1,+999,9","SYN06491812 16/// /1903 10271 20228 30118 40109 58009 60001 333 10310=",
"91812099999","2023-06-21T12:00:00","4","-10.9145","-165.8393","4.57","PUKAPUKA AIRPORT, CW","FM-15","99999","V020","190,1,N,0015,1","99999,9,9,N","999999,9,9,9","+0270,1","+0230,1","99999,9",,,"10100,1,99999,9",,"MET055METAR NCPK 211200Z AUTO 19003KT //// ///// 27/23 Q1010=",
"91812099999","2023-06-22T12:00:00","4","-10.9145","-165.8393","4.57","PUKAPUKA AIRPORT, CW","FM-12","99999","V020","070,1,N,0010,1","99999,9,9,N","999999,9,9,9","+0258,1","+0230,1","10115,1","06,0000,9,1","240,M,+0326,1","99999,9,10117,1","6,1,002,1,+999,9","SYN06491812 16/// /0702 10258 20230 30117 40115 56002 60001 333 10326=",
"91812099999","2023-06-22T12:00:00","4","-10.9145","-165.8393","4.57","PUKAPUKA AIRPORT, CW","FM-15","99999","V020","070,1,N,0010,1","99999,9,9,N","999999,9,9,9","+0260,1","+0230,1","99999,9",,,"10110,1,99999,9",,"MET056METAR NCPK 221200Z AUTO 07002KT //// ////// 26/23 Q1011=",
"91812099999","2023-06-22T13:00:00","4","-10.9145","-165.8393","4.57","PUKAPUKA AIRPORT, CW","FM-15","99999","V020","070,1,N,0010,1","99999,9,9,N","999999,9,9,9","+0260,1","+0230,1","99999,9",,,"10110,1,99999,9",,"MET056METAR NCPK 221300Z AUTO 07002KT //// ////// 26/23 Q1011=",
"91812099999","2023-06-22T14:00:00","4","-10.9145","-165.8393","4.57","PUKAPUKA AIRPORT, CW","FM-15","99999","V020","070,1,N,0005,1","99999,9,9,N","999999,9,9,9","+0250,1","+0230,1","99999,9",,,"10110,1,99999,9",,"MET056METAR NCPK 221400Z AUTO 07001KT //// ////// 25/23 Q1011=",
"91812099999","2023-06-22T15:00:00","4","-10.9145","-165.8393","4.57","PUKAPUKA AIRPORT, CW","FM-12","99999","V020","060,1,N,0046,1","99999,9,9,N","999999,9,9,9","+0258,1","+0224,1","10109,1",,,"99999,9,10115,1","5,1,006,1,+999,9","SYN04891812 46/// /0609 10258 20224 30115 40109 55006=",
"91812099999","2023-06-22T15:00:00","4","-10.9145","-165.8393","4.57","PUKAPUKA AIRPORT, CW","FM-15","99999","V020","070,1,N,0005,1","99999,9,9,N","999999,9,9,9","+0260,1","+0220,1","99999,9",,,"10110,1,99999,9",,"MET056METAR NCPK 221500Z AUTO 07001KT //// ////// 26/22 Q1011=",
"91812099999","2023-06-22T16:00:00","4","-10.9145","-165.8393","4.57","PUKAPUKA AIRPORT, CW","FM-15","99999","V020","060,1,N,0010,1","99999,9,9,N","999999,9,9,9","+0260,1","+0230,1","99999,9",,,"10110,1,99999,9",,"MET056METAR NCPK 221600Z AUTO 06002KT //// ////// 26/23 Q1011=",
"91812099999","2023-06-22T17:00:00","4","-10.9145","-165.8393","4.57","PUKAPUKA AIRPORT, CW","FM-15","99999","V020","070,1,N,0010,1","99999,9,9,N","999999,9,9,9","+0250,1","+0230,1","99999,9",,,"10110,1,99999,9",,"MET056METAR NCPK 221700Z AUTO 07002KT //// ////// 25/23 Q1011=",
"91812099999","2023-06-22T18:00:00","4","-10.9145","-165.8393","4.57","PUKAPUKA AIRPORT, CW","FM-12","99999","V020","090,1,N,0005,1","99999,9,9,N","999999,9,9,9","+0240,1","+0224,1","10117,1","06,0000,9,1",,"99999,9,10115,1","3,1,002,1,+999,9","SYN05491812 16/// /0901 10240 20224 30115 40117 53002 60001=",
"91812099999","2023-06-22T18:00:00","4","-10.9145","-165.8393","4.57","PUKAPUKA AIRPORT, CW","FM-15","99999","V020","090,1,N,0005,1","99999,9,9,N","999999,9,9,9","+0240,1","+0220,1","99999,9",,,"10110,1,99999,9",,"MET056METAR NCPK 221800Z AUTO 09001KT //// ////// 24/22 Q1011=",
"91812099999","2023-06-22T19:00:00","4","-10.9145","-165.8393","4.57","PUKAPUKA AIRPORT, CW","FM-15","99999","V020","100,1,N,0010,1","99999,9,9,N","999999,9,9,9","+0270,1","+0230,1","99999,9",,,"10120,1,99999,9",,"MET056METAR NCPK 221900Z AUTO 10002KT //// ////// 27/23 Q1012=",
"91812099999","2023-06-22T20:00:00","4","-10.9145","-165.8393","4.57","PUKAPUKA AIRPORT, CW","FM-15","99999","V020","060,1,N,0010,1","99999,9,9,N","999999,9,9,9","+0270,1","+0230,1","99999,9",,,"10120,1,99999,9",,"MET056METAR NCPK 222000Z AUTO 06002KT //// ////// 27/23 Q1012=",
"91812099999","2023-06-22T21:00:00","4","-10.9145","-165.8393","4.57","PUKAPUKA AIRPORT, CW","FM-15","99999","V020","100,1,N,0015,1","99999,9,9,N","999999,9,9,9","+0300,1","+0230,1","99999,9",,,"10120,1,99999,9",,"MET056METAR NCPK 222100Z AUTO 10003KT //// ////// 30/23 Q1012=",
"91812099999","2023-06-22T22:00:00","4","-10.9145","-165.8393","4.57","PUKAPUKA AIRPORT, CW","FM-15","99999","V020","090,1,N,0015,1","99999,9,9,N","999999,9,9,9","+0300,1","+0230,1","99999,9",,,"10120,1,99999,9",,"MET056METAR NCPK 222200Z AUTO 09003KT //// ////// 30/23 Q1012=",
"91812099999","2023-06-23T00:00:00","4","-10.9145","-165.8393","4.57","PUKAPUKA AIRPORT, CW","FM-12","99999","V020","100,1,N,0015,1","99999,9,9,N","999999,9,9,9","+0303,1","+0231,1","10111,1","99,9999,1,9","120,N,+0232,1","99999,9,10126,1","8,1,015,1,+999,9","SYN07691812 16/// /1003 10303 20231 30126 40111 58015 6//// 333 20232 333 3 7////=",
"91812099999","2023-06-23T00:00:00","4","-10.9145","-165.8393","4.57","PUKAPUKA AIRPORT, CW","FM-15","99999","V020","100,1,N,0015,1","99999,9,9,N","999999,9,9,9","+0300,1","+0230,1","99999,9",,,"10110,1,99999,9",,"MET056METAR NCPK 230000Z AUTO 10003KT //// ////// 30/23 Q1011=",
"91812099999","2023-06-23T01:00:00","4","-10.9145","-165.8393","4.57","PUKAPUKA AIRPORT, CW","FM-15","99999","V020","100,1,N,0021,1","99999,9,9,N","999999,9,9,9","+0310,1","+0230,1","99999,9",,,"10100,1,99999,9",,"MET056METAR NCPK 230100Z AUTO 10004KT //// ////// 31/23 Q1010=",
"91812099999","2023-06-23T02:00:00","4","-10.9145","-165.8393","4.57","PUKAPUKA AIRPORT, CW","FM-15","99999","V020","090,1,N,0015,1","99999,9,9,N","999999,9,9,9","+0300,1","+0230,1","99999,9",,,"10090,1,99999,9",,"MET056METAR NCPK 230200Z AUTO 09003KT //// ////// 30/23 Q1009=",
"91812099999","2023-06-23T03:00:00","4","-10.9145","-165.8393","4.57","PUKAPUKA AIRPORT, CW","FM-12","99999","V020","090,1,N,0015,1","99999,9,9,N","999999,9,9,9","+0302,1","+0233,1","10096,1",,,"99999,9,10111,1","6,1,015,1,+999,9","SYN04891812 46/// /0903 10302 20233 30111 40096 56015=",
"91812099999","2023-06-23T03:00:00","4","-10.9145","-165.8393","4.57","PUKAPUKA AIRPORT, CW","FM-15","99999","V020","090,1,N,0015,1","99999,9,9,N","999999,9,9,9","+0300,1","+0230,1","99999,9",,,"10090,1,99999,9",,"MET056METAR NCPK 230300Z AUTO 09003KT //// ////// 30/23 Q1009=",
"91812099999","2023-06-23T04:00:00","4","-10.9145","-165.8393","4.57","PUKAPUKA AIRPORT, CW","FM-15","99999","V020","110,1,N,0015,1","99999,9,9,N","999999,9,9,9","+0290,1","+0230,1","99999,9",,,"10090,1,99999,9",,"MET056METAR NCPK 230400Z AUTO 11003KT //// ////// 29/23 Q1009=",
"91812099999","2023-06-23T05:00:00","4","-10.9145","-165.8393","4.57","PUKAPUKA AIRPORT, CW","FM-15","99999","V020","100,1,N,0010,1","99999,9,9,N","999999,9,9,9","+0280,1","+0230,1","99999,9",,,"10100,1,99999,9",,"MET056METAR NCPK 230500Z AUTO 10002KT //// ////// 28/23 Q1010=",
"91812099999","2023-06-23T06:00:00","4","-10.9145","-165.8393","4.57","PUKAPUKA AIRPORT, CW","FM-15","99999","V020","120,1,N,0015,1","99999,9,9,N","999999,9,9,9","+0280,1","+0240,1","99999,9",,,"10100,1,99999,9",,"MET056METAR NCPK 230600Z AUTO 12003KT //// ////// 28/24 Q1010=",
"91812099999","2023-06-23T07:00:00","4","-10.9145","-165.8393","4.57","PUKAPUKA AIRPORT, CW","FM-15","99999","V020","060,1,N,0010,1","99999,9,9,N","999999,9,9,9","+0280,1","+0240,1","99999,9",,,"10110,1,99999,9",,"MET056METAR NCPK 230700Z AUTO 06002KT //// ////// 28/24 Q1011=",
"91812099999","2023-06-23T08:00:00","4","-10.9145","-165.8393","4.57","PUKAPUKA AIRPORT, CW","FM-15","99999","V020","060,1,N,0015,1","99999,9,9,N","999999,9,9,9","+0280,1","+0240,1","99999,9",,,"10110,1,99999,9",,"MET056METAR NCPK 230800Z AUTO 06003KT //// ////// 28/24 Q1011=",
"91812099999","2023-06-23T09:00:00","4","-10.9145","-165.8393","4.57","PUKAPUKA AIRPORT, CW","FM-12","99999","V020","090,1,N,0015,1","99999,9,9,N","999999,9,9,9","+0275,1","+0238,1","10120,1",,,"99999,9,10107,1","2,1,013,1,+999,9","SYN04891812 46/// /0903 10275 20238 30107 40120 52013=",
"91812099999","2023-06-23T09:00:00","4","-10.9145","-165.8393","4.57","PUKAPUKA AIRPORT, CW","FM-15","99999","V020","090,1,N,0015,1","99999,9,9,N","999999,9,9,9","+0280,1","+0240,1","99999,9",,,"10120,1,99999,9",,"MET056METAR NCPK 230900Z AUTO 09003KT //// ////// 28/24 Q1012=",
"91812099999","2023-06-23T10:00:00","4","-10.9145","-165.8393","4.57","PUKAPUKA AIRPORT, CW","FM-15","99999","V020","080,1,N,0010,1","99999,9,9,N","999999,9,9,9","+0270,1","+0230,1","99999,9",,,"10110,1,99999,9",,"MET056METAR NCPK 231000Z AUTO 08002KT //// ////// 27/23 Q1011=",
"91812099999","2023-06-23T11:00:00","4","-10.9145","-165.8393","4.57","PUKAPUKA AIRPORT, CW","FM-15","99999","V020","100,1,N,0010,1","99999,9,9,N","999999,9,9,9","+0270,1","+0230,1","99999,9",,,"10110,1,99999,9",,"MET056METAR NCPK 231100Z AUTO 10002KT //// ////// 27/23 Q1011=",
"91812099999","2023-06-23T12:00:00","4","-10.9145","-165.8393","4.57","PUKAPUKA AIRPORT, CW","FM-12","99999","V020","070,1,N,0005,1","99999,9,9,N","999999,9,9,9","+0266,1","+0230,1","10116,1","06,0000,9,1","240,M,+0317,1","99999,9,10120,1","7,1,004,1,+999,9","SYN06491812 16/// /0701 10266 20230 30120 40116 57004 60001 333 10317=",
"91812099999","2023-06-23T12:00:00","4","-10.9145","-165.8393","4.57","PUKAPUKA AIRPORT, CW","FM-15","99999","V020","070,1,N,0005,1","99999,9,9,N","999999,9,9,9","+0270,1","+0230,1","99999,9",,,"10110,1,99999,9",,"MET056METAR NCPK 231200Z AUTO 07001KT //// ////// 27/23 Q1011=",
"91812099999","2023-06-23T13:00:00","4","-10.9145","-165.8393","4.57","PUKAPUKA AIRPORT, CW","FM-15","99999","V020","090,1,N,0026,1","99999,9,9,N","999999,9,9,9","+0270,1","+0240,1","99999,9",,,"10110,1,99999,9",,"MET056METAR NCPK 231300Z AUTO 09005KT //// ////// 27/24 Q1011=",
"91812099999","2023-06-23T15:00:00","4","-10.9145","-165.8393","4.57","PUKAPUKA AIRPORT, CW","FM-12","99999","V020","100,1,N,0005,1","99999,9,9,N","999999,9,9,9","+0252,1","+0234,1","10112,1",,,"99999,9,10116,1","3,1,005,1,+999,9","SYN04891812 46/// /1001 10252 20234 30116 40112 53005=",
"91812099999","2023-06-23T15:00:00","4","-10.9145","-165.8393","4.57","PUKAPUKA AIRPORT, CW","FM-15","99999","V020","100,1,N,0005,1","99999,9,9,N","999999,9,9,9","+0250,1","+9999,9","99999,9",,,"10110,1,99999,9",,"MET057METAR NCPK 231500Z AUTO 10001KT //// ////// 25/234 Q1011=",
"91812099999","2023-06-23T16:00:00","4","-10.9145","-165.8393","4.57","PUKAPUKA AIRPORT, CW","FM-15","99999","V020","060,1,N,0010,1","99999,9,9,N","999999,9,9,9","+0250,1","+0230,1","99999,9",,,"10110,1,99999,9",,"MET056METAR NCPK 231600Z AUTO 06002KT //// ////// 25/23 Q1011=",
"91812099999","2023-06-23T17:00:00","4","-10.9145","-165.8393","4.57","PUKAPUKA AIRPORT, CW","FM-15","99999","V020","080,1,N,0010,1","99999,9,9,N","999999,9,9,9","+0270,1","+0230,1","99999,9",,,"10110,1,99999,9",,"MET056METAR NCPK 231700Z AUTO 08002KT //// ////// 27/23 Q1011=",
"91812099999","2023-06-23T18:00:00","4","-10.9145","-165.8393","4.57","PUKAPUKA AIRPORT, CW","FM-12","99999","V020","070,1,N,0010,1","99999,9,9,N","999999,9,9,9","+0263,1","+0228,1","10122,1","06,0000,9,1",,"99999,9,10108,1","3,1,014,1,+999,9","SYN05491812 16/// /0702 10263 20228 30108 40122 53014 60001=",
"91812099999","2023-06-23T18:00:00","4","-10.9145","-165.8393","4.57","PUKAPUKA AIRPORT, CW","FM-15","99999","V020","080,1,N,0005,1","99999,9,9,N","999999,9,9,9","+0260,1","+0230,1","99999,9",,,"10120,1,99999,9",,"MET056METAR NCPK 231800Z AUTO 08001KT //// ////// 26/23 Q1012=",
"91812099999","2023-06-23T20:00:00","4","-10.9145","-165.8393","4.57","PUKAPUKA AIRPORT, CW","FM-15","99999","V020","100,1,N,0015,1","99999,9,9,N","999999,9,9,9","+0290,1","+0230,1","99999,9",,,"10130,1,99999,9",,"MET056METAR NCPK 232000Z AUTO 10003KT //// ////// 29/23 Q1013=",
"91812099999","2023-06-23T21:00:00","4","-10.9145","-165.8393","4.57","PUKAPUKA AIRPORT, CW","FM-12","99999","V020","090,1,N,0010,1","99999,9,9,N","999999,9,9,9","+0302,1","+0232,1","10132,1",,,"99999,9,10122,1","9,9,010,1,+999,9","SYN04891812 46/// /0902 10302 20232 30122 40132 50010=",
"91812099999","2023-06-23T21:00:00","4","-10.9145","-165.8393","4.57","PUKAPUKA AIRPORT, CW","FM-15","99999","V020","100,1,N,0015,1","99999,9,9,N","999999,9,9,9","+0310,1","+0230,1","99999,9",,,"10130,1,99999,9",,"MET056METAR NCPK 232100Z AUTO 10003KT //// ////// 31/23 Q1013=",
"91812099999","2023-06-23T22:00:00","4","-10.9145","-165.8393","4.57","PUKAPUKA AIRPORT, CW","FM-15","99999","V020","080,1,N,0015,1","99999,9,9,N","999999,9,9,9","+0310,1","+0240,1","99999,9",,,"10130,1,99999,9",,"MET056METAR NCPK 232200Z AUTO 08003KT //// ////// 31/24 Q1013=",
"91812099999","2023-06-23T23:00:00","4","-10.9145","-165.8393","4.57","PUKAPUKA AIRPORT, CW","FM-15","99999","V020","080,1,N,0015,1","99999,9,9,N","999999,9,9,9","+0300,1","+0230,1","99999,9",,,"10120,1,99999,9",,"MET056METAR NCPK 232300Z AUTO 08003KT //// ////// 30/23 Q1012=",
"91812099999","2023-06-24T00:00:00","4","-10.9145","-165.8393","4.57","PUKAPUKA AIRPORT, CW","FM-12","99999","V020","090,1,N,0010,1","99999,9,9,N","999999,9,9,9","+0307,1","+0234,1","10115,1","99,9999,1,9","120,N,+0248,1","99999,9,10132,1","7,1,017,1,+999,9","SYN07691812 16/// /0902 10307 20234 30132 40115 57017 6//// 333 20248 333 3 7////=",
"91812099999","2023-06-24T01:00:00","4","-10.9145","-165.8393","4.57","PUKAPUKA AIRPORT, CW","FM-15","99999","V020","120,1,N,0015,1","99999,9,9,N","999999,9,9,9","+0310,1","+0230,1","99999,9",,,"10110,1,99999,9",,"MET056METAR NCPK 240100Z AUTO 12003KT //// ////// 31/23 Q1011=",
"91812099999","2023-06-24T02:00:00","4","-10.9145","-165.8393","4.57","PUKAPUKA AIRPORT, CW","FM-15","99999","V020","120,1,N,0021,1","99999,9,9,N","999999,9,9,9","+0300,1","+0240,1","99999,9",,,"10100,1,99999,9",,"MET056METAR NCPK 240200Z AUTO 12004KT //// ////// 30/24 Q1010=",
"91812099999","2023-06-24T03:00:00","4","-10.9145","-165.8393","4.57","PUKAPUKA AIRPORT, CW","FM-12","99999","V020","130,1,N,0026,1","99999,9,9,N","999999,9,9,9","+0299,1","+0234,1","10103,1",,,"99999,9,10111,1","5,1,008,1,+999,9","SYN04891812 46/// /1305 10299 20234 30111 40103 55008=",
"91812099999","2023-06-24T03:00:00","4","-10.9145","-165.8393","4.57","PUKAPUKA AIRPORT, CW","FM-15","99999","V020","130,1,N,0026,1","99999,9,9,N","999999,9,9,9","+0300,1","+0230,1","99999,9",,,"10100,1,99999,9",,"MET056METAR NCPK 240300Z AUTO 13005KT //// ////// 30/23 Q1010=",
"91812099999","2023-06-24T04:00:00","4","-10.9145","-165.8393","4.57","PUKAPUKA AIRPORT, CW","FM-15","99999","V020","120,1,N,0021,1","99999,9,9,N","999999,9,9,9","+0290,1","+0230,1","99999,9",,,"10100,1,99999,9",,"MET056METAR NCPK 240400Z AUTO 12004KT //// ////// 29/23 Q1010=",
"91812099999","2023-06-24T05:00:00","4","-10.9145","-165.8393","4.57","PUKAPUKA AIRPORT, CW","FM-15","99999","V020","120,1,N,0015,1","99999,9,9,N","999999,9,9,9","+0280,1","+0230,1","99999,9",,,"10110,1,99999,9",,"MET056METAR NCPK 240500Z AUTO 12003KT //// ////// 28/23 Q1011=",
"91812099999","2023-06-24T06:00:00","4","-10.9145","-165.8393","4.57","PUKAPUKA AIRPORT, CW","FM-12","99999","V020","110,1,N,0010,1","99999,9,9,N","999999,9,9,9","+0276,1","+0230,1","10115,1","06,0000,9,1",,"99999,9,10103,1","2,1,012,1,+999,9","SYN05491812 16/// /1102 10276 20230 30103 40115 52012 60001=",
"91812099999","2023-06-24T06:00:00","4","-10.9145","-165.8393","4.57","PUKAPUKA AIRPORT, CW","FM-15","99999","V020","110,1,N,0010,1","99999,9,9,N","999999,9,9,9","+0280,1","+0230,1","99999,9",,,"10110,1,99999,9",,"MET056METAR NCPK 240600Z AUTO 11002KT //// ////// 28/23 Q1011=",
"91812099999","2023-06-24T07:00:00","4","-10.9145","-165.8393","4.57","PUKAPUKA AIRPORT, CW","FM-15","99999","V020","120,1,N,0015,1","99999,9,9,N","999999,9,9,9","+0280,1","+0230,1","99999,9",,,"10110,1,99999,9",,"MET056METAR NCPK 240700Z AUTO 12003KT //// ////// 28/23 Q1011=",
"91812099999","2023-06-24T11:00:00","4","-10.9145","-165.8393","4.57","PUKAPUKA AIRPORT, CW","FM-15","99999","V020","120,1,N,0005,1","99999,9,9,N","999999,9,9,9","+0270,1","+0240,1","99999,9",,,"10120,1,99999,9",,"MET056METAR NCPK 241100Z AUTO 12001KT //// ////// 27/24 Q1012=",
"91812099999","2023-06-24T12:00:00","4","-10.9145","-165.8393","4.57","PUKAPUKA AIRPORT, CW","FM-12","99999","V020","140,1,N,0010,1","99999,9,9,N","999999,9,9,9","+0264,1","+0234,1","10117,1","06,0004,3,1","240,M,+0309,1",,,"SYN06491812 16/// /1402 10264 20234 3//// 40117 5//// 69941 333 10309=",
"91812099999","2023-06-24T12:00:00","4","-10.9145","-165.8393","4.57","PUKAPUKA AIRPORT, CW","FM-15","99999","V020","140,1,N,0010,1","99999,9,9,N","999999,9,9,9","+0260,1","+0230,1","99999,9",,,"10110,1,99999,9",,"MET056METAR NCPK 241200Z AUTO 14002KT //// ////// 26/23 Q1011=",
"91812099999","2023-06-24T13:00:00","4","-10.9145","-165.8393","4.57","PUKAPUKA AIRPORT, CW","FM-15","99999","V020","110,1,N,0005,1","99999,9,9,N","999999,9,9,9","+0250,1","+0240,1","99999,9",,,"10110,1,99999,9",,"MET056METAR NCPK 241300Z AUTO 11001KT //// ////// 25/24 Q1011=",
"91812099999","2023-06-24T14:00:00","4","-10.9145","-165.8393","4.57","PUKAPUKA AIRPORT, CW","FM-15","99999","V020","100,1,N,0010,1","99999,9,9,N","999999,9,9,9","+0260,1","+0240,1","99999,9",,,"10110,1,99999,9",,"MET056METAR NCPK 241400Z AUTO 10002KT //// ////// 26/24 Q1011=",
"91812099999","2023-06-24T15:00:00","4","-10.9145","-165.8393","4.57","PUKAPUKA AIRPORT, CW","FM-12","99999","V020","090,1,N,0015,1","99999,9,9,N","999999,9,9,9","+0266,1","+0238,1","10105,1",,,"99999,9,10117,1","7,1,012,1,+999,9","SYN04891812 46/// /0903 10266 20238 30117 40105 57012=",
"91812099999","2023-06-24T15:00:00","4","-10.9145","-165.8393","4.57","PUKAPUKA AIRPORT, CW","FM-15","99999","V020","090,1,N,0015,1","99999,9,9,N","999999,9,9,9","+0270,1","+0230,1","99999,9",,,"10100,1,99999,9",,"MET056METAR NCPK 241500Z AUTO 09003KT //// ////// 27/23 Q1010=",
"91812099999","2023-06-24T16:00:00","4","-10.9145","-165.8393","4.57","PUKAPUKA AIRPORT, CW","FM-15","99999","V020","080,1,N,0010,1","99999,9,9,N","999999,9,9,9","+0270,1","+0240,1","99999,9",,,"10100,1,99999,9",,"MET056METAR NCPK 241600Z AUTO 08002KT //// ////// 27/24 Q1010=",
"91812099999","2023-06-24T17:00:00","4","-10.9145","-165.8393","4.57","PUKAPUKA AIRPORT, CW","FM-15","99999","V020","090,1,N,0010,1","99999,9,9,N","999999,9,9,9","+0260,1","+0240,1","99999,9",,,"10110,1,99999,9",,"MET056METAR NCPK 241700Z AUTO 09002KT //// ////// 26/24 Q1011=",
"91812099999","2023-06-24T18:00:00","4","-10.9145","-165.8393","4.57","PUKAPUKA AIRPORT, CW","FM-12","99999","V020","110,1,N,0015,1","99999,9,9,N","999999,9,9,9","+0254,1","+0237,1","10118,1","06,0020,3,1",,"99999,9,10105,1","2,1,013,1,+999,9","SYN05491812 16/// /1103 10254 20237 30105 40118 52013 60021=",
"91812099999","2023-06-24T18:00:00","4","-10.9145","-165.8393","4.57","PUKAPUKA AIRPORT, CW","FM-15","99999","V020","110,1,N,0015,1","99999,9,9,N","999999,9,9,9","+0250,1","+0240,1","99999,9",,,"10110,1,99999,9",,"MET056METAR NCPK 241800Z AUTO 11003KT //// ////// 25/24 Q1011=",
"91812099999","2023-06-24T19:00:00","4","-10.9145","-165.8393","4.57","PUKAPUKA AIRPORT, CW","FM-15","99999","V020","120,1,N,0021,1","99999,9,9,N","999999,9,9,9","+0280,1","+0240,1","99999,9",,,"10120,1,99999,9",,"MET056METAR NCPK 241900Z AUTO 12004KT //// ////// 28/24 Q1012=",
"91812099999","2023-06-24T20:00:00","4","-10.9145","-165.8393","4.57","PUKAPUKA AIRPORT, CW","FM-15","99999","V020","110,1,N,0021,1","99999,9,9,N","999999,9,9,9","+0300,1","+0240,1","99999,9",,,"10120,1,99999,9",,"MET056METAR NCPK 242000Z AUTO 11004KT //// ////// 30/24 Q1012=",
"91812099999","2023-06-24T21:00:00","4","-10.9145","-165.8393","4.57","PUKAPUKA AIRPORT, CW","FM-12","99999","V020","100,1,N,0015,1","99999,9,9,N","999999,9,9,9","+0305,1","+0238,1","10126,1",,,"99999,9,10118,1","2,1,008,1,+999,9","SYN04891812 46/// /1003 10305 20238 30118 40126 52008=",
"91812099999","2023-06-24T21:00:00","4","-10.9145","-165.8393","4.57","PUKAPUKA AIRPORT, CW","FM-15","99999","V020","100,1,N,0015,1","99999,9,9,N","999999,9,9,9","+0310,1","+0240,1","99999,9",,,"10120,1,99999,9",,"MET056METAR NCPK 242100Z AUTO 10003KT //// ////// 31/24 Q1012=",
"91812099999","2023-06-24T22:00:00","4","-10.9145","-165.8393","4.57","PUKAPUKA AIRPORT, CW","FM-15","99999","V020","100,1,N,0021,1","99999,9,9,N","999999,9,9,9","+0300,1","+0240,1","99999,9",,,"10120,1,99999,9",,"MET056METAR NCPK 242200Z AUTO 10004KT //// ////// 30/24 Q1012=",
"91812099999","2023-06-24T23:00:00","4","-10.9145","-165.8393","4.57","PUKAPUKA AIRPORT, CW","FM-15","99999","V020","100,1,N,0015,1","99999,9,9,N","999999,9,9,9","+0310,1","+0240,1","99999,9",,,"10110,1,99999,9",,"MET056METAR NCPK 242300Z AUTO 10003KT //// ////// 31/24 Q1011=",
"91812099999","2023-06-25T00:00:00","4","-10.9145","-165.8393","4.57","PUKAPUKA AIRPORT, CW","FM-12","99999","V020","100,1,N,0021,1","99999,9,9,N","999999,9,9,9","+0308,1","+0242,1","10104,1","99,9999,1,9","120,N,+0241,1","99999,9,10126,1","7,1,022,1,+999,9","SYN07691812 16/// /1004 10308 20242 30126 40104 57022 6//// 333 20241 333 3 7////=",
"91812099999","2023-06-25T00:00:00","4","-10.9145","-165.8393","4.57","PUKAPUKA AIRPORT, CW","FM-15","99999","V020","100,1,N,0021,1","99999,9,9,N","999999,9,9,9","+0310,1","+0240,1","99999,9",,,"10100,1,99999,9",,"MET056METAR NCPK 250000Z AUTO 10004KT //// ////// 31/24 Q1010=",
"91812099999","2023-06-25T01:00:00","4","-10.9145","-165.8393","4.57","PUKAPUKA AIRPORT, CW","FM-15","99999","V020","110,1,N,0021,1","99999,9,9,N","999999,9,9,9","+0310,1","+0240,1","99999,9",,,"10100,1,99999,9",,"MET056METAR NCPK 250100Z AUTO 11004KT //// ////// 31/24 Q1010=",
"91812099999","2023-06-25T02:00:00","4","-10.9145","-165.8393","4.57","PUKAPUKA AIRPORT, CW","FM-15","99999","V020","110,1,N,0026,1","99999,9,9,N","999999,9,9,9","+0300,1","+0240,1","99999,9",,,"10090,1,99999,9",,"MET056METAR NCPK 250200Z AUTO 11005KT //// ////// 30/24 Q1009=",
"91812099999","2023-06-25T03:00:00","4","-10.9145","-165.8393","4.57","PUKAPUKA AIRPORT, CW","FM-12","99999","V020","120,1,N,0026,1","99999,9,9,N","999999,9,9,9","+0296,1","+0237,1","10094,1",,,"99999,9,10098,1","7,1,004,1,+999,9","SYN04891812 46/// /1205 10296 20237 30098 40094 57004=",
"91812099999","2023-06-25T04:00:00","4","-10.9145","-165.8393","4.57","PUKAPUKA AIRPORT, CW","FM-15","99999","V020","120,1,N,0021,1","99999,9,9,N","999999,9,9,9","+0290,1","+0240,1","99999,9",,,"10090,1,99999,9",,"MET056METAR NCPK 250400Z AUTO 12004KT //// ////// 29/24 Q1009=",
"91812099999","2023-06-25T05:00:00","4","-10.9145","-165.8393","4.57","PUKAPUKA AIRPORT, CW","FM-15","99999","V020","110,1,N,0021,1","99999,9,9,N","999999,9,9,9","+0280,1","+0230,1","99999,9",,,"10090,1,99999,9",,"MET056METAR NCPK 250500Z AUTO 11004KT //// ////// 28/23 Q1009=",
"91812099999","2023-06-25T06:00:00","4","-10.9145","-165.8393","4.57","PUKAPUKA AIRPORT, CW","FM-12","99999","V020","110,1,N,0026,1","99999,9,9,N","999999,9,9,9","+0281,1","+0281,1","10103,1","06,0000,9,1",,"99999,9,10094,1","2,1,009,1,+999,9","SYN05491812 16/// /1105 10281 20281 30094 40103 52009 60001=",
"91812099999","2023-06-25T06:00:00","4","-10.9145","-165.8393","4.57","PUKAPUKA AIRPORT, CW","FM-15","99999","V020","110,1,N,0026,1","99999,9,9,N","999999,9,9,9","+0280,1","+0240,1","99999,9",,,"10100,1,99999,9",,"MET056METAR NCPK 250600Z AUTO 11005KT //// ////// 28/24 Q1010=",
"91812099999","2023-06-25T07:00:00","4","-10.9145","-165.8393","4.57","PUKAPUKA AIRPORT, CW","FM-15","99999","V020","100,1,N,0026,1","99999,9,9,N","999999,9,9,9","+0280,1","+0240,1","99999,9",,,"10100,1,99999,9",,"MET056METAR NCPK 250700Z AUTO 10005KT //// ////// 28/24 Q1010=",
"91812099999","2023-06-25T08:00:00","4","-10.9145","-165.8393","4.57","PUKAPUKA AIRPORT, CW","FM-15","99999","V020","110,1,N,0026,1","99999,9,9,N","999999,9,9,9","+0300,1","+0240,1","99999,9",,,"10130,1,99999,9",,"MET056METAR NCPK 250800Z AUTO 11005KT //// ////// 30/24 Q1013=",
"91812099999","2023-06-25T09:00:00","4","-10.9145","-165.8393","4.57","PUKAPUKA AIRPORT, CW","FM-12","99999","V020","100,1,N,0021,1","99999,9,9,N","999999,9,9,9","+0280,1","+0243,1","10105,1",,,"99999,9,10103,1","2,1,002,1,+999,9","SYN04891812 46/// /1004 10280 20243 30103 40105 52002=",
"91812099999","2023-06-25T09:00:00","4","-10.9145","-165.8393","4.57","PUKAPUKA AIRPORT, CW","FM-15","99999","V020","100,1,N,0021,1","99999,9,9,N","999999,9,9,9","+0280,1","+0240,1","99999,9",,,"10100,1,99999,9",,"MET056METAR NCPK 250900Z AUTO 10004KT //// ////// 28/24 Q1010=",
"91812099999","2023-06-25T10:00:00","4","-10.9145","-165.8393","4.57","PUKAPUKA AIRPORT, CW","FM-15","99999","V020","090,1,N,0015,1","99999,9,9,N","999999,9,9,9","+0280,1","+0240,1","99999,9",,,"10100,1,99999,9",,"MET056METAR NCPK 251000Z AUTO 09003KT //// ////// 28/24 Q1010=",
"91812099999","2023-06-25T11:00:00","4","-10.9145","-165.8393","4.57","PUKAPUKA AIRPORT, CW","FM-15","99999","V020","100,1,N,0021,1","99999,9,9,N","999999,9,9,9","+0280,1","+0240,1","99999,9",,,"10100,1,99999,9",,"MET056METAR NCPK 251100Z AUTO 10004KT //// ////// 28/24 Q1010=",
"91812099999","2023-06-25T12:00:00","4","-10.9145","-165.8393","4.57","PUKAPUKA AIRPORT, CW","FM-12","99999","V020","090,1,N,0015,1","99999,9,9,N","999999,9,9,9","+0277,1","+0238,1","10102,1","06,0000,9,1","240,M,+0317,1","99999,9,10105,1","8,1,003,1,+999,9","SYN06491812 16/// /0903 10277 20238 30105 40102 58003 60001 333 10317=",
"91812099999","2023-06-25T12:00:00","4","-10.9145","-165.8393","4.57","PUKAPUKA AIRPORT, CW","FM-15","99999","V020","090,1,N,0015,1","99999,9,9,N","999999,9,9,9","+0280,1","+0240,1","99999,9",,,"10100,1,99999,9",,"MET056METAR NCPK 251200Z AUTO 09003KT //// ////// 28/24 Q1010=",
"91812099999","2023-06-25T13:00:00","4","-10.9145","-165.8393","4.57","PUKAPUKA AIRPORT, CW","FM-15","99999","V020","100,1,N,0015,1","99999,9,9,N","999999,9,9,9","+0280,1","+0240,1","99999,9",,,"10090,1,99999,9",,"MET056METAR NCPK 251300Z AUTO 10003KT //// ////// 28/24 Q1009=",
"91812099999","2023-06-25T14:00:00","4","-10.9145","-165.8393","4.57","PUKAPUKA AIRPORT, CW","FM-15","99999","V020","090,1,N,0015,1","99999,9,9,N","999999,9,9,9","+0280,1","+0240,1","99999,9",,,"10090,1,99999,9",,"MET056METAR NCPK 251400Z AUTO 09003KT //// ////// 28/24 Q1009=",
"91812099999","2023-06-25T15:00:00","4","-10.9145","-165.8393","4.57","PUKAPUKA AIRPORT, CW","FM-12","99999","V020","100,1,N,0015,1","99999,9,9,N","999999,9,9,9","+0275,1","+0237,1","10092,1",,,"99999,9,10102,1","7,1,010,1,+999,9","SYN04891812 46/// /1003 10275 20237 30102 40092 57010=",
"91812099999","2023-06-25T15:00:00","4","-10.9145","-165.8393","4.57","PUKAPUKA AIRPORT, CW","FM-15","99999","V020","100,1,N,0015,1","99999,9,9,N","999999,9,9,9","+0280,1","+0240,1","99999,9",,,"10090,1,99999,9",,"MET056METAR NCPK 251500Z AUTO 10003KT //// ////// 28/24 Q1009=",
"91812099999","2023-06-25T16:00:00","4","-10.9145","-165.8393","4.57","PUKAPUKA AIRPORT, CW","FM-15","99999","V020","090,1,N,0015,1","99999,9,9,N","999999,9,9,9","+0280,1","+0240,1","99999,9",,,"10090,1,99999,9",,"MET056METAR NCPK 251600Z AUTO 09003KT //// ////// 28/24 Q1009=",
"91812099999","2023-06-25T17:00:00","4","-10.9145","-165.8393","4.57","PUKAPUKA AIRPORT, CW","FM-15","99999","V020","100,1,N,0015,1","99999,9,9,N","999999,9,9,9","+0280,1","+0240,1","99999,9",,,"10090,1,99999,9",,"MET056METAR NCPK 251700Z AUTO 10003KT //// ////// 28/24 Q1009=",
"91812099999","2023-06-25T18:00:00","4","-10.9145","-165.8393","4.57","PUKAPUKA AIRPORT, CW","FM-15","99999","V020","100,1,N,0021,1","99999,9,9,N","999999,9,9,9","+0280,1","+0230,1","99999,9",,,"10100,1,99999,9",,"MET056METAR NCPK 251800Z AUTO 10004KT //// ////// 28/23 Q1010=",
"91812099999","2023-06-25T20:00:00","4","-10.9145","-165.8393","4.57","PUKAPUKA AIRPORT, CW","FM-15","99999","V020","090,1,N,0026,1","99999,9,9,N","999999,9,9,9","+0300,1","+0240,1","99999,9",,,"10110,1,99999,9",,"MET056METAR NCPK 252000Z AUTO 09005KT //// ////// 30/24 Q1011=",
"91812099999","2023-06-25T21:00:00","4","-10.9145","-165.8393","4.57","PUKAPUKA AIRPORT, CW","FM-12","99999","V020","100,1,N,0021,1","99999,9,9,N","999999,9,9,9","+0301,1","+0246,1","10111,1",,,"99999,9,10102,1","9,9,009,1,+999,9","SYN04891812 46/// /1004 10301 20246 30102 40111 50009=",
"91812099999","2023-06-25T21:00:00","4","-10.9145","-165.8393","4.57","PUKAPUKA AIRPORT, CW","FM-15","99999","V020","100,1,N,0021,1","99999,9,9,N","999999,9,9,9","+0300,1","+0250,1","99999,9",,,"10110,1,99999,9",,"MET056METAR NCPK 252100Z AUTO 10004KT //// ////// 30/25 Q1011=",
"91812099999","2023-06-25T23:00:00","4","-10.9145","-165.8393","4.57","PUKAPUKA AIRPORT, CW","FM-15","99999","V020","090,1,N,0015,1","99999,9,9,N","999999,9,9,9","+0310,1","+0250,1","99999,9",,,"10100,1,99999,9",,"MET056METAR NCPK 252300Z AUTO 09003KT //// ////// 31/25 Q1010=",
"91812099999","2023-06-26T00:00:00","4","-10.9145","-165.8393","4.57","PUKAPUKA AIRPORT, CW","FM-12","99999","V020","120,1,N,0026,1","99999,9,9,N","999999,9,9,9","+0305,1","+0241,1","10097,1","99,9999,1,9","120,N,+0267,1","99999,9,10111,1","7,1,014,1,+999,9","SYN07691812 16/// /1205 10305 20241 30111 40097 57014 6//// 333 20267 3 333 7////=",
"91812099999","2023-06-26T00:00:00","4","-10.9145","-165.8393","4.57","PUKAPUKA AIRPORT, CW","FM-15","99999","V020","120,1,N,0026,1","99999,9,9,N","999999,9,9,9","+0310,1","+0240,1","99999,9",,,"10090,1,99999,9",,"MET056METAR NCPK 260000Z AUTO 12005KT //// ////// 31/24 Q1009=",
"91812099999","2023-06-26T01:00:00","4","-10.9145","-165.8393","4.57","PUKAPUKA AIRPORT, CW","FM-15","99999","V020","110,1,N,0021,1","99999,9,9,N","999999,9,9,9","+0310,1","+0240,1","99999,9",,,"10080,1,99999,9",,"MET056METAR NCPK 260100Z AUTO 11004KT //// ////// 31/24 Q1008=",
"91812099999","2023-06-26T02:00:00","4","-10.9145","-165.8393","4.57","PUKAPUKA AIRPORT, CW","FM-15","99999","V020","120,1,N,0021,1","99999,9,9,N","999999,9,9,9","+0310,1","+0250,1","99999,9",,,"10080,1,99999,9",,"MET056METAR NCPK 260200Z AUTO 12004KT //// ////// 31/25 Q1008=",
"91812099999","2023-06-26T03:00:00","4","-10.9145","-165.8393","4.57","PUKAPUKA AIRPORT, CW","FM-12","99999","V020","120,1,N,0026,1","99999,9,9,N","999999,9,9,9","+0301,1","+0244,1","10085,1",,,"99999,9,10097,1","5,1,012,1,+999,9","SYN04891812 46/// /1205 10301 20244 30097 40085 55012=",
"91812099999","2023-06-26T03:00:00","4","-10.9145","-165.8393","4.57","PUKAPUKA AIRPORT, CW","FM-15","99999","V020","120,1,N,0026,1","99999,9,9,N","999999,9,9,9","+0300,1","+0240,1","99999,9",,,"10080,1,99999,9",,"MET056METAR NCPK 260300Z AUTO 12005KT //// ////// 30/24 Q1008=",
"91812099999","2023-06-26T04:00:00","4","-10.9145","-165.8393","4.57","PUKAPUKA AIRPORT, CW","FM-15","99999","V020","140,1,N,0015,1","99999,9,9,N","999999,9,9,9","+0290,1","+0240,1","99999,9",,,"10080,1,99999,9",,"MET056METAR NCPK 260400Z AUTO 14003KT //// ////// 29/24 Q1008=",
"91812099999","2023-06-26T05:00:00","4","-10.9145","-165.8393","4.57","PUKAPUKA AIRPORT, CW","FM-15","99999","V020","140,1,N,0021,1","99999,9,9,N","999999,9,9,9","+0290,1","+0240,1","99999,9",,,"10090,1,99999,9",,"MET056METAR NCPK 260500Z AUTO 14004KT //// ////// 29/24 Q1009=",
"91812099999","2023-06-26T06:00:00","4","-10.9145","-165.8393","4.57","PUKAPUKA AIRPORT, CW","FM-12","99999","V020","140,1,N,0021,1","99999,9,9,N","999999,9,9,9","+0286,1","+0243,1","10098,1","06,0000,9,1",,"99999,9,10085,1","2,1,013,1,+999,9","SYN05491812 16/// /1404 10286 20243 30085 40098 52013 60001=",
"91812099999","2023-06-26T06:00:00","4","-10.9145","-165.8393","4.57","PUKAPUKA AIRPORT, CW","FM-15","99999","V020","140,1,N,0021,1","99999,9,9,N","999999,9,9,9","+0290,1","+0240,1","99999,9",,,"10090,1,99999,9",,"MET056METAR NCPK 260600Z AUTO 14004KT //// ////// 29/24 Q1009=",
"91812099999","2023-06-26T07:00:00","4","-10.9145","-165.8393","4.57","PUKAPUKA AIRPORT, CW","FM-15","99999","V020","140,1,N,0021,1","99999,9,9,N","999999,9,9,9","+0290,1","+0240,1","99999,9",,,"10100,1,99999,9",,"MET056METAR NCPK 260700Z AUTO 14004KT //// ////// 29/24 Q1010=",
"91812099999","2023-06-26T08:00:00","4","-10.9145","-165.8393","4.57","PUKAPUKA AIRPORT, CW","FM-15","99999","V020","130,1,N,0021,1","99999,9,9,N","999999,9,9,9","+0280,1","+0240,1","99999,9",,,"10100,1,99999,9",,"MET056METAR NCPK 260800Z AUTO 13004KT //// ////// 28/24 Q1010=",
"91812099999","2023-06-26T09:00:00","4","-10.9145","-165.8393","4.57","PUKAPUKA AIRPORT, CW","FM-12","99999","V020","140,1,N,0021,1","99999,9,9,N","999999,9,9,9","+0283,1","+0246,1","10108,1",,,"99999,9,10098,1","2,1,010,1,+999,9","SYN04891812 46/// /1404 10283 20246 30098 40108 52010=",
"91812099999","2023-06-26T09:00:00","4","-10.9145","-165.8393","4.57","PUKAPUKA AIRPORT, CW","FM-15","99999","V020","140,1,N,0021,1","99999,9,9,N","999999,9,9,9","+0280,1","+0250,1","99999,9",,,"10100,1,99999,9",,"MET056METAR NCPK 260900Z AUTO 14004KT //// ////// 28/25 Q1010=",
"91812099999","2023-06-26T10:00:00","4","-10.9145","-165.8393","4.57","PUKAPUKA AIRPORT, CW","FM-15","99999","V020","090,1,N,0026,1","99999,9,9,N","999999,9,9,9","+0260,1","+0250,1","99999,9",,,"10110,1,99999,9",,"MET056METAR NCPK 261000Z AUTO 09005KT //// ////// 26/25 Q1011=",
"91812099999","2023-06-26T11:00:00","4","-10.9145","-165.8393","4.57","PUKAPUKA AIRPORT, CW","FM-15","99999","V020","140,1,N,0021,1","99999,9,9,N","999999,9,9,9","+0260,1","+0250,1","99999,9",,,"10100,1,99999,9",,"MET056METAR NCPK 261100Z AUTO 14004KT //// ////// 26/25 Q1010=",
"91812099999","2023-06-26T12:00:00","4","-10.9145","-165.8393","4.57","PUKAPUKA AIRPORT, CW","FM-12","99999","V020","140,1,N,0015,1","99999,9,9,N","999999,9,9,9","+0267,1","+0243,1","10096,1","06,0000,9,1","240,M,+0320,1","99999,9,10110,1","7,1,014,1,+999,9","SYN06491812 16/// /1403 10267 20243 30110 40096 57014 60001 333 10320=",
"91812099999","2023-06-26T12:00:00","4","-10.9145","-165.8393","4.57","PUKAPUKA AIRPORT, CW","FM-15","99999","V020","140,1,N,0015,1","99999,9,9,N","999999,9,9,9","+0270,1","+0240,1","99999,9",,,"10100,1,99999,9",,"MET056METAR NCPK 261200Z AUTO 14003KT //// ////// 27/24 Q1010=",
"91812099999","2023-06-26T13:00:00","4","-10.9145","-165.8393","4.57","PUKAPUKA AIRPORT, CW","FM-15","99999","V020","150,1,N,0021,1","99999,9,9,N","999999,9,9,9","+0270,1","+0240,1","99999,9",,,"10090,1,99999,9",,"MET056METAR NCPK 261300Z AUTO 15004KT //// ////// 27/24 Q1009=",
"91812099999","2023-06-26T14:00:00","4","-10.9145","-165.8393","4.57","PUKAPUKA AIRPORT, CW","FM-15","99999","V020","100,1,N,0041,1","99999,9,9,N","999999,9,9,9","+0270,1","+0240,1","99999,9",,,"10090,1,99999,9",,"MET056METAR NCPK 261400Z AUTO 10008KT //// ////// 27/24 Q1009=",
"91812099999","2023-06-26T15:00:00","4","-10.9145","-165.8393","4.57","PUKAPUKA AIRPORT, CW","FM-12","99999","V020","110,1,N,0031,1","99999,9,9,N","999999,9,9,9","+0274,1","+0242,1","10096,1",,,"99999,9,10096,1","4,1,000,1,+999,9","SYN04891812 46/// /1106 10274 20242 30096 40096 54000=",
"91812099999","2023-06-26T15:00:00","4","-10.9145","-165.8393","4.57","PUKAPUKA AIRPORT, CW","FM-15","99999","V020","110,1,N,0031,1","99999,9,9,N","999999,9,9,9","+0270,1","+0240,1","99999,9",,,"10090,1,99999,9",,"MET056METAR NCPK 261500Z AUTO 11006KT //// ////// 27/24 Q1009=",
"91812099999","2023-06-26T16:00:00","4","-10.9145","-165.8393","4.57","PUKAPUKA AIRPORT, CW","FM-15","99999","V020","110,1,N,0031,1","99999,9,9,N","999999,9,9,9","+0270,1","+0240,1","99999,9",,,"10090,1,99999,9",,"MET056METAR NCPK 261600Z AUTO 11006KT //// ////// 27/24 Q1009=",
"91812099999","2023-06-26T17:00:00","4","-10.9145","-165.8393","4.57","PUKAPUKA AIRPORT, CW","FM-15","99999","V020","130,1,N,0031,1","99999,9,9,N","999999,9,9,9","+0270,1","+0240,1","99999,9",,,"10100,1,99999,9",,"MET056METAR NCPK 261700Z AUTO 13006KT //// ////// 27/24 Q1010=",
"91812099999","2023-06-26T18:00:00","4","-10.9145","-165.8393","4.57","PUKAPUKA AIRPORT, CW","FM-12","99999","V020","110,1,N,0031,1","99999,9,9,N","999999,9,9,9","+0279,1","+0247,1","10102,1","06,0010,3,1",,"99999,9,10098,1","3,1,010,1,+999,9","SYN05491812 16/// /1106 10279 20247 30098 40102 53010 60011=",
"91812099999","2023-06-26T21:00:00","4","-10.9145","-165.8393","4.57","PUKAPUKA AIRPORT, CW","FM-12","99999","V020","130,1,N,0036,1","99999,9,9,N","999999,9,9,9","+0284,1","+0252,1","10116,1",,,"99999,9,10102,1","9,9,014,1,+999,9","SYN04891812 46/// /1307 10284 20252 30102 40116 50014=",
"91812099999","2023-06-26T22:00:00","4","-10.9145","-165.8393","4.57","PUKAPUKA AIRPORT, CW","FM-15","99999","V020","090,1,N,0031,1","99999,9,9,N","999999,9,9,9","+0260,1","+0250,1","99999,9",,,"10110,1,99999,9",,"MET056METAR NCPK 262200Z AUTO 09006KT //// ////// 26/25 Q1011=",
"91812099999","2023-06-26T23:00:00","4","-10.9145","-165.8393","4.57","PUKAPUKA AIRPORT, CW","FM-15","99999","V020","100,1,N,0021,1","99999,9,9,N","999999,9,9,9","+0260,1","+0250,1","99999,9",,,"10100,1,99999,9",,"MET056METAR NCPK 262300Z AUTO 10004KT //// ////// 26/25 Q1010=",
"91812099999","2023-06-27T00:00:00","4","-10.9145","-165.8393","4.57","PUKAPUKA AIRPORT, CW","FM-12","99999","V020","060,1,N,0021,1","99999,9,9,N","999999,9,9,9","+0267,1","+0249,1","10101,1","06,0180,3,1","120,N,+0250,1","99999,9,10112,1","6,1,014,1,+999,9","SYN07691812 16/// /0604 10267 20249 30112 40101 56014 60181 333 20250 3 333 70114=",
"91812099999","2023-06-27T00:00:00","4","-10.9145","-165.8393","4.57","PUKAPUKA AIRPORT, CW","FM-15","99999","V020","060,1,N,0021,1","99999,9,9,N","999999,9,9,9","+0260,1","+0250,1","99999,9",,,"10100,1,99999,9",,"MET056METAR NCPK 270000Z AUTO 06004KT //// ////// 26/25 Q1010=",
"91812099999","2023-06-27T01:00:00","4","-10.9145","-165.8393","4.57","PUKAPUKA AIRPORT, CW","FM-15","99999","V020","070,1,N,0021,1","99999,9,9,N","999999,9,9,9","+0280,1","+0250,1","99999,9",,,"10090,1,99999,9",,"MET056METAR NCPK 270100Z AUTO 07004KT //// ////// 28/25 Q1009=",
"91812099999","2023-06-27T02:00:00","4","-10.9145","-165.8393","4.57","PUKAPUKA AIRPORT, CW","FM-15","99999","V020","070,1,N,0021,1","99999,9,9,N","999999,9,9,9","+0280,1","+0240,1","99999,9",,,"10080,1,99999,9",,"MET056METAR NCPK 270200Z AUTO 07004KT //// ////// 28/24 Q1008=",
"91812099999","2023-06-27T03:00:00","4","-10.9145","-165.8393","4.57","PUKAPUKA AIRPORT, CW","FM-12","99999","V020","090,1,N,0015,1","99999,9,9,N","999999,9,9,9","+0286,1","+0245,1","10091,1",,,"99999,9,10101,1","5,1,010,1,+999,9","SYN04891812 46/// /0903 10286 20245 30101 40091 55010=",
"91812099999","2023-06-27T03:00:00","4","-10.9145","-165.8393","4.57","PUKAPUKA AIRPORT, CW","FM-15","99999","V020","090,1,N,0015,1","99999,9,9,N","999999,9,9,9","+0290,1","+0250,1","99999,9",,,"10090,1,99999,9",,"MET056METAR NCPK 270300Z AUTO 09003KT //// ////// 29/25 Q1009=",
"91812099999","2023-06-27T04:00:00","4","-10.9145","-165.8393","4.57","PUKAPUKA AIRPORT, CW","FM-15","99999","V020","100,1,N,0015,1","99999,9,9,N","999999,9,9,9","+0280,1","+0250,1","99999,9",,,"10090,1,99999,9",,"MET056METAR NCPK 270400Z AUTO 10003KT //// ////// 28/25 Q1009=",
"91812099999","2023-06-27T05:00:00","4","-10.9145","-165.8393","4.57","PUKAPUKA AIRPORT, CW","FM-15","99999","V020","120,1,N,0021,1","99999,9,9,N","999999,9,9,9","+0280,1","+0240,1","99999,9",,,"10090,1,99999,9",,"MET056METAR NCPK 270500Z AUTO 12004KT //// ////// 28/24 Q1009=",
"91812099999","2023-06-27T06:00:00","4","-10.9145","-165.8393","4.57","PUKAPUKA AIRPORT, CW","FM-12","99999","V020","110,1,N,0021,1","99999,9,9,N","999999,9,9,9","+0280,1","+0233,1","10100,1","06,0000,9,1",,"99999,9,10091,1","2,1,009,1,+999,9","SYN05491812 16/// /1104 10280 20233 30091 40100 52009 60001=",
"91812099999","2023-06-27T06:00:00","4","-10.9145","-165.8393","4.57","PUKAPUKA AIRPORT, CW","FM-15","99999","V020","110,1,N,0021,1","99999,9,9,N","999999,9,9,9","+0280,1","+0230,1","99999,9",,,"10100,1,99999,9",,"MET056METAR NCPK 270600Z AUTO 11004KT //// ////// 28/23 Q1010=",
"91812099999","2023-06-27T12:00:00","4","-10.9145","-165.8393","4.57","PUKAPUKA AIRPORT, CW","FM-15","99999","V020","110,1,N,0036,1","99999,9,9,N","999999,9,9,9","+0280,1","+0230,1","99999,9",,,"10100,1,99999,9",,"MET056METAR NCPK 271200Z AUTO 11007KT //// ////// 28/23 Q1010=",
"91812099999","2023-06-27T13:00:00","4","-10.9145","-165.8393","4.57","PUKAPUKA AIRPORT, CW","FM-15","99999","V020","110,1,N,0031,1","99999,9,9,N","999999,9,9,9","+0280,1","+0230,1","99999,9",,,"10090,1,99999,9",,"MET056METAR NCPK 271300Z AUTO 11006KT //// ////// 28/23 Q1009=",
"91812099999","2023-06-27T14:00:00","4","-10.9145","-165.8393","4.57","PUKAPUKA AIRPORT, CW","FM-15","99999","V020","010,1,N,0026,1","99999,9,9,N","999999,9,9,9","+0280,1","+0230,1","99999,9",,,"10080,1,99999,9",,"MET056METAR NCPK 271400Z AUTO 01005KT //// ////// 28/23 Q1008=",
"91812099999","2023-06-27T15:00:00","4","-10.9145","-165.8393","4.57","PUKAPUKA AIRPORT, CW","FM-12","99999","V020","080,1,N,0021,1","99999,9,9,N","999999,9,9,9","+0274,1","+0228,1","10089,1",,,"99999,9,10102,1","7,1,013,1,+999,9","SYN04891812 46/// /0804 10274 20228 30102 40089 57013=",
"91812099999","2023-06-27T15:00:00","4","-10.9145","-165.8393","4.57","PUKAPUKA AIRPORT, CW","FM-15","99999","V020","080,1,N,0021,1","99999,9,9,N","999999,9,9,9","+0270,1","+0230,1","99999,9",,,"10080,1,99999,9",,"MET056METAR NCPK 271500Z AUTO 08004KT //// ////// 27/23 Q1008=",
"91812099999","2023-06-27T16:00:00","4","-10.9145","-165.8393","4.57","PUKAPUKA AIRPORT, CW","FM-15","99999","V020","090,1,N,0021,1","99999,9,9,N","999999,9,9,9","+0270,1","+0230,1","99999,9",,,"10090,1,99999,9",,"MET056METAR NCPK 271600Z AUTO 09004KT //// ////// 27/23 Q1009=",
"91812099999","2023-06-27T17:00:00","4","-10.9145","-165.8393","4.57","PUKAPUKA AIRPORT, CW","FM-15","99999","V020","090,1,N,0021,1","99999,9,9,N","999999,9,9,9","+0270,1","+0230,1","99999,9",,,"10100,1,99999,9",,"MET056METAR NCPK 271700Z AUTO 09004KT //// ////// 27/23 Q1010=",
"91812099999","2023-06-27T18:00:00","4","-10.9145","-165.8393","4.57","PUKAPUKA AIRPORT, CW","FM-12","99999","V020","080,1,N,0010,1","99999,9,9,N","999999,9,9,9","+0275,1","+0236,1","10104,1","06,0000,9,1",,"99999,9,10085,1","2,1,019,1,+999,9","SYN05491812 16/// /0802 10275 20236 30085 40104 52019 60001=",
"91812099999","2023-06-27T18:00:00","4","-10.9145","-165.8393","4.57","PUKAPUKA AIRPORT, CW","FM-15","99999","V020","080,1,N,0015,1","99999,9,9,N","999999,9,9,9","+0270,1","+0240,1","99999,9",,,"10100,1,99999,9",,"MET056METAR NCPK 271800Z AUTO 08003KT //// ////// 27/24 Q1010=",
"91812099999","2023-06-27T19:00:00","4","-10.9145","-165.8393","4.57","PUKAPUKA AIRPORT, CW","FM-15","99999","V020","060,1,N,0015,1","99999,9,9,N","999999,9,9,9","+0280,1","+0240,1","99999,9",,,"10110,1,99999,9",,"MET056METAR NCPK 271900Z AUTO 06003KT //// ////// 28/24 Q1011=",
"91812099999","2023-06-27T20:00:00","4","-10.9145","-165.8393","4.57","PUKAPUKA AIRPORT, CW","FM-15","99999","V020","100,1,N,0021,1","99999,9,9,N","999999,9,9,9","+0290,1","+0240,1","99999,9",,,"10110,1,99999,9",,"MET056METAR NCPK 272000Z AUTO 10004KT //// ////// 29/24 Q1011=",
"91812099999","2023-06-27T21:00:00","4","-10.9145","-165.8393","4.57","PUKAPUKA AIRPORT, CW","FM-12","99999","V020","090,1,N,0021,1","99999,9,9,N","999999,9,9,9","+0302,1","+0243,1","10110,1",,,"99999,9,10104,1","1,1,006,1,+999,9","SYN04891812 46/// /0904 10302 20243 30104 40110 51006=",
"91812099999","2023-06-27T21:00:00","4","-10.9145","-165.8393","4.57","PUKAPUKA AIRPORT, CW","FM-15","99999","V020","090,1,N,0021,1","99999,9,9,N","999999,9,9,9","+0300,1","+0240,1","99999,9",,,"10110,1,99999,9",,"MET056METAR NCPK 272100Z AUTO 09004KT //// ////// 30/24 Q1011=",
"91812099999","2023-06-27T22:00:00","4","-10.9145","-165.8393","4.57","PUKAPUKA AIRPORT, CW","FM-15","99999","V020","100,1,N,0021,1","99999,9,9,N","999999,9,9,9","+0300,1","+0250,1","99999,9",,,"10110,1,99999,9",,"MET056METAR NCPK 272200Z AUTO 10004KT //// ////// 30/25 Q1011=",
"91812099999","2023-06-27T23:00:00","4","-10.9145","-165.8393","4.57","PUKAPUKA AIRPORT, CW","FM-15","99999","V020","090,1,N,0021,1","99999,9,9,N","999999,9,9,9","+0310,1","+0250,1","99999,9",,,"10100,1,99999,9",,"MET056METAR NCPK 272300Z AUTO 09004KT //// ////// 31/25 Q1010=",
"91812099999","2023-06-28T00:00:00","4","-10.9145","-165.8393","4.57","PUKAPUKA AIRPORT, CW","FM-12","99999","V020","090,1,N,0021,1","99999,9,9,N","999999,9,9,9","+0306,1","+0246,1","10094,1","06,0000,9,1","120,N,+0273,1","99999,9,10109,1","7,1,015,1,+999,9","SYN07691812 16/// /0904 10306 20246 30109 40094 57015 60001 333 20273 3 333 70280=",
"91812099999","2023-06-28T00:00:00","4","-10.9145","-165.8393","4.57","PUKAPUKA AIRPORT, CW","FM-15","99999","V020","080,1,N,0021,1","99999,9,9,N","999999,9,9,9","+0310,1","+0250,1","99999,9",,,"10100,1,99999,9",,"MET056METAR NCPK 280000Z AUTO 08004KT //// ////// 31/25 Q1010=",
"91812099999","2023-06-28T01:00:00","4","-10.9145","-165.8393","4.57","PUKAPUKA AIRPORT, CW","FM-15","99999","V020","070,1,N,0015,1","99999,9,9,N","999999,9,9,9","+0310,1","+0250,1","99999,9",,,"10090,1,99999,9",,"MET056METAR NCPK 280100Z AUTO 07003KT //// ////// 31/25 Q1009=",
"91812099999","2023-06-28T02:00:00","4","-10.9145","-165.8393","4.57","PUKAPUKA AIRPORT, CW","FM-15","99999","V020","080,1,N,0021,1","99999,9,9,N","999999,9,9,9","+0310,1","+0240,1","99999,9",,,"10080,1,99999,9",,"MET056METAR NCPK 280200Z AUTO 08004KT //// ////// 31/24 Q1008=",
"91812099999","2023-06-28T03:00:00","4","-10.9145","-165.8393","4.57","PUKAPUKA AIRPORT, CW","FM-12","99999","V020","080,1,N,0021,1","99999,9,9,N","999999,9,9,9","+0301,1","+0244,1","10078,1",,,"99999,9,10092,1","5,1,014,1,+999,9","SYN04891812 46/// /0804 10301 20244 30092 40078 55014=",
"91812099999","2023-06-28T03:00:00","4","-10.9145","-165.8393","4.57","PUKAPUKA AIRPORT, CW","FM-15","99999","V020","080,1,N,0021,1","99999,9,9,N","999999,9,9,9","+0300,1","+0240,1","99999,9",,,"10080,1,99999,9",,"MET056METAR NCPK 280300Z AUTO 08004KT //// ////// 30/24 Q1008=",
"91812099999","2023-06-28T04:00:00","4","-10.9145","-165.8393","4.57","PUKAPUKA AIRPORT, CW","FM-15","99999","V020","090,1,N,0021,1","99999,9,9,N","999999,9,9,9","+0290,1","+0240,1","99999,9",,,"10080,1,99999,9",,"MET056METAR NCPK 280400Z AUTO 09004KT //// ////// 29/24 Q1008=",
"91812099999","2023-06-28T05:00:00","4","-10.9145","-165.8393","4.57","PUKAPUKA AIRPORT, CW","FM-15","99999","V020","090,1,N,0015,1","99999,9,9,N","999999,9,9,9","+0290,1","+0240,1","99999,9",,,"10090,1,99999,9",,"MET056METAR NCPK 280500Z AUTO 09003KT //// ////// 29/24 Q1009=",
"91812099999","2023-06-28T06:00:00","4","-10.9145","-165.8393","4.57","PUKAPUKA AIRPORT, CW","FM-12","99999","V020","100,1,N,0015,1","99999,9,9,N","999999,9,9,9","+0282,1","+0245,1","10097,1","06,0000,9,1",,"99999,9,10078,1","1,1,019,1,+999,9","SYN05491812 16/// /1003 10282 20245 30078 40097 51019 60001=",
"91812099999","2023-06-28T06:00:00","4","-10.9145","-165.8393","4.57","PUKAPUKA AIRPORT, CW","FM-15","99999","V020","100,1,N,0015,1","99999,9,9,N","999999,9,9,9","+0290,1","+0230,1","99999,9",,,"10090,1,99999,9",,"MET056METAR NCPK 280600Z AUTO 10003KT //// ////// 29/23 Q1009=",
"91812099999","2023-06-28T07:00:00","4","-10.9145","-165.8393","4.57","PUKAPUKA AIRPORT, CW","FM-15","99999","V020","080,1,N,0015,1","99999,9,9,N","999999,9,9,9","+0290,1","+0230,1","99999,9",,,"10090,1,99999,9",,"MET056METAR NCPK 280700Z AUTO 08003KT //// ////// 29/23 Q1009=",
"91812099999","2023-06-28T08:00:00","4","-10.9145","-165.8393","4.57","PUKAPUKA AIRPORT, CW","FM-15","99999","V020","110,1,N,0021,1","99999,9,9,N","999999,9,9,9","+0280,1","+0230,1","99999,9",,,"10110,1,99999,9",,"MET056METAR NCPK 280800Z AUTO 11004KT //// ////// 28/23 Q1011=",
"91812099999","2023-06-28T09:00:00","4","-10.9145","-165.8393","4.57","PUKAPUKA AIRPORT, CW","FM-12","99999","V020","110,1,N,0026,1","99999,9,9,N","999999,9,9,9","+0282,1","+0245,1","10107,1",,,"99999,9,10095,1","2,1,012,1,+999,9","SYN04891812 46/// /1105 10282 20245 30095 40107 52012=",
"91812099999","2023-06-28T10:00:00","4","-10.9145","-165.8393","4.57","PUKAPUKA AIRPORT, CW","FM-15","99999","V020","100,1,N,0021,1","99999,9,9,N","999999,9,9,9","+0280,1","+0250,1","99999,9",,,"10110,1,99999,9",,"MET056METAR NCPK 281000Z AUTO 10004KT //// ////// 28/25 Q1011=",
"91812099999","2023-06-28T11:00:00","4","-10.9145","-165.8393","4.57","PUKAPUKA AIRPORT, CW","FM-15","99999","V020","070,1,N,0015,1","99999,9,9,N","999999,9,9,9","+0280,1","+0240,1","99999,9",,,"10100,1,99999,9",,"MET056METAR NCPK 281100Z AUTO 07003KT //// ////// 28/24 Q1010=",
"91812099999","2023-06-28T12:00:00","4","-10.9145","-165.8393","4.57","PUKAPUKA AIRPORT, CW","FM-12","99999","V020","060,1,N,0021,1","99999,9,9,N","999999,9,9,9","+0277,1","+0242,1","10098,1","06,0000,9,1","240,M,+0312,1","99999,9,10107,1","8,1,009,1,+999,9","SYN06491812 16/// /0604 10277 20242 30107 40098 58009 60001 333 10312=",
"91812099999","2023-06-28T12:00:00","4","-10.9145","-165.8393","4.57","PUKAPUKA AIRPORT, CW","FM-15","99999","V020","060,1,N,0021,1","99999,9,9,N","999999,9,9,9","+0280,1","+0240,1","99999,9",,,"10090,1,99999,9",,"MET056METAR NCPK 281200Z AUTO 06004KT //// ////// 28/24 Q1009=",
"91812099999","2023-06-28T13:00:00","4","-10.9145","-165.8393","4.57","PUKAPUKA AIRPORT, CW","FM-15","99999","V020","060,1,N,0026,1","99999,9,9,N","999999,9,9,9","+0280,1","+0240,1","99999,9",,,"10090,1,99999,9",,"MET056METAR NCPK 281300Z AUTO 06005KT //// ////// 28/24 Q1009=",
"91812099999","2023-06-28T14:00:00","4","-10.9145","-165.8393","4.57","PUKAPUKA AIRPORT, CW","FM-15","99999","V020","070,1,N,0021,1","99999,9,9,N","999999,9,9,9","+0280,1","+0240,1","99999,9",,,"10080,1,99999,9",,"MET056METAR NCPK 281400Z AUTO 07004KT //// ////// 28/24 Q1008=",
"91812099999","2023-06-28T15:00:00","4","-10.9145","-165.8393","4.57","PUKAPUKA AIRPORT, CW","FM-12","99999","V020","080,1,N,0010,1","99999,9,9,N","999999,9,9,9","+0274,1","+0240,1","10088,1",,,"99999,9,10098,1","5,1,010,1,+999,9","SYN04891812 46/// /0802 10274 20240 30098 40088 55010=",
"91812099999","2023-06-28T15:00:00","4","-10.9145","-165.8393","4.57","PUKAPUKA AIRPORT, CW","FM-15","99999","V020","080,1,N,0010,1","99999,9,9,N","999999,9,9,9","+0270,1","+0240,1","99999,9",,,"10080,1,99999,9",,"MET056METAR NCPK 281500Z AUTO 08002KT //// ////// 27/24 Q1008=",
"91812099999","2023-06-28T16:00:00","4","-10.9145","-165.8393","4.57","PUKAPUKA AIRPORT, CW","FM-15","99999","V020","090,1,N,0021,1","99999,9,9,N","999999,9,9,9","+0280,1","+0240,1","99999,9",,,"10090,1,99999,9",,"MET056METAR NCPK 281600Z AUTO 09004KT //// ////// 28/24 Q1009=",
"91812099999","2023-06-28T17:00:00","4","-10.9145","-165.8393","4.57","PUKAPUKA AIRPORT, CW","FM-15","99999","V020","090,1,N,0010,1","99999,9,9,N","999999,9,9,9","+0280,1","+0240,1","99999,9",,,"10090,1,99999,9",,"MET056METAR NCPK 281700Z AUTO 09002KT //// ////// 28/24 Q1009=",
"91812099999","2023-06-28T18:00:00","4","-10.9145","-165.8393","4.57","PUKAPUKA AIRPORT, CW","FM-12","99999","V020","090,1,N,0015,1","99999,9,9,N","999999,9,9,9","+0276,1","+0239,1","10104,1","06,0000,9,1",,"99999,9,10098,1","2,1,006,1,+999,9","SYN05491812 46/// /0903 10276 20239 30098 40104 52006 60001=",
"91812099999","2023-06-28T18:00:00","4","-10.9145","-165.8393","4.57","PUKAPUKA AIRPORT, CW","FM-15","99999","V020","090,1,N,0015,1","99999,9,9,N","999999,9,9,9","+0270,1","+0240,1","99999,9",,,"10100,1,99999,9",,"MET056METAR NCPK 281800Z AUTO 09003KT //// ////// 27/24 Q1010=",
"91812099999","2023-06-28T19:00:00","4","-10.9145","-165.8393","4.57","PUKAPUKA AIRPORT, CW","FM-15","99999","V020","100,1,N,0010,1","99999,9,9,N","999999,9,9,9","+0280,1","+0240,1","99999,9",,,"10110,1,99999,9",,"MET056METAR NCPK 281900Z AUTO 10002KT //// ////// 28/24 Q1011=",
"91812099999","2023-06-28T20:00:00","4","-10.9145","-165.8393","4.57","PUKAPUKA AIRPORT, CW","FM-15","99999","V020","090,1,N,0021,1","99999,9,9,N","999999,9,9,9","+0300,1","+0240,1","99999,9",,,"10110,1,99999,9",,"MET056METAR NCPK 282000Z AUTO 09004KT //// ////// 30/24 Q1011=",
"91812099999","2023-06-28T21:00:00","4","-10.9145","-165.8393","4.57","PUKAPUKA AIRPORT, CW","FM-12","99999","V020","090,1,N,0021,1","99999,9,9,N","999999,9,9,9","+0304,1","+0247,1","10117,1",,,"99999,9,10104,1","2,1,013,1,+999,9","SYN04891812 46/// /0904 10304 20247 30104 40117 52013=",
"91812099999","2023-06-28T21:00:00","4","-10.9145","-165.8393","4.57","PUKAPUKA AIRPORT, CW","FM-15","99999","V020","090,1,N,0021,1","99999,9,9,N","999999,9,9,9","+0310,1","+0250,1","99999,9",,,"10110,1,99999,9",,"MET056METAR NCPK 282100Z AUTO 09004KT //// ////// 31/25 Q1011=",
"91812099999","2023-06-28T22:00:00","4","-10.9145","-165.8393","4.57","PUKAPUKA AIRPORT, CW","FM-15","99999","V020","120,1,N,0021,1","99999,9,9,N","999999,9,9,9","+0290,1","+0250,1","99999,9",,,"10110,1,99999,9",,"MET056METAR NCPK 282200Z AUTO 12004KT //// ////// 29/25 Q1011=",
"91812099999","2023-06-28T23:00:00","4","-10.9145","-165.8393","4.57","PUKAPUKA AIRPORT, CW","FM-15","99999","V020","110,1,N,0021,1","99999,9,9,N","999999,9,9,9","+0310,1","+0250,1","99999,9",,,"10100,1,99999,9",,"MET056METAR NCPK 282300Z AUTO 11004KT //// ////// 31/25 Q1010=",
"91812099999","2023-06-29T00:00:00","4","-10.9145","-165.8393","4.57","PUKAPUKA AIRPORT, CW","FM-12","99999","V020","110,1,N,0026,1","99999,9,9,N","999999,9,9,9","+0306,1","+0251,1","10100,1","06,0000,9,1","120,N,+0267,1","99999,9,10117,1","7,1,015,1,+999,9","SYN07691812 16/// /1105 10306 20251 30117 40100 57015 60001 333 20267 3 333 70000=",
"91812099999","2023-06-29T00:00:00","4","-10.9145","-165.8393","4.57","PUKAPUKA AIRPORT, CW","FM-15","99999","V020","110,1,N,0026,1","99999,9,9,N","999999,9,9,9","+0310,1","+0250,1","99999,9",,,"10100,1,99999,9",,"MET056METAR NCPK 290000Z AUTO 11005KT //// ////// 31/25 Q1010=",
"91812099999","2023-06-29T01:00:00","4","-10.9145","-165.8393","4.57","PUKAPUKA AIRPORT, CW","FM-15","99999","V020","110,1,N,0026,1","99999,9,9,N","999999,9,9,9","+0310,1","+0250,1","99999,9",,,"10090,1,99999,9",,"MET056METAR NCPK 290100Z AUTO 11005KT //// ////// 31/25 Q1009=",
"91812099999","2023-06-29T02:00:00","4","-10.9145","-165.8393","4.57","PUKAPUKA AIRPORT, CW","FM-15","99999","V020","110,1,N,0031,1","99999,9,9,N","999999,9,9,9","+0300,1","+0250,1","99999,9",,,"10090,1,99999,9",,"MET056METAR NCPK 290200Z AUTO 11006KT //// ////// 30/25 Q1009=",
"91812099999","2023-06-29T03:00:00","4","-10.9145","-165.8393","4.57","PUKAPUKA AIRPORT, CW","FM-15","99999","V020","110,1,N,0036,1","99999,9,9,N","999999,9,9,9","+0300,1","+0250,1","99999,9",,,"10090,1,99999,9",,"MET056METAR NCPK 290300Z AUTO 11007KT //// ////// 30/25 Q1009=",
"91812099999","2023-06-29T04:00:00","4","-10.9145","-165.8393","4.57","PUKAPUKA AIRPORT, CW","FM-15","99999","V020","130,1,N,0031,1","99999,9,9,N","999999,9,9,9","+0300,1","+0250,1","99999,9",,,"10090,1,99999,9",,"MET056METAR NCPK 290400Z AUTO 13006KT //// ////// 30/25 Q1009=",
"91812099999","2023-06-29T05:00:00","4","-10.9145","-165.8393","4.57","PUKAPUKA AIRPORT, CW","FM-15","99999","V020","110,1,N,0031,1","99999,9,9,N","999999,9,9,9","+0290,1","+0250,1","99999,9",,,"10090,1,99999,9",,"MET056METAR NCPK 290500Z AUTO 11006KT //// ////// 29/25 Q1009=",
"91812099999","2023-06-29T06:00:00","4","-10.9145","-165.8393","4.57","PUKAPUKA AIRPORT, CW","FM-12","99999","V020","110,1,N,0031,1","99999,9,9,N","999999,9,9,9","+0288,1","+0243,1","10097,1","06,0000,9,1",,"99999,9,10085,1","3,1,012,1,+999,9","SYN05491812 16/// /1106 10288 20243 30085 40097 53012 60001=",
"91812099999","2023-06-29T06:00:00","4","-10.9145","-165.8393","4.57","PUKAPUKA AIRPORT, CW","FM-15","99999","V020","110,1,N,0031,1","99999,9,9,N","999999,9,9,9","+0290,1","+0240,1","99999,9",,,"10090,1,99999,9",,"MET056METAR NCPK 290600Z AUTO 11006KT //// ////// 29/24 Q1009=",
"91812099999","2023-06-29T07:00:00","4","-10.9145","-165.8393","4.57","PUKAPUKA AIRPORT, CW","FM-15","99999","V020","110,1,N,0031,1","99999,9,9,N","999999,9,9,9","+0290,1","+0240,1","99999,9",,,"10100,1,99999,9",,"MET056METAR NCPK 290700Z AUTO 11006KT //// ////// 29/24 Q1010=",
"91812099999","2023-06-29T08:00:00","4","-10.9145","-165.8393","4.57","PUKAPUKA AIRPORT, CW","FM-15","99999","V020","110,1,N,0031,1","99999,9,9,N","999999,9,9,9","+0280,1","+0240,1","99999,9",,,"10100,1,99999,9",,"MET056METAR NCPK 290800Z AUTO 11006KT //// ////// 28/24 Q1010=",
"91812099999","2023-06-29T09:00:00","4","-10.9145","-165.8393","4.57","PUKAPUKA AIRPORT, CW","FM-12","99999","V020","110,1,N,0026,1","99999,9,9,N","999999,9,9,9","+0284,1","+0243,1","10108,1",,,"99999,9,10097,1","2,1,011,1,+999,9","SYN04891812 46/// /1105 10284 20243 30097 40108 52011=",
"91812099999","2023-06-29T09:00:00","4","-10.9145","-165.8393","4.57","PUKAPUKA AIRPORT, CW","FM-15","99999","V020","110,1,N,0026,1","99999,9,9,N","999999,9,9,9","+0280,1","+0240,1","99999,9",,,"10110,1,99999,9",,"MET056METAR NCPK 290900Z AUTO 11005KT //// ////// 28/24 Q1011=",
"91812099999","2023-06-29T10:00:00","4","-10.9145","-165.8393","4.57","PUKAPUKA AIRPORT, CW","FM-15","99999","V020","110,1,N,0031,1","99999,9,9,N","999999,9,9,9","+0280,1","+0250,1","99999,9",,,"10110,1,99999,9",,"MET056METAR NCPK 291000Z AUTO 11006KT //// ////// 28/25 Q1011=",
"91812099999","2023-06-29T11:00:00","4","-10.9145","-165.8393","4.57","PUKAPUKA AIRPORT, CW","FM-15","99999","V020","110,1,N,0031,1","99999,9,9,N","999999,9,9,9","+0290,1","+0240,1","99999,9",,,"10110,1,99999,9",,"MET056METAR NCPK 291100Z AUTO 11006KT //// ////// 29/24 Q1011=",
"91812099999","2023-06-29T12:00:00","4","-10.9145","-165.8393","4.57","PUKAPUKA AIRPORT, CW","FM-12","99999","V020","110,1,N,0031,1","99999,9,9,N","999999,9,9,9","+0284,1","+0238,1","10106,1","06,0000,9,1","240,M,+0305,1","99999,9,10107,1","9,9,001,1,+999,9","SYN06491812 16/// /1106 10284 20238 30107 40106 50001 60001 333 10305=",
"91812099999","2023-06-29T12:00:00","4","-10.9145","-165.8393","4.57","PUKAPUKA AIRPORT, CW","FM-15","99999","V020","110,1,N,0031,1","99999,9,9,N","999999,9,9,9","+0290,1","+0240,1","99999,9",,,"10110,1,99999,9",,"MET056METAR NCPK 291200Z AUTO 11006KT //// ////// 29/24 Q1011=",
"91812099999","2023-06-29T13:00:00","4","-10.9145","-165.8393","4.57","PUKAPUKA AIRPORT, CW","FM-15","99999","V020","110,1,N,0031,1","99999,9,9,N","999999,9,9,9","+0280,1","+0240,1","99999,9",,,"10100,1,99999,9",,"MET056METAR NCPK 291300Z AUTO 11006KT //// ////// 28/24 Q1010=",
"91812099999","2023-06-29T14:00:00","4","-10.9145","-165.8393","4.57","PUKAPUKA AIRPORT, CW","FM-15","99999","V020","110,1,N,0031,1","99999,9,9,N","999999,9,9,9","+0280,1","+0240,1","99999,9",,,"10100,1,99999,9",,"MET056METAR NCPK 291400Z AUTO 11006KT //// ////// 28/24 Q1010=",
"91812099999","2023-06-29T15:00:00","4","-10.9145","-165.8393","4.57","PUKAPUKA AIRPORT, CW","FM-15","99999","V020","110,1,N,0031,1","99999,9,9,N","999999,9,9,9","+0280,1","+0240,1","99999,9",,,"10100,1,99999,9",,"MET056METAR NCPK 291500Z AUTO 11006KT //// ////// 28/24 Q1010=",
"91812099999","2023-06-29T16:00:00","4","-10.9145","-165.8393","4.57","PUKAPUKA AIRPORT, CW","FM-15","99999","V020","110,1,N,0021,1","99999,9,9,N","999999,9,9,9","+0280,1","+0250,1","99999,9",,,"10100,1,99999,9",,"MET056METAR NCPK 291600Z AUTO 11004KT //// ////// 28/25 Q1010=",
"91812099999","2023-06-29T17:00:00","4","-10.9145","-165.8393","4.57","PUKAPUKA AIRPORT, CW","FM-15","99999","V020","110,1,N,0021,1","99999,9,9,N","999999,9,9,9","+0280,1","+0250,1","99999,9",,,"10100,1,99999,9",,"MET056METAR NCPK 291700Z AUTO 11004KT //// ////// 28/25 Q1010=",
"91812099999","2023-06-29T18:00:00","4","-10.9145","-165.8393","4.57","PUKAPUKA AIRPORT, CW","FM-15","99999","V020","120,1,N,0026,1","99999,9,9,N","999999,9,9,9","+0280,1","+0240,1","99999,9",,,"10100,1,99999,9",,"MET056METAR NCPK 291800Z AUTO 12005KT //// ////// 28/24 Q1010=",
"91812099999","2023-06-29T19:00:00","4","-10.9145","-165.8393","4.57","PUKAPUKA AIRPORT, CW","FM-15","99999","V020","120,1,N,0026,1","99999,9,9,N","999999,9,9,9","+0280,1","+0240,1","99999,9",,,"10100,1,99999,9",,"MET056METAR NCPK 291900Z AUTO 12005KT //// ////// 28/24 Q1010=",
"91812099999","2023-06-30T21:00:00","4","-10.9145","-165.8393","4.57","PUKAPUKA AIRPORT, CW","FM-12","99999","V020","100,1,N,0026,1","99999,9,9,N","999999,9,9,9","+0301,1","+0248,1","10145,1",,,,,"SYN04891812 46/// /1005 10301 20248 30/// 40145 5////=",
"91812099999","2023-06-30T21:00:00","4","-10.9145","-165.8393","4.57","PUKAPUKA AIRPORT, CW","FM-15","99999","V020","100,1,N,0026,1","99999,9,9,N","999999,9,9,9","+0310,1","+0250,1","99999,9",,,"10140,1,99999,9",,"MET056METAR NCPK 302100Z AUTO 10005KT //// ////// 31/25 Q1014=",
"91812099999","2023-06-30T22:00:00","4","-10.9145","-165.8393","4.57","PUKAPUKA AIRPORT, CW","FM-15","99999","V020","110,1,N,0026,1","99999,9,9,N","999999,9,9,9","+0300,1","+0250,1","99999,9",,,"10140,1,99999,9",,"MET056METAR NCPK 302200Z AUTO 11005KT //// ////// 30/25 Q1014=",
"91812099999","2023-06-30T23:00:00","4","-10.9145","-165.8393","4.57","PUKAPUKA AIRPORT, CW","FM-15","99999","V020","110,1,N,0031,1","99999,9,9,N","999999,9,9,9","+0300,1","+0250,1","99999,9",,,"10130,1,99999,9",,"MET056METAR NCPK 302300Z AUTO 11006KT //// ////// 30/25 Q1013=",
"91812099999","2023-07-01T00:00:00","4","-10.9145","-165.8393","4.57","PUKAPUKA AIRPORT, CW","FM-12","99999","V020","110,1,N,0031,1","99999,9,9,N","999999,9,9,9","+0304,1","+0251,1","10125,1","06,0000,9,1","120,N,+0264,1","99999,9,10142,1","7,1,017,1,+999,9","SYN07691812 16/// /1106 10304 20251 30142 40125 57017 60001 333 20264 3 333 70000=",
"91812099999","2023-07-01T00:00:00","4","-10.9145","-165.8393","4.57","PUKAPUKA AIRPORT, CW","FM-15","99999","V020","110,1,N,0031,1","99999,9,9,N","999999,9,9,9","+0300,1","+0250,1","99999,9",,,"10120,1,99999,9",,"MET056METAR NCPK 010000Z AUTO 11006KT //// ////// 30/25 Q1012=",
"91812099999","2023-07-01T01:00:00","4","-10.9145","-165.8393","4.57","PUKAPUKA AIRPORT, CW","FM-15","99999","V020","110,1,N,0026,1","99999,9,9,N","999999,9,9,9","+0310,1","+0250,1","99999,9",,,"10120,1,99999,9",,"MET056METAR NCPK 010100Z AUTO 11005KT //// ////// 31/25 Q1012=",
"91812099999","2023-07-01T02:00:00","4","-10.9145","-165.8393","4.57","PUKAPUKA AIRPORT, CW","FM-15","99999","V020","110,1,N,0031,1","99999,9,9,N","999999,9,9,9","+0300,1","+0250,1","99999,9",,,"10110,1,99999,9",,"MET056METAR NCPK 010200Z AUTO 11006KT //// ////// 30/25 Q1011=",
"91812099999","2023-07-01T03:00:00","4","-10.9145","-165.8393","4.57","PUKAPUKA AIRPORT, CW","FM-12","99999","V020","110,1,N,0031,1","99999,9,9,N","999999,9,9,9","+0297,1","+0242,1","10111,1",,,"99999,9,10125,1","5,1,014,1,+999,9","SYN04891812 46/// /1106 10297 20242 30125 40111 55014=",
"91812099999","2023-07-01T03:00:00","4","-10.9145","-165.8393","4.57","PUKAPUKA AIRPORT, CW","FM-15","99999","V020","110,1,N,0031,1","99999,9,9,N","999999,9,9,9","+0300,1","+0240,1","99999,9",,,"10110,1,99999,9",,"MET056METAR NCPK 010300Z AUTO 11006KT //// ////// 30/24 Q1011=",
"91812099999","2023-07-01T04:00:00","4","-10.9145","-165.8393","4.57","PUKAPUKA AIRPORT, CW","FM-15","99999","V020","110,1,N,0031,1","99999,9,9,N","999999,9,9,9","+0290,1","+0240,1","99999,9",,,"10110,1,99999,9",,"MET056METAR NCPK 010400Z AUTO 11006KT //// ////// 29/24 Q1011=",
"91812099999","2023-07-01T05:00:00","4","-10.9145","-165.8393","4.57","PUKAPUKA AIRPORT, CW","FM-15","99999","V020","110,1,N,0031,1","99999,9,9,N","999999,9,9,9","+0280,1","+0240,1","99999,9",,,"10110,1,99999,9",,"MET056METAR NCPK 010500Z AUTO 11006KT //// ////// 28/24 Q1011=",
"91812099999","2023-07-01T06:00:00","4","-10.9145","-165.8393","4.57","PUKAPUKA AIRPORT, CW","FM-12","99999","V020","110,1,N,0041,1","99999,9,9,N","999999,9,9,9","+0282,1","+0232,1","10125,1","06,0002,3,1",,"99999,9,10111,1","2,1,014,1,+999,9","SYN05491812 16/// /1108 10282 20232 30111 40125 52014 69921=",
"91812099999","2023-07-01T06:00:00","4","-10.9145","-165.8393","4.57","PUKAPUKA AIRPORT, CW","FM-15","99999","V020","110,1,N,0041,1","99999,9,9,N","999999,9,9,9","+0280,1","+0230,1","99999,9",,,"10120,1,99999,9",,"MET056METAR NCPK 010600Z AUTO 11008KT //// ////// 28/23 Q1012=",
"91812099999","2023-07-01T07:00:00","4","-10.9145","-165.8393","4.57","PUKAPUKA AIRPORT, CW","FM-15","99999","V020","110,1,N,0031,1","99999,9,9,N","999999,9,9,9","+0280,1","+0230,1","99999,9",,,"10130,1,99999,9",,"MET056METAR NCPK 010700Z AUTO 11006KT //// ////// 28/23 Q1013=",
"91812099999","2023-07-01T08:00:00","4","-10.9145","-165.8393","4.57","PUKAPUKA AIRPORT, CW","FM-15","99999","V020","100,1,N,0031,1","99999,9,9,N","999999,9,9,9","+0280,1","+0220,1","99999,9",,,"10130,1,99999,9",,"MET056METAR NCPK 010800Z AUTO 10006KT //// ////// 28/22 Q1013=",
"91812099999","2023-07-01T09:00:00","4","-10.9145","-165.8393","4.57","PUKAPUKA AIRPORT, CW","FM-12","99999","V020","110,1,N,0036,1","99999,9,9,N","999999,9,9,9","+0281,1","+0231,1","10138,1",,,"99999,9,10125,1","2,1,013,1,+999,9","SYN04891812 46/// /1107 10281 20231 30125 40138 52013=",
"91812099999","2023-07-01T09:00:00","4","-10.9145","-165.8393","4.57","PUKAPUKA AIRPORT, CW","FM-15","99999","V020","110,1,N,0036,1","99999,9,9,N","999999,9,9,9","+0280,1","+0230,1","99999,9",,,"10130,1,99999,9",,"MET056METAR NCPK 010900Z AUTO 11007KT //// ////// 28/23 Q1013=",
"91812099999","2023-07-01T10:00:00","4","-10.9145","-165.8393","4.57","PUKAPUKA AIRPORT, CW","FM-15","99999","V020","110,1,N,0031,1","99999,9,9,N","999999,9,9,9","+0280,1","+0240,1","99999,9",,,"10130,1,99999,9",,"MET056METAR NCPK 011000Z AUTO 11006KT //// ////// 28/24 Q1013=",
"91812099999","2023-07-01T11:00:00","4","-10.9145","-165.8393","4.57","PUKAPUKA AIRPORT, CW","FM-15","99999","V020","110,1,N,0041,1","99999,9,9,N","999999,9,9,9","+0280,1","+0230,1","99999,9",,,"10130,1,99999,9",,"MET056METAR NCPK 011100Z AUTO 11008KT //// ////// 28/23 Q1013=",
"91812099999","2023-07-01T12:00:00","4","-10.9145","-165.8393","4.57","PUKAPUKA AIRPORT, CW","FM-12","99999","V020","120,1,N,0041,1","99999,9,9,N","999999,9,9,9","+0281,1","+0234,1","10133,1","06,0000,9,1","240,M,+0307,1","99999,9,10138,1","7,1,005,1,+999,9","SYN06491812 16/// /1208 10281 20234 30138 40133 57005 60001 333 10307=",
"91812099999","2023-07-01T12:00:00","4","-10.9145","-165.8393","4.57","PUKAPUKA AIRPORT, CW","FM-15","99999","V020","120,1,N,0041,1","99999,9,9,N","999999,9,9,9","+0280,1","+0230,1","99999,9",,,"10130,1,99999,9",,"MET056METAR NCPK 011200Z AUTO 12008KT //// ////// 28/23 Q1013=",
"91812099999","2023-07-01T13:00:00","4","-10.9145","-165.8393","4.57","PUKAPUKA AIRPORT, CW","FM-15","99999","V020","120,1,N,0031,1","99999,9,9,N","999999,9,9,9","+0280,1","+0240,1","99999,9",,,"10120,1,99999,9",,"MET056METAR NCPK 011300Z AUTO 12006KT //// ////// 28/24 Q1012=",
"91812099999","2023-07-01T14:00:00","4","-10.9145","-165.8393","4.57","PUKAPUKA AIRPORT, CW","FM-15","99999","V020","110,1,N,0036,1","99999,9,9,N","999999,9,9,9","+0280,1","+0240,1","99999,9",,,"10120,1,99999,9",,"MET056METAR NCPK 011400Z AUTO 11007KT //// ////// 28/24 Q1012=",
"91812099999","2023-07-01T15:00:00","4","-10.9145","-165.8393","4.57","PUKAPUKA AIRPORT, CW","FM-12","99999","V020","110,1,N,0036,1","99999,9,9,N","999999,9,9,9","+0281,1","+0237,1","10120,1",,,"99999,9,10133,1","7,1,013,1,+999,9","SYN04891812 46/// /1107 10281 20237 30133 40120 57013=",
"91812099999","2023-07-01T15:00:00","4","-10.9145","-165.8393","4.57","PUKAPUKA AIRPORT, CW","FM-15","99999","V020","110,1,N,0036,1","99999,9,9,N","999999,9,9,9","+0280,1","+0240,1","99999,9",,,"10120,1,99999,9",,"MET056METAR NCPK 011500Z AUTO 11007KT //// ////// 28/24 Q1012=",
"91812099999","2023-07-01T16:00:00","4","-10.9145","-165.8393","4.57","PUKAPUKA AIRPORT, CW","FM-15","99999","V020","100,1,N,0031,1","99999,9,9,N","999999,9,9,9","+0280,1","+0230,1","99999,9",,,"10120,1,99999,9",,"MET056METAR NCPK 011600Z AUTO 10006KT //// ////// 28/23 Q1012=",
"91812099999","2023-07-01T17:00:00","4","-10.9145","-165.8393","4.57","PUKAPUKA AIRPORT, CW","FM-15","99999","V020","100,1,N,0031,1","99999,9,9,N","999999,9,9,9","+0280,1","+0230,1","99999,9",,,"10120,1,99999,9",,"MET056METAR NCPK 011700Z AUTO 10006KT //// ////// 28/23 Q1012=",
"91812099999","2023-07-01T18:00:00","4","-10.9145","-165.8393","4.57","PUKAPUKA AIRPORT, CW","FM-15","99999","V020","120,1,N,0041,1","99999,9,9,N","999999,9,9,9","+0280,1","+0230,1","99999,9",,,"10120,1,99999,9",,"MET056METAR NCPK 011800Z AUTO 12008KT //// ////// 28/23 Q1012=",
"91812099999","2023-07-01T19:00:00","4","-10.9145","-165.8393","4.57","PUKAPUKA AIRPORT, CW","FM-15","99999","V020","120,1,N,0036,1","99999,9,9,N","999999,9,9,9","+0280,1","+0230,1","99999,9",,,"10130,1,99999,9",,"MET056METAR NCPK 011900Z AUTO 12007KT //// ////// 28/23 Q1013=",
"91812099999","2023-07-01T20:00:00","4","-10.9145","-165.8393","4.57","PUKAPUKA AIRPORT, CW","FM-15","99999","V020","120,1,N,0041,1","99999,9,9,N","999999,9,9,9","+0290,1","+0230,1","99999,9",,,"10140,1,99999,9",,"MET056METAR NCPK 012000Z AUTO 12008KT //// ////// 29/23 Q1014=",
"91812099999","2023-07-01T21:00:00","4","-10.9145","-165.8393","4.57","PUKAPUKA AIRPORT, CW","FM-15","99999","V020","120,1,N,0041,1","99999,9,9,N","999999,9,9,9","+0300,1","+0240,1","99999,9",,,"10140,1,99999,9",,"MET056METAR NCPK 012100Z AUTO 12008KT //// ////// 30/24 Q1014=",
"91812099999","2023-07-01T22:00:00","4","-10.9145","-165.8393","4.57","PUKAPUKA AIRPORT, CW","FM-15","99999","V020","120,1,N,0041,1","99999,9,9,N","999999,9,9,9","+0300,1","+0240,1","99999,9",,,"10130,1,99999,9",,"MET056METAR NCPK 012200Z AUTO 12008KT //// ////// 30/24 Q1013=",
"91812099999","2023-07-01T23:00:00","4","-10.9145","-165.8393","4.57","PUKAPUKA AIRPORT, CW","FM-15","99999","V020","130,1,N,0036,1","99999,9,9,N","999999,9,9,9","+0300,1","+0240,1","99999,9",,,"10120,1,99999,9",,"MET056METAR NCPK 012300Z AUTO 13007KT //// ////// 30/24 Q1012=",
"91812099999","2023-07-02T00:00:00","4","-10.9145","-165.8393","4.57","PUKAPUKA AIRPORT, CW","FM-12","99999","V020","120,1,N,0041,1","99999,9,9,N","999999,9,9,9","+0303,1","+0224,1","10115,1","06,0000,9,1","120,N,+0244,1","99999,9,10135,1","6,1,002,1,+999,9","SYN07691812 16/// /1208 10303 20224 30135 40115 56002 60001 333 20244 3 333 70000=",
"91812099999","2023-07-02T00:00:00","4","-10.9145","-165.8393","4.57","PUKAPUKA AIRPORT, CW","FM-15","99999","V020","120,1,N,0041,1","99999,9,9,N","999999,9,9,9","+0300,1","+0220,1","99999,9",,,"10120,1,99999,9",,"MET056METAR NCPK 020000Z AUTO 12008KT //// ////// 30/22 Q1012=",
"91812099999","2023-07-02T01:00:00","4","-10.9145","-165.8393","4.57","PUKAPUKA AIRPORT, CW","FM-15","99999","V020","110,1,N,0041,1","99999,9,9,N","999999,9,9,9","+0300,1","+0220,1","99999,9",,,"10120,1,99999,9",,"MET056METAR NCPK 020100Z AUTO 11008KT //// ////// 30/22 Q1012=",
"91812099999","2023-07-02T02:00:00","4","-10.9145","-165.8393","4.57","PUKAPUKA AIRPORT, CW","FM-15","99999","V020","110,1,N,0031,1","99999,9,9,N","999999,9,9,9","+0300,1","+0230,1","99999,9",,,"10110,1,99999,9",,"MET056METAR NCPK 020200Z AUTO 11006KT //// ////// 30/23 Q1011=",
"91812099999","2023-07-02T03:00:00","4","-10.9145","-165.8393","4.57","PUKAPUKA AIRPORT, CW","FM-12","99999","V020","110,1,N,0021,1","99999,9,9,N","999999,9,9,9","+0298,1","+0226,1","99999,9",,,,,"SYN04891812 46/// /1104 10298 20226 10107 30119 57012=",
"91812099999","2023-07-02T03:00:00","4","-10.9145","-165.8393","4.57","PUKAPUKA AIRPORT, CW","FM-15","99999","V020","110,1,N,0021,1","99999,9,9,N","999999,9,9,9","+0300,1","+0230,1","99999,9",,,"10110,1,99999,9",,"MET056METAR NCPK 020300Z AUTO 11004KT //// ////// 30/23 Q1011=",
"91812099999","2023-07-02T04:00:00","4","-10.9145","-165.8393","4.57","PUKAPUKA AIRPORT, CW","FM-15","99999","V020","110,1,N,0031,1","99999,9,9,N","999999,9,9,9","+0290,1","+0240,1","99999,9",,,"10110,1,99999,9",,"MET056METAR NCPK 020400Z AUTO 11006KT //// ////// 29/24 Q1011=",
"91812099999","2023-07-02T05:00:00","4","-10.9145","-165.8393","4.57","PUKAPUKA AIRPORT, CW","FM-15","99999","V020","110,1,N,0031,1","99999,9,9,N","999999,9,9,9","+0290,1","+0250,1","99999,9",,,"10100,1,99999,9",,"MET056METAR NCPK 020500Z AUTO 11006KT //// ////// 29/25 Q1010=",
"91812099999","2023-07-02T06:00:00","4","-10.9145","-165.8393","4.57","PUKAPUKA AIRPORT, CW","FM-12","99999","V020","100,1,N,0021,1","99999,9,9,N","999999,9,9,9","+0281,1","+0229,1","10114,1","06,0000,9,1",,"99999,9,10107,1","2,1,007,1,+999,9","SYN05491812 16/// /1004 10281 20229 30107 40114 52007 60001=",
"91812099999","2023-07-02T06:00:00","4","-10.9145","-165.8393","4.57","PUKAPUKA AIRPORT, CW","FM-15","99999","V020","100,1,N,0021,1","99999,9,9,N","999999,9,9,9","+0280,1","+0230,1","99999,9",,,"10110,1,99999,9",,"MET056METAR NCPK 020600Z AUTO 10004KT //// ////// 28/23 Q1011=",
"91812099999","2023-07-02T07:00:00","4","-10.9145","-165.8393","4.57","PUKAPUKA AIRPORT, CW","FM-15","99999","V020","100,1,N,0021,1","99999,9,9,N","999999,9,9,9","+0280,1","+0230,1","99999,9",,,"10120,1,99999,9",,"MET056METAR NCPK 020700Z AUTO 10004KT //// ////// 28/23 Q1012=",
"91812099999","2023-07-02T08:00:00","4","-10.9145","-165.8393","4.57","PUKAPUKA AIRPORT, CW","FM-15","99999","V020","100,1,N,0021,1","99999,9,9,N","999999,9,9,9","+0280,1","+0230,1","99999,9",,,"10120,1,99999,9",,"MET056METAR NCPK 020800Z AUTO 10004KT //// ////// 28/23 Q1012=",
"91812099999","2023-07-02T09:00:00","4","-10.9145","-165.8393","4.57","PUKAPUKA AIRPORT, CW","FM-12","99999","V020","100,1,N,0010,1","99999,9,9,N","999999,9,9,9","+0281,1","+0236,1","10124,1",,,"99999,9,10114,1","2,1,013,1,+999,9","SYN04891812 46/// /1002 10281 20236 30114 40124 52013=",
"91812099999","2023-07-02T09:00:00","4","-10.9145","-165.8393","4.57","PUKAPUKA AIRPORT, CW","FM-15","99999","V020","100,1,N,0010,1","99999,9,9,N","999999,9,9,9","+0280,1","+0240,1","99999,9",,,"10120,1,99999,9",,"MET056METAR NCPK 020900Z AUTO 10002KT //// ////// 28/24 Q1012=",
"91812099999","2023-07-02T10:00:00","4","-10.9145","-165.8393","4.57","PUKAPUKA AIRPORT, CW","FM-15","99999","V020","110,1,N,0026,1","99999,9,9,N","999999,9,9,9","+0280,1","+0250,1","99999,9",,,"10120,1,99999,9",,"MET056METAR NCPK 021000Z AUTO 11005KT //// ////// 28/25 Q1012=",
"91812099999","2023-07-02T11:00:00","4","-10.9145","-165.8393","4.57","PUKAPUKA AIRPORT, CW","FM-15","99999","V020","100,1,N,0031,1","99999,9,9,N","999999,9,9,9","+0280,1","+0240,1","99999,9",,,"10110,1,99999,9",,"MET056METAR NCPK 021100Z AUTO 10006KT //// ////// 28/24 Q1011=",
"91812099999","2023-07-02T12:00:00","4","-10.9145","-165.8393","4.57","PUKAPUKA AIRPORT, CW","FM-12","99999","V020","090,1,N,0026,1","99999,9,9,N","999999,9,9,9","+0278,1","+0235,1","10114,1","06,0000,9,1","240,M,+0306,1","99999,9,10124,1","8,1,010,1,+999,9","SYN06491812 16/// /0905 10278 20235 30124 40114 58010 60001 333 10306=",
"91812099999","2023-07-02T12:00:00","4","-10.9145","-165.8393","4.57","PUKAPUKA AIRPORT, CW","FM-15","99999","V020","090,1,N,0026,1","99999,9,9,N","999999,9,9,9","+0280,1","+0240,1","99999,9",,,"10110,1,99999,9",,"MET056METAR NCPK 021200Z AUTO 09005KT //// ////// 28/24 Q1011=",
"91812099999","2023-07-02T13:00:00","4","-10.9145","-165.8393","4.57","PUKAPUKA AIRPORT, CW","FM-15","99999","V020","090,1,N,0026,1","99999,9,9,N","999999,9,9,9","+0280,1","+0230,1","99999,9",,,"10110,1,99999,9",,"MET056METAR NCPK 021300Z AUTO 09005KT //// ////// 28/23 Q1011=",
"91812099999","2023-07-02T14:00:00","4","-10.9145","-165.8393","4.57","PUKAPUKA AIRPORT, CW","FM-15","99999","V020","100,1,N,0026,1","99999,9,9,N","999999,9,9,9","+0280,1","+0220,1","99999,9",,,"10100,1,99999,9",,"MET056METAR NCPK 021400Z AUTO 10005KT //// ////// 28/22 Q1010=",
"91812099999","2023-07-02T15:00:00","4","-10.9145","-165.8393","4.57","PUKAPUKA AIRPORT, CW","FM-12","99999","V020","080,1,N,0021,1","99999,9,9,N","999999,9,9,9","+0275,1","+0221,1","10103,1",,,"99999,9,10114,1","7,1,011,1,+999,9","SYN04891812 46/// /0804 10275 20221 30114 40103 57011=",
"91812099999","2023-07-02T15:00:00","4","-10.9145","-165.8393","4.57","PUKAPUKA AIRPORT, CW","FM-15","99999","V020","080,1,N,0021,1","99999,9,9,N","999999,9,9,9","+0280,1","+0220,1","99999,9",,,"10100,1,99999,9",,"MET056METAR NCPK 021500Z AUTO 08004KT //// ////// 28/22 Q1010=",
"91812099999","2023-07-02T16:00:00","4","-10.9145","-165.8393","4.57","PUKAPUKA AIRPORT, CW","FM-15","99999","V020","080,1,N,0021,1","99999,9,9,N","999999,9,9,9","+0280,1","+0220,1","99999,9",,,"10100,1,99999,9",,"MET056METAR NCPK 021600Z AUTO 08004KT //// ////// 28/22 Q1010=",
"91812099999","2023-07-02T17:00:00","4","-10.9145","-165.8393","4.57","PUKAPUKA AIRPORT, CW","FM-15","99999","V020","100,1,N,0026,1","99999,9,9,N","999999,9,9,9","+0280,1","+0220,1","99999,9",,,"10100,1,99999,9",,"MET056METAR NCPK 021700Z AUTO 10005KT //// ////// 28/22 Q1010=",
"91812099999","2023-07-02T18:00:00","4","-10.9145","-165.8393","4.57","PUKAPUKA AIRPORT, CW","FM-12","99999","V020","100,1,N,0021,1","99999,9,9,N","999999,9,9,9","+0281,1","+0229,1","10114,1","06,0000,9,1",,"99999,9,10107,1","2,1,007,1,+999,9","SYN05491812 16/// /1004 10281 20229 30107 40114 52007 60001=",
"91812099999","2023-07-02T19:00:00","4","-10.9145","-165.8393","4.57","PUKAPUKA AIRPORT, CW","FM-15","99999","V020","110,1,N,0026,1","99999,9,9,N","999999,9,9,9","+0280,1","+0210,1","99999,9",,,"10120,1,99999,9",,"MET056METAR NCPK 021900Z AUTO 11005KT //// ////// 28/21 Q1012=",
"91812099999","2023-07-02T20:00:00","4","-10.9145","-165.8393","4.57","PUKAPUKA AIRPORT, CW","FM-15","99999","V020","110,1,N,0026,1","99999,9,9,N","999999,9,9,9","+0290,1","+0220,1","99999,9",,,"10130,1,99999,9",,"MET056METAR NCPK 022000Z AUTO 11005KT //// ////// 29/22 Q1013=",
"91812099999","2023-07-02T21:00:00","4","-10.9145","-165.8393","4.57","PUKAPUKA AIRPORT, CW","FM-12","99999","V020","120,1,N,0036,1","99999,9,9,N","999999,9,9,9","+0296,1","+0224,1","10134,1",,,"99999,9,10109,1","2,1,025,1,+999,9","SYN04891812 46/// /1207 10296 20224 30109 40134 52025=",
"91812099999","2023-07-02T21:00:00","4","-10.9145","-165.8393","4.57","PUKAPUKA AIRPORT, CW","FM-15","99999","V020","120,1,N,0036,1","99999,9,9,N","999999,9,9,9","+0300,1","+0220,1","99999,9",,,"10130,1,99999,9",,"MET056METAR NCPK 022100Z AUTO 12007KT //// ////// 30/22 Q1013=",
"91812099999","2023-07-14T03:00:00","4","-10.9145","-165.8393","4.57","PUKAPUKA AIRPORT, CW","FM-12","99999","V020","050,1,N,0026,1","99999,9,9,N","999999,9,9,9","+0250,1","+0226,1","10088,1",,,"99999,9,10092,1","7,1,004,1,+999,9","SYN04891812 46/// /0505 10250 20226 30092 40088 57004=",
"91812099999","2023-07-14T04:00:00","4","-10.9145","-165.8393","4.57","PUKAPUKA AIRPORT, CW","FM-15","99999","V020","060,1,N,0010,1","99999,9,9,N","999999,9,9,9","+0250,1","+0230,1","99999,9",,,"10090,1,99999,9",,"MET056METAR NCPK 140400Z AUTO 06002KT //// ////// 25/23 Q1009=",
"91812099999","2023-07-14T05:00:00","4","-10.9145","-165.8393","4.57","PUKAPUKA AIRPORT, CW","FM-15","99999","V020","050,1,N,0010,1","99999,9,9,N","999999,9,9,9","+0240,1","+0230,1","99999,9",,,"10100,1,99999,9",,"MET056METAR NCPK 140500Z AUTO 05002KT //// ////// 24/23 Q1010=",
"91812099999","2023-07-14T06:00:00","4","-10.9145","-165.8393","4.57","PUKAPUKA AIRPORT, CW","FM-12","99999","V020","030,1,N,0021,1","99999,9,9,N","999999,9,9,9","+0238,1","+0220,1","10102,1","06,0010,3,1",,"99999,9,10088,1","2,1,014,1,+999,9","SYN05491812 16/// /0304 10238 20220 30088 40102 52014 60011=",
"91812099999","2023-07-14T06:00:00","4","-10.9145","-165.8393","4.57","PUKAPUKA AIRPORT, CW","FM-15","99999","V020","030,1,N,0021,1","99999,9,9,N","999999,9,9,9","+0240,1","+0220,1","99999,9",,,"10100,1,99999,9",,"MET056METAR NCPK 140600Z AUTO 03004KT //// ////// 24/22 Q1010=",
"91812099999","2023-07-14T07:00:00","4","-10.9145","-165.8393","4.57","PUKAPUKA AIRPORT, CW","FM-15","99999","V020","030,1,N,0015,1","99999,9,9,N","999999,9,9,9","+0250,1","+0210,1","99999,9",,,"10100,1,99999,9",,"MET056METAR NCPK 140700Z AUTO 03003KT //// ////// 25/21 Q1010=",
"91812099999","2023-07-14T08:00:00","4","-10.9145","-165.8393","4.57","PUKAPUKA AIRPORT, CW","FM-15","99999","V020","060,1,N,0010,1","99999,9,9,N","999999,9,9,9","+0250,1","+0220,1","99999,9",,,"10100,1,99999,9",,"MET056METAR NCPK 140800Z AUTO 06002KT //// ////// 25/22 Q1010=",
"91812099999","2023-07-14T09:00:00","4","-10.9145","-165.8393","4.57","PUKAPUKA AIRPORT, CW","FM-12","99999","V020","010,1,N,0005,1","99999,9,9,N","999999,9,9,9","+0250,1","+0227,1","10108,1",,,"99999,9,10102,1","2,9,006,9,+999,9","SYN04891812 46/// /0101 10250 20227 30102 40108 54006=","Q01.6    3APC3  Q024     3APCTEN"
"91812099999","2023-07-14T09:00:00","4","-10.9145","-165.8393","4.57","PUKAPUKA AIRPORT, CW","FM-15","99999","V020","010,1,N,0005,1","99999,9,9,N","999999,9,9,9","+0250,1","+0220,1","99999,9",,,"10100,1,99999,9",,"MET056METAR NCPK 140900Z AUTO 01001KT //// ////// 25/22 Q1010=",
"91812099999","2023-07-14T10:00:00","4","-10.9145","-165.8393","4.57","PUKAPUKA AIRPORT, CW","FM-15","99999","V020","080,1,N,0005,1","99999,9,9,N","999999,9,9,9","+0240,1","+0230,1","99999,9",,,"10100,1,99999,9",,"MET056METAR NCPK 141000Z AUTO 08001KT //// ////// 24/23 Q1010=",
"91812099999","2023-07-14T11:00:00","4","-10.9145","-165.8393","4.57","PUKAPUKA AIRPORT, CW","FM-15","99999","V020","060,1,N,0010,1","99999,9,9,N","999999,9,9,9","+0260,1","+0230,1","99999,9",,,"10100,1,99999,9",,"MET056METAR NCPK 141100Z AUTO 06002KT //// ////// 26/23 Q1010=",
"91812099999","2023-07-14T12:00:00","4","-10.9145","-165.8393","4.57","PUKAPUKA AIRPORT, CW","FM-12","99999","V020","070,1,N,0015,1","99999,9,9,N","999999,9,9,9","+0263,1","+0236,1","10099,1","06,0000,9,1",,"99999,9,10108,1","7,1,009,1,+999,9","SYN06491812 16/// /0703 10263 20236 30108 40099 57009 60001 333 10///=",
"91812099999","2023-07-14T12:00:00","4","-10.9145","-165.8393","4.57","PUKAPUKA AIRPORT, CW","FM-15","99999","V020","070,1,N,0015,1","99999,9,9,N","999999,9,9,9","+0260,1","+0240,1","99999,9",,,"10090,1,99999,9",,"MET056METAR NCPK 141200Z AUTO 07003KT //// ////// 26/24 Q1009=",
"91812099999","2023-07-14T13:00:00","4","-10.9145","-165.8393","4.57","PUKAPUKA AIRPORT, CW","FM-15","99999","V020","100,1,N,0015,1","99999,9,9,N","999999,9,9,9","+0260,1","+0240,1","99999,9",,,"10090,1,99999,9",,"MET056METAR NCPK 141300Z AUTO 10003KT //// ////// 26/24 Q1009=",
"91812099999","2023-07-14T14:00:00","4","-10.9145","-165.8393","4.57","PUKAPUKA AIRPORT, CW","FM-15","99999","V020","070,1,N,0015,1","99999,9,9,N","999999,9,9,9","+0260,1","+0230,1","99999,9",,,"10080,1,99999,9",,"MET056METAR NCPK 141400Z AUTO 07003KT //// ////// 26/23 Q1008=",
"91812099999","2023-07-14T15:00:00","4","-10.9145","-165.8393","4.57","PUKAPUKA AIRPORT, CW","FM-12","99999","V020","080,1,N,0015,1","99999,9,9,N","999999,9,9,9","+0265,1","+0231,1","10083,1",,,"99999,9,10099,1","7,1,016,1,+999,9","SYN04891812 46/// /0803 10265 20231 30099 40083 57016=",
"91812099999","2023-07-14T15:00:00","4","-10.9145","-165.8393","4.57","PUKAPUKA AIRPORT, CW","FM-15","99999","V020","080,1,N,0015,1","99999,9,9,N","999999,9,9,9","+0270,1","+0230,1","99999,9",,,"10080,1,99999,9",,"MET056METAR NCPK 141500Z AUTO 08003KT //// ////// 27/23 Q1008=",
"91812099999","2023-07-14T16:00:00","4","-10.9145","-165.8393","4.57","PUKAPUKA AIRPORT, CW","FM-15","99999","V020","110,1,N,0015,1","99999,9,9,N","999999,9,9,9","+0260,1","+0230,1","99999,9",,,"10080,1,99999,9",,"MET056METAR NCPK 141600Z AUTO 11003KT //// ////// 26/23 Q1008=",
"91812099999","2023-07-14T17:00:00","4","-10.9145","-165.8393","4.57","PUKAPUKA AIRPORT, CW","FM-15","99999","V020","100,1,N,0021,1","99999,9,9,N","999999,9,9,9","+0270,1","+0230,1","99999,9",,,"10080,1,99999,9",,"MET056METAR NCPK 141700Z AUTO 10004KT //// ////// 27/23 Q1008=",
"91812099999","2023-07-14T18:00:00","4","-10.9145","-165.8393","4.57","PUKAPUKA AIRPORT, CW","FM-12","99999","V020","110,1,N,0021,1","99999,9,9,N","999999,9,9,9","+0269,1","+0230,1","10095,1","06,0000,9,1",,"99999,9,10079,1","1,1,016,1,+999,9","SYN05491812 16/// /1104 10269 20230 30079 40095 51016 60001=",
"91812099999","2023-07-14T18:00:00","4","-10.9145","-165.8393","4.57","PUKAPUKA AIRPORT, CW","FM-15","99999","V020","110,1,N,0021,1","99999,9,9,N","999999,9,9,9","+0270,1","+0230,1","99999,9",,,"10090,1,99999,9",,"MET056METAR NCPK 141800Z AUTO 11004KT //// ////// 27/23 Q1009=",
"91812099999","2023-07-14T19:00:00","4","-10.9145","-165.8393","4.57","PUKAPUKA AIRPORT, CW","FM-15","99999","V020","100,1,N,0021,1","99999,9,9,N","999999,9,9,9","+0280,1","+0240,1","99999,9",,,"10100,1,99999,9",,"MET056METAR NCPK 141900Z AUTO 10004KT //// ////// 28/24 Q1010=",
"91812099999","2023-07-14T20:00:00","4","-10.9145","-165.8393","4.57","PUKAPUKA AIRPORT, CW","FM-15","99999","V020","120,1,N,0026,1","99999,9,9,N","999999,9,9,9","+0290,1","+0240,1","99999,9",,,"10100,1,99999,9",,"MET056METAR NCPK 142000Z AUTO 12005KT //// ////// 29/24 Q1010=",
"91812099999","2023-07-14T21:00:00","4","-10.9145","-165.8393","4.57","PUKAPUKA AIRPORT, CW","FM-12","99999","V020","110,1,N,0026,1","99999,9,9,N","999999,9,9,9","+0294,1","+0241,1","10105,1",,,"99999,9,10095,1","2,1,010,1,+999,9","SYN04891812 46/// /1105 10294 20241 30095 40105 52010=",
"91812099999","2023-07-14T21:00:00","4","-10.9145","-165.8393","4.57","PUKAPUKA AIRPORT, CW","FM-15","99999","V020","110,1,N,0026,1","99999,9,9,N","999999,9,9,9","+0290,1","+0240,1","99999,9",,,"10100,1,99999,9",,"MET056METAR NCPK 142100Z AUTO 11005KT //// ////// 29/24 Q1010=",
"91812099999","2023-07-14T22:00:00","4","-10.9145","-165.8393","4.57","PUKAPUKA AIRPORT, CW","FM-15","99999","V020","110,1,N,0026,1","99999,9,9,N","999999,9,9,9","+0300,1","+0240,1","99999,9",,,"10100,1,99999,9",,"MET056METAR NCPK 142200Z AUTO 11005KT //// ////// 30/24 Q1010=",
"91812099999","2023-07-14T23:00:00","4","-10.9145","-165.8393","4.57","PUKAPUKA AIRPORT, CW","FM-15","99999","V020","110,1,N,0026,1","99999,9,9,N","999999,9,9,9","+0300,1","+0240,1","99999,9",,,"10090,1,99999,9",,"MET056METAR NCPK 142300Z AUTO 11005KT //// ////// 30/24 Q1009=",
"91812099999","2023-07-15T00:00:00","4","-10.9145","-165.8393","4.57","PUKAPUKA AIRPORT, CW","FM-12","99999","V020","110,1,N,0026,1","99999,9,9,N","999999,9,9,9","+0295,1","+0244,1","10088,1","06,0000,9,1","120,N,+0228,1","99999,9,10105,1","8,1,017,1,+999,9","SYN07691812 16/// /1105 10295 20244 30105 40088 58017 60001 333 20228 3 333 70090=",
"91812099999","2023-07-15T00:00:00","4","-10.9145","-165.8393","4.57","PUKAPUKA AIRPORT, CW","FM-15","99999","V020","110,1,N,0026,1","99999,9,9,N","999999,9,9,9","+0300,1","+0240,1","99999,9",,,"10080,1,99999,9",,"MET056METAR NCPK 150000Z AUTO 11005KT //// ////// 30/24 Q1008=",
"91812099999","2023-07-15T01:00:00","4","-10.9145","-165.8393","4.57","PUKAPUKA AIRPORT, CW","FM-15","99999","V020","100,1,N,0021,1","99999,9,9,N","999999,9,9,9","+0300,1","+0240,1","99999,9",,,"10070,1,99999,9",,"MET056METAR NCPK 150100Z AUTO 10004KT //// ////// 30/24 Q1007=",
"91812099999","2023-07-15T02:00:00","4","-10.9145","-165.8393","4.57","PUKAPUKA AIRPORT, CW","FM-15","99999","V020","110,1,N,0031,1","99999,9,9,N","999999,9,9,9","+0300,1","+0240,1","99999,9",,,"10070,1,99999,9",,"MET056METAR NCPK 150200Z AUTO 11006KT //// ////// 30/24 Q1007=",
"91812099999","2023-07-15T03:00:00","4","-10.9145","-165.8393","4.57","PUKAPUKA AIRPORT, CW","FM-12","99999","V020","120,1,N,0026,1","99999,9,9,N","999999,9,9,9","+0297,1","+0241,1","10072,1",,,"99999,9,10088,1","7,1,016,1,+999,9","SYN04891812 46/// /1205 10297 20241 30088 40072 57016=",
"91812099999","2023-07-15T03:00:00","4","-10.9145","-165.8393","4.57","PUKAPUKA AIRPORT, CW","FM-15","99999","V020","120,1,N,0026,1","99999,9,9,N","999999,9,9,9","+0300,1","+0240,1","99999,9",,,"10070,1,99999,9",,"MET056METAR NCPK 150300Z AUTO 12005KT //// ////// 30/24 Q1007=",
"91812099999","2023-07-15T04:00:00","4","-10.9145","-165.8393","4.57","PUKAPUKA AIRPORT, CW","FM-15","99999","V020","110,1,N,0015,1","99999,9,9,N","999999,9,9,9","+0290,1","+0240,1","99999,9",,,"10070,1,99999,9",,"MET056METAR NCPK 150400Z AUTO 11003KT //// ////// 29/24 Q1007=",
"91812099999","2023-07-15T05:00:00","4","-10.9145","-165.8393","4.57","PUKAPUKA AIRPORT, CW","FM-15","99999","V020","100,1,N,0021,1","99999,9,9,N","999999,9,9,9","+0280,1","+0240,1","99999,9",,,"10070,1,99999,9",,"MET056METAR NCPK 150500Z AUTO 10004KT //// ////// 28/24 Q1007=",
"91812099999","2023-07-15T06:00:00","4","-10.9145","-165.8393","4.57","PUKAPUKA AIRPORT, CW","FM-12","99999","V020","110,1,N,0015,1","99999,9,9,N","999999,9,9,9","+0277,1","+0236,1","10083,1","06,0000,9,1",,"99999,9,10072,1","2,1,011,1,+999,9","SYN05491812 16/// /1103 10277 20236 30072 40083 52011 60001=",
"91812099999","2023-07-15T06:00:00","4","-10.9145","-165.8393","4.57","PUKAPUKA AIRPORT, CW","FM-15","99999","V020","110,1,N,0015,1","99999,9,9,N","999999,9,9,9","+0280,1","+0240,1","99999,9",,,"10080,1,99999,9",,"MET056METAR NCPK 150600Z AUTO 11003KT //// ////// 28/24 Q1008=",
"91812099999","2023-07-15T07:00:00","4","-10.9145","-165.8393","4.57","PUKAPUKA AIRPORT, CW","FM-15","99999","V020","110,1,N,0021,1","99999,9,9,N","999999,9,9,9","+0280,1","+0240,1","99999,9",,,"10080,1,99999,9",,"MET056METAR NCPK 150700Z AUTO 11004KT //// ////// 28/24 Q1008=",
"91812099999","2023-07-15T08:00:00","4","-10.9145","-165.8393","4.57","PUKAPUKA AIRPORT, CW","FM-15","99999","V020","110,1,N,0021,1","99999,9,9,N","999999,9,9,9","+0280,1","+0240,1","99999,9",,,"10090,1,99999,9",,"MET056METAR NCPK 150800Z AUTO 11004KT //// ////// 28/24 Q1009=",
"91812099999","2023-07-15T09:00:00","4","-10.9145","-165.8393","4.57","PUKAPUKA AIRPORT, CW","FM-12","99999","V020","100,1,N,0021,1","99999,9,9,N","999999,9,9,9","+0275,1","+0236,1","10098,1",,,"99999,9,10083,1","2,1,009,1,+999,9","SYN04891812 46/// /1004 10275 20236 30083 40098 52009=",
"91812099999","2023-07-15T09:00:00","4","-10.9145","-165.8393","4.57","PUKAPUKA AIRPORT, CW","FM-15","99999","V020","100,1,N,0021,1","99999,9,9,N","999999,9,9,9","+0280,1","+0240,1","99999,9",,,"10090,1,99999,9",,"MET056METAR NCPK 150900Z AUTO 10004KT //// ////// 28/24 Q1009=",
"91812099999","2023-07-15T11:00:00","4","-10.9145","-165.8393","4.57","PUKAPUKA AIRPORT, CW","FM-15","99999","V020","090,1,N,0010,1","99999,9,9,N","999999,9,9,9","+0270,1","+0240,1","99999,9",,,"10090,1,99999,9",,"MET056METAR NCPK 151100Z AUTO 09002KT //// ////// 27/24 Q1009=",
"91812099999","2023-07-15T12:00:00","4","-10.9145","-165.8393","4.57","PUKAPUKA AIRPORT, CW","FM-12","99999","V020","060,1,N,0015,1","99999,9,9,N","999999,9,9,9","+0273,1","+0242,1","10099,1","06,0002,3,1","240,M,+0300,1","99999,9,10098,1","7,1,001,1,+999,9","SYN06491812 16/// /0603 10273 20242 30098 40099 57001 69921 333 10300=",
"91812099999","2023-07-15T12:00:00","4","-10.9145","-165.8393","4.57","PUKAPUKA AIRPORT, CW","FM-15","99999","V020","060,1,N,0010,1","99999,9,9,N","999999,9,9,9","+0270,1","+0240,1","99999,9",,,"10090,1,99999,9",,"MET056METAR NCPK 151200Z AUTO 06002KT //// ////// 27/24 Q1009=",
"91812099999","2023-07-15T13:00:00","4","-10.9145","-165.8393","4.57","PUKAPUKA AIRPORT, CW","FM-15","99999","V020","060,1,N,0010,1","99999,9,9,N","999999,9,9,9","+0270,1","+0240,1","99999,9",,,"10090,1,99999,9",,"MET056METAR NCPK 151300Z AUTO 06002KT //// ////// 27/24 Q1009=",
"91812099999","2023-07-15T14:00:00","4","-10.9145","-165.8393","4.57","PUKAPUKA AIRPORT, CW","FM-15","99999","V020","080,1,N,0010,1","99999,9,9,N","999999,9,9,9","+0270,1","+0230,1","99999,9",,,"10080,1,99999,9",,"MET056METAR NCPK 151400Z AUTO 08002KT //// ////// 27/23 Q1008=",
"91812099999","2023-07-15T15:00:00","4","-10.9145","-165.8393","4.57","PUKAPUKA AIRPORT, CW","FM-12","99999","V020","090,1,N,0021,1","99999,9,9,N","999999,9,9,9","+0273,1","+0232,1","10082,1",,,"99999,9,10099,1","7,1,017,1,+999,9","SYN04891812 46/// /0904 10273 20232 30099 40082 57017=",
"91812099999","2023-07-15T15:00:00","4","-10.9145","-165.8393","4.57","PUKAPUKA AIRPORT, CW","FM-15","99999","V020","080,1,N,0010,1","99999,9,9,N","999999,9,9,9","+0270,1","+0230,1","99999,9",,,"10080,1,99999,9",,"MET056METAR NCPK 151500Z AUTO 08002KT //// ////// 27/23 Q1008=",
"91812099999","2023-07-15T16:00:00","4","-10.9145","-165.8393","4.57","PUKAPUKA AIRPORT, CW","FM-15","99999","V020","100,1,N,0021,1","99999,9,9,N","999999,9,9,9","+0270,1","+0230,1","99999,9",,,"10080,1,99999,9",,"MET056METAR NCPK 151600Z AUTO 10004KT //// ////// 27/23 Q1008=",
"91812099999","2023-07-15T17:00:00","4","-10.9145","-165.8393","4.57","PUKAPUKA AIRPORT, CW","FM-15","99999","V020","090,1,N,0010,1","99999,9,9,N","999999,9,9,9","+0270,1","+0230,1","99999,9",,,"10080,1,99999,9",,"MET056METAR NCPK 151700Z AUTO 09002KT //// ////// 27/23 Q1008=",
"91812099999","2023-07-15T18:00:00","4","-10.9145","-165.8393","4.57","PUKAPUKA AIRPORT, CW","FM-12","99999","V020","110,1,N,0021,1","99999,9,9,N","999999,9,9,9","+0275,1","+0231,1","10089,1","06,0000,9,1",,"99999,9,10078,1","3,1,011,1,+999,9","SYN05491812 16/// /1104 10275 20231 30078 40089 53011 60001=",
"91812099999","2023-07-15T18:00:00","4","-10.9145","-165.8393","4.57","PUKAPUKA AIRPORT, CW","FM-15","99999","V020","110,1,N,0021,1","99999,9,9,N","999999,9,9,9","+0280,1","+0230,1","99999,9",,,"10090,1,99999,9",,"MET056METAR NCPK 151800Z AUTO 11004KT //// ////// 28/23 Q1009=",
"91812099999","2023-07-15T19:00:00","4","-10.9145","-165.8393","4.57","PUKAPUKA AIRPORT, CW","FM-15","99999","V020","100,1,N,0021,1","99999,9,9,N","999999,9,9,9","+0280,1","+0240,1","99999,9",,,"10100,1,99999,9",,"MET056METAR NCPK 151900Z AUTO 10004KT //// ////// 28/24 Q1010=",
"91812099999","2023-07-15T20:00:00","4","-10.9145","-165.8393","4.57","PUKAPUKA AIRPORT, CW","FM-15","99999","V020","100,1,N,0026,1","99999,9,9,N","999999,9,9,9","+0290,1","+0240,1","99999,9",,,"10100,1,99999,9",,"MET056METAR NCPK 152000Z AUTO 10005KT //// ////// 29/24 Q1010=",
"91812099999","2023-07-15T21:00:00","4","-10.9145","-165.8393","4.57","PUKAPUKA AIRPORT, CW","FM-12","99999","V020","090,1,N,0021,1","99999,9,9,N","999999,9,9,9","+0290,1","+0235,1","10105,1",,,"99999,9,10089,1","1,1,016,1,+999,9","SYN04891812 46/// /0904 10290 20235 30089 40105 51016=",
"91812099999","2023-07-15T21:00:00","4","-10.9145","-165.8393","4.57","PUKAPUKA AIRPORT, CW","FM-15","99999","V020","090,1,N,0021,1","99999,9,9,N","999999,9,9,9","+0290,1","+0240,1","99999,9",,,"10100,1,99999,9",,"MET056METAR NCPK 152100Z AUTO 09004KT //// ////// 29/24 Q1010=",
"91812099999","2023-07-15T22:00:00","4","-10.9145","-165.8393","4.57","PUKAPUKA AIRPORT, CW","FM-15","99999","V020","100,1,N,0021,1","99999,9,9,N","999999,9,9,9","+0290,1","+0240,1","99999,9",,,"10100,1,99999,9",,"MET056METAR NCPK 152200Z AUTO 10004KT //// ////// 29/24 Q1010=",
"91812099999","2023-07-15T23:00:00","4","-10.9145","-165.8393","4.57","PUKAPUKA AIRPORT, CW","FM-15","99999","V020","090,1,N,0026,1","99999,9,9,N","999999,9,9,9","+0310,1","+0240,1","99999,9",,,"10090,1,99999,9",,"MET056METAR NCPK 152300Z AUTO 09005KT //// ////// 31/24 Q1009=",
"91812099999","2023-07-16T00:00:00","4","-10.9145","-165.8393","4.57","PUKAPUKA AIRPORT, CW","FM-12","99999","V020","080,1,N,0026,1","99999,9,9,N","999999,9,9,9","+0298,1","+0239,1","10091,1","06,0000,9,1",,"99999,9,10105,1","7,1,014,1,+999,9","SYN07191812 16/// /0805 10298 20239 30105 40091 57014 60001 333 20 333 70002=",
"91812099999","2023-07-16T00:00:00","4","-10.9145","-165.8393","4.57","PUKAPUKA AIRPORT, CW","FM-15","99999","V020","080,1,N,0026,1","99999,9,9,N","999999,9,9,9","+0310,1","+0250,1","99999,9",,,"10090,1,99999,9",,"MET056METAR NCPK 160000Z AUTO 08005KT //// ////// 31/25 Q1009=",
"91812099999","2023-07-16T01:00:00","4","-10.9145","-165.8393","4.57","PUKAPUKA AIRPORT, CW","FM-15","99999","V020","090,1,N,0026,1","99999,9,9,N","999999,9,9,9","+0290,1","+0230,1","99999,9",,,"10080,1,99999,9",,"MET056METAR NCPK 160100Z AUTO 09005KT //// ////// 29/23 Q1008=",
"91812099999","2023-07-16T02:00:00","4","-10.9145","-165.8393","4.57","PUKAPUKA AIRPORT, CW","FM-15","99999","V020","090,1,N,0026,1","99999,9,9,N","999999,9,9,9","+0290,1","+0230,1","99999,9",,,"10080,1,99999,9",,"MET056METAR NCPK 160200Z AUTO 09005KT //// ////// 29/23 Q1008=",
"91812099999","2023-07-16T03:00:00","4","-10.9145","-165.8393","4.57","PUKAPUKA AIRPORT, CW","FM-12","99999","V020","100,1,N,0021,1","99999,9,9,N","999999,9,9,9","+0295,1","+0240,1","10080,1",,,"99999,9,10091,1","7,1,011,1,+999,9","SYN04891812 46/// /1004 10295 20240 30091 40080 57011=",
"91812099999","2023-07-16T03:00:00","4","-10.9145","-165.8393","4.57","PUKAPUKA AIRPORT, CW","FM-15","99999","V020","100,1,N,0021,1","99999,9,9,N","999999,9,9,9","+0300,1","+0240,1","99999,9",,,"10080,1,99999,9",,"MET056METAR NCPK 160300Z AUTO 10004KT //// ////// 30/24 Q1008=",
"91812099999","2023-07-16T04:00:00","4","-10.9145","-165.8393","4.57","PUKAPUKA AIRPORT, CW","FM-15","99999","V020","110,1,N,0021,1","99999,9,9,N","999999,9,9,9","+0290,1","+0240,1","99999,9",,,"10080,1,99999,9",,"MET056METAR NCPK 160400Z AUTO 11004KT //// ////// 29/24 Q1008=",
"91812099999","2023-07-16T05:00:00","4","-10.9145","-165.8393","4.57","PUKAPUKA AIRPORT, CW","FM-15","99999","V020","100,1,N,0021,1","99999,9,9,N","999999,9,9,9","+0280,1","+0230,1","99999,9",,,"10080,1,99999,9",,"MET056METAR NCPK 160500Z AUTO 10004KT //// ////// 28/23 Q1008=",
"91812099999","2023-07-16T06:00:00","4","-10.9145","-165.8393","4.57","PUKAPUKA AIRPORT, CW","FM-12","99999","V020","110,1,N,0021,1","99999,9,9,N","999999,9,9,9","+0278,1","+0234,1","10088,1","06,0000,9,1",,"99999,9,10080,1","3,1,008,1,+999,9","SYN05491812 16/// /1104 10278 20234 30080 40088 53008 60001=",
"91812099999","2023-07-16T06:00:00","4","-10.9145","-165.8393","4.57","PUKAPUKA AIRPORT, CW","FM-15","99999","V020","110,1,N,0021,1","99999,9,9,N","999999,9,9,9","+0280,1","+0230,1","99999,9",,,"10080,1,99999,9",,"MET056METAR NCPK 160600Z AUTO 11004KT //// ////// 28/23 Q1008=",
"91812099999","2023-07-16T07:00:00","4","-10.9145","-165.8393","4.57","PUKAPUKA AIRPORT, CW","FM-15","99999","V020","110,1,N,0021,1","99999,9,9,N","999999,9,9,9","+0280,1","+0240,1","99999,9",,,"10090,1,99999,9",,"MET056METAR NCPK 160700Z AUTO 11004KT //// ////// 28/24 Q1009=",
"91812099999","2023-07-16T08:00:00","4","-10.9145","-165.8393","4.57","PUKAPUKA AIRPORT, CW","FM-15","99999","V020","110,1,N,0021,1","99999,9,9,N","999999,9,9,9","+0280,1","+0230,1","99999,9",,,"10100,1,99999,9",,"MET056METAR NCPK 160800Z AUTO 11004KT //// ////// 28/23 Q1010=",
"91812099999","2023-07-16T09:00:00","4","-10.9145","-165.8393","4.57","PUKAPUKA AIRPORT, CW","FM-12","99999","V020","110,1,N,0031,1","99999,9,9,N","999999,9,9,9","+0280,1","+0239,1","10109,1",,,"99999,9,10088,1","2,1,021,1,+999,9","SYN04891812 46/// /1106 10280 20239 30088 40109 52021=",
"91812099999","2023-07-16T09:00:00","4","-10.9145","-165.8393","4.57","PUKAPUKA AIRPORT, CW","FM-15","99999","V020","110,1,N,0031,1","99999,9,9,N","999999,9,9,9","+0280,1","+0240,1","99999,9",,,"10100,1,99999,9",,"MET056METAR NCPK 160900Z AUTO 11006KT //// ////// 28/24 Q1010=",
"91812099999","2023-07-16T10:00:00","4","-10.9145","-165.8393","4.57","PUKAPUKA AIRPORT, CW","FM-15","99999","V020","110,1,N,0021,1","99999,9,9,N","999999,9,9,9","+0280,1","+0240,1","99999,9",,,"10110,1,99999,9",,"MET056METAR NCPK 161000Z AUTO 11004KT //// ////// 28/24 Q1011=",
"91812099999","2023-07-16T11:00:00","4","-10.9145","-165.8393","4.57","PUKAPUKA AIRPORT, CW","FM-15","99999","V020","120,1,N,0026,1","99999,9,9,N","999999,9,9,9","+0280,1","+0230,1","99999,9",,,"10100,1,99999,9",,"MET056METAR NCPK 161100Z AUTO 12005KT //// ////// 28/23 Q1010=",
"91812099999","2023-07-16T12:00:00","4","-10.9145","-165.8393","4.57","PUKAPUKA AIRPORT, CW","FM-12","99999","V020","120,1,N,0031,1","99999,9,9,N","999999,9,9,9","+0276,1","+0239,1","10108,1","06,0000,9,1","240,M,+0319,1","99999,9,10109,1","7,1,001,1,+999,9","SYN06491812 16/// /1206 10276 20239 30109 40108 57001 60001 333 10319=",
"91812099999","2023-07-16T12:00:00","4","-10.9145","-165.8393","4.57","PUKAPUKA AIRPORT, CW","FM-15","99999","V020","120,1,N,0031,1","99999,9,9,N","999999,9,9,9","+0280,1","+0240,1","99999,9",,,"10100,1,99999,9",,"MET056METAR NCPK 161200Z AUTO 12006KT //// ////// 28/24 Q1010=",
"91812099999","2023-07-16T13:00:00","4","-10.9145","-165.8393","4.57","PUKAPUKA AIRPORT, CW","FM-15","99999","V020","120,1,N,0021,1","99999,9,9,N","999999,9,9,9","+0270,1","+0240,1","99999,9",,,"10100,1,99999,9",,"MET056METAR NCPK 161300Z AUTO 12004KT //// ////// 27/24 Q1010=",
"91812099999","2023-07-16T14:00:00","4","-10.9145","-165.8393","4.57","PUKAPUKA AIRPORT, CW","FM-15","99999","V020","120,1,N,0021,1","99999,9,9,N","999999,9,9,9","+0270,1","+0240,1","99999,9",,,"10090,1,99999,9",,"MET056METAR NCPK 161400Z AUTO 12004KT //// ////// 27/24 Q1009=",
"91812099999","2023-07-16T15:00:00","4","-10.9145","-165.8393","4.57","PUKAPUKA AIRPORT, CW","FM-12","99999","V020","090,1,N,0015,1","99999,9,9,N","999999,9,9,9","+0272,1","+0233,1","10092,1",,,"99999,9,10108,1","7,1,016,1,+999,9","SYN04891812 46/// /0903 10272 20233 30108 40092 57016=",
"91812099999","2023-07-16T15:00:00","4","-10.9145","-165.8393","4.57","PUKAPUKA AIRPORT, CW","FM-15","99999","V020","090,1,N,0015,1","99999,9,9,N","999999,9,9,9","+0270,1","+0230,1","99999,9",,,"10090,1,99999,9",,"MET056METAR NCPK 161500Z AUTO 09003KT //// ////// 27/23 Q1009=",
"91812099999","2023-07-16T16:00:00","4","-10.9145","-165.8393","4.57","PUKAPUKA AIRPORT, CW","FM-15","99999","V020","100,1,N,0031,1","99999,9,9,N","999999,9,9,9","+0270,1","+0230,1","99999,9",,,"10090,1,99999,9",,"MET056METAR NCPK 161600Z AUTO 10006KT //// ////// 27/23 Q1009=",
"91812099999","2023-07-16T17:00:00","4","-10.9145","-165.8393","4.57","PUKAPUKA AIRPORT, CW","FM-15","99999","V020","100,1,N,0021,1","99999,9,9,N","999999,9,9,9","+0270,1","+0230,1","99999,9",,,"10090,1,99999,9",,"MET056METAR NCPK 161700Z AUTO 10004KT //// ////// 27/23 Q1009=",
"91812099999","2023-07-16T18:00:00","4","-10.9145","-165.8393","4.57","PUKAPUKA AIRPORT, CW","FM-12","99999","V020","090,1,N,0026,1","99999,9,9,N","999999,9,9,9","+0275,1","+0230,1","10099,1","06,0000,9,1",,"99999,9,10092,1","2,1,007,1,+999,9","SYN05491812 16/// /0905 10275 20230 30092 40099 52007 60001=",
"91812099999","2023-07-16T18:00:00","4","-10.9145","-165.8393","4.57","PUKAPUKA AIRPORT, CW","FM-15","99999","V020","090,1,N,0026,1","99999,9,9,N","999999,9,9,9","+0280,1","+0230,1","99999,9",,,"10090,1,99999,9",,"MET056METAR NCPK 161800Z AUTO 09005KT //// ////// 28/23 Q1009=",
"91812099999","2023-07-16T19:00:00","4","-10.9145","-165.8393","4.57","PUKAPUKA AIRPORT, CW","FM-15","99999","V020","090,1,N,0026,1","99999,9,9,N","999999,9,9,9","+0280,1","+0230,1","99999,9",,,"10090,1,99999,9",,"MET056METAR NCPK 161900Z AUTO 09005KT //// ////// 28/23 Q1009=",
"91812099999","2023-07-16T20:00:00","4","-10.9145","-165.8393","4.57","PUKAPUKA AIRPORT, CW","FM-15","99999","V020","080,1,N,0010,1","99999,9,9,N","999999,9,9,9","+0290,1","+0240,1","99999,9",,,"10110,1,99999,9",,"MET056METAR NCPK 162000Z AUTO 08002KT //// ////// 29/24 Q1011=",
"91812099999","2023-07-16T21:00:00","4","-10.9145","-165.8393","4.57","PUKAPUKA AIRPORT, CW","FM-12","99999","V020","090,1,N,0021,1","99999,9,9,N","999999,9,9,9","+0302,1","+0239,1","10111,1",,,"99999,9,10099,1","1,1,012,1,+999,9","SYN04891812 46/// /0904 10302 20239 30099 40111 51012=",
"91812099999","2023-07-16T21:00:00","4","-10.9145","-165.8393","4.57","PUKAPUKA AIRPORT, CW","FM-15","99999","V020","080,1,N,0021,1","99999,9,9,N","999999,9,9,9","+0300,1","+0240,1","99999,9",,,"10110,1,99999,9",,"MET056METAR NCPK 162100Z AUTO 08004KT //// ////// 30/24 Q1011=",
"91812099999","2023-07-16T22:00:00","4","-10.9145","-165.8393","4.57","PUKAPUKA AIRPORT, CW","FM-15","99999","V020","080,1,N,0021,1","99999,9,9,N","999999,9,9,9","+0300,1","+0240,1","99999,9",,,"10100,1,99999,9",,"MET056METAR NCPK 162200Z AUTO 08004KT //// ////// 30/24 Q1010=",
"91812099999","2023-07-16T23:00:00","4","-10.9145","-165.8393","4.57","PUKAPUKA AIRPORT, CW","FM-15","99999","V020","090,1,N,0021,1","99999,9,9,N","999999,9,9,9","+0300,1","+0240,1","99999,9",,,"10100,1,99999,9",,"MET056METAR NCPK 162300Z AUTO 09004KT //// ////// 30/24 Q1010=",
"91812099999","2023-07-17T00:00:00","4","-10.9145","-165.8393","4.57","PUKAPUKA AIRPORT, CW","FM-12","99999","V020","090,1,N,0021,1","99999,9,9,N","999999,9,9,9","+0308,1","+0242,1","10090,1","06,0000,9,1","120,N,+0303,1","99999,9,10111,1","7,1,021,1,+999,9","SYN07691812 16/// /0904 10308 20242 30111 40090 57021 60001 333 20303 3 333 70000=",
"91812099999","2023-07-17T00:00:00","4","-10.9145","-165.8393","4.57","PUKAPUKA AIRPORT, CW","FM-15","99999","V020","090,1,N,0021,1","99999,9,9,N","999999,9,9,9","+0300,1","+0240,1","99999,9",,,"10100,1,99999,9",,"MET056METAR NCPK 170000Z AUTO 09004KT //// ////// 30/24 Q1010=",
"91812099999","2023-07-17T01:00:00","4","-10.9145","-165.8393","4.57","PUKAPUKA AIRPORT, CW","FM-15","99999","V020","070,1,N,0010,1","99999,9,9,N","999999,9,9,9","+0310,1","+0240,1","99999,9",,,"10080,1,99999,9",,"MET056METAR NCPK 170100Z AUTO 07002KT //// ////// 31/24 Q1008=",
"91812099999","2023-07-17T02:00:00","4","-10.9145","-165.8393","4.57","PUKAPUKA AIRPORT, CW","FM-15","99999","V020","080,1,N,0021,1","99999,9,9,N","999999,9,9,9","+0310,1","+0240,1","99999,9",,,"10070,1,99999,9",,"MET056METAR NCPK 170200Z AUTO 08004KT //// ////// 31/24 Q1007=",
"91812099999","2023-07-17T03:00:00","4","-10.9145","-165.8393","4.57","PUKAPUKA AIRPORT, CW","FM-12","99999","V020","060,1,N,0021,1","99999,9,9,N","999999,9,9,9","+0299,1","+0235,1","99999,9",,,,,"SYN04791812 46/// /0604 10299 20235 3086 40068 57018=",
"91812099999","2023-07-17T03:00:00","4","-10.9145","-165.8393","4.57","PUKAPUKA AIRPORT, CW","FM-15","99999","V020","060,1,N,0021,1","99999,9,9,N","999999,9,9,9","+0300,1","+0240,1","99999,9",,,"10060,1,99999,9",,"MET056METAR NCPK 170300Z AUTO 06004KT //// ////// 30/24 Q1006=",
"91812099999","2023-07-17T04:00:00","4","-10.9145","-165.8393","4.57","PUKAPUKA AIRPORT, CW","FM-15","99999","V020","090,1,N,0021,1","99999,9,9,N","999999,9,9,9","+0290,1","+0230,1","99999,9",,,"10060,1,99999,9",,"MET056METAR NCPK 170400Z AUTO 09004KT //// ////// 29/23 Q1006=",
"91812099999","2023-07-17T05:00:00","4","-10.9145","-165.8393","4.57","PUKAPUKA AIRPORT, CW","FM-15","99999","V020","090,1,N,0026,1","99999,9,9,N","999999,9,9,9","+0280,1","+0230,1","99999,9",,,"10070,1,99999,9",,"MET056METAR NCPK 170500Z AUTO 09005KT //// ////// 28/23 Q1007=",
"91812099999","2023-07-17T06:00:00","4","-10.9145","-165.8393","4.57","PUKAPUKA AIRPORT, CW","FM-12","99999","V020","090,1,N,0021,1","99999,9,9,N","999999,9,9,9","+0280,1","+0230,1","10078,1","06,0000,9,1",,"99999,9,10068,1","3,1,010,1,+999,9","SYN05491812 16/// /0904 10280 20230 30068 40078 53010 60001=",
"91812099999","2023-07-17T06:00:00","4","-10.9145","-165.8393","4.57","PUKAPUKA AIRPORT, CW","FM-15","99999","V020","090,1,N,0021,1","99999,9,9,N","999999,9,9,9","+0280,1","+0230,1","99999,9",,,"10070,1,99999,9",,"MET056METAR NCPK 170600Z AUTO 09004KT //// ////// 28/23 Q1007=",
"91812099999","2023-07-17T07:00:00","4","-10.9145","-165.8393","4.57","PUKAPUKA AIRPORT, CW","FM-15","99999","V020","080,1,N,0021,1","99999,9,9,N","999999,9,9,9","+0280,1","+0230,1","99999,9",,,"10080,1,99999,9",,"MET056METAR NCPK 170700Z AUTO 08004KT //// ////// 28/23 Q1008=",
"91812099999","2023-07-17T08:00:00","4","-10.9145","-165.8393","4.57","PUKAPUKA AIRPORT, CW","FM-15","99999","V020","080,1,N,0021,1","99999,9,9,N","999999,9,9,9","+0280,1","+0230,1","99999,9",,,"10090,1,99999,9",,"MET056METAR NCPK 170800Z AUTO 08004KT //// ////// 28/23 Q1009=",
"91812099999","2023-07-17T09:00:00","4","-10.9145","-165.8393","4.57","PUKAPUKA AIRPORT, CW","FM-12","99999","V020","080,1,N,0026,1","99999,9,9,N","999999,9,9,9","+0280,1","+0228,1","10094,1",,,"99999,9,10078,1","1,1,016,1,+999,9","SYN04891812 46/// /0805 10280 20228 30078 40094 51016=",
"91812099999","2023-07-17T09:00:00","4","-10.9145","-165.8393","4.57","PUKAPUKA AIRPORT, CW","FM-15","99999","V020","080,1,N,0026,1","99999,9,9,N","999999,9,9,9","+0280,1","+0230,1","99999,9",,,"10090,1,99999,9",,"MET056METAR NCPK 170900Z AUTO 08005KT //// ////// 28/23 Q1009=",
"91812099999","2023-07-17T10:00:00","4","-10.9145","-165.8393","4.57","PUKAPUKA AIRPORT, CW","FM-15","99999","V020","080,1,N,0021,1","99999,9,9,N","999999,9,9,9","+0280,1","+0230,1","99999,9",,,"10090,1,99999,9",,"MET056METAR NCPK 171000Z AUTO 08004KT //// ////// 28/23 Q1009=",
"91812099999","2023-07-17T11:00:00","4","-10.9145","-165.8393","4.57","PUKAPUKA AIRPORT, CW","FM-15","99999","V020","090,1,N,0021,1","99999,9,9,N","999999,9,9,9","+0280,1","+0230,1","99999,9",,,"10090,1,99999,9",,"MET056METAR NCPK 171100Z AUTO 09004KT //// ////// 28/23 Q1009=",
"91812099999","2023-07-17T12:00:00","4","-10.9145","-165.8393","4.57","PUKAPUKA AIRPORT, CW","FM-12","99999","V020","070,1,N,0021,1","99999,9,9,N","999999,9,9,9","+0277,1","+0230,1","10083,1","06,0000,9,1","240,M,+0309,1","99999,9,10094,1","8,1,011,1,+999,9","SYN06491812 16/// /0704 10277 20230 30094 40083 58011 60001 333 10309=",
"91812099999","2023-07-17T12:00:00","4","-10.9145","-165.8393","4.57","PUKAPUKA AIRPORT, CW","FM-15","99999","V020","070,1,N,0021,1","99999,9,9,N","999999,9,9,9","+0280,1","+0230,1","99999,9",,,"10080,1,99999,9",,"MET056METAR NCPK 171200Z AUTO 07004KT //// ////// 28/23 Q1008=",
"91812099999","2023-07-17T13:00:00","4","-10.9145","-165.8393","4.57","PUKAPUKA AIRPORT, CW","FM-15","99999","V020","070,1,N,0015,1","99999,9,9,N","999999,9,9,9","+0280,1","+0230,1","99999,9",,,"10070,1,99999,9",,"MET056METAR NCPK 171300Z AUTO 07003KT //// ////// 28/23 Q1007=",
"91812099999","2023-07-17T14:00:00","4","-10.9145","-165.8393","4.57","PUKAPUKA AIRPORT, CW","FM-15","99999","V020","090,1,N,0015,1","99999,9,9,N","999999,9,9,9","+0280,1","+0240,1","99999,9",,,"10070,1,99999,9",,"MET056METAR NCPK 171400Z AUTO 09003KT //// ////// 28/24 Q1007=",
"91812099999","2023-07-17T15:00:00","4","-10.9145","-165.8393","4.57","PUKAPUKA AIRPORT, CW","FM-12","99999","V020","070,1,N,0015,1","99999,9,9,N","999999,9,9,9","+0272,1","+0229,1","10072,1",,,"99999,9,10083,1","6,1,011,1,+999,9","SYN04891812 46/// /0703 10272 20229 30083 40072 56011=",
"91812099999","2023-07-17T15:00:00","4","-10.9145","-165.8393","4.57","PUKAPUKA AIRPORT, CW","FM-15","99999","V020","070,1,N,0015,1","99999,9,9,N","999999,9,9,9","+0270,1","+0230,1","99999,9",,,"10070,1,99999,9",,"MET056METAR NCPK 171500Z AUTO 07003KT //// ////// 27/23 Q1007=",
"91812099999","2023-07-17T16:00:00","4","-10.9145","-165.8393","4.57","PUKAPUKA AIRPORT, CW","FM-15","99999","V020","090,1,N,0015,1","99999,9,9,N","999999,9,9,9","+0270,1","+0230,1","99999,9",,,"10070,1,99999,9",,"MET056METAR NCPK 171600Z AUTO 09003KT //// ////// 27/23 Q1007=",
"91812099999","2023-07-17T17:00:00","4","-10.9145","-165.8393","4.57","PUKAPUKA AIRPORT, CW","FM-15","99999","V020","080,1,N,0015,1","99999,9,9,N","999999,9,9,9","+0270,1","+0230,1","99999,9",,,"10070,1,99999,9",,"MET056METAR NCPK 171700Z AUTO 08003KT //// ////// 27/23 Q1007=",
"91812099999","2023-07-17T18:00:00","4","-10.9145","-165.8393","4.57","PUKAPUKA AIRPORT, CW","FM-12","99999","V020","080,1,N,0021,1","99999,9,9,N","999999,9,9,9","+0273,1","+0228,1","10080,1","06,0000,9,1",,"99999,9,10072,1","3,1,008,1,+999,9","SYN05491812 16/// /0804 10273 20228 30072 40080 53008 60001=",
"91812099999","2023-07-17T18:00:00","4","-10.9145","-165.8393","4.57","PUKAPUKA AIRPORT, CW","FM-15","99999","V020","080,1,N,0021,1","99999,9,9,N","999999,9,9,9","+0270,1","+0230,1","99999,9",,,"10080,1,99999,9",,"MET056METAR NCPK 171800Z AUTO 08004KT //// ////// 27/23 Q1008=",
"91812099999","2023-07-17T19:00:00","4","-10.9145","-165.8393","4.57","PUKAPUKA AIRPORT, CW","FM-15","99999","V020","080,1,N,0015,1","99999,9,9,N","999999,9,9,9","+0280,1","+0230,1","99999,9",,,"10080,1,99999,9",,"MET056METAR NCPK 171900Z AUTO 08003KT //// ////// 28/23 Q1008=",
"91812099999","2023-07-17T20:00:00","4","-10.9145","-165.8393","4.57","PUKAPUKA AIRPORT, CW","FM-15","99999","V020","070,1,N,0021,1","99999,9,9,N","999999,9,9,9","+0300,1","+0240,1","99999,9",,,"10090,1,99999,9",,"MET056METAR NCPK 172000Z AUTO 07004KT //// ////// 30/24 Q1009=",
"91812099999","2023-07-17T21:00:00","4","-10.9145","-165.8393","4.57","PUKAPUKA AIRPORT, CW","FM-12","99999","V020","060,1,N,0057,1","99999,9,9,N","999999,9,9,9","+0295,1","+0243,1","10094,1",,,"99999,9,10080,1","3,1,014,1,+999,9","SYN04891812 46/// /0611 10295 20243 30080 40094 53014=",
"91812099999","2023-07-17T21:00:00","4","-10.9145","-165.8393","4.57","PUKAPUKA AIRPORT, CW","FM-15","99999","V020","060,1,N,0021,1","99999,9,9,N","999999,9,9,9","+0300,1","+0240,1","99999,9",,,"10090,1,99999,9",,"MET056METAR NCPK 172100Z AUTO 06004KT //// ////// 30/24 Q1009=",
"91812099999","2023-07-17T22:00:00","4","-10.9145","-165.8393","4.57","PUKAPUKA AIRPORT, CW","FM-15","99999","V020","090,1,N,0021,1","99999,9,9,N","999999,9,9,9","+0300,1","+0250,1","99999,9",,,"10090,1,99999,9",,"MET056METAR NCPK 172200Z AUTO 09004KT //// ////// 30/25 Q1009=",
"91812099999","2023-07-17T23:00:00","4","-10.9145","-165.8393","4.57","PUKAPUKA AIRPORT, CW","FM-15","99999","V020","080,1,N,0021,1","99999,9,9,N","999999,9,9,9","+0310,1","+0250,1","99999,9",,,"10080,1,99999,9",,"MET056METAR NCPK 172300Z AUTO 08004KT //// ////// 31/25 Q1008=",
"91812099999","2023-07-18T00:00:00","4","-10.9145","-165.8393","4.57","PUKAPUKA AIRPORT, CW","FM-12","99999","V020","080,1,N,0021,1","99999,9,9,N","999999,9,9,9","+0306,1","+0249,1","10079,1","06,0000,9,1","120,N,+0265,1","99999,9,10094,1","8,1,015,1,+999,9","SYN07691812 16/// /0804 10306 20249 30094 40079 58015 60001 333 20265 3 333 70000=",
"91812099999","2023-07-18T00:00:00","4","-10.9145","-165.8393","4.57","PUKAPUKA AIRPORT, CW","FM-15","99999","V020","080,1,N,0021,1","99999,9,9,N","999999,9,9,9","+0310,1","+0250,1","99999,9",,,"10070,1,99999,9",,"MET056METAR NCPK 180000Z AUTO 08004KT //// ////// 31/25 Q1007=",
"91812099999","2023-07-18T01:00:00","4","-10.9145","-165.8393","4.57","PUKAPUKA AIRPORT, CW","FM-15","99999","V020","090,1,N,0021,1","99999,9,9,N","999999,9,9,9","+0310,1","+0250,1","99999,9",,,"10070,1,99999,9",,"MET056METAR NCPK 180100Z AUTO 09004KT //// ////// 31/25 Q1007=",
"91812099999","2023-07-18T02:00:00","4","-10.9145","-165.8393","4.57","PUKAPUKA AIRPORT, CW","FM-15","99999","V020","070,1,N,0010,1","99999,9,9,N","999999,9,9,9","+0310,1","+0250,1","99999,9",,,"10060,1,99999,9",,"MET056METAR NCPK 180200Z AUTO 07002KT //// ////// 31/25 Q1006=",
"91812099999","2023-07-18T03:00:00","4","-10.9145","-165.8393","4.57","PUKAPUKA AIRPORT, CW","FM-12","99999","V020","070,1,N,0010,1","99999,9,9,N","999999,9,9,9","+0306,1","+0248,1","10065,1",,,"99999,9,10079,1","5,1,014,1,+999,9","SYN04891812 46/// /0702 10306 20248 30079 40065 55014=",
"91812099999","2023-07-18T03:00:00","4","-10.9145","-165.8393","4.57","PUKAPUKA AIRPORT, CW","FM-15","99999","V020","070,1,N,0015,1","99999,9,9,N","999999,9,9,9","+0310,1","+0250,1","99999,9",,,"10060,1,99999,9",,"MET056METAR NCPK 180300Z AUTO 07003KT //// ////// 31/25 Q1006=",
"91812099999","2023-07-18T04:00:00","4","-10.9145","-165.8393","4.57","PUKAPUKA AIRPORT, CW","FM-15","99999","V020","060,1,N,0021,1","99999,9,9,N","999999,9,9,9","+0290,1","+0250,1","99999,9",,,"10060,1,99999,9",,"MET056METAR NCPK 180400Z AUTO 06004KT //// ////// 29/25 Q1006=",
"91812099999","2023-07-18T05:00:00","4","-10.9145","-165.8393","4.57","PUKAPUKA AIRPORT, CW","FM-15","99999","V020","060,1,N,0010,1","99999,9,9,N","999999,9,9,9","+0280,1","+0240,1","99999,9",,,"10070,1,99999,9",,"MET056METAR NCPK 180500Z AUTO 06002KT //// ////// 28/24 Q1007=",
"91812099999","2023-07-18T06:00:00","4","-10.9145","-165.8393","4.57","PUKAPUKA AIRPORT, CW","FM-12","99999","V020","060,1,N,0010,1","99999,9,9,N","999999,9,9,9","+0276,1","+0244,1","10079,1","06,0000,9,1",,"99999,9,10065,1","2,1,014,1,+999,9","SYN05491812 16/// /0602 10276 20244 30065 40079 52014 60001=",
"91812099999","2023-07-18T06:00:00","4","-10.9145","-165.8393","4.57","PUKAPUKA AIRPORT, CW","FM-15","99999","V020","060,1,N,0010,1","99999,9,9,N","999999,9,9,9","+0280,1","+0240,1","99999,9",,,"10070,1,99999,9",,"MET056METAR NCPK 180600Z AUTO 06002KT //// ////// 28/24 Q1007=",
"91812099999","2023-07-18T07:00:00","4","-10.9145","-165.8393","4.57","PUKAPUKA AIRPORT, CW","FM-15","99999","V020","060,1,N,0010,1","99999,9,9,N","999999,9,9,9","+0270,1","+0250,1","99999,9",,,"10080,1,99999,9",,"MET056METAR NCPK 180700Z AUTO 06002KT //// ////// 27/25 Q1008=",
"91812099999","2023-07-18T08:00:00","4","-10.9145","-165.8393","4.57","PUKAPUKA AIRPORT, CW","FM-15","99999","V020","080,1,N,0005,1","99999,9,9,N","999999,9,9,9","+0270,1","+0240,1","99999,9",,,"10090,1,99999,9",,"MET056METAR NCPK 180800Z AUTO 08001KT //// ////// 27/24 Q1009=",
"91812099999","2023-07-18T09:00:00","4","-10.9145","-165.8393","4.57","PUKAPUKA AIRPORT, CW","FM-12","99999","V020","080,1,N,0005,1","99999,9,9,N","999999,9,9,9","+0259,1","+0244,1","10097,1",,,"99999,9,10079,1","9,9,018,1,+999,9","SYN04891812 46/// /0801 10259 20244 30079 40097 50018=",
"91812099999","2023-07-18T09:00:00","4","-10.9145","-165.8393","4.57","PUKAPUKA AIRPORT, CW","FM-15","99999","V020","090,1,N,0005,1","99999,9,9,N","999999,9,9,9","+0260,1","+0240,1","99999,9",,,"10090,1,99999,9",,"MET056METAR NCPK 180900Z AUTO 09001KT //// ////// 26/24 Q1009=",
"91812099999","2023-07-18T10:00:00","4","-10.9145","-165.8393","4.57","PUKAPUKA AIRPORT, CW","FM-15","99999","V020","130,1,N,0005,1","99999,9,9,N","999999,9,9,9","+0260,1","+0240,1","99999,9",,,"10090,1,99999,9",,"MET056METAR NCPK 181000Z AUTO 13001KT //// ////// 26/24 Q1009=",
"91812099999","2023-07-18T11:00:00","4","-10.9145","-165.8393","4.57","PUKAPUKA AIRPORT, CW","FM-15","99999","V020","130,1,N,0005,1","99999,9,9,N","999999,9,9,9","+0260,1","+0240,1","99999,9",,,"10090,1,99999,9",,"MET056METAR NCPK 181100Z AUTO 13001KT //// ////// 26/24 Q1009=",
